<?xml version="1.0" encoding="UTF-8"?>
<gpx version="1.1" creator="klompenpaden.nl via Jimbo API" xmlns="http://www.topografix.com/GPX/1/1">
<metadata><name>Aalderpad</name><desc>Ontdek het mooie buitengebied van Bruchem, Delwijnen en Kerkwijk en wandel over een oude stroomrug, komgronden en een natuurgebied. Klompen aan, rugzak op en gaan!</desc><link href="https://www.klompenpaden.nl/klompenpaden/Aalderpad/0cf26088-5c63-44f6-82e2-41518271f89e"><text>klompenpaden.nl</text></link></metadata>
<wpt lat="51.775385086735334" lon="5.2206382155418405"><name>Start Kerkwijk</name></wpt>
<trk><name>Aalderpad - Hoofdroute</name><type>mainRoute</type><trkseg>
<trkpt lat="51.7738624" lon="5.2138954"/>
<trkpt lat="51.7739426" lon="5.2136133"/>
<trkpt lat="51.7740028" lon="5.2133313"/>
<trkpt lat="51.7740762" lon="5.2128319"/>
<trkpt lat="51.7744370" lon="5.2117219"/>
<trkpt lat="51.7745509" lon="5.2115236"/>
<trkpt lat="51.7746841" lon="5.2114239"/>
<trkpt lat="51.7748475" lon="5.2113752"/>
<trkpt lat="51.7747513" lon="5.2091260"/>
<trkpt lat="51.7747378" lon="5.2077552"/>
<trkpt lat="51.7747476" lon="5.2071329"/>
<trkpt lat="51.7747438" lon="5.2067805"/>
<trkpt lat="51.7747288" lon="5.2065016"/>
<trkpt lat="51.7719037" lon="5.2076031"/>
<trkpt lat="51.7718163" lon="5.2064190"/>
<trkpt lat="51.7717770" lon="5.2059534"/>
<trkpt lat="51.7717776" lon="5.2057022"/>
<trkpt lat="51.7717873" lon="5.2054942"/>
<trkpt lat="51.7718106" lon="5.2048857"/>
<trkpt lat="51.7717918" lon="5.2044761"/>
<trkpt lat="51.7717353" lon="5.2042118"/>
<trkpt lat="51.7716994" lon="5.2040188"/>
<trkpt lat="51.7716182" lon="5.2038001"/>
<trkpt lat="51.7713754" lon="5.2031566"/>
<trkpt lat="51.7711983" lon="5.2026680"/>
<trkpt lat="51.7705196" lon="5.2005196"/>
<trkpt lat="51.7733056" lon="5.1985981"/>
<trkpt lat="51.7733887" lon="5.1985076"/>
<trkpt lat="51.7733662" lon="5.1984360"/>
<trkpt lat="51.7725301" lon="5.1958496"/>
<trkpt lat="51.7768076" lon="5.1921488"/>
<trkpt lat="51.7758113" lon="5.1810844"/>
<trkpt lat="51.7792904" lon="5.1780227"/>
<trkpt lat="51.7796312" lon="5.1795699"/>
<trkpt lat="51.7795901" lon="5.1810780"/>
<trkpt lat="51.7796524" lon="5.1816434"/>
<trkpt lat="51.7797235" lon="5.1826842"/>
<trkpt lat="51.7797763" lon="5.1833602"/>
<trkpt lat="51.7798368" lon="5.1851504"/>
<trkpt lat="51.7799053" lon="5.1869415"/>
<trkpt lat="51.7799282" lon="5.1873766"/>
<trkpt lat="51.7799784" lon="5.1876111"/>
<trkpt lat="51.7801352" lon="5.1878736"/>
<trkpt lat="51.7802261" lon="5.1880118"/>
<trkpt lat="51.7802856" lon="5.1882780"/>
<trkpt lat="51.7803655" lon="5.1883643"/>
<trkpt lat="51.7804561" lon="5.1882864"/>
<trkpt lat="51.7805643" lon="5.1882796"/>
<trkpt lat="51.7806209" lon="5.1884111"/>
<trkpt lat="51.7806305" lon="5.1885609"/>
<trkpt lat="51.7807105" lon="5.1885909"/>
<trkpt lat="51.7811309" lon="5.1886201"/>
<trkpt lat="51.7815176" lon="5.1885197"/>
<trkpt lat="51.7820543" lon="5.1885898"/>
<trkpt lat="51.7820904" lon="5.1889144"/>
<trkpt lat="51.7822689" lon="5.1890056"/>
<trkpt lat="51.7826326" lon="5.1889235"/>
<trkpt lat="51.7834455" lon="5.1886554"/>
<trkpt lat="51.7835527" lon="5.1887469"/>
<trkpt lat="51.7844569" lon="5.1927415"/>
<trkpt lat="51.7873210" lon="5.1946434"/>
<trkpt lat="51.7874994" lon="5.1946772"/>
<trkpt lat="51.7878708" lon="5.1966428"/>
<trkpt lat="51.7877756" lon="5.1971992"/>
<trkpt lat="51.7875540" lon="5.1977470"/>
<trkpt lat="51.7872263" lon="5.1983783"/>
<trkpt lat="51.7869430" lon="5.1990706"/>
<trkpt lat="51.7867542" lon="5.1997421"/>
<trkpt lat="51.7872948" lon="5.2069092"/>
<trkpt lat="51.7871018" lon="5.2075936"/>
<trkpt lat="51.7873331" lon="5.2091847"/>
<trkpt lat="51.7873836" lon="5.2093204"/>
<trkpt lat="51.7874983" lon="5.2095226"/>
<trkpt lat="51.7877024" lon="5.2113045"/>
<trkpt lat="51.7877173" lon="5.2116956"/>
<trkpt lat="51.7876960" lon="5.2117762"/>
<trkpt lat="51.7884457" lon="5.2210297"/>
<trkpt lat="51.7873436" lon="5.2236682"/>
<trkpt lat="51.7880298" lon="5.2245745"/>
<trkpt lat="51.7886534" lon="5.2266891"/>
<trkpt lat="51.7889176" lon="5.2268492"/>
<trkpt lat="51.7893297" lon="5.2308697"/>
<trkpt lat="51.7888119" lon="5.2310395"/>
<trkpt lat="51.7874022" lon="5.2299975"/>
<trkpt lat="51.7866666" lon="5.2294686"/>
<trkpt lat="51.7857864" lon="5.2285813"/>
<trkpt lat="51.7853879" lon="5.2282767"/>
<trkpt lat="51.7849435" lon="5.2277882"/>
<trkpt lat="51.7847017" lon="5.2273450"/>
<trkpt lat="51.7843885" lon="5.2268055"/>
<trkpt lat="51.7836967" lon="5.2259314"/>
<trkpt lat="51.7833593" lon="5.2254909"/>
<trkpt lat="51.7831989" lon="5.2250198"/>
<trkpt lat="51.7830783" lon="5.2245498"/>
<trkpt lat="51.7829955" lon="5.2246389"/>
<trkpt lat="51.7831436" lon="5.2250493"/>
<trkpt lat="51.7817373" lon="5.2272556"/>
<trkpt lat="51.7811286" lon="5.2262957"/>
<trkpt lat="51.7805820" lon="5.2254267"/>
<trkpt lat="51.7797779" lon="5.2241078"/>
<trkpt lat="51.7805652" lon="5.2230499"/>
<trkpt lat="51.7816376" lon="5.2213859"/>
<trkpt lat="51.7817417" lon="5.2211240"/>
<trkpt lat="51.7808408" lon="5.2199507"/>
<trkpt lat="51.7798352" lon="5.2186321"/>
<trkpt lat="51.7793621" lon="5.2180748"/>
<trkpt lat="51.7793164" lon="5.2181918"/>
<trkpt lat="51.7791816" lon="5.2180727"/>
<trkpt lat="51.7787599" lon="5.2190663"/>
<trkpt lat="51.7782955" lon="5.2200945"/>
<trkpt lat="51.7776518" lon="5.2214834"/>
<trkpt lat="51.7776176" lon="5.2215330"/>
<trkpt lat="51.7773630" lon="5.2211256"/>
<trkpt lat="51.7772848" lon="5.2210477"/>
<trkpt lat="51.7767739" lon="5.2208761"/>
<trkpt lat="51.7763850" lon="5.2219461"/>
<trkpt lat="51.7761699" lon="5.2223506"/>
<trkpt lat="51.7760303" lon="5.2221288"/>
<trkpt lat="51.7758843" lon="5.2218234"/>
<trkpt lat="51.7754857" lon="5.2204655"/>
<trkpt lat="51.7751272" lon="5.2207233"/>
<trkpt lat="51.7747629" lon="5.2209443"/>
<trkpt lat="51.7745062" lon="5.2210027"/>
<trkpt lat="51.7743667" lon="5.2199981"/>
<trkpt lat="51.7742158" lon="5.2190027"/>
<trkpt lat="51.7740161" lon="5.2178326"/>
<trkpt lat="51.7738501" lon="5.2168891"/>
<trkpt lat="51.7737765" lon="5.2166352"/>
<trkpt lat="51.7736434" lon="5.2164103"/>
<trkpt lat="51.7734877" lon="5.2162637"/>
<trkpt lat="51.7731875" lon="5.2159060"/>
<trkpt lat="51.7730899" lon="5.2155142"/>
<trkpt lat="51.7730038" lon="5.2151637"/>
<trkpt lat="51.7729531" lon="5.2146510"/>
<trkpt lat="51.7729338" lon="5.2141474"/>
<trkpt lat="51.7733419" lon="5.2141171"/>
<trkpt lat="51.7735401" lon="5.2140605"/>
<trkpt lat="51.7738412" lon="5.2140404"/>
<trkpt lat="51.7738623" lon="5.2138793"/>
</trkseg></trk>
<trk><name>Aalderpad - Routverkorter</name><type>shorteningRoute</type><trkseg>
<trkpt lat="51.7843936" lon="5.1926642"/>
<trkpt lat="51.7827902" lon="5.2005211"/>
<trkpt lat="51.7753064" lon="5.2114219"/>
<trkpt lat="51.7751725" lon="5.2115305"/>
<trkpt lat="51.7749023" lon="5.2114845"/>
<trkpt lat="51.7748475" lon="5.2113752"/>
</trkseg></trk>
<trk><name>Aalderpad - Routverlenger</name><type>extensionRoute</type><trkseg>
<trkpt lat="51.7893297" lon="5.2308697"/>
<trkpt lat="51.7894626" lon="5.2317882"/>
<trkpt lat="51.7895400" lon="5.2330272"/>
<trkpt lat="51.7895647" lon="5.2337174"/>
<trkpt lat="51.7895462" lon="5.2341929"/>
<trkpt lat="51.7894756" lon="5.2347186"/>
<trkpt lat="51.7893238" lon="5.2350642"/>
<trkpt lat="51.7889727" lon="5.2356943"/>
<trkpt lat="51.7884151" lon="5.2366855"/>
<trkpt lat="51.7881824" lon="5.2369854"/>
<trkpt lat="51.7879021" lon="5.2372241"/>
<trkpt lat="51.7872531" lon="5.2379199"/>
<trkpt lat="51.7875703" lon="5.2382781"/>
<trkpt lat="51.7879159" lon="5.2387580"/>
<trkpt lat="51.7883540" lon="5.2391669"/>
<trkpt lat="51.7882191" lon="5.2397003"/>
<trkpt lat="51.7879065" lon="5.2407176"/>
<trkpt lat="51.7877051" lon="5.2413279"/>
<trkpt lat="51.7875580" lon="5.2416237"/>
<trkpt lat="51.7873707" lon="5.2420998"/>
<trkpt lat="51.7872073" lon="5.2426372"/>
<trkpt lat="51.7870645" lon="5.2425724"/>
<trkpt lat="51.7860525" lon="5.2415557"/>
<trkpt lat="51.7854669" lon="5.2411051"/>
<trkpt lat="51.7850480" lon="5.2408265"/>
<trkpt lat="51.7845171" lon="5.2403336"/>
<trkpt lat="51.7841529" lon="5.2400817"/>
<trkpt lat="51.7838816" lon="5.2398947"/>
<trkpt lat="51.7837338" lon="5.2396153"/>
<trkpt lat="51.7836785" lon="5.2391975"/>
<trkpt lat="51.7837920" lon="5.2386373"/>
<trkpt lat="51.7840880" lon="5.2376356"/>
<trkpt lat="51.7837474" lon="5.2372686"/>
<trkpt lat="51.7827113" lon="5.2360182"/>
<trkpt lat="51.7816313" lon="5.2357458"/>
<trkpt lat="51.7816868" lon="5.2345646"/>
<trkpt lat="51.7819610" lon="5.2332601"/>
<trkpt lat="51.7823877" lon="5.2322157"/>
<trkpt lat="51.7824059" lon="5.2316022"/>
<trkpt lat="51.7821195" lon="5.2308670"/>
<trkpt lat="51.7821937" lon="5.2294250"/>
<trkpt lat="51.7830682" lon="5.2295777"/>
<trkpt lat="51.7845459" lon="5.2301641"/>
<trkpt lat="51.7849898" lon="5.2301949"/>
<trkpt lat="51.7853811" lon="5.2298894"/>
<trkpt lat="51.7856019" lon="5.2284143"/>
</trkseg></trk>
<trk><name>Aalderpad - Alternatieve route</name><type>alternativeRoute</type><trkseg>
<trkpt lat="51.7725409" lon="5.1957846"/>
<trkpt lat="51.7722325" lon="5.1947854"/>
<trkpt lat="51.7716864" lon="5.1924417"/>
<trkpt lat="51.7707924" lon="5.1886046"/>
<trkpt lat="51.7707207" lon="5.1883979"/>
<trkpt lat="51.7706777" lon="5.1882601"/>
<trkpt lat="51.7706132" lon="5.1881109"/>
<trkpt lat="51.7706487" lon="5.1879957"/>
<trkpt lat="51.7711544" lon="5.1874875"/>
<trkpt lat="51.7713537" lon="5.1872221"/>
<trkpt lat="51.7716384" lon="5.1868299"/>
<trkpt lat="51.7720795" lon="5.1861149"/>
<trkpt lat="51.7726700" lon="5.1851232"/>
<trkpt lat="51.7742477" lon="5.1824066"/>
<trkpt lat="51.7743147" lon="5.1823235"/>
<trkpt lat="51.7757894" lon="5.1810977"/>
</trkseg></trk>
<trk><name>Aalderpad - Alternatieve route ganzen</name><type>alternativeRoute</type><trkseg>
<trkpt lat="51.7830785" lon="5.2245496"/>
<trkpt lat="51.7830526" lon="5.2241841"/>
<trkpt lat="51.7830008" lon="5.2234520"/>
<trkpt lat="51.7829258" lon="5.2230445"/>
<trkpt lat="51.7828559" lon="5.2227954"/>
<trkpt lat="51.7826579" lon="5.2222960"/>
<trkpt lat="51.7825816" lon="5.2221696"/>
<trkpt lat="51.7824546" lon="5.2220408"/>
<trkpt lat="51.7817258" lon="5.2211607"/>
</trkseg></trk>
<trk><name>Aalderpad - Overstaproute</name><type>connectionRoute</type><trkseg>
<trkpt lat="51.7874994" lon="5.1946772"/>
<trkpt lat="51.7876499" lon="5.1946447"/>
<trkpt lat="51.7877655" lon="5.1946035"/>
</trkseg></trk>
<trk><name>Aalderpad - Overstaproute</name><type>connectionRoute</type><trkseg>
<trkpt lat="51.7760907" lon="5.1808385"/>
<trkpt lat="51.7758157" lon="5.1795329"/>
<trkpt lat="51.7755441" lon="5.1782677"/>
<trkpt lat="51.7754761" lon="5.1778940"/>
<trkpt lat="51.7754064" lon="5.1765675"/>
<trkpt lat="51.7753522" lon="5.1756028"/>
<trkpt lat="51.7754515" lon="5.1754542"/>
</trkseg></trk>
</gpx>