<?xml version="1.0" encoding="UTF-8"?>
<gpx version="1.1" creator="klompenpaden.nl via Jimbo API" xmlns="http://www.topografix.com/GPX/1/1">
<metadata><name>Achterwooldsepad</name><desc>Ontdek het coulisselandschap van Woold. Ervaar het verschil tussen organisch gegroeid contrastrijk hoevenlandschap in de verlenger en het gevarieerd ontginningslandschap met meetkundige patronen voor bos en veld. Klompen aan, rugzak op en gaan!
</desc><link href="https://www.klompenpaden.nl/klompenpaden/Achterwooldsepad/70c53acc-6028-43d3-9119-fe7818f742ce"><text>klompenpaden.nl</text></link></metadata>
<wpt lat="51.921508489858226" lon="6.719663143157958"><name>Start Winterswijk-Woold</name></wpt>
<trk><name>Achterwooldsepad - Geimporteerde shapefile</name><type>mainRoute</type><trkseg>
<trkpt lat="51.9226667" lon="6.7126897"/>
<trkpt lat="51.9224873" lon="6.7151001"/>
<trkpt lat="51.9215079" lon="6.7150558"/>
<trkpt lat="51.9220447" lon="6.7180566"/>
<trkpt lat="51.9220420" lon="6.7183027"/>
<trkpt lat="51.9217118" lon="6.7188930"/>
<trkpt lat="51.9216962" lon="6.7194311"/>
<trkpt lat="51.9214084" lon="6.7196379"/>
<trkpt lat="51.9203790" lon="6.7198074"/>
<trkpt lat="51.9196300" lon="6.7187390"/>
<trkpt lat="51.9193069" lon="6.7187140"/>
<trkpt lat="51.9188863" lon="6.7188862"/>
<trkpt lat="51.9182075" lon="6.7200199"/>
<trkpt lat="51.9181908" lon="6.7206502"/>
<trkpt lat="51.9179643" lon="6.7204897"/>
<trkpt lat="51.9174793" lon="6.7204753"/>
<trkpt lat="51.9169182" lon="6.7204586"/>
<trkpt lat="51.9161743" lon="6.7206212"/>
<trkpt lat="51.9143039" lon="6.7194426"/>
<trkpt lat="51.9116516" lon="6.7234559"/>
<trkpt lat="51.9102289" lon="6.7255825"/>
<trkpt lat="51.9097449" lon="6.7263064"/>
<trkpt lat="51.9086853" lon="6.7274593"/>
<trkpt lat="51.9085595" lon="6.7276401"/>
<trkpt lat="51.9074869" lon="6.7332531"/>
<trkpt lat="51.9073046" lon="6.7342167"/>
<trkpt lat="51.9027277" lon="6.7351100"/>
<trkpt lat="51.9021557" lon="6.7352159"/>
<trkpt lat="51.9016169" lon="6.7282635"/>
<trkpt lat="51.9009530" lon="6.7197236"/>
<trkpt lat="51.9044960" lon="6.7185367"/>
<trkpt lat="51.9062152" lon="6.7179416"/>
<trkpt lat="51.9057095" lon="6.7155580"/>
<trkpt lat="51.9055071" lon="6.7157827"/>
<trkpt lat="51.9023470" lon="6.7167659"/>
<trkpt lat="51.9018393" lon="6.7162279"/>
<trkpt lat="51.9013987" lon="6.7139695"/>
<trkpt lat="51.9027994" lon="6.7129343"/>
<trkpt lat="51.9023353" lon="6.7110596"/>
<trkpt lat="51.9040861" lon="6.7076506"/>
<trkpt lat="51.9067878" lon="6.7076685"/>
<trkpt lat="51.9079097" lon="6.7077322"/>
<trkpt lat="51.9109412" lon="6.7080367"/>
<trkpt lat="51.9107183" lon="6.7143062"/>
<trkpt lat="51.9091422" lon="6.7165516"/>
<trkpt lat="51.9091662" lon="6.7169522"/>
<trkpt lat="51.9092583" lon="6.7172165"/>
<trkpt lat="51.9094278" lon="6.7173753"/>
<trkpt lat="51.9099000" lon="6.7176815"/>
<trkpt lat="51.9113791" lon="6.7181253"/>
<trkpt lat="51.9117727" lon="6.7144450"/>
<trkpt lat="51.9134521" lon="6.7148485"/>
<trkpt lat="51.9158044" lon="6.7137949"/>
<trkpt lat="51.9162223" lon="6.7138534"/>
<trkpt lat="51.9170274" lon="6.7141695"/>
<trkpt lat="51.9174063" lon="6.7143191"/>
<trkpt lat="51.9180483" lon="6.7147535"/>
<trkpt lat="51.9186884" lon="6.7128339"/>
<trkpt lat="51.9190909" lon="6.7125688"/>
<trkpt lat="51.9195675" lon="6.7124905"/>
<trkpt lat="51.9209972" lon="6.7114095"/>
<trkpt lat="51.9214449" lon="6.7113612"/>
<trkpt lat="51.9217588" lon="6.7113704"/>
<trkpt lat="51.9226856" lon="6.7127056"/>
</trkseg></trk>
<trk><name>Achterwooldsepad - Geimporteerde shapefile</name><type>shorteningRoute</type><trkseg>
<trkpt lat="51.9092323" lon="6.7268385"/>
<trkpt lat="51.9074902" lon="6.7237775"/>
<trkpt lat="51.9062153" lon="6.7179195"/>
</trkseg></trk>
<trk><name>Achterwooldsepad - Geimporteerde shapefile</name><type>extensionRoute</type><trkseg>
<trkpt lat="51.9220435" lon="6.7182982"/>
<trkpt lat="51.9223128" lon="6.7183415"/>
<trkpt lat="51.9231783" lon="6.7188235"/>
<trkpt lat="51.9250397" lon="6.7184193"/>
<trkpt lat="51.9270673" lon="6.7167035"/>
<trkpt lat="51.9277653" lon="6.7169370"/>
<trkpt lat="51.9274772" lon="6.7121760"/>
<trkpt lat="51.9274882" lon="6.7117627"/>
<trkpt lat="51.9277431" lon="6.7116998"/>
<trkpt lat="51.9277486" lon="6.7119154"/>
<trkpt lat="51.9285463" lon="6.7122209"/>
<trkpt lat="51.9285906" lon="6.7119154"/>
<trkpt lat="51.9278871" lon="6.7102446"/>
<trkpt lat="51.9272058" lon="6.7080257"/>
<trkpt lat="51.9287347" lon="6.7087624"/>
<trkpt lat="51.9300309" lon="6.7107387"/>
<trkpt lat="51.9300696" lon="6.7109543"/>
<trkpt lat="51.9309504" lon="6.7107566"/>
<trkpt lat="51.9310501" lon="6.7104602"/>
<trkpt lat="51.9362510" lon="6.7161016"/>
<trkpt lat="51.9373753" lon="6.7158680"/>
<trkpt lat="51.9378072" lon="6.7155626"/>
<trkpt lat="51.9386712" lon="6.7157153"/>
<trkpt lat="51.9389869" lon="6.7156075"/>
<trkpt lat="51.9391973" lon="6.7153740"/>
<trkpt lat="51.9384718" lon="6.7143229"/>
<trkpt lat="51.9378017" lon="6.7121670"/>
<trkpt lat="51.9376356" lon="6.7111699"/>
<trkpt lat="51.9377020" lon="6.7104961"/>
<trkpt lat="51.9385660" lon="6.7067232"/>
<trkpt lat="51.9402052" lon="6.7047738"/>
<trkpt lat="51.9404821" lon="6.7042349"/>
<trkpt lat="51.9396902" lon="6.7032916"/>
<trkpt lat="51.9405929" lon="6.7008482"/>
<trkpt lat="51.9405486" lon="6.7005428"/>
<trkpt lat="51.9365777" lon="6.6940839"/>
<trkpt lat="51.9340411" lon="6.6923501"/>
<trkpt lat="51.9335647" lon="6.6961410"/>
<trkpt lat="51.9332324" lon="6.6972011"/>
<trkpt lat="51.9328115" lon="6.6980095"/>
<trkpt lat="51.9323462" lon="6.6984407"/>
<trkpt lat="51.9320305" lon="6.6999858"/>
<trkpt lat="51.9325954" lon="6.7012974"/>
<trkpt lat="51.9327284" lon="6.7014052"/>
<trkpt lat="51.9320803" lon="6.7018543"/>
<trkpt lat="51.9312716" lon="6.7041271"/>
<trkpt lat="51.9307842" lon="6.7045133"/>
<trkpt lat="51.9301915" lon="6.7047289"/>
<trkpt lat="51.9297955" lon="6.7046158"/>
<trkpt lat="51.9289765" lon="6.7044170"/>
<trkpt lat="51.9284688" lon="6.7042888"/>
<trkpt lat="51.9258762" lon="6.7036959"/>
<trkpt lat="51.9255051" lon="6.7045133"/>
<trkpt lat="51.9242254" lon="6.7031120"/>
<trkpt lat="51.9227074" lon="6.7038037"/>
<trkpt lat="51.9224713" lon="6.7038366"/>
<trkpt lat="51.9219988" lon="6.7052537"/>
<trkpt lat="51.9228958" lon="6.7105859"/>
<trkpt lat="51.9227160" lon="6.7125934"/>
<trkpt lat="51.9226774" lon="6.7125833"/>
<trkpt lat="51.9226632" lon="6.7127107"/>
</trkseg></trk>
</gpx>