<?xml version="1.0" encoding="UTF-8"?>
<gpx version="1.1" creator="klompenpaden.nl via Jimbo API" xmlns="http://www.topografix.com/GPX/1/1">
<metadata><name>Aderwinkelpad</name><desc>Ontdek het mooie buitengebied van Driebergen-Rijsenburg en Bunnik. Wandelen in het agrarische landschap met knotbomenrijen en door de lanen van de landgoederen. Geniet van de rust, kleinschaligheid en de combinatie van cultuur en natuur. Klompen aan, rugzak op en gaan!</desc><link href="https://www.klompenpaden.nl/klompenpaden/Aderwinkelpad/17ff0668-0cb7-4073-a1d0-cada1a14adf9"><text>klompenpaden.nl</text></link></metadata>
<wpt lat="52.05544939394367" lon="5.276854634284973"><name>Start Driebergen-Rijsenburg</name></wpt>
<trk><name>Aderwinkelpad - Geimporteerde shapefile</name><type>mainRoute</type><trkseg>
<trkpt lat="52.0554767" lon="5.2768317"/>
<trkpt lat="52.0542062" lon="5.2786768"/>
<trkpt lat="52.0532502" lon="5.2800389"/>
<trkpt lat="52.0528052" lon="5.2809657"/>
<trkpt lat="52.0526924" lon="5.2811782"/>
<trkpt lat="52.0514080" lon="5.2809401"/>
<trkpt lat="52.0510275" lon="5.2809217"/>
<trkpt lat="52.0508374" lon="5.2810476"/>
<trkpt lat="52.0505763" lon="5.2816075"/>
<trkpt lat="52.0502261" lon="5.2823122"/>
<trkpt lat="52.0499412" lon="5.2827854"/>
<trkpt lat="52.0496738" lon="5.2830174"/>
<trkpt lat="52.0494895" lon="5.2829986"/>
<trkpt lat="52.0488652" lon="5.2829422"/>
<trkpt lat="52.0485025" lon="5.2828948"/>
<trkpt lat="52.0475036" lon="5.2827911"/>
<trkpt lat="52.0464750" lon="5.2826874"/>
<trkpt lat="52.0455876" lon="5.2825205"/>
<trkpt lat="52.0446971" lon="5.2824119"/>
<trkpt lat="52.0442512" lon="5.2823166"/>
<trkpt lat="52.0432520" lon="5.2819043"/>
<trkpt lat="52.0422829" lon="5.2819162"/>
<trkpt lat="52.0421163" lon="5.2818009"/>
<trkpt lat="52.0419677" lon="5.2817916"/>
<trkpt lat="52.0414320" lon="5.2810987"/>
<trkpt lat="52.0411290" lon="5.2813405"/>
<trkpt lat="52.0401253" lon="5.2825287"/>
<trkpt lat="52.0392760" lon="5.2835333"/>
<trkpt lat="52.0384445" lon="5.2844896"/>
<trkpt lat="52.0372448" lon="5.2858516"/>
<trkpt lat="52.0363538" lon="5.2868080"/>
<trkpt lat="52.0353084" lon="5.2879285"/>
<trkpt lat="52.0351658" lon="5.2880349"/>
<trkpt lat="52.0349043" lon="5.2881126"/>
<trkpt lat="52.0345594" lon="5.2881037"/>
<trkpt lat="52.0342859" lon="5.2880658"/>
<trkpt lat="52.0337507" lon="5.2879416"/>
<trkpt lat="52.0326506" lon="5.2876934"/>
<trkpt lat="52.0323891" lon="5.2876940"/>
<trkpt lat="52.0309695" lon="5.2893550"/>
<trkpt lat="52.0304691" lon="5.2881821"/>
<trkpt lat="52.0297446" lon="5.2863100"/>
<trkpt lat="52.0288246" lon="5.2839603"/>
<trkpt lat="52.0277664" lon="5.2812718"/>
<trkpt lat="52.0267555" lon="5.2784907"/>
<trkpt lat="52.0266327" lon="5.2781556"/>
<trkpt lat="52.0266802" lon="5.2780206"/>
<trkpt lat="52.0263945" lon="5.2776936"/>
<trkpt lat="52.0249432" lon="5.2738229"/>
<trkpt lat="52.0237510" lon="5.2706745"/>
<trkpt lat="52.0222611" lon="5.2670356"/>
<trkpt lat="52.0220284" lon="5.2663038"/>
<trkpt lat="52.0220698" lon="5.2660146"/>
<trkpt lat="52.0222180" lon="5.2656672"/>
<trkpt lat="52.0235305" lon="5.2642374"/>
<trkpt lat="52.0244093" lon="5.2631941"/>
<trkpt lat="52.0260783" lon="5.2674494"/>
<trkpt lat="52.0265611" lon="5.2686625"/>
<trkpt lat="52.0281877" lon="5.2662679"/>
<trkpt lat="52.0288763" lon="5.2652733"/>
<trkpt lat="52.0296660" lon="5.2642688"/>
<trkpt lat="52.0299094" lon="5.2639404"/>
<trkpt lat="52.0303072" lon="5.2634092"/>
<trkpt lat="52.0311268" lon="5.2625779"/>
<trkpt lat="52.0314356" lon="5.2622976"/>
<trkpt lat="52.0317756" lon="5.2633473"/>
<trkpt lat="52.0318711" lon="5.2636940"/>
<trkpt lat="52.0319426" lon="5.2638480"/>
<trkpt lat="52.0321863" lon="5.2638184"/>
<trkpt lat="52.0324243" lon="5.2639624"/>
<trkpt lat="52.0325556" lon="5.2644343"/>
<trkpt lat="52.0327936" lon="5.2645783"/>
<trkpt lat="52.0330847" lon="5.2644425"/>
<trkpt lat="52.0333698" lon="5.2641911"/>
<trkpt lat="52.0335540" lon="5.2640846"/>
<trkpt lat="52.0337926" lon="5.2648358"/>
<trkpt lat="52.0337809" lon="5.2649804"/>
<trkpt lat="52.0332404" lon="5.2655217"/>
<trkpt lat="52.0331573" lon="5.2655990"/>
<trkpt lat="52.0332884" lon="5.2658975"/>
<trkpt lat="52.0333182" lon="5.2659649"/>
<trkpt lat="52.0340722" lon="5.2649989"/>
<trkpt lat="52.0352600" lon="5.2637907"/>
<trkpt lat="52.0355748" lon="5.2634524"/>
<trkpt lat="52.0371353" lon="5.2661956"/>
<trkpt lat="52.0386720" lon="5.2689583"/>
<trkpt lat="52.0393867" lon="5.2702579"/>
<trkpt lat="52.0408816" lon="5.2729631"/>
<trkpt lat="52.0419596" lon="5.2749464"/>
<trkpt lat="52.0423348" lon="5.2756493"/>
<trkpt lat="52.0425606" lon="5.2754848"/>
<trkpt lat="52.0427329" lon="5.2753976"/>
<trkpt lat="52.0428699" lon="5.2756480"/>
<trkpt lat="52.0430427" lon="5.2761103"/>
<trkpt lat="52.0430785" lon="5.2762356"/>
<trkpt lat="52.0430906" lon="5.2763802"/>
<trkpt lat="52.0430229" lon="5.2768039"/>
<trkpt lat="52.0442066" lon="5.2791495"/>
<trkpt lat="52.0459026" lon="5.2824110"/>
<trkpt lat="52.0458932" lon="5.2825780"/>
<trkpt lat="52.0464750" lon="5.2826874"/>
<trkpt lat="52.0475036" lon="5.2827911"/>
<trkpt lat="52.0485025" lon="5.2828948"/>
<trkpt lat="52.0488652" lon="5.2829422"/>
<trkpt lat="52.0494895" lon="5.2829986"/>
<trkpt lat="52.0496738" lon="5.2830174"/>
<trkpt lat="52.0499412" lon="5.2827854"/>
<trkpt lat="52.0502261" lon="5.2823122"/>
<trkpt lat="52.0505763" lon="5.2816075"/>
<trkpt lat="52.0508374" lon="5.2810476"/>
<trkpt lat="52.0510275" lon="5.2809217"/>
<trkpt lat="52.0514080" lon="5.2809401"/>
<trkpt lat="52.0526924" lon="5.2811782"/>
<trkpt lat="52.0528052" lon="5.2809657"/>
<trkpt lat="52.0532502" lon="5.2800389"/>
<trkpt lat="52.0542062" lon="5.2786768"/>
<trkpt lat="52.0554767" lon="5.2768317"/>
</trkseg></trk>
<trk><name>Aderwinkelpad - Geimporteerde shapefile</name><type>connectionRoute</type><trkseg>
<trkpt lat="52.0651558" lon="5.2601417"/>
<trkpt lat="52.0647898" lon="5.2598301"/>
<trkpt lat="52.0647832" lon="5.2600820"/>
<trkpt lat="52.0647469" lon="5.2603875"/>
<trkpt lat="52.0647140" lon="5.2609288"/>
<trkpt lat="52.0647436" lon="5.2612879"/>
<trkpt lat="52.0647140" lon="5.2614701"/>
<trkpt lat="52.0648650" lon="5.2618588"/>
<trkpt lat="52.0649756" lon="5.2623226"/>
<trkpt lat="52.0649006" lon="5.2629542"/>
<trkpt lat="52.0647347" lon="5.2639496"/>
<trkpt lat="52.0647212" lon="5.2643295"/>
<trkpt lat="52.0647640" lon="5.2647050"/>
<trkpt lat="52.0648461" lon="5.2651876"/>
<trkpt lat="52.0648832" lon="5.2655303"/>
<trkpt lat="52.0649113" lon="5.2658471"/>
<trkpt lat="52.0649021" lon="5.2661466"/>
<trkpt lat="52.0648539" lon="5.2665079"/>
<trkpt lat="52.0648272" lon="5.2667227"/>
<trkpt lat="52.0648280" lon="5.2668987"/>
<trkpt lat="52.0648079" lon="5.2670907"/>
<trkpt lat="52.0647469" lon="5.2673520"/>
<trkpt lat="52.0646726" lon="5.2676674"/>
<trkpt lat="52.0646205" lon="5.2680159"/>
<trkpt lat="52.0645998" lon="5.2683122"/>
<trkpt lat="52.0645961" lon="5.2685883"/>
<trkpt lat="52.0646441" lon="5.2689059"/>
<trkpt lat="52.0647245" lon="5.2692736"/>
<trkpt lat="52.0647709" lon="5.2694963"/>
<trkpt lat="52.0648032" lon="5.2697739"/>
<trkpt lat="52.0648092" lon="5.2700569"/>
<trkpt lat="52.0648040" lon="5.2704303"/>
<trkpt lat="52.0647884" lon="5.2706896"/>
<trkpt lat="52.0647495" lon="5.2710159"/>
<trkpt lat="52.0647167" lon="5.2713737"/>
<trkpt lat="52.0646642" lon="5.2716147"/>
<trkpt lat="52.0646152" lon="5.2718722"/>
<trkpt lat="52.0646426" lon="5.2720555"/>
<trkpt lat="52.0646935" lon="5.2722865"/>
<trkpt lat="52.0647710" lon="5.2724501"/>
<trkpt lat="52.0648593" lon="5.2725184"/>
<trkpt lat="52.0649416" lon="5.2725802"/>
<trkpt lat="52.0649986" lon="5.2726185"/>
<trkpt lat="52.0650302" lon="5.2727106"/>
<trkpt lat="52.0650341" lon="5.2728901"/>
<trkpt lat="52.0650370" lon="5.2730256"/>
<trkpt lat="52.0645771" lon="5.2739323"/>
<trkpt lat="52.0642234" lon="5.2745495"/>
<trkpt lat="52.0642368" lon="5.2746483"/>
<trkpt lat="52.0637960" lon="5.2754756"/>
<trkpt lat="52.0637663" lon="5.2754870"/>
<trkpt lat="52.0636515" lon="5.2753473"/>
<trkpt lat="52.0635585" lon="5.2754135"/>
<trkpt lat="52.0634986" lon="5.2755120"/>
<trkpt lat="52.0634521" lon="5.2756658"/>
<trkpt lat="52.0632961" lon="5.2756816"/>
<trkpt lat="52.0629654" lon="5.2760312"/>
<trkpt lat="52.0624105" lon="5.2766715"/>
<trkpt lat="52.0617073" lon="5.2774788"/>
<trkpt lat="52.0605043" lon="5.2788491"/>
<trkpt lat="52.0604001" lon="5.2789396"/>
<trkpt lat="52.0602145" lon="5.2785157"/>
<trkpt lat="52.0601251" lon="5.2782892"/>
<trkpt lat="52.0598155" lon="5.2777884"/>
<trkpt lat="52.0596579" lon="5.2775769"/>
<trkpt lat="52.0595595" lon="5.2774515"/>
<trkpt lat="52.0594613" lon="5.2773119"/>
<trkpt lat="52.0592768" lon="5.2771291"/>
<trkpt lat="52.0591518" lon="5.2768979"/>
<trkpt lat="52.0590922" lon="5.2767341"/>
<trkpt lat="52.0590083" lon="5.2768006"/>
<trkpt lat="52.0588630" lon="5.2768895"/>
<trkpt lat="52.0587335" lon="5.2770786"/>
<trkpt lat="52.0586860" lon="5.2771480"/>
<trkpt lat="52.0585906" lon="5.2771630"/>
<trkpt lat="52.0584679" lon="5.2771486"/>
<trkpt lat="52.0583178" lon="5.2772468"/>
<trkpt lat="52.0581754" lon="5.2773314"/>
<trkpt lat="52.0580854" lon="5.2773036"/>
<trkpt lat="52.0580014" lon="5.2772367"/>
<trkpt lat="52.0579153" lon="5.2772423"/>
<trkpt lat="52.0577570" lon="5.2773013"/>
<trkpt lat="52.0576810" lon="5.2773296"/>
<trkpt lat="52.0576400" lon="5.2776999"/>
<trkpt lat="52.0576077" lon="5.2780317"/>
<trkpt lat="52.0575088" lon="5.2782517"/>
<trkpt lat="52.0572836" lon="5.2786757"/>
<trkpt lat="52.0567449" lon="5.2779502"/>
<trkpt lat="52.0560811" lon="5.2769971"/>
<trkpt lat="52.0557205" lon="5.2764378"/>
<trkpt lat="52.0555342" lon="5.2767091"/>
<trkpt lat="52.0555445" lon="5.2768171"/>
</trkseg></trk>
<trk><name>Aderwinkelpad - approachRoute</name><type>approachRoute</type><trkseg>
<trkpt lat="52.0241500" lon="5.2451200"/>
<trkpt lat="52.0242500" lon="5.2455900"/>
<trkpt lat="52.0241400" lon="5.2456400"/>
<trkpt lat="52.0243700" lon="5.2467300"/>
<trkpt lat="52.0246500" lon="5.2475400"/>
<trkpt lat="52.0247800" lon="5.2477200"/>
<trkpt lat="52.0255800" lon="5.2481600"/>
<trkpt lat="52.0258200" lon="5.2484400"/>
<trkpt lat="52.0260800" lon="5.2487900"/>
<trkpt lat="52.0264000" lon="5.2490800"/>
<trkpt lat="52.0266200" lon="5.2490800"/>
<trkpt lat="52.0267000" lon="5.2491000"/>
<trkpt lat="52.0267100" lon="5.2494500"/>
<trkpt lat="52.0267700" lon="5.2495400"/>
<trkpt lat="52.0270100" lon="5.2497400"/>
<trkpt lat="52.0268500" lon="5.2498900"/>
<trkpt lat="52.0264300" lon="5.2507300"/>
<trkpt lat="52.0261700" lon="5.2511800"/>
<trkpt lat="52.0262200" lon="5.2513900"/>
<trkpt lat="52.0263400" lon="5.2528000"/>
<trkpt lat="52.0264200" lon="5.2544800"/>
<trkpt lat="52.0264000" lon="5.2548600"/>
<trkpt lat="52.0262700" lon="5.2555600"/>
<trkpt lat="52.0276600" lon="5.2589000"/>
<trkpt lat="52.0250600" lon="5.2622100"/>
<trkpt lat="52.0244200" lon="5.2631800"/>
</trkseg></trk>
</gpx>