<?xml version="1.0" encoding="UTF-8"?>
<gpx version="1.1" creator="klompenpaden.nl via Jimbo API" xmlns="http://www.topografix.com/GPX/1/1">
<metadata><name>Albapad</name><desc>Ontdek het mooie buitengebied van Oosterhuizen. Wandelen langs enk, stuifwal, bos en het moerasgebied Beekbergerwoud, eens het laatste oerbos van ons land. Klompen aan, rugzak op en gaan!</desc><link href="https://www.klompenpaden.nl/klompenpaden/Albapad/70dc767c-3c3f-4626-adc9-4c7437486759"><text>klompenpaden.nl</text></link></metadata>
<wpt lat="52.157565128895214" lon="6.005825400352478"><name>Start Oosterhuizen</name></wpt>
<trk><name>Albapad - mainRoute</name><type>mainRoute</type><trkseg>
<trkpt lat="52.1571400" lon="6.0060100"/>
<trkpt lat="52.1581400" lon="6.0082600"/>
<trkpt lat="52.1585400" lon="6.0090800"/>
<trkpt lat="52.1586300" lon="6.0093400"/>
<trkpt lat="52.1591400" lon="6.0103300"/>
<trkpt lat="52.1595700" lon="6.0112500"/>
<trkpt lat="52.1587700" lon="6.0137000"/>
<trkpt lat="52.1592600" lon="6.0143800"/>
<trkpt lat="52.1597900" lon="6.0150700"/>
<trkpt lat="52.1595800" lon="6.0157600"/>
<trkpt lat="52.1598700" lon="6.0160200"/>
<trkpt lat="52.1597900" lon="6.0176900"/>
<trkpt lat="52.1598300" lon="6.0180600"/>
<trkpt lat="52.1599000" lon="6.0180700"/>
<trkpt lat="52.1599600" lon="6.0180500"/>
<trkpt lat="52.1599700" lon="6.0179600"/>
<trkpt lat="52.1599300" lon="6.0174000"/>
<trkpt lat="52.1599400" lon="6.0166300"/>
<trkpt lat="52.1600000" lon="6.0158800"/>
<trkpt lat="52.1606100" lon="6.0135800"/>
<trkpt lat="52.1606200" lon="6.0135800"/>
</trkseg></trk>
<trk><name>Albapad - mainRoute</name><type>mainRoute</type><trkseg>
<trkpt lat="52.1576200" lon="6.0059500"/>
<trkpt lat="52.1575900" lon="6.0059000"/>
<trkpt lat="52.1574700" lon="6.0060600"/>
<trkpt lat="52.1573800" lon="6.0059500"/>
<trkpt lat="52.1573100" lon="6.0058100"/>
<trkpt lat="52.1571400" lon="6.0060100"/>
</trkseg></trk>
<trk><name>Albapad - mainRoute</name><type>mainRoute</type><trkseg>
<trkpt lat="52.1639200" lon="6.0070100"/>
<trkpt lat="52.1638300" lon="6.0069500"/>
<trkpt lat="52.1638100" lon="6.0068900"/>
<trkpt lat="52.1639200" lon="6.0063100"/>
<trkpt lat="52.1641100" lon="6.0054300"/>
<trkpt lat="52.1639500" lon="6.0053100"/>
<trkpt lat="52.1639300" lon="6.0052300"/>
<trkpt lat="52.1644800" lon="6.0023700"/>
<trkpt lat="52.1644700" lon="6.0023000"/>
<trkpt lat="52.1639800" lon="6.0019900"/>
<trkpt lat="52.1639200" lon="6.0021000"/>
<trkpt lat="52.1638300" lon="6.0019400"/>
<trkpt lat="52.1639700" lon="6.0017400"/>
<trkpt lat="52.1643200" lon="6.0013700"/>
<trkpt lat="52.1647600" lon="6.0009600"/>
<trkpt lat="52.1648500" lon="6.0009300"/>
<trkpt lat="52.1649500" lon="6.0009700"/>
<trkpt lat="52.1659000" lon="6.0005500"/>
<trkpt lat="52.1659200" lon="6.0003600"/>
<trkpt lat="52.1659800" lon="6.0002300"/>
<trkpt lat="52.1660500" lon="6.0001600"/>
<trkpt lat="52.1659600" lon="5.9993800"/>
<trkpt lat="52.1637600" lon="5.9984500"/>
<trkpt lat="52.1630800" lon="5.9981800"/>
<trkpt lat="52.1626300" lon="5.9981300"/>
<trkpt lat="52.1621500" lon="5.9979900"/>
<trkpt lat="52.1616600" lon="5.9977700"/>
<trkpt lat="52.1610200" lon="5.9976100"/>
<trkpt lat="52.1609400" lon="5.9975600"/>
<trkpt lat="52.1608100" lon="5.9976200"/>
<trkpt lat="52.1603600" lon="5.9974800"/>
<trkpt lat="52.1598400" lon="5.9972800"/>
<trkpt lat="52.1596800" lon="5.9981900"/>
<trkpt lat="52.1595700" lon="5.9984300"/>
<trkpt lat="52.1586400" lon="5.9998500"/>
<trkpt lat="52.1570300" lon="5.9996200"/>
<trkpt lat="52.1560000" lon="5.9995000"/>
<trkpt lat="52.1554300" lon="5.9936300"/>
<trkpt lat="52.1542100" lon="5.9954200"/>
<trkpt lat="52.1536000" lon="5.9962900"/>
<trkpt lat="52.1524800" lon="5.9979000"/>
<trkpt lat="52.1527900" lon="6.0010600"/>
<trkpt lat="52.1527100" lon="6.0011300"/>
<trkpt lat="52.1523600" lon="6.0009500"/>
<trkpt lat="52.1520600" lon="6.0008900"/>
<trkpt lat="52.1519500" lon="6.0008900"/>
<trkpt lat="52.1518900" lon="6.0012300"/>
<trkpt lat="52.1514600" lon="6.0031100"/>
<trkpt lat="52.1508400" lon="6.0032200"/>
<trkpt lat="52.1507400" lon="6.0032700"/>
<trkpt lat="52.1506600" lon="6.0034000"/>
<trkpt lat="52.1505700" lon="6.0033800"/>
<trkpt lat="52.1503400" lon="6.0032800"/>
<trkpt lat="52.1502200" lon="6.0033600"/>
<trkpt lat="52.1502100" lon="6.0035400"/>
<trkpt lat="52.1502600" lon="6.0044200"/>
<trkpt lat="52.1503000" lon="6.0057000"/>
<trkpt lat="52.1503600" lon="6.0060900"/>
<trkpt lat="52.1500700" lon="6.0062000"/>
<trkpt lat="52.1499400" lon="6.0060400"/>
<trkpt lat="52.1485300" lon="6.0038000"/>
<trkpt lat="52.1481800" lon="6.0042100"/>
<trkpt lat="52.1478400" lon="6.0047200"/>
<trkpt lat="52.1478200" lon="6.0048200"/>
<trkpt lat="52.1478200" lon="6.0049700"/>
<trkpt lat="52.1478400" lon="6.0050700"/>
<trkpt lat="52.1479000" lon="6.0051700"/>
<trkpt lat="52.1479700" lon="6.0053500"/>
<trkpt lat="52.1481000" lon="6.0055400"/>
<trkpt lat="52.1484700" lon="6.0057900"/>
<trkpt lat="52.1485500" lon="6.0059100"/>
<trkpt lat="52.1488400" lon="6.0065300"/>
<trkpt lat="52.1489500" lon="6.0070500"/>
<trkpt lat="52.1490400" lon="6.0078600"/>
<trkpt lat="52.1491200" lon="6.0083200"/>
<trkpt lat="52.1492100" lon="6.0084400"/>
<trkpt lat="52.1493100" lon="6.0085100"/>
<trkpt lat="52.1494400" lon="6.0087000"/>
<trkpt lat="52.1496000" lon="6.0087100"/>
<trkpt lat="52.1496200" lon="6.0087800"/>
<trkpt lat="52.1496300" lon="6.0090900"/>
<trkpt lat="52.1496800" lon="6.0094300"/>
<trkpt lat="52.1497000" lon="6.0095100"/>
<trkpt lat="52.1497000" lon="6.0097600"/>
<trkpt lat="52.1496900" lon="6.0098800"/>
<trkpt lat="52.1497800" lon="6.0103900"/>
<trkpt lat="52.1498600" lon="6.0106000"/>
<trkpt lat="52.1499800" lon="6.0107100"/>
<trkpt lat="52.1500500" lon="6.0108300"/>
<trkpt lat="52.1501100" lon="6.0108400"/>
<trkpt lat="52.1511800" lon="6.0101600"/>
<trkpt lat="52.1512500" lon="6.0101500"/>
<trkpt lat="52.1513100" lon="6.0101600"/>
<trkpt lat="52.1513600" lon="6.0103100"/>
<trkpt lat="52.1516700" lon="6.0115400"/>
<trkpt lat="52.1517200" lon="6.0118800"/>
<trkpt lat="52.1518800" lon="6.0134300"/>
<trkpt lat="52.1520800" lon="6.0157500"/>
<trkpt lat="52.1523900" lon="6.0161300"/>
<trkpt lat="52.1529400" lon="6.0163500"/>
<trkpt lat="52.1530800" lon="6.0164900"/>
<trkpt lat="52.1532700" lon="6.0166300"/>
<trkpt lat="52.1534500" lon="6.0168200"/>
<trkpt lat="52.1535900" lon="6.0169400"/>
<trkpt lat="52.1545600" lon="6.0131500"/>
<trkpt lat="52.1554700" lon="6.0096800"/>
<trkpt lat="52.1555200" lon="6.0093700"/>
<trkpt lat="52.1554800" lon="6.0086500"/>
<trkpt lat="52.1554000" lon="6.0079800"/>
<trkpt lat="52.1553900" lon="6.0075700"/>
<trkpt lat="52.1555100" lon="6.0074100"/>
<trkpt lat="52.1564900" lon="6.0066100"/>
<trkpt lat="52.1571400" lon="6.0060100"/>
</trkseg></trk>
<trk><name>Albapad - Geimporteerde shapefile</name><type>mainRoute</type><trkseg>
<trkpt lat="52.1571451" lon="6.0060162"/>
<trkpt lat="52.1577331" lon="6.0073340"/>
<trkpt lat="52.1581458" lon="6.0082677"/>
<trkpt lat="52.1583264" lon="6.0086507"/>
<trkpt lat="52.1585441" lon="6.0090831"/>
<trkpt lat="52.1586395" lon="6.0093417"/>
<trkpt lat="52.1591451" lon="6.0103387"/>
<trkpt lat="52.1595750" lon="6.0112526"/>
<trkpt lat="52.1590353" lon="6.0128896"/>
<trkpt lat="52.1587779" lon="6.0137088"/>
<trkpt lat="52.1589308" lon="6.0139337"/>
<trkpt lat="52.1592689" lon="6.0143870"/>
<trkpt lat="52.1597999" lon="6.0150719"/>
<trkpt lat="52.1595879" lon="6.0157673"/>
<trkpt lat="52.1597649" lon="6.0159207"/>
<trkpt lat="52.1598771" lon="6.0160235"/>
<trkpt lat="52.1598688" lon="6.0160565"/>
<trkpt lat="52.1598546" lon="6.0165760"/>
<trkpt lat="52.1598284" lon="6.0168603"/>
<trkpt lat="52.1598081" lon="6.0174601"/>
<trkpt lat="52.1597995" lon="6.0176931"/>
<trkpt lat="52.1598355" lon="6.0180602"/>
<trkpt lat="52.1599049" lon="6.0180782"/>
<trkpt lat="52.1599630" lon="6.0180558"/>
<trkpt lat="52.1599747" lon="6.0179667"/>
<trkpt lat="52.1599396" lon="6.0174094"/>
<trkpt lat="52.1599456" lon="6.0166361"/>
<trkpt lat="52.1599778" lon="6.0163210"/>
<trkpt lat="52.1599820" lon="6.0160995"/>
<trkpt lat="52.1600098" lon="6.0158864"/>
<trkpt lat="52.1602371" lon="6.0149972"/>
<trkpt lat="52.1606106" lon="6.0135861"/>
<trkpt lat="52.1606242" lon="6.0135805"/>
</trkseg></trk>
<trk><name>Albapad - Geimporteerde shapefile</name><type>mainRoute</type><trkseg>
<trkpt lat="52.1576271" lon="6.0059508"/>
<trkpt lat="52.1575959" lon="6.0059009"/>
<trkpt lat="52.1574800" lon="6.0060633"/>
<trkpt lat="52.1573816" lon="6.0059567"/>
<trkpt lat="52.1573129" lon="6.0058197"/>
<trkpt lat="52.1572547" lon="6.0058888"/>
<trkpt lat="52.1571451" lon="6.0060162"/>
</trkseg></trk>
<trk><name>Albapad - Geimporteerde shapefile</name><type>mainRoute</type><trkseg>
<trkpt lat="52.1639294" lon="6.0070148"/>
<trkpt lat="52.1638302" lon="6.0069551"/>
<trkpt lat="52.1638127" lon="6.0068968"/>
<trkpt lat="52.1639227" lon="6.0063183"/>
<trkpt lat="52.1641200" lon="6.0054335"/>
<trkpt lat="52.1639565" lon="6.0053153"/>
<trkpt lat="52.1639355" lon="6.0052396"/>
<trkpt lat="52.1644820" lon="6.0023758"/>
<trkpt lat="52.1644788" lon="6.0023061"/>
<trkpt lat="52.1639846" lon="6.0019977"/>
<trkpt lat="52.1639206" lon="6.0021020"/>
<trkpt lat="52.1638387" lon="6.0019407"/>
<trkpt lat="52.1639752" lon="6.0017423"/>
<trkpt lat="52.1643231" lon="6.0013778"/>
<trkpt lat="52.1647656" lon="6.0009604"/>
<trkpt lat="52.1648513" lon="6.0009384"/>
<trkpt lat="52.1649581" lon="6.0009747"/>
<trkpt lat="52.1659029" lon="6.0005584"/>
<trkpt lat="52.1659217" lon="6.0003653"/>
<trkpt lat="52.1659878" lon="6.0002309"/>
<trkpt lat="52.1660536" lon="6.0001641"/>
<trkpt lat="52.1659907" lon="5.9996798"/>
<trkpt lat="52.1659625" lon="5.9993894"/>
<trkpt lat="52.1637616" lon="5.9984504"/>
<trkpt lat="52.1630852" lon="5.9981898"/>
<trkpt lat="52.1626337" lon="5.9981353"/>
<trkpt lat="52.1621528" lon="5.9979933"/>
<trkpt lat="52.1616687" lon="5.9977740"/>
<trkpt lat="52.1610246" lon="5.9976167"/>
<trkpt lat="52.1609421" lon="5.9975622"/>
<trkpt lat="52.1608191" lon="5.9976232"/>
<trkpt lat="52.1603604" lon="5.9974800"/>
<trkpt lat="52.1598497" lon="5.9972851"/>
<trkpt lat="52.1597830" lon="5.9976531"/>
<trkpt lat="52.1596846" lon="5.9981923"/>
<trkpt lat="52.1595735" lon="5.9984367"/>
<trkpt lat="52.1594383" lon="5.9986618"/>
<trkpt lat="52.1587252" lon="5.9997347"/>
<trkpt lat="52.1586472" lon="5.9998554"/>
<trkpt lat="52.1585879" lon="5.9998488"/>
<trkpt lat="52.1570314" lon="5.9996245"/>
<trkpt lat="52.1560094" lon="5.9995041"/>
<trkpt lat="52.1555748" lon="5.9950325"/>
<trkpt lat="52.1554333" lon="5.9936387"/>
<trkpt lat="52.1550320" lon="5.9942132"/>
<trkpt lat="52.1542172" lon="5.9954296"/>
<trkpt lat="52.1536004" lon="5.9962911"/>
<trkpt lat="52.1524862" lon="5.9979093"/>
<trkpt lat="52.1527909" lon="6.0010644"/>
<trkpt lat="52.1527132" lon="6.0011310"/>
<trkpt lat="52.1523634" lon="6.0009522"/>
<trkpt lat="52.1520664" lon="6.0008901"/>
<trkpt lat="52.1519534" lon="6.0008982"/>
<trkpt lat="52.1518982" lon="6.0012358"/>
<trkpt lat="52.1514663" lon="6.0031145"/>
<trkpt lat="52.1508414" lon="6.0032219"/>
<trkpt lat="52.1507460" lon="6.0032785"/>
<trkpt lat="52.1506621" lon="6.0034030"/>
<trkpt lat="52.1505731" lon="6.0033824"/>
<trkpt lat="52.1503477" lon="6.0032827"/>
<trkpt lat="52.1502283" lon="6.0033680"/>
<trkpt lat="52.1502155" lon="6.0035418"/>
<trkpt lat="52.1502644" lon="6.0044220"/>
<trkpt lat="52.1503052" lon="6.0057080"/>
<trkpt lat="52.1503627" lon="6.0060954"/>
<trkpt lat="52.1500742" lon="6.0062046"/>
<trkpt lat="52.1499468" lon="6.0060413"/>
<trkpt lat="52.1491230" lon="6.0047201"/>
<trkpt lat="52.1490463" lon="6.0046290"/>
<trkpt lat="52.1489774" lon="6.0045207"/>
<trkpt lat="52.1489285" lon="6.0044147"/>
<trkpt lat="52.1489020" lon="6.0043757"/>
<trkpt lat="52.1488223" lon="6.0042635"/>
<trkpt lat="52.1487162" lon="6.0040929"/>
<trkpt lat="52.1486455" lon="6.0039711"/>
<trkpt lat="52.1485375" lon="6.0038086"/>
<trkpt lat="52.1484179" lon="6.0039519"/>
<trkpt lat="52.1481817" lon="6.0042144"/>
<trkpt lat="52.1480408" lon="6.0044347"/>
<trkpt lat="52.1479688" lon="6.0045594"/>
<trkpt lat="52.1478490" lon="6.0047268"/>
<trkpt lat="52.1478218" lon="6.0048231"/>
<trkpt lat="52.1478240" lon="6.0049729"/>
<trkpt lat="52.1478442" lon="6.0050795"/>
<trkpt lat="52.1479032" lon="6.0051770"/>
<trkpt lat="52.1479795" lon="6.0053568"/>
<trkpt lat="52.1481029" lon="6.0055487"/>
<trkpt lat="52.1482905" lon="6.0056812"/>
<trkpt lat="52.1484740" lon="6.0057997"/>
<trkpt lat="52.1485588" lon="6.0059190"/>
<trkpt lat="52.1487600" lon="6.0063335"/>
<trkpt lat="52.1488468" lon="6.0065309"/>
<trkpt lat="52.1489597" lon="6.0070543"/>
<trkpt lat="52.1490207" lon="6.0076360"/>
<trkpt lat="52.1490444" lon="6.0078683"/>
<trkpt lat="52.1491245" lon="6.0083238"/>
<trkpt lat="52.1492106" lon="6.0084402"/>
<trkpt lat="52.1493129" lon="6.0085182"/>
<trkpt lat="52.1494433" lon="6.0087009"/>
<trkpt lat="52.1495474" lon="6.0087001"/>
<trkpt lat="52.1496030" lon="6.0087125"/>
<trkpt lat="52.1496269" lon="6.0087870"/>
<trkpt lat="52.1496366" lon="6.0090980"/>
<trkpt lat="52.1496805" lon="6.0094372"/>
<trkpt lat="52.1497072" lon="6.0095165"/>
<trkpt lat="52.1497073" lon="6.0097600"/>
<trkpt lat="52.1496910" lon="6.0098897"/>
<trkpt lat="52.1497896" lon="6.0103967"/>
<trkpt lat="52.1498656" lon="6.0106019"/>
<trkpt lat="52.1499876" lon="6.0107179"/>
<trkpt lat="52.1500569" lon="6.0108388"/>
<trkpt lat="52.1501167" lon="6.0108406"/>
<trkpt lat="52.1511849" lon="6.0101657"/>
<trkpt lat="52.1512549" lon="6.0101504"/>
<trkpt lat="52.1513147" lon="6.0101698"/>
<trkpt lat="52.1513667" lon="6.0103190"/>
<trkpt lat="52.1516747" lon="6.0115467"/>
<trkpt lat="52.1517251" lon="6.0118898"/>
<trkpt lat="52.1518109" lon="6.0127664"/>
<trkpt lat="52.1518845" lon="6.0134332"/>
<trkpt lat="52.1519917" lon="6.0147337"/>
<trkpt lat="52.1520388" lon="6.0152737"/>
<trkpt lat="52.1520826" lon="6.0157557"/>
<trkpt lat="52.1522563" lon="6.0159611"/>
<trkpt lat="52.1523945" lon="6.0161370"/>
<trkpt lat="52.1525867" lon="6.0162035"/>
<trkpt lat="52.1529462" lon="6.0163536"/>
<trkpt lat="52.1530861" lon="6.0164949"/>
<trkpt lat="52.1532794" lon="6.0166391"/>
<trkpt lat="52.1534524" lon="6.0168258"/>
<trkpt lat="52.1535944" lon="6.0169496"/>
<trkpt lat="52.1536707" lon="6.0166897"/>
<trkpt lat="52.1542354" lon="6.0144707"/>
<trkpt lat="52.1545635" lon="6.0131530"/>
<trkpt lat="52.1551204" lon="6.0110440"/>
<trkpt lat="52.1554736" lon="6.0096802"/>
<trkpt lat="52.1555252" lon="6.0093736"/>
<trkpt lat="52.1554855" lon="6.0086578"/>
<trkpt lat="52.1554020" lon="6.0079818"/>
<trkpt lat="52.1553974" lon="6.0075790"/>
<trkpt lat="52.1555121" lon="6.0074173"/>
<trkpt lat="52.1564907" lon="6.0066186"/>
<trkpt lat="52.1571451" lon="6.0060162"/>
</trkseg></trk>
<trk><name>Albapad - Geimporteerde shapefile</name><type>mainRoute</type><trkseg>
<trkpt lat="52.1606242" lon="6.0135805"/>
<trkpt lat="52.1606621" lon="6.0135651"/>
<trkpt lat="52.1617741" lon="6.0158947"/>
<trkpt lat="52.1629328" lon="6.0183767"/>
<trkpt lat="52.1632099" lon="6.0189827"/>
<trkpt lat="52.1634084" lon="6.0192233"/>
<trkpt lat="52.1636500" lon="6.0194008"/>
<trkpt lat="52.1649354" lon="6.0198366"/>
<trkpt lat="52.1650242" lon="6.0199075"/>
<trkpt lat="52.1650340" lon="6.0197255"/>
<trkpt lat="52.1650425" lon="6.0195214"/>
<trkpt lat="52.1651312" lon="6.0179077"/>
<trkpt lat="52.1652284" lon="6.0177525"/>
<trkpt lat="52.1653819" lon="6.0150515"/>
<trkpt lat="52.1666766" lon="6.0157658"/>
<trkpt lat="52.1665931" lon="6.0160315"/>
<trkpt lat="52.1665775" lon="6.0162865"/>
<trkpt lat="52.1666120" lon="6.0165016"/>
<trkpt lat="52.1666896" lon="6.0166651"/>
<trkpt lat="52.1669099" lon="6.0168307"/>
<trkpt lat="52.1669627" lon="6.0169533"/>
<trkpt lat="52.1670797" lon="6.0170883"/>
<trkpt lat="52.1672295" lon="6.0170962"/>
<trkpt lat="52.1674832" lon="6.0170128"/>
<trkpt lat="52.1676727" lon="6.0169343"/>
<trkpt lat="52.1677831" lon="6.0169648"/>
<trkpt lat="52.1679400" lon="6.0169729"/>
<trkpt lat="52.1680688" lon="6.0169167"/>
<trkpt lat="52.1683237" lon="6.0166070"/>
<trkpt lat="52.1683958" lon="6.0164630"/>
<trkpt lat="52.1684638" lon="6.0164233"/>
<trkpt lat="52.1686846" lon="6.0164787"/>
<trkpt lat="52.1687698" lon="6.0165611"/>
<trkpt lat="52.1687978" lon="6.0166601"/>
<trkpt lat="52.1687648" lon="6.0168395"/>
<trkpt lat="52.1687884" lon="6.0170951"/>
<trkpt lat="52.1686931" lon="6.0175636"/>
<trkpt lat="52.1686900" lon="6.0181495"/>
<trkpt lat="52.1689022" lon="6.0184948"/>
<trkpt lat="52.1689944" lon="6.0186106"/>
<trkpt lat="52.1691549" lon="6.0187474"/>
<trkpt lat="52.1692897" lon="6.0187323"/>
<trkpt lat="52.1693938" lon="6.0186178"/>
<trkpt lat="52.1694575" lon="6.0184709"/>
<trkpt lat="52.1694801" lon="6.0182415"/>
<trkpt lat="52.1695213" lon="6.0181207"/>
<trkpt lat="52.1695861" lon="6.0180055"/>
<trkpt lat="52.1696336" lon="6.0178032"/>
<trkpt lat="52.1697280" lon="6.0174970"/>
<trkpt lat="52.1698040" lon="6.0172892"/>
<trkpt lat="52.1698621" lon="6.0170928"/>
<trkpt lat="52.1699433" lon="6.0165776"/>
<trkpt lat="52.1699586" lon="6.0163864"/>
<trkpt lat="52.1698928" lon="6.0160200"/>
<trkpt lat="52.1697555" lon="6.0156758"/>
<trkpt lat="52.1696675" lon="6.0154599"/>
<trkpt lat="52.1696365" lon="6.0152448"/>
<trkpt lat="52.1696299" lon="6.0151403"/>
<trkpt lat="52.1691101" lon="6.0149589"/>
<trkpt lat="52.1690203" lon="6.0148331"/>
<trkpt lat="52.1689015" lon="6.0143673"/>
<trkpt lat="52.1687792" lon="6.0140245"/>
<trkpt lat="52.1687197" lon="6.0136686"/>
<trkpt lat="52.1687307" lon="6.0131842"/>
<trkpt lat="52.1688550" lon="6.0126116"/>
<trkpt lat="52.1689170" lon="6.0123630"/>
<trkpt lat="52.1689091" lon="6.0121188"/>
<trkpt lat="52.1688813" lon="6.0119792"/>
<trkpt lat="52.1688363" lon="6.0118649"/>
<trkpt lat="52.1687456" lon="6.0117283"/>
<trkpt lat="52.1685972" lon="6.0114477"/>
<trkpt lat="52.1684298" lon="6.0113990"/>
<trkpt lat="52.1682453" lon="6.0112223"/>
<trkpt lat="52.1681418" lon="6.0112402"/>
<trkpt lat="52.1679877" lon="6.0113696"/>
<trkpt lat="52.1679040" lon="6.0114341"/>
<trkpt lat="52.1678027" lon="6.0114304"/>
<trkpt lat="52.1675357" lon="6.0111602"/>
<trkpt lat="52.1670319" lon="6.0106427"/>
<trkpt lat="52.1665748" lon="6.0107349"/>
<trkpt lat="52.1655137" lon="6.0110623"/>
<trkpt lat="52.1655529" lon="6.0103842"/>
<trkpt lat="52.1654673" lon="6.0103772"/>
<trkpt lat="52.1654998" lon="6.0096409"/>
<trkpt lat="52.1643650" lon="6.0090334"/>
<trkpt lat="52.1645197" lon="6.0074461"/>
<trkpt lat="52.1644418" lon="6.0073232"/>
<trkpt lat="52.1639294" lon="6.0070148"/>
</trkseg></trk>
<trk><name>Albapad - shorteningRoute</name><type>shorteningRoute</type><trkseg>
<trkpt lat="52.1638000" lon="6.0069000"/>
<trkpt lat="52.1637800" lon="6.0070200"/>
<trkpt lat="52.1628900" lon="6.0064600"/>
<trkpt lat="52.1628400" lon="6.0070200"/>
<trkpt lat="52.1628400" lon="6.0072600"/>
<trkpt lat="52.1627700" lon="6.0075600"/>
<trkpt lat="52.1624200" lon="6.0085100"/>
<trkpt lat="52.1622100" lon="6.0090200"/>
<trkpt lat="52.1620000" lon="6.0096300"/>
<trkpt lat="52.1617500" lon="6.0101900"/>
<trkpt lat="52.1616600" lon="6.0101100"/>
<trkpt lat="52.1614900" lon="6.0104200"/>
<trkpt lat="52.1612100" lon="6.0109700"/>
<trkpt lat="52.1608600" lon="6.0121700"/>
<trkpt lat="52.1605700" lon="6.0132600"/>
<trkpt lat="52.1606100" lon="6.0135900"/>
</trkseg></trk>
<trk><name>Albapad - connectionRoute</name><type>connectionRoute</type><trkseg>
<trkpt lat="52.1587800" lon="6.0136800"/>
<trkpt lat="52.1578100" lon="6.0168200"/>
<trkpt lat="52.1576000" lon="6.0172400"/>
<trkpt lat="52.1573900" lon="6.0182300"/>
<trkpt lat="52.1575200" lon="6.0184200"/>
<trkpt lat="52.1591600" lon="6.0199800"/>
<trkpt lat="52.1604200" lon="6.0210300"/>
<trkpt lat="52.1609600" lon="6.0251600"/>
<trkpt lat="52.1610700" lon="6.0266300"/>
<trkpt lat="52.1611000" lon="6.0272900"/>
<trkpt lat="52.1611400" lon="6.0277300"/>
<trkpt lat="52.1613300" lon="6.0290000"/>
<trkpt lat="52.1616500" lon="6.0332900"/>
</trkseg></trk>
<trk><name>Albapad - connectionRoute</name><type>connectionRoute</type><trkseg>
<trkpt lat="52.1546600" lon="5.9760400"/>
<trkpt lat="52.1543500" lon="5.9787200"/>
<trkpt lat="52.1531600" lon="5.9877000"/>
<trkpt lat="52.1522100" lon="5.9918100"/>
<trkpt lat="52.1520400" lon="5.9927200"/>
<trkpt lat="52.1521500" lon="5.9944800"/>
<trkpt lat="52.1524800" lon="5.9979000"/>
</trkseg></trk>
<trk><name>Albapad - Geimporteerde shapefile</name><type>connectionRoute</type><trkseg>
<trkpt lat="52.1587856" lon="6.0136819"/>
<trkpt lat="52.1580747" lon="6.0159457"/>
<trkpt lat="52.1578101" lon="6.0168260"/>
<trkpt lat="52.1576062" lon="6.0172482"/>
<trkpt lat="52.1573968" lon="6.0182364"/>
<trkpt lat="52.1575236" lon="6.0184250"/>
<trkpt lat="52.1582675" lon="6.0191347"/>
<trkpt lat="52.1591603" lon="6.0199881"/>
<trkpt lat="52.1604223" lon="6.0210301"/>
<trkpt lat="52.1608576" lon="6.0243359"/>
<trkpt lat="52.1609623" lon="6.0251624"/>
<trkpt lat="52.1610285" lon="6.0259619"/>
<trkpt lat="52.1610781" lon="6.0266356"/>
<trkpt lat="52.1611056" lon="6.0272914"/>
<trkpt lat="52.1611442" lon="6.0277316"/>
<trkpt lat="52.1612544" lon="6.0285311"/>
<trkpt lat="52.1613316" lon="6.0290072"/>
<trkpt lat="52.1613646" lon="6.0294204"/>
<trkpt lat="52.1615299" lon="6.0315853"/>
<trkpt lat="52.1616512" lon="6.0332921"/>
</trkseg></trk>
<trk><name>Albapad - Geimporteerde shapefile</name><type>connectionRoute</type><trkseg>
<trkpt lat="52.1546699" lon="5.9760405"/>
<trkpt lat="52.1543597" lon="5.9787290"/>
<trkpt lat="52.1531657" lon="5.9877085"/>
<trkpt lat="52.1522178" lon="5.9918176"/>
<trkpt lat="52.1520466" lon="5.9927296"/>
<trkpt lat="52.1521585" lon="5.9944891"/>
<trkpt lat="52.1524862" lon="5.9979093"/>
</trkseg></trk>
<trk><name>Albapad - approachRoute</name><type>approachRoute</type><trkseg>
<trkpt lat="52.1449400" lon="6.0357000"/>
<trkpt lat="52.1451300" lon="6.0356600"/>
<trkpt lat="52.1451100" lon="6.0318800"/>
<trkpt lat="52.1471100" lon="6.0295500"/>
<trkpt lat="52.1472800" lon="6.0289300"/>
<trkpt lat="52.1485600" lon="6.0276700"/>
<trkpt lat="52.1491400" lon="6.0271600"/>
<trkpt lat="52.1501800" lon="6.0261200"/>
<trkpt lat="52.1498000" lon="6.0194900"/>
<trkpt lat="52.1496100" lon="6.0160600"/>
<trkpt lat="52.1479900" lon="6.0053800"/>
</trkseg></trk>
<trk><name>Albapad - Geimporteerde shapefile</name><type>detourRoute</type><trkseg>
<trkpt lat="52.1638058" lon="6.0069086"/>
<trkpt lat="52.1637892" lon="6.0070254"/>
<trkpt lat="52.1628910" lon="6.0064684"/>
<trkpt lat="52.1628470" lon="6.0070254"/>
<trkpt lat="52.1628470" lon="6.0072679"/>
<trkpt lat="52.1627720" lon="6.0075662"/>
<trkpt lat="52.1627097" lon="6.0077341"/>
<trkpt lat="52.1626376" lon="6.0079147"/>
<trkpt lat="52.1624248" lon="6.0085129"/>
<trkpt lat="52.1622133" lon="6.0090286"/>
<trkpt lat="52.1620039" lon="6.0096395"/>
<trkpt lat="52.1617559" lon="6.0101965"/>
<trkpt lat="52.1616677" lon="6.0101156"/>
<trkpt lat="52.1614914" lon="6.0104210"/>
<trkpt lat="52.1612108" lon="6.0109708"/>
<trkpt lat="52.1608622" lon="6.0121783"/>
<trkpt lat="52.1605780" lon="6.0132640"/>
<trkpt lat="52.1606117" lon="6.0135906"/>
</trkseg></trk>
<trk><name>Albapad - Geimporteerde shapefile</name><type>approachRoute</type><trkseg>
<trkpt lat="52.1449416" lon="6.0357041"/>
<trkpt lat="52.1451363" lon="6.0356662"/>
<trkpt lat="52.1451156" lon="6.0318861"/>
<trkpt lat="52.1471156" lon="6.0295556"/>
<trkpt lat="52.1472828" lon="6.0289353"/>
<trkpt lat="52.1485643" lon="6.0276764"/>
<trkpt lat="52.1491442" lon="6.0271632"/>
<trkpt lat="52.1501893" lon="6.0261255"/>
<trkpt lat="52.1498012" lon="6.0194942"/>
<trkpt lat="52.1496173" lon="6.0160695"/>
<trkpt lat="52.1489230" lon="6.0115048"/>
<trkpt lat="52.1482021" lon="6.0067336"/>
<trkpt lat="52.1479967" lon="6.0053872"/>
</trkseg></trk>
</gpx>