<?xml version="1.0" encoding="UTF-8"?>
<gpx version="1.1" creator="klompenpaden.nl via Jimbo API" xmlns="http://www.topografix.com/GPX/1/1">
<metadata><name>Alemschepad</name><desc>Ontdek het gebied waar de Maas en Waal elkaar bijna raken. Een schilderachtig landschap met Maasheggen, hoogstamboomgaarden en een indrukwekkend fort. Klompen aan, rugzak op en gaan!</desc><link href="https://www.klompenpaden.nl/klompenpaden/Alemschepad/734fb758-09d9-4523-87bd-dd9291a0572c"><text>klompenpaden.nl</text></link></metadata>
<wpt lat="51.78916434841863" lon="5.33910870552063"><name>Start Alem</name></wpt>
<trk><name>Alemschepad - Hoofdroute</name><type>mainRoute</type><trkseg>
<trkpt lat="51.7893649" lon="5.3391040"/>
<trkpt lat="51.7879037" lon="5.3390319"/>
<trkpt lat="51.7877552" lon="5.3387560"/>
<trkpt lat="51.7866132" lon="5.3375240"/>
<trkpt lat="51.7852427" lon="5.3359058"/>
<trkpt lat="51.7846145" lon="5.3351887"/>
<trkpt lat="51.7842604" lon="5.3347842"/>
<trkpt lat="51.7838837" lon="5.3346926"/>
<trkpt lat="51.7836668" lon="5.3347849"/>
<trkpt lat="51.7830851" lon="5.3356874"/>
<trkpt lat="51.7822523" lon="5.3369399"/>
<trkpt lat="51.7817959" lon="5.3375477"/>
<trkpt lat="51.7811345" lon="5.3390944"/>
<trkpt lat="51.7798686" lon="5.3421507"/>
<trkpt lat="51.7794466" lon="5.3431449"/>
<trkpt lat="51.7796184" lon="5.3447458"/>
<trkpt lat="51.7800533" lon="5.3477820"/>
<trkpt lat="51.7807154" lon="5.3479102"/>
<trkpt lat="51.7815602" lon="5.3482592"/>
<trkpt lat="51.7819828" lon="5.3488109"/>
<trkpt lat="51.7820970" lon="5.3491053"/>
<trkpt lat="51.7819260" lon="5.3498232"/>
<trkpt lat="51.7815723" lon="5.3502836"/>
<trkpt lat="51.7811958" lon="5.3509281"/>
<trkpt lat="51.7810589" lon="5.3512594"/>
<trkpt lat="51.7808193" lon="5.3516461"/>
<trkpt lat="51.7805911" lon="5.3519408"/>
<trkpt lat="51.7804314" lon="5.3524562"/>
<trkpt lat="51.7802146" lon="5.3527692"/>
<trkpt lat="51.7795641" lon="5.3532850"/>
<trkpt lat="51.7791305" lon="5.3538190"/>
<trkpt lat="51.7787996" lon="5.3543161"/>
<trkpt lat="51.7786741" lon="5.3547211"/>
<trkpt lat="51.7788228" lon="5.3555491"/>
<trkpt lat="51.7788518" lon="5.3560573"/>
<trkpt lat="51.7789424" lon="5.3567397"/>
<trkpt lat="51.7791232" lon="5.3571383"/>
<trkpt lat="51.7792945" lon="5.3573145"/>
<trkpt lat="51.7796846" lon="5.3574830"/>
<trkpt lat="51.7803745" lon="5.3578173"/>
<trkpt lat="51.7835382" lon="5.3590244"/>
<trkpt lat="51.7846798" lon="5.3594286"/>
<trkpt lat="51.7854675" lon="5.3596674"/>
<trkpt lat="51.7865749" lon="5.3600716"/>
<trkpt lat="51.7876594" lon="5.3606048"/>
<trkpt lat="51.7879449" lon="5.3608439"/>
<trkpt lat="51.7883444" lon="5.3607884"/>
<trkpt lat="51.7886982" lon="5.3604569"/>
<trkpt lat="51.7889378" lon="5.3598493"/>
<trkpt lat="51.7890403" lon="5.3590394"/>
<trkpt lat="51.7889944" lon="5.3577693"/>
<trkpt lat="51.7893368" lon="5.3577138"/>
<trkpt lat="51.7897670" lon="5.3573300"/>
<trkpt lat="51.7898915" lon="5.3573430"/>
<trkpt lat="51.7904440" lon="5.3572897"/>
<trkpt lat="51.7907979" lon="5.3572895"/>
<trkpt lat="51.7915741" lon="5.3574179"/>
<trkpt lat="51.7921221" lon="5.3574359"/>
<trkpt lat="51.7927156" lon="5.3570489"/>
<trkpt lat="51.7931606" lon="5.3565148"/>
<trkpt lat="51.7932746" lon="5.3558520"/>
<trkpt lat="51.7933543" lon="5.3550419"/>
<trkpt lat="51.7932057" lon="5.3542873"/>
<trkpt lat="51.7930229" lon="5.3536247"/>
<trkpt lat="51.7934677" lon="5.3524830"/>
<trkpt lat="51.7928967" lon="5.3515446"/>
<trkpt lat="51.7919031" lon="5.3500911"/>
<trkpt lat="51.7909565" lon="5.3530556"/>
<trkpt lat="51.7904206" lon="5.3550072"/>
<trkpt lat="51.7902723" lon="5.3555964"/>
<trkpt lat="51.7899300" lon="5.3560200"/>
<trkpt lat="51.7899530" lon="5.3566274"/>
<trkpt lat="51.7898846" lon="5.3571060"/>
<trkpt lat="51.7897315" lon="5.3573574"/>
<trkpt lat="51.7897048" lon="5.3573855"/>
<trkpt lat="51.7896348" lon="5.3574480"/>
<trkpt lat="51.7891542" lon="5.3577692"/>
<trkpt lat="51.7889487" lon="5.3576773"/>
<trkpt lat="51.7889143" lon="5.3570331"/>
<trkpt lat="51.7889026" lon="5.3560943"/>
<trkpt lat="51.7887424" lon="5.3545482"/>
<trkpt lat="51.7885594" lon="5.3534623"/>
<trkpt lat="51.7883310" lon="5.3529471"/>
<trkpt lat="51.7879312" lon="5.3522480"/>
<trkpt lat="51.7875086" lon="5.3514200"/>
<trkpt lat="51.7873714" lon="5.3507943"/>
<trkpt lat="51.7872685" lon="5.3500765"/>
<trkpt lat="51.7872911" lon="5.3493402"/>
<trkpt lat="51.7873931" lon="5.3471866"/>
<trkpt lat="51.7874841" lon="5.3461741"/>
<trkpt lat="51.7876893" lon="5.3454009"/>
<trkpt lat="51.7878375" lon="5.3449222"/>
<trkpt lat="51.7878942" lon="5.3437625"/>
<trkpt lat="51.7881082" lon="5.3426802"/>
<trkpt lat="51.7881756" lon="5.3428028"/>
<trkpt lat="51.7882452" lon="5.3429347"/>
<trkpt lat="51.7883402" lon="5.3429867"/>
<trkpt lat="51.7884342" lon="5.3430767"/>
<trkpt lat="51.7884564" lon="5.3429783"/>
<trkpt lat="51.7886194" lon="5.3426234"/>
<trkpt lat="51.7887292" lon="5.3423047"/>
<trkpt lat="51.7888092" lon="5.3422007"/>
<trkpt lat="51.7888852" lon="5.3420977"/>
<trkpt lat="51.7888712" lon="5.3419517"/>
<trkpt lat="51.7889087" lon="5.3417569"/>
<trkpt lat="51.7889622" lon="5.3415097"/>
<trkpt lat="51.7889252" lon="5.3413557"/>
<trkpt lat="51.7890952" lon="5.3412297"/>
<trkpt lat="51.7891492" lon="5.3411127"/>
<trkpt lat="51.7891512" lon="5.3409547"/>
<trkpt lat="51.7891437" lon="5.3406308"/>
<trkpt lat="51.7892942" lon="5.3404417"/>
<trkpt lat="51.7892712" lon="5.3402987"/>
<trkpt lat="51.7893712" lon="5.3400067"/>
<trkpt lat="51.7894012" lon="5.3397177"/>
<trkpt lat="51.7893362" lon="5.3395617"/>
<trkpt lat="51.7893702" lon="5.3394257"/>
<trkpt lat="51.7893649" lon="5.3391040"/>
<trkpt lat="51.7894989" lon="5.3390025"/>
<trkpt lat="51.7896702" lon="5.3380392"/>
<trkpt lat="51.7897742" lon="5.3378801"/>
</trkseg></trk>
<trk><name>Alemschepad - overstaproute</name><type>connectionRoute</type><trkseg>
<trkpt lat="51.7893600" lon="5.3391000"/>
<trkpt lat="51.7895000" lon="5.3390500"/>
<trkpt lat="51.7896000" lon="5.3383500"/>
<trkpt lat="51.7896800" lon="5.3376500"/>
<trkpt lat="51.7897900" lon="5.3360800"/>
<trkpt lat="51.7899500" lon="5.3348100"/>
<trkpt lat="51.7900700" lon="5.3340200"/>
<trkpt lat="51.7901500" lon="5.3338400"/>
<trkpt lat="51.7896700" lon="5.3336200"/>
<trkpt lat="51.7898200" lon="5.3313100"/>
<trkpt lat="51.7900200" lon="5.3277900"/>
<trkpt lat="51.7901700" lon="5.3254700"/>
<trkpt lat="51.7904100" lon="5.3227100"/>
<trkpt lat="51.7906200" lon="5.3218500"/>
<trkpt lat="51.7908700" lon="5.3218200"/>
<trkpt lat="51.7911500" lon="5.3216900"/>
<trkpt lat="51.7913200" lon="5.3213600"/>
</trkseg></trk>
</gpx>