<?xml version="1.0" encoding="UTF-8"?>
<gpx version="1.1" creator="klompenpaden.nl via Jimbo API" xmlns="http://www.topografix.com/GPX/1/1">
<metadata><name>Ambts- en Rijkspad</name><desc>Ontdek de landschappelijk mooie en cultuurrijke buitendijkse weerden en binnendijkse velden van Winssen Ambts en Winssen Rijks, fruitdorp aan de rivier, befaamd door vroegere dorpsgenoten als de 17e eeuwse zeeheld Van Ghent, de 19e eeuwse orgelbouwers Gradussen en de 20e eeuwse wonderdokter het Boertke van Winssen. Klompen aan, rugzak op en gaan! 
</desc><link href="https://www.klompenpaden.nl/klompenpaden/Ambts-_en_Rijkspad/7f08888e-b035-4a27-bd90-92d4b30a4080"><text>klompenpaden.nl</text></link></metadata>
<wpt lat="51.883037863606525" lon="5.7063353061676025"><name>Start Winssen</name></wpt>
<trk><name>Ambts- en Rijkspad - mainRoute</name><type>mainRoute</type><trkseg>
<trkpt lat="51.8822800" lon="5.7097800"/>
<trkpt lat="51.8824800" lon="5.7095500"/>
<trkpt lat="51.8825800" lon="5.7092400"/>
<trkpt lat="51.8827700" lon="5.7089900"/>
<trkpt lat="51.8830100" lon="5.7085200"/>
<trkpt lat="51.8826800" lon="5.7084100"/>
<trkpt lat="51.8824900" lon="5.7080900"/>
<trkpt lat="51.8826200" lon="5.7076700"/>
<trkpt lat="51.8827100" lon="5.7068300"/>
<trkpt lat="51.8828600" lon="5.7067800"/>
</trkseg></trk>
<trk><name>Ambts- en Rijkspad - Track 1</name><type>mainRoute</type><trkseg>
<trkpt lat="51.8740819" lon="5.6890092"/>
<trkpt lat="51.8739976" lon="5.6895556"/>
<trkpt lat="51.8738385" lon="5.6904075"/>
<trkpt lat="51.8736868" lon="5.6907168"/>
<trkpt lat="51.8734757" lon="5.6913625"/>
<trkpt lat="51.8732221" lon="5.6920520"/>
<trkpt lat="51.8727207" lon="5.6934849"/>
<trkpt lat="51.8726136" lon="5.6938274"/>
<trkpt lat="51.8723473" lon="5.6946932"/>
<trkpt lat="51.8720712" lon="5.6958532"/>
<trkpt lat="51.8719402" lon="5.6971955"/>
<trkpt lat="51.8719092" lon="5.6974305"/>
<trkpt lat="51.8698195" lon="5.6959112"/>
<trkpt lat="51.8684749" lon="5.6947015"/>
<trkpt lat="51.8683614" lon="5.6945786"/>
<trkpt lat="51.8682948" lon="5.6947961"/>
<trkpt lat="51.8682776" lon="5.6951484"/>
<trkpt lat="51.8685730" lon="5.6954434"/>
<trkpt lat="51.8670807" lon="5.6994813"/>
<trkpt lat="51.8662048" lon="5.7025391"/>
<trkpt lat="51.8674120" lon="5.7034286"/>
<trkpt lat="51.8677523" lon="5.7035856"/>
<trkpt lat="51.8680469" lon="5.7036433"/>
<trkpt lat="51.8689540" lon="5.7036714"/>
<trkpt lat="51.8695231" lon="5.7037542"/>
<trkpt lat="51.8699534" lon="5.7038871"/>
<trkpt lat="51.8704103" lon="5.7040727"/>
<trkpt lat="51.8704830" lon="5.7042318"/>
<trkpt lat="51.8703532" lon="5.7053832"/>
<trkpt lat="51.8703881" lon="5.7055566"/>
<trkpt lat="51.8713968" lon="5.7078622"/>
<trkpt lat="51.8721775" lon="5.7089232"/>
<trkpt lat="51.8728468" lon="5.7097802"/>
<trkpt lat="51.8732572" lon="5.7102249"/>
<trkpt lat="51.8734021" lon="5.7104285"/>
<trkpt lat="51.8737173" lon="5.7109966"/>
<trkpt lat="51.8738081" lon="5.7110513"/>
<trkpt lat="51.8739002" lon="5.7110738"/>
<trkpt lat="51.8740282" lon="5.7110297"/>
<trkpt lat="51.8741118" lon="5.7109408"/>
<trkpt lat="51.8747084" lon="5.7103410"/>
<trkpt lat="51.8749263" lon="5.7101933"/>
<trkpt lat="51.8750526" lon="5.7101852"/>
<trkpt lat="51.8751797" lon="5.7102171"/>
<trkpt lat="51.8753213" lon="5.7102598"/>
<trkpt lat="51.8755244" lon="5.7103254"/>
<trkpt lat="51.8756042" lon="5.7103778"/>
<trkpt lat="51.8756728" lon="5.7104819"/>
<trkpt lat="51.8759121" lon="5.7110968"/>
<trkpt lat="51.8762758" lon="5.7119782"/>
<trkpt lat="51.8765242" lon="5.7124771"/>
<trkpt lat="51.8765509" lon="5.7125051"/>
<trkpt lat="51.8765811" lon="5.7125264"/>
<trkpt lat="51.8766224" lon="5.7125281"/>
<trkpt lat="51.8766624" lon="5.7124941"/>
<trkpt lat="51.8768237" lon="5.7122895"/>
<trkpt lat="51.8769394" lon="5.7121419"/>
<trkpt lat="51.8769947" lon="5.7120839"/>
<trkpt lat="51.8770546" lon="5.7120426"/>
<trkpt lat="51.8771820" lon="5.7119979"/>
<trkpt lat="51.8771942" lon="5.7119480"/>
<trkpt lat="51.8773917" lon="5.7119739"/>
<trkpt lat="51.8774205" lon="5.7121102"/>
<trkpt lat="51.8774572" lon="5.7121406"/>
<trkpt lat="51.8776087" lon="5.7121284"/>
<trkpt lat="51.8779036" lon="5.7118098"/>
<trkpt lat="51.8781469" lon="5.7115379"/>
<trkpt lat="51.8783783" lon="5.7112559"/>
<trkpt lat="51.8785156" lon="5.7111231"/>
<trkpt lat="51.8789623" lon="5.7108295"/>
<trkpt lat="51.8796390" lon="5.7104362"/>
<trkpt lat="51.8801958" lon="5.7101433"/>
<trkpt lat="51.8813063" lon="5.7099743"/>
<trkpt lat="51.8822039" lon="5.7098384"/>
<trkpt lat="51.8822885" lon="5.7097972"/>
<trkpt lat="51.8821081" lon="5.7101555"/>
<trkpt lat="51.8817478" lon="5.7107132"/>
<trkpt lat="51.8814568" lon="5.7111432"/>
<trkpt lat="51.8812576" lon="5.7114317"/>
<trkpt lat="51.8807835" lon="5.7119218"/>
<trkpt lat="51.8806064" lon="5.7129684"/>
<trkpt lat="51.8808162" lon="5.7132013"/>
<trkpt lat="51.8809969" lon="5.7137993"/>
<trkpt lat="51.8810766" lon="5.7143109"/>
<trkpt lat="51.8810888" lon="5.7149948"/>
<trkpt lat="51.8811154" lon="5.7158212"/>
<trkpt lat="51.8811241" lon="5.7160886"/>
<trkpt lat="51.8811197" lon="5.7163499"/>
<trkpt lat="51.8811009" lon="5.7165646"/>
<trkpt lat="51.8810756" lon="5.7167076"/>
<trkpt lat="51.8809944" lon="5.7169935"/>
<trkpt lat="51.8809383" lon="5.7172635"/>
<trkpt lat="51.8808646" lon="5.7177277"/>
<trkpt lat="51.8807695" lon="5.7181999"/>
<trkpt lat="51.8805097" lon="5.7197859"/>
<trkpt lat="51.8804179" lon="5.7198967"/>
<trkpt lat="51.8801371" lon="5.7197608"/>
<trkpt lat="51.8800766" lon="5.7197994"/>
<trkpt lat="51.8799757" lon="5.7206990"/>
<trkpt lat="51.8797472" lon="5.7234016"/>
<trkpt lat="51.8797977" lon="5.7235980"/>
<trkpt lat="51.8797877" lon="5.7238909"/>
<trkpt lat="51.8798757" lon="5.7240903"/>
<trkpt lat="51.8799645" lon="5.7244969"/>
<trkpt lat="51.8799009" lon="5.7248506"/>
<trkpt lat="51.8796442" lon="5.7255786"/>
<trkpt lat="51.8799187" lon="5.7251738"/>
<trkpt lat="51.8800899" lon="5.7248990"/>
<trkpt lat="51.8801313" lon="5.7245491"/>
<trkpt lat="51.8801160" lon="5.7241109"/>
<trkpt lat="51.8801462" lon="5.7239836"/>
<trkpt lat="51.8807674" lon="5.7235195"/>
<trkpt lat="51.8809970" lon="5.7232074"/>
<trkpt lat="51.8812203" lon="5.7225691"/>
<trkpt lat="51.8813901" lon="5.7222101"/>
<trkpt lat="51.8816227" lon="5.7219496"/>
<trkpt lat="51.8819294" lon="5.7216455"/>
<trkpt lat="51.8820717" lon="5.7213162"/>
<trkpt lat="51.8823923" lon="5.7200395"/>
<trkpt lat="51.8825063" lon="5.7194184"/>
<trkpt lat="51.8826078" lon="5.7194398"/>
<trkpt lat="51.8828427" lon="5.7194156"/>
<trkpt lat="51.8831412" lon="5.7194225"/>
<trkpt lat="51.8831564" lon="5.7196039"/>
<trkpt lat="51.8831260" lon="5.7198896"/>
<trkpt lat="51.8830385" lon="5.7203091"/>
<trkpt lat="51.8829964" lon="5.7205751"/>
<trkpt lat="51.8829902" lon="5.7207391"/>
<trkpt lat="51.8829959" lon="5.7210469"/>
<trkpt lat="51.8830042" lon="5.7211401"/>
<trkpt lat="51.8833946" lon="5.7214234"/>
<trkpt lat="51.8838054" lon="5.7217540"/>
<trkpt lat="51.8844552" lon="5.7179134"/>
<trkpt lat="51.8864059" lon="5.7193708"/>
<trkpt lat="51.8878867" lon="5.7150810"/>
<trkpt lat="51.8884892" lon="5.7136704"/>
<trkpt lat="51.8888071" lon="5.7126109"/>
<trkpt lat="51.8890473" lon="5.7115926"/>
<trkpt lat="51.8894785" lon="5.7104254"/>
<trkpt lat="51.8897488" lon="5.7097852"/>
<trkpt lat="51.8884554" lon="5.7098243"/>
<trkpt lat="51.8869005" lon="5.7105670"/>
<trkpt lat="51.8864207" lon="5.7107976"/>
<trkpt lat="51.8862201" lon="5.7109421"/>
<trkpt lat="51.8861234" lon="5.7110960"/>
<trkpt lat="51.8860753" lon="5.7110287"/>
<trkpt lat="51.8861076" lon="5.7109501"/>
<trkpt lat="51.8861908" lon="5.7096944"/>
<trkpt lat="51.8862256" lon="5.7088224"/>
<trkpt lat="51.8862122" lon="5.7080965"/>
<trkpt lat="51.8861443" lon="5.7075135"/>
<trkpt lat="51.8860669" lon="5.7072397"/>
<trkpt lat="51.8860517" lon="5.7070457"/>
<trkpt lat="51.8860041" lon="5.7068826"/>
<trkpt lat="51.8859130" lon="5.7068243"/>
<trkpt lat="51.8858884" lon="5.7066639"/>
<trkpt lat="51.8859346" lon="5.7063337"/>
<trkpt lat="51.8859976" lon="5.7051963"/>
<trkpt lat="51.8859997" lon="5.7051159"/>
<trkpt lat="51.8860110" lon="5.7050262"/>
<trkpt lat="51.8860587" lon="5.7045612"/>
<trkpt lat="51.8860958" lon="5.7038119"/>
<trkpt lat="51.8861105" lon="5.7035874"/>
<trkpt lat="51.8867301" lon="5.7030644"/>
<trkpt lat="51.8868562" lon="5.7030095"/>
<trkpt lat="51.8869518" lon="5.7027537"/>
<trkpt lat="51.8869935" lon="5.7026090"/>
<trkpt lat="51.8870497" lon="5.7025843"/>
<trkpt lat="51.8872185" lon="5.7024571"/>
<trkpt lat="51.8874724" lon="5.7024856"/>
<trkpt lat="51.8893976" lon="5.7009628"/>
<trkpt lat="51.8895305" lon="5.7009442"/>
<trkpt lat="51.8894997" lon="5.7014946"/>
<trkpt lat="51.8922151" lon="5.7014927"/>
<trkpt lat="51.8923126" lon="5.7004924"/>
<trkpt lat="51.8923808" lon="5.6995087"/>
<trkpt lat="51.8924778" lon="5.6987147"/>
<trkpt lat="51.8925588" lon="5.6981182"/>
<trkpt lat="51.8926052" lon="5.6974957"/>
<trkpt lat="51.8926511" lon="5.6971113"/>
<trkpt lat="51.8927843" lon="5.6963092"/>
<trkpt lat="51.8930916" lon="5.6949004"/>
<trkpt lat="51.8932671" lon="5.6932719"/>
<trkpt lat="51.8932806" lon="5.6907458"/>
<trkpt lat="51.8933488" lon="5.6897202"/>
<trkpt lat="51.8933828" lon="5.6885717"/>
<trkpt lat="51.8933664" lon="5.6882258"/>
<trkpt lat="51.8933988" lon="5.6877074"/>
<trkpt lat="51.8933558" lon="5.6869933"/>
<trkpt lat="51.8934931" lon="5.6858901"/>
<trkpt lat="51.8935429" lon="5.6853049"/>
<trkpt lat="51.8936412" lon="5.6846363"/>
<trkpt lat="51.8934275" lon="5.6845457"/>
<trkpt lat="51.8933148" lon="5.6854511"/>
<trkpt lat="51.8931715" lon="5.6861835"/>
<trkpt lat="51.8929444" lon="5.6866253"/>
<trkpt lat="51.8927391" lon="5.6873071"/>
<trkpt lat="51.8926610" lon="5.6888429"/>
<trkpt lat="51.8926084" lon="5.6903189"/>
<trkpt lat="51.8924257" lon="5.6929274"/>
<trkpt lat="51.8923241" lon="5.6937060"/>
<trkpt lat="51.8921156" lon="5.6942622"/>
<trkpt lat="51.8919078" lon="5.6945452"/>
<trkpt lat="51.8916764" lon="5.6946607"/>
<trkpt lat="51.8913898" lon="5.6947201"/>
<trkpt lat="51.8910310" lon="5.6947260"/>
<trkpt lat="51.8907571" lon="5.6945903"/>
<trkpt lat="51.8905611" lon="5.6943129"/>
<trkpt lat="51.8904959" lon="5.6941898"/>
<trkpt lat="51.8904191" lon="5.6939794"/>
<trkpt lat="51.8903197" lon="5.6936003"/>
<trkpt lat="51.8902705" lon="5.6933128"/>
<trkpt lat="51.8902507" lon="5.6929502"/>
<trkpt lat="51.8902028" lon="5.6921302"/>
<trkpt lat="51.8900641" lon="5.6897204"/>
<trkpt lat="51.8900435" lon="5.6893495"/>
<trkpt lat="51.8899533" lon="5.6892053"/>
<trkpt lat="51.8895217" lon="5.6893195"/>
<trkpt lat="51.8894986" lon="5.6884774"/>
<trkpt lat="51.8894050" lon="5.6879003"/>
<trkpt lat="51.8893951" lon="5.6871123"/>
<trkpt lat="51.8895619" lon="5.6858307"/>
<trkpt lat="51.8891256" lon="5.6855373"/>
<trkpt lat="51.8891168" lon="5.6854153"/>
<trkpt lat="51.8889079" lon="5.6855846"/>
<trkpt lat="51.8888182" lon="5.6855591"/>
<trkpt lat="51.8887159" lon="5.6856885"/>
<trkpt lat="51.8886493" lon="5.6857210"/>
<trkpt lat="51.8885856" lon="5.6857314"/>
<trkpt lat="51.8885230" lon="5.6856988"/>
<trkpt lat="51.8874162" lon="5.6850053"/>
<trkpt lat="51.8870577" lon="5.6848141"/>
<trkpt lat="51.8866450" lon="5.6846272"/>
<trkpt lat="51.8861550" lon="5.6843688"/>
<trkpt lat="51.8846304" lon="5.6835196"/>
<trkpt lat="51.8846235" lon="5.6835158"/>
<trkpt lat="51.8847291" lon="5.6830656"/>
<trkpt lat="51.8847145" lon="5.6830579"/>
<trkpt lat="51.8846575" lon="5.6830274"/>
<trkpt lat="51.8849502" lon="5.6819071"/>
<trkpt lat="51.8849400" lon="5.6819030"/>
<trkpt lat="51.8823046" lon="5.6808274"/>
<trkpt lat="51.8823188" lon="5.6806839"/>
<trkpt lat="51.8822248" lon="5.6806568"/>
<trkpt lat="51.8822082" lon="5.6807668"/>
<trkpt lat="51.8797722" lon="5.6797711"/>
<trkpt lat="51.8798178" lon="5.6792997"/>
<trkpt lat="51.8797372" lon="5.6792692"/>
<trkpt lat="51.8793558" lon="5.6831070"/>
<trkpt lat="51.8791093" lon="5.6830580"/>
<trkpt lat="51.8790828" lon="5.6832808"/>
<trkpt lat="51.8788770" lon="5.6833538"/>
<trkpt lat="51.8787805" lon="5.6840081"/>
<trkpt lat="51.8777136" lon="5.6863563"/>
<trkpt lat="51.8777476" lon="5.6865656"/>
<trkpt lat="51.8780314" lon="5.6868880"/>
<trkpt lat="51.8780312" lon="5.6869716"/>
<trkpt lat="51.8773529" lon="5.6885653"/>
<trkpt lat="51.8766222" lon="5.6902550"/>
<trkpt lat="51.8764493" lon="5.6900852"/>
<trkpt lat="51.8762793" lon="5.6901022"/>
<trkpt lat="51.8759081" lon="5.6908885"/>
<trkpt lat="51.8742426" lon="5.6888496"/>
<trkpt lat="51.8742584" lon="5.6887438"/>
<trkpt lat="51.8741680" lon="5.6886721"/>
<trkpt lat="51.8740819" lon="5.6890092"/>
</trkseg></trk>
<trk><name>Ambts- en Rijkspad - shorteningRoute</name><type>shorteningRoute</type><trkseg>
<trkpt lat="51.8828600" lon="5.7067800"/>
<trkpt lat="51.8828500" lon="5.7064200"/>
<trkpt lat="51.8818800" lon="5.7066200"/>
<trkpt lat="51.8817900" lon="5.7065100"/>
<trkpt lat="51.8817400" lon="5.7065400"/>
<trkpt lat="51.8814800" lon="5.7064300"/>
<trkpt lat="51.8815000" lon="5.7063500"/>
<trkpt lat="51.8812000" lon="5.7061800"/>
<trkpt lat="51.8809200" lon="5.7059700"/>
<trkpt lat="51.8810200" lon="5.7055800"/>
<trkpt lat="51.8811100" lon="5.7054300"/>
<trkpt lat="51.8812500" lon="5.7051200"/>
<trkpt lat="51.8813700" lon="5.7046700"/>
<trkpt lat="51.8806500" lon="5.7042300"/>
<trkpt lat="51.8809500" lon="5.7033100"/>
<trkpt lat="51.8799200" lon="5.7011700"/>
<trkpt lat="51.8798400" lon="5.7013100"/>
<trkpt lat="51.8786500" lon="5.6990900"/>
<trkpt lat="51.8782000" lon="5.6981900"/>
<trkpt lat="51.8778300" lon="5.6973900"/>
<trkpt lat="51.8777400" lon="5.6971600"/>
<trkpt lat="51.8776400" lon="5.6970500"/>
<trkpt lat="51.8776700" lon="5.6966600"/>
<trkpt lat="51.8764200" lon="5.6946100"/>
<trkpt lat="51.8760500" lon="5.6942200"/>
<trkpt lat="51.8764500" lon="5.6933700"/>
<trkpt lat="51.8752800" lon="5.6919900"/>
<trkpt lat="51.8738300" lon="5.6904000"/>
<trkpt lat="51.8739900" lon="5.6895500"/>
<trkpt lat="51.8740800" lon="5.6890000"/>
</trkseg></trk>
<trk><name>Ambts- en Rijkspad - alternativeRoute</name><type>alternativeRoute</type><trkseg>
<trkpt lat="51.8798700" lon="5.7240900"/>
<trkpt lat="51.8798900" lon="5.7239700"/>
<trkpt lat="51.8799300" lon="5.7238700"/>
<trkpt lat="51.8800400" lon="5.7237700"/>
<trkpt lat="51.8805600" lon="5.7234000"/>
<trkpt lat="51.8806900" lon="5.7232700"/>
<trkpt lat="51.8808100" lon="5.7231000"/>
<trkpt lat="51.8809000" lon="5.7228900"/>
<trkpt lat="51.8810200" lon="5.7224500"/>
<trkpt lat="51.8811100" lon="5.7222100"/>
<trkpt lat="51.8812100" lon="5.7220200"/>
<trkpt lat="51.8813300" lon="5.7218500"/>
<trkpt lat="51.8815600" lon="5.7216300"/>
<trkpt lat="51.8817500" lon="5.7214000"/>
<trkpt lat="51.8818200" lon="5.7213000"/>
<trkpt lat="51.8818800" lon="5.7211200"/>
<trkpt lat="51.8822300" lon="5.7196000"/>
<trkpt lat="51.8822800" lon="5.7193500"/>
<trkpt lat="51.8824600" lon="5.7179300"/>
<trkpt lat="51.8825300" lon="5.7175000"/>
<trkpt lat="51.8826500" lon="5.7170000"/>
<trkpt lat="51.8830200" lon="5.7158700"/>
<trkpt lat="51.8832100" lon="5.7150700"/>
<trkpt lat="51.8832200" lon="5.7148800"/>
<trkpt lat="51.8831900" lon="5.7146600"/>
<trkpt lat="51.8831200" lon="5.7144600"/>
<trkpt lat="51.8829000" lon="5.7140700"/>
<trkpt lat="51.8828800" lon="5.7139700"/>
<trkpt lat="51.8829000" lon="5.7133600"/>
<trkpt lat="51.8829400" lon="5.7130800"/>
<trkpt lat="51.8831000" lon="5.7122400"/>
<trkpt lat="51.8831300" lon="5.7119700"/>
<trkpt lat="51.8831300" lon="5.7118000"/>
<trkpt lat="51.8830100" lon="5.7109600"/>
<trkpt lat="51.8830200" lon="5.7108000"/>
<trkpt lat="51.8830700" lon="5.7106200"/>
<trkpt lat="51.8833300" lon="5.7102500"/>
<trkpt lat="51.8834200" lon="5.7101600"/>
<trkpt lat="51.8837800" lon="5.7099100"/>
<trkpt lat="51.8839000" lon="5.7097700"/>
<trkpt lat="51.8840100" lon="5.7095900"/>
<trkpt lat="51.8841100" lon="5.7093900"/>
<trkpt lat="51.8841900" lon="5.7091600"/>
<trkpt lat="51.8847300" lon="5.7075300"/>
<trkpt lat="51.8849000" lon="5.7071700"/>
<trkpt lat="51.8852800" lon="5.7065600"/>
<trkpt lat="51.8853900" lon="5.7063600"/>
<trkpt lat="51.8854600" lon="5.7061700"/>
<trkpt lat="51.8855100" lon="5.7059300"/>
<trkpt lat="51.8856200" lon="5.7053000"/>
<trkpt lat="51.8857000" lon="5.7047200"/>
<trkpt lat="51.8857600" lon="5.7035500"/>
<trkpt lat="51.8859100" lon="5.7021800"/>
<trkpt lat="51.8859700" lon="5.7018300"/>
<trkpt lat="51.8862200" lon="5.7008200"/>
<trkpt lat="51.8864900" lon="5.6994500"/>
<trkpt lat="51.8867500" lon="5.6984300"/>
<trkpt lat="51.8874600" lon="5.6960800"/>
<trkpt lat="51.8891600" lon="5.6903600"/>
<trkpt lat="51.8891500" lon="5.6902300"/>
<trkpt lat="51.8890200" lon="5.6897800"/>
<trkpt lat="51.8889400" lon="5.6892700"/>
<trkpt lat="51.8888700" lon="5.6876800"/>
<trkpt lat="51.8888700" lon="5.6870700"/>
<trkpt lat="51.8889500" lon="5.6863600"/>
<trkpt lat="51.8891200" lon="5.6855300"/>
</trkseg></trk>
<trk><name>Ambts- en Rijkspad - connectionRoute</name><type>connectionRoute</type><trkseg>
<trkpt lat="51.8796400" lon="5.7255700"/>
<trkpt lat="51.8795800" lon="5.7257300"/>
<trkpt lat="51.8795000" lon="5.7260400"/>
<trkpt lat="51.8794500" lon="5.7264700"/>
<trkpt lat="51.8794200" lon="5.7269600"/>
<trkpt lat="51.8794100" lon="5.7276000"/>
<trkpt lat="51.8794300" lon="5.7279100"/>
<trkpt lat="51.8795100" lon="5.7283300"/>
<trkpt lat="51.8796000" lon="5.7286300"/>
<trkpt lat="51.8798700" lon="5.7292600"/>
<trkpt lat="51.8799100" lon="5.7295300"/>
<trkpt lat="51.8799500" lon="5.7316200"/>
<trkpt lat="51.8799400" lon="5.7329500"/>
<trkpt lat="51.8799700" lon="5.7333400"/>
<trkpt lat="51.8800400" lon="5.7334900"/>
<trkpt lat="51.8804000" lon="5.7340000"/>
<trkpt lat="51.8804700" lon="5.7341400"/>
<trkpt lat="51.8805400" lon="5.7343500"/>
<trkpt lat="51.8806100" lon="5.7347000"/>
<trkpt lat="51.8806100" lon="5.7349300"/>
<trkpt lat="51.8805900" lon="5.7351700"/>
<trkpt lat="51.8803200" lon="5.7368000"/>
<trkpt lat="51.8802800" lon="5.7373100"/>
<trkpt lat="51.8802600" lon="5.7378500"/>
<trkpt lat="51.8802800" lon="5.7384500"/>
<trkpt lat="51.8803400" lon="5.7399000"/>
<trkpt lat="51.8803200" lon="5.7407500"/>
<trkpt lat="51.8802700" lon="5.7410200"/>
<trkpt lat="51.8802100" lon="5.7412200"/>
<trkpt lat="51.8800400" lon="5.7415500"/>
<trkpt lat="51.8799100" lon="5.7416900"/>
<trkpt lat="51.8797900" lon="5.7417700"/>
<trkpt lat="51.8796600" lon="5.7418100"/>
<trkpt lat="51.8795200" lon="5.7418100"/>
<trkpt lat="51.8794100" lon="5.7418500"/>
<trkpt lat="51.8793200" lon="5.7419400"/>
<trkpt lat="51.8792400" lon="5.7420900"/>
<trkpt lat="51.8791600" lon="5.7425500"/>
<trkpt lat="51.8791000" lon="5.7427600"/>
<trkpt lat="51.8790500" lon="5.7428900"/>
<trkpt lat="51.8789500" lon="5.7430600"/>
<trkpt lat="51.8788200" lon="5.7432300"/>
<trkpt lat="51.8784100" lon="5.7435800"/>
<trkpt lat="51.8783200" lon="5.7437100"/>
<trkpt lat="51.8782800" lon="5.7438400"/>
<trkpt lat="51.8782800" lon="5.7439700"/>
<trkpt lat="51.8783100" lon="5.7444000"/>
<trkpt lat="51.8783000" lon="5.7447000"/>
<trkpt lat="51.8780100" lon="5.7462800"/>
<trkpt lat="51.8779700" lon="5.7467300"/>
<trkpt lat="51.8779500" lon="5.7478200"/>
<trkpt lat="51.8779600" lon="5.7480300"/>
<trkpt lat="51.8780400" lon="5.7483000"/>
<trkpt lat="51.8780200" lon="5.7484100"/>
<trkpt lat="51.8778500" lon="5.7486800"/>
<trkpt lat="51.8777500" lon="5.7487100"/>
<trkpt lat="51.8770200" lon="5.7486100"/>
<trkpt lat="51.8768700" lon="5.7487800"/>
</trkseg></trk>
</gpx>