<?xml version="1.0" encoding="UTF-8"?>
<gpx version="1.1" creator="klompenpaden.nl via Jimbo API" xmlns="http://www.topografix.com/GPX/1/1">
<metadata><name>Appelpad</name><desc>Ontdek het mooie buitengebied van Nijkerk. Wandelen door het agrarische gebied, over landgoederen, door weilanden en over boerenerven. Rust, kleinschaligheid en de combinatie van cultuur en natuur bepalen hier de sfeer. Klompen aan, rugzak op en gaan!</desc><link href="https://www.klompenpaden.nl/klompenpaden/Appelpad/dbafd45f-1e24-48ac-bf02-8655a1f95103"><text>klompenpaden.nl</text></link></metadata>
<wpt lat="52.18889126800563" lon="5.540800094604492"><name>Start Appel</name></wpt>
<trk><name>Appelpad - mainRoute</name><type>mainRoute</type><trkseg>
<trkpt lat="52.1888400" lon="5.5405900"/>
<trkpt lat="52.1889000" lon="5.5408100"/>
<trkpt lat="52.1888200" lon="5.5411700"/>
<trkpt lat="52.1884400" lon="5.5425400"/>
<trkpt lat="52.1881400" lon="5.5430600"/>
<trkpt lat="52.1877400" lon="5.5436700"/>
<trkpt lat="52.1876400" lon="5.5439100"/>
<trkpt lat="52.1875600" lon="5.5446200"/>
<trkpt lat="52.1877300" lon="5.5456400"/>
<trkpt lat="52.1877200" lon="5.5476200"/>
<trkpt lat="52.1877800" lon="5.5493100"/>
<trkpt lat="52.1878900" lon="5.5504300"/>
<trkpt lat="52.1883500" lon="5.5518000"/>
<trkpt lat="52.1885600" lon="5.5528800"/>
<trkpt lat="52.1885700" lon="5.5533500"/>
<trkpt lat="52.1884100" lon="5.5543800"/>
<trkpt lat="52.1884000" lon="5.5547900"/>
<trkpt lat="52.1885100" lon="5.5555500"/>
<trkpt lat="52.1890700" lon="5.5577600"/>
<trkpt lat="52.1894800" lon="5.5592400"/>
<trkpt lat="52.1896100" lon="5.5593000"/>
<trkpt lat="52.1896600" lon="5.5601700"/>
<trkpt lat="52.1898400" lon="5.5624100"/>
<trkpt lat="52.1883800" lon="5.5602300"/>
<trkpt lat="52.1881600" lon="5.5593300"/>
<trkpt lat="52.1877400" lon="5.5584500"/>
<trkpt lat="52.1875200" lon="5.5580900"/>
<trkpt lat="52.1873100" lon="5.5573400"/>
<trkpt lat="52.1871700" lon="5.5570600"/>
<trkpt lat="52.1871000" lon="5.5568300"/>
<trkpt lat="52.1870300" lon="5.5562600"/>
<trkpt lat="52.1869300" lon="5.5560000"/>
<trkpt lat="52.1867000" lon="5.5556200"/>
<trkpt lat="52.1864400" lon="5.5552100"/>
<trkpt lat="52.1860200" lon="5.5544700"/>
<trkpt lat="52.1859200" lon="5.5541500"/>
<trkpt lat="52.1859700" lon="5.5537600"/>
<trkpt lat="52.1861600" lon="5.5532200"/>
<trkpt lat="52.1863700" lon="5.5527300"/>
<trkpt lat="52.1864300" lon="5.5517500"/>
<trkpt lat="52.1864200" lon="5.5513000"/>
<trkpt lat="52.1863200" lon="5.5507800"/>
<trkpt lat="52.1862800" lon="5.5502200"/>
<trkpt lat="52.1863100" lon="5.5500400"/>
<trkpt lat="52.1862600" lon="5.5497900"/>
<trkpt lat="52.1860900" lon="5.5497800"/>
<trkpt lat="52.1857000" lon="5.5498700"/>
<trkpt lat="52.1854400" lon="5.5498000"/>
<trkpt lat="52.1853900" lon="5.5499700"/>
<trkpt lat="52.1851800" lon="5.5498700"/>
<trkpt lat="52.1847800" lon="5.5494900"/>
<trkpt lat="52.1844800" lon="5.5490300"/>
<trkpt lat="52.1843100" lon="5.5487100"/>
<trkpt lat="52.1833100" lon="5.5480200"/>
<trkpt lat="52.1832000" lon="5.5477900"/>
<trkpt lat="52.1827200" lon="5.5476800"/>
<trkpt lat="52.1820200" lon="5.5474900"/>
<trkpt lat="52.1807200" lon="5.5475900"/>
<trkpt lat="52.1805800" lon="5.5476400"/>
<trkpt lat="52.1805100" lon="5.5477500"/>
<trkpt lat="52.1804400" lon="5.5477600"/>
<trkpt lat="52.1803700" lon="5.5476400"/>
<trkpt lat="52.1803100" lon="5.5475500"/>
<trkpt lat="52.1802200" lon="5.5475600"/>
<trkpt lat="52.1801200" lon="5.5477500"/>
<trkpt lat="52.1799800" lon="5.5479300"/>
<trkpt lat="52.1799300" lon="5.5482300"/>
<trkpt lat="52.1796800" lon="5.5486200"/>
<trkpt lat="52.1796600" lon="5.5487300"/>
<trkpt lat="52.1797500" lon="5.5489500"/>
<trkpt lat="52.1797400" lon="5.5490700"/>
<trkpt lat="52.1796800" lon="5.5491900"/>
<trkpt lat="52.1795800" lon="5.5491400"/>
<trkpt lat="52.1794300" lon="5.5486600"/>
<trkpt lat="52.1795500" lon="5.5479800"/>
<trkpt lat="52.1796000" lon="5.5474700"/>
<trkpt lat="52.1795700" lon="5.5472400"/>
<trkpt lat="52.1794800" lon="5.5428400"/>
<trkpt lat="52.1794300" lon="5.5424100"/>
<trkpt lat="52.1794200" lon="5.5420600"/>
<trkpt lat="52.1795400" lon="5.5415000"/>
<trkpt lat="52.1799400" lon="5.5412900"/>
<trkpt lat="52.1800800" lon="5.5411700"/>
<trkpt lat="52.1801100" lon="5.5398300"/>
<trkpt lat="52.1800600" lon="5.5395900"/>
<trkpt lat="52.1800100" lon="5.5394800"/>
<trkpt lat="52.1799200" lon="5.5395600"/>
<trkpt lat="52.1782100" lon="5.5347600"/>
<trkpt lat="52.1767200" lon="5.5360500"/>
<trkpt lat="52.1757800" lon="5.5334900"/>
<trkpt lat="52.1749000" lon="5.5309900"/>
<trkpt lat="52.1748800" lon="5.5309000"/>
<trkpt lat="52.1791900" lon="5.5269800"/>
<trkpt lat="52.1809400" lon="5.5253100"/>
<trkpt lat="52.1822200" lon="5.5241200"/>
<trkpt lat="52.1835500" lon="5.5228600"/>
<trkpt lat="52.1843600" lon="5.5252400"/>
<trkpt lat="52.1871600" lon="5.5331900"/>
<trkpt lat="52.1874000" lon="5.5338900"/>
<trkpt lat="52.1874400" lon="5.5344400"/>
<trkpt lat="52.1867700" lon="5.5374200"/>
<trkpt lat="52.1875100" lon="5.5391800"/>
<trkpt lat="52.1875400" lon="5.5398800"/>
<trkpt lat="52.1880800" lon="5.5402500"/>
<trkpt lat="52.1881800" lon="5.5401700"/>
<trkpt lat="52.1883900" lon="5.5403100"/>
<trkpt lat="52.1884600" lon="5.5402300"/>
<trkpt lat="52.1888300" lon="5.5404100"/>
<trkpt lat="52.1888300" lon="5.5405800"/>
</trkseg></trk>
<trk><name>Appelpad - shorteningRoute</name><type>shorteningRoute</type><trkseg>
<trkpt lat="52.1875900" lon="5.5450300"/>
<trkpt lat="52.1868000" lon="5.5444500"/>
<trkpt lat="52.1861600" lon="5.5444400"/>
<trkpt lat="52.1862500" lon="5.5452300"/>
<trkpt lat="52.1865100" lon="5.5463700"/>
<trkpt lat="52.1873800" lon="5.5485600"/>
<trkpt lat="52.1872300" lon="5.5487500"/>
<trkpt lat="52.1869700" lon="5.5491600"/>
<trkpt lat="52.1868300" lon="5.5496600"/>
<trkpt lat="52.1866000" lon="5.5499000"/>
<trkpt lat="52.1863000" lon="5.5500700"/>
</trkseg></trk>
<trk><name>Appelpad - connectionRoute</name><type>connectionRoute</type><trkseg>
<trkpt lat="52.2103800" lon="5.5474900"/>
<trkpt lat="52.2039600" lon="5.5483100"/>
<trkpt lat="52.2036400" lon="5.5484600"/>
<trkpt lat="52.2034100" lon="5.5484000"/>
<trkpt lat="52.2023200" lon="5.5485700"/>
<trkpt lat="52.2020800" lon="5.5489900"/>
<trkpt lat="52.1983900" lon="5.5566600"/>
<trkpt lat="52.1981200" lon="5.5550900"/>
<trkpt lat="52.1965900" lon="5.5558300"/>
<trkpt lat="52.1961600" lon="5.5559200"/>
<trkpt lat="52.1959500" lon="5.5559100"/>
<trkpt lat="52.1957700" lon="5.5560400"/>
<trkpt lat="52.1957000" lon="5.5561700"/>
<trkpt lat="52.1944700" lon="5.5567100"/>
<trkpt lat="52.1943800" lon="5.5566200"/>
<trkpt lat="52.1941400" lon="5.5559700"/>
<trkpt lat="52.1941000" lon="5.5559300"/>
<trkpt lat="52.1934400" lon="5.5560800"/>
<trkpt lat="52.1932100" lon="5.5585800"/>
<trkpt lat="52.1931400" lon="5.5585700"/>
<trkpt lat="52.1931300" lon="5.5588300"/>
<trkpt lat="52.1926500" lon="5.5589300"/>
<trkpt lat="52.1920700" lon="5.5590000"/>
<trkpt lat="52.1919700" lon="5.5591000"/>
<trkpt lat="52.1919200" lon="5.5597000"/>
<trkpt lat="52.1918100" lon="5.5602600"/>
<trkpt lat="52.1915500" lon="5.5612300"/>
<trkpt lat="52.1911500" lon="5.5625700"/>
<trkpt lat="52.1910700" lon="5.5625500"/>
<trkpt lat="52.1908100" lon="5.5626000"/>
<trkpt lat="52.1905600" lon="5.5625100"/>
<trkpt lat="52.1903000" lon="5.5624400"/>
<trkpt lat="52.1900800" lon="5.5624800"/>
<trkpt lat="52.1899100" lon="5.5624900"/>
<trkpt lat="52.1898400" lon="5.5624100"/>
</trkseg></trk>
<trk><name>Appelpad - connectionRoute</name><type>connectionRoute</type><trkseg>
<trkpt lat="52.1927800" lon="5.6205600"/>
<trkpt lat="52.1928700" lon="5.6202700"/>
<trkpt lat="52.1929300" lon="5.6199800"/>
<trkpt lat="52.1928300" lon="5.6195500"/>
<trkpt lat="52.1928500" lon="5.6190900"/>
<trkpt lat="52.1927600" lon="5.6190500"/>
<trkpt lat="52.1925800" lon="5.6188000"/>
<trkpt lat="52.1925300" lon="5.6186200"/>
<trkpt lat="52.1925000" lon="5.6184500"/>
<trkpt lat="52.1924300" lon="5.6183500"/>
<trkpt lat="52.1923000" lon="5.6182300"/>
<trkpt lat="52.1922200" lon="5.6181100"/>
<trkpt lat="52.1921600" lon="5.6179600"/>
<trkpt lat="52.1921500" lon="5.6177800"/>
<trkpt lat="52.1921600" lon="5.6173400"/>
<trkpt lat="52.1921000" lon="5.6173000"/>
<trkpt lat="52.1920200" lon="5.6173000"/>
<trkpt lat="52.1918800" lon="5.6173800"/>
<trkpt lat="52.1917900" lon="5.6175200"/>
<trkpt lat="52.1917200" lon="5.6176700"/>
<trkpt lat="52.1916900" lon="5.6177800"/>
<trkpt lat="52.1917000" lon="5.6179600"/>
<trkpt lat="52.1915000" lon="5.6179800"/>
<trkpt lat="52.1913400" lon="5.6179400"/>
<trkpt lat="52.1913400" lon="5.6174600"/>
<trkpt lat="52.1913700" lon="5.6174000"/>
<trkpt lat="52.1918800" lon="5.6168600"/>
<trkpt lat="52.1922000" lon="5.6166300"/>
<trkpt lat="52.1922000" lon="5.6165300"/>
<trkpt lat="52.1921300" lon="5.6162600"/>
<trkpt lat="52.1920500" lon="5.6161200"/>
<trkpt lat="52.1919800" lon="5.6161300"/>
<trkpt lat="52.1918900" lon="5.6162900"/>
<trkpt lat="52.1918200" lon="5.6163200"/>
<trkpt lat="52.1916400" lon="5.6161400"/>
<trkpt lat="52.1916200" lon="5.6160300"/>
<trkpt lat="52.1919000" lon="5.6151300"/>
<trkpt lat="52.1920500" lon="5.6147100"/>
<trkpt lat="52.1922700" lon="5.6144200"/>
<trkpt lat="52.1922800" lon="5.6142500"/>
<trkpt lat="52.1921900" lon="5.6125600"/>
<trkpt lat="52.1919400" lon="5.6116800"/>
<trkpt lat="52.1918400" lon="5.6112400"/>
<trkpt lat="52.1918000" lon="5.6107700"/>
<trkpt lat="52.1918100" lon="5.6103400"/>
<trkpt lat="52.1919400" lon="5.6094700"/>
<trkpt lat="52.1919600" lon="5.6087600"/>
<trkpt lat="52.1920300" lon="5.6084800"/>
<trkpt lat="52.1922100" lon="5.6080900"/>
<trkpt lat="52.1922400" lon="5.6078200"/>
<trkpt lat="52.1924700" lon="5.6078600"/>
<trkpt lat="52.1925200" lon="5.6074500"/>
<trkpt lat="52.1925200" lon="5.6067100"/>
<trkpt lat="52.1927500" lon="5.6044500"/>
<trkpt lat="52.1927300" lon="5.6038600"/>
<trkpt lat="52.1925000" lon="5.6030700"/>
<trkpt lat="52.1922300" lon="5.6022500"/>
<trkpt lat="52.1920700" lon="5.6026400"/>
<trkpt lat="52.1919800" lon="5.6025300"/>
<trkpt lat="52.1927800" lon="5.6001400"/>
<trkpt lat="52.1929200" lon="5.5995200"/>
<trkpt lat="52.1930300" lon="5.5984200"/>
<trkpt lat="52.1930100" lon="5.5977800"/>
<trkpt lat="52.1930900" lon="5.5962000"/>
<trkpt lat="52.1932300" lon="5.5961900"/>
<trkpt lat="52.1936000" lon="5.5960200"/>
<trkpt lat="52.1942200" lon="5.5945600"/>
<trkpt lat="52.1948600" lon="5.5942700"/>
<trkpt lat="52.1957300" lon="5.5939900"/>
<trkpt lat="52.1959900" lon="5.5922900"/>
<trkpt lat="52.1958800" lon="5.5898700"/>
<trkpt lat="52.1954900" lon="5.5897100"/>
<trkpt lat="52.1954100" lon="5.5894500"/>
<trkpt lat="52.1955100" lon="5.5881300"/>
<trkpt lat="52.1954900" lon="5.5879800"/>
<trkpt lat="52.1951700" lon="5.5879100"/>
<trkpt lat="52.1949200" lon="5.5882000"/>
<trkpt lat="52.1947000" lon="5.5887100"/>
<trkpt lat="52.1945700" lon="5.5889400"/>
<trkpt lat="52.1944600" lon="5.5888000"/>
<trkpt lat="52.1939500" lon="5.5893300"/>
<trkpt lat="52.1935200" lon="5.5877700"/>
<trkpt lat="52.1932500" lon="5.5871700"/>
<trkpt lat="52.1931800" lon="5.5865300"/>
<trkpt lat="52.1931700" lon="5.5860500"/>
<trkpt lat="52.1928300" lon="5.5839600"/>
<trkpt lat="52.1923700" lon="5.5823900"/>
<trkpt lat="52.1917200" lon="5.5822200"/>
<trkpt lat="52.1916500" lon="5.5813300"/>
<trkpt lat="52.1915100" lon="5.5798500"/>
<trkpt lat="52.1915400" lon="5.5786600"/>
<trkpt lat="52.1909600" lon="5.5729100"/>
<trkpt lat="52.1898400" lon="5.5624100"/>
</trkseg></trk>
</gpx>