<?xml version="1.0" encoding="UTF-8"?>
<gpx version="1.1" creator="klompenpaden.nl via Jimbo API" xmlns="http://www.topografix.com/GPX/1/1">
<metadata><name>Assenradepad</name><desc>Ontdek het mooie buitengebied van Hattem, een Hanzestad aan de IJssel. Wandelen over een oud spoortracé, door een polder, bossen en een landgoed, langs de voet van de dijk, over een landgoed in het prachtige buitengebied van Hattem. Klompen aan, rugzak op en gaan!</desc><link href="https://www.klompenpaden.nl/klompenpaden/Assenradepad/55b98d0c-9b37-4581-ae99-02a97f0384ce"><text>klompenpaden.nl</text></link></metadata>
<wpt lat="52.46565817950717" lon="6.054936647415161"><name>Start Hattem</name></wpt>
<trk><name>Assenradepad - hoofdroute</name><type>mainRoute</type><trkseg>
<trkpt lat="52.4656066" lon="6.0548284"/>
<trkpt lat="52.4657430" lon="6.0550850"/>
<trkpt lat="52.4657279" lon="6.0552109"/>
<trkpt lat="52.4657129" lon="6.0553131"/>
<trkpt lat="52.4656833" lon="6.0554388"/>
<trkpt lat="52.4657692" lon="6.0555583"/>
<trkpt lat="52.4658796" lon="6.0556309"/>
<trkpt lat="52.4659242" lon="6.0556968"/>
<trkpt lat="52.4660129" lon="6.0557732"/>
<trkpt lat="52.4661900" lon="6.0559036"/>
<trkpt lat="52.4665243" lon="6.0561688"/>
<trkpt lat="52.4666025" lon="6.0561778"/>
<trkpt lat="52.4667479" lon="6.0570430"/>
<trkpt lat="52.4668353" lon="6.0575084"/>
<trkpt lat="52.4671106" lon="6.0591034"/>
<trkpt lat="52.4672268" lon="6.0590849"/>
<trkpt lat="52.4673622" lon="6.0590231"/>
<trkpt lat="52.4676197" lon="6.0589009"/>
<trkpt lat="52.4677667" lon="6.0588190"/>
<trkpt lat="52.4680125" lon="6.0586163"/>
<trkpt lat="52.4681429" lon="6.0584861"/>
<trkpt lat="52.4682982" lon="6.0583809"/>
<trkpt lat="52.4683597" lon="6.0583796"/>
<trkpt lat="52.4684624" lon="6.0583928"/>
<trkpt lat="52.4685304" lon="6.0584674"/>
<trkpt lat="52.4685892" lon="6.0585712"/>
<trkpt lat="52.4686255" lon="6.0587569"/>
<trkpt lat="52.4685939" lon="6.0593868"/>
<trkpt lat="52.4685589" lon="6.0601163"/>
<trkpt lat="52.4707711" lon="6.0606346"/>
<trkpt lat="52.4708109" lon="6.0600004"/>
<trkpt lat="52.4708122" lon="6.0596645"/>
<trkpt lat="52.4707930" lon="6.0594774"/>
<trkpt lat="52.4714251" lon="6.0592889"/>
<trkpt lat="52.4714346" lon="6.0592406"/>
<trkpt lat="52.4714398" lon="6.0592025"/>
<trkpt lat="52.4714681" lon="6.0591949"/>
<trkpt lat="52.4714817" lon="6.0591759"/>
<trkpt lat="52.4715729" lon="6.0591457"/>
<trkpt lat="52.4718356" lon="6.0590556"/>
<trkpt lat="52.4719262" lon="6.0590274"/>
<trkpt lat="52.4722561" lon="6.0589009"/>
<trkpt lat="52.4723799" lon="6.0588697"/>
<trkpt lat="52.4725339" lon="6.0587641"/>
<trkpt lat="52.4729607" lon="6.0585368"/>
<trkpt lat="52.4732514" lon="6.0584201"/>
<trkpt lat="52.4729989" lon="6.0609099"/>
<trkpt lat="52.4733422" lon="6.0610317"/>
<trkpt lat="52.4732818" lon="6.0615297"/>
<trkpt lat="52.4732375" lon="6.0625041"/>
<trkpt lat="52.4731157" lon="6.0629655"/>
<trkpt lat="52.4731754" lon="6.0630294"/>
<trkpt lat="52.4731473" lon="6.0631011"/>
<trkpt lat="52.4733042" lon="6.0632733"/>
<trkpt lat="52.4734515" lon="6.0634396"/>
<trkpt lat="52.4735309" lon="6.0635338"/>
<trkpt lat="52.4736982" lon="6.0636957"/>
<trkpt lat="52.4737845" lon="6.0637579"/>
<trkpt lat="52.4737724" lon="6.0644237"/>
<trkpt lat="52.4737675" lon="6.0649490"/>
<trkpt lat="52.4738026" lon="6.0653606"/>
<trkpt lat="52.4738329" lon="6.0656383"/>
<trkpt lat="52.4738380" lon="6.0657179"/>
<trkpt lat="52.4738578" lon="6.0657722"/>
<trkpt lat="52.4739266" lon="6.0657956"/>
<trkpt lat="52.4739730" lon="6.0658413"/>
<trkpt lat="52.4740020" lon="6.0659016"/>
<trkpt lat="52.4740123" lon="6.0659360"/>
<trkpt lat="52.4740107" lon="6.0659968"/>
<trkpt lat="52.4740092" lon="6.0660559"/>
<trkpt lat="52.4740076" lon="6.0661657"/>
<trkpt lat="52.4740221" lon="6.0662932"/>
<trkpt lat="52.4740868" lon="6.0665758"/>
<trkpt lat="52.4740963" lon="6.0666717"/>
<trkpt lat="52.4740754" lon="6.0667562"/>
<trkpt lat="52.4738235" lon="6.0673369"/>
<trkpt lat="52.4737226" lon="6.0675217"/>
<trkpt lat="52.4736743" lon="6.0676150"/>
<trkpt lat="52.4736170" lon="6.0676804"/>
<trkpt lat="52.4737085" lon="6.0677405"/>
<trkpt lat="52.4738392" lon="6.0678236"/>
<trkpt lat="52.4739496" lon="6.0678947"/>
<trkpt lat="52.4740028" lon="6.0678224"/>
<trkpt lat="52.4740294" lon="6.0677349"/>
<trkpt lat="52.4739535" lon="6.0676160"/>
<trkpt lat="52.4739979" lon="6.0675014"/>
<trkpt lat="52.4742779" lon="6.0667829"/>
<trkpt lat="52.4743528" lon="6.0666657"/>
<trkpt lat="52.4746907" lon="6.0664559"/>
<trkpt lat="52.4748332" lon="6.0664768"/>
<trkpt lat="52.4749270" lon="6.0665734"/>
<trkpt lat="52.4750137" lon="6.0666938"/>
<trkpt lat="52.4750823" lon="6.0667092"/>
<trkpt lat="52.4752864" lon="6.0666963"/>
<trkpt lat="52.4753518" lon="6.0667350"/>
<trkpt lat="52.4753964" lon="6.0667560"/>
<trkpt lat="52.4754517" lon="6.0668305"/>
<trkpt lat="52.4754722" lon="6.0669254"/>
<trkpt lat="52.4756308" lon="6.0682031"/>
<trkpt lat="52.4757264" lon="6.0681646"/>
<trkpt lat="52.4757620" lon="6.0680883"/>
<trkpt lat="52.4759395" lon="6.0680038"/>
<trkpt lat="52.4759784" lon="6.0688430"/>
<trkpt lat="52.4760046" lon="6.0691863"/>
<trkpt lat="52.4761316" lon="6.0694479"/>
<trkpt lat="52.4763951" lon="6.0691614"/>
<trkpt lat="52.4766042" lon="6.0690716"/>
<trkpt lat="52.4767271" lon="6.0691014"/>
<trkpt lat="52.4767981" lon="6.0686745"/>
<trkpt lat="52.4770109" lon="6.0680741"/>
<trkpt lat="52.4772325" lon="6.0673224"/>
<trkpt lat="52.4773365" lon="6.0670178"/>
<trkpt lat="52.4776133" lon="6.0661320"/>
<trkpt lat="52.4777235" lon="6.0657793"/>
<trkpt lat="52.4778444" lon="6.0654737"/>
<trkpt lat="52.4781815" lon="6.0649395"/>
<trkpt lat="52.4785607" lon="6.0644499"/>
<trkpt lat="52.4789702" lon="6.0640355"/>
<trkpt lat="52.4792587" lon="6.0638080"/>
<trkpt lat="52.4794513" lon="6.0637407"/>
<trkpt lat="52.4797431" lon="6.0636049"/>
<trkpt lat="52.4798515" lon="6.0635608"/>
<trkpt lat="52.4799734" lon="6.0638209"/>
<trkpt lat="52.4805637" lon="6.0634276"/>
<trkpt lat="52.4810696" lon="6.0629860"/>
<trkpt lat="52.4821604" lon="6.0618497"/>
<trkpt lat="52.4826530" lon="6.0613665"/>
<trkpt lat="52.4835315" lon="6.0607801"/>
<trkpt lat="52.4840796" lon="6.0605625"/>
<trkpt lat="52.4851649" lon="6.0603999"/>
<trkpt lat="52.4852608" lon="6.0603517"/>
<trkpt lat="52.4855206" lon="6.0602624"/>
<trkpt lat="52.4853161" lon="6.0602216"/>
<trkpt lat="52.4852557" lon="6.0599413"/>
<trkpt lat="52.4855034" lon="6.0598105"/>
<trkpt lat="52.4857247" lon="6.0596461"/>
<trkpt lat="52.4858716" lon="6.0595372"/>
<trkpt lat="52.4859962" lon="6.0593419"/>
<trkpt lat="52.4870291" lon="6.0586241"/>
<trkpt lat="52.4868951" lon="6.0580608"/>
<trkpt lat="52.4865199" lon="6.0566041"/>
<trkpt lat="52.4862230" lon="6.0553957"/>
<trkpt lat="52.4868798" lon="6.0548533"/>
<trkpt lat="52.4861207" lon="6.0515789"/>
<trkpt lat="52.4864065" lon="6.0513721"/>
<trkpt lat="52.4869132" lon="6.0510071"/>
<trkpt lat="52.4871064" lon="6.0508689"/>
<trkpt lat="52.4869120" lon="6.0500249"/>
<trkpt lat="52.4867261" lon="6.0493092"/>
<trkpt lat="52.4864337" lon="6.0483540"/>
<trkpt lat="52.4859800" lon="6.0470524"/>
<trkpt lat="52.4857365" lon="6.0463982"/>
<trkpt lat="52.4852483" lon="6.0453513"/>
<trkpt lat="52.4852146" lon="6.0453677"/>
<trkpt lat="52.4851391" lon="6.0453139"/>
<trkpt lat="52.4846391" lon="6.0444192"/>
<trkpt lat="52.4845135" lon="6.0441996"/>
<trkpt lat="52.4842756" lon="6.0437445"/>
<trkpt lat="52.4835119" lon="6.0423721"/>
<trkpt lat="52.4835188" lon="6.0422196"/>
<trkpt lat="52.4833432" lon="6.0419226"/>
<trkpt lat="52.4833136" lon="6.0416865"/>
<trkpt lat="52.4830996" lon="6.0412471"/>
<trkpt lat="52.4826520" lon="6.0404771"/>
<trkpt lat="52.4810752" lon="6.0377730"/>
<trkpt lat="52.4802473" lon="6.0363556"/>
<trkpt lat="52.4801702" lon="6.0363102"/>
<trkpt lat="52.4800123" lon="6.0365068"/>
<trkpt lat="52.4797800" lon="6.0368430"/>
<trkpt lat="52.4797197" lon="6.0369332"/>
<trkpt lat="52.4796349" lon="6.0369480"/>
<trkpt lat="52.4795431" lon="6.0369306"/>
<trkpt lat="52.4789469" lon="6.0368530"/>
<trkpt lat="52.4785980" lon="6.0368491"/>
<trkpt lat="52.4782560" lon="6.0368975"/>
<trkpt lat="52.4778234" lon="6.0370621"/>
<trkpt lat="52.4771032" lon="6.0375022"/>
<trkpt lat="52.4770758" lon="6.0373955"/>
<trkpt lat="52.4769768" lon="6.0372994"/>
<trkpt lat="52.4767347" lon="6.0375466"/>
<trkpt lat="52.4762207" lon="6.0382751"/>
<trkpt lat="52.4759542" lon="6.0387268"/>
<trkpt lat="52.4754744" lon="6.0396257"/>
<trkpt lat="52.4748089" lon="6.0395535"/>
<trkpt lat="52.4748305" lon="6.0391853"/>
<trkpt lat="52.4748437" lon="6.0390545"/>
<trkpt lat="52.4748072" lon="6.0389372"/>
<trkpt lat="52.4747454" lon="6.0388706"/>
<trkpt lat="52.4746935" lon="6.0388545"/>
<trkpt lat="52.4746330" lon="6.0388695"/>
<trkpt lat="52.4745719" lon="6.0390100"/>
<trkpt lat="52.4745262" lon="6.0393044"/>
<trkpt lat="52.4744605" lon="6.0397280"/>
<trkpt lat="52.4743818" lon="6.0400552"/>
<trkpt lat="52.4743067" lon="6.0405680"/>
<trkpt lat="52.4742175" lon="6.0411038"/>
<trkpt lat="52.4740743" lon="6.0419877"/>
<trkpt lat="52.4738616" lon="6.0432552"/>
<trkpt lat="52.4736101" lon="6.0432834"/>
<trkpt lat="52.4732850" lon="6.0433977"/>
<trkpt lat="52.4728753" lon="6.0435376"/>
<trkpt lat="52.4723452" lon="6.0437585"/>
<trkpt lat="52.4716040" lon="6.0441955"/>
<trkpt lat="52.4706076" lon="6.0445996"/>
<trkpt lat="52.4705284" lon="6.0449411"/>
<trkpt lat="52.4703757" lon="6.0455992"/>
<trkpt lat="52.4702637" lon="6.0459133"/>
<trkpt lat="52.4701229" lon="6.0463083"/>
<trkpt lat="52.4695998" lon="6.0474207"/>
<trkpt lat="52.4693466" lon="6.0482125"/>
<trkpt lat="52.4692404" lon="6.0484273"/>
<trkpt lat="52.4690949" lon="6.0485519"/>
<trkpt lat="52.4678068" lon="6.0469166"/>
<trkpt lat="52.4671498" lon="6.0476196"/>
<trkpt lat="52.4661532" lon="6.0461686"/>
<trkpt lat="52.4657229" lon="6.0464741"/>
<trkpt lat="52.4644837" lon="6.0450243"/>
<trkpt lat="52.4640996" lon="6.0446056"/>
<trkpt lat="52.4633007" lon="6.0437211"/>
<trkpt lat="52.4627546" lon="6.0431364"/>
<trkpt lat="52.4610455" lon="6.0412733"/>
<trkpt lat="52.4608944" lon="6.0412158"/>
<trkpt lat="52.4586647" lon="6.0398375"/>
<trkpt lat="52.4585033" lon="6.0397452"/>
<trkpt lat="52.4584160" lon="6.0397836"/>
<trkpt lat="52.4579684" lon="6.0399755"/>
<trkpt lat="52.4575053" lon="6.0401158"/>
<trkpt lat="52.4572421" lon="6.0423326"/>
<trkpt lat="52.4587688" lon="6.0462109"/>
<trkpt lat="52.4590879" lon="6.0464480"/>
<trkpt lat="52.4595226" lon="6.0467792"/>
<trkpt lat="52.4596756" lon="6.0469753"/>
<trkpt lat="52.4599051" lon="6.0472801"/>
<trkpt lat="52.4600723" lon="6.0474905"/>
<trkpt lat="52.4604720" lon="6.0479613"/>
<trkpt lat="52.4608273" lon="6.0483816"/>
<trkpt lat="52.4612617" lon="6.0488845"/>
<trkpt lat="52.4610685" lon="6.0493090"/>
<trkpt lat="52.4607602" lon="6.0500169"/>
<trkpt lat="52.4606916" lon="6.0503712"/>
<trkpt lat="52.4603014" lon="6.0515240"/>
<trkpt lat="52.4604540" lon="6.0517052"/>
<trkpt lat="52.4606331" lon="6.0518014"/>
<trkpt lat="52.4607022" lon="6.0519793"/>
<trkpt lat="52.4608021" lon="6.0527739"/>
<trkpt lat="52.4609615" lon="6.0537634"/>
<trkpt lat="52.4610436" lon="6.0543127"/>
<trkpt lat="52.4610448" lon="6.0545449"/>
<trkpt lat="52.4611076" lon="6.0546412"/>
<trkpt lat="52.4611372" lon="6.0547784"/>
<trkpt lat="52.4612733" lon="6.0551392"/>
<trkpt lat="52.4612916" lon="6.0551246"/>
<trkpt lat="52.4613300" lon="6.0551031"/>
<trkpt lat="52.4613461" lon="6.0550626"/>
<trkpt lat="52.4613590" lon="6.0550000"/>
<trkpt lat="52.4613786" lon="6.0549474"/>
<trkpt lat="52.4614430" lon="6.0548540"/>
<trkpt lat="52.4614991" lon="6.0548087"/>
<trkpt lat="52.4615492" lon="6.0549173"/>
<trkpt lat="52.4615868" lon="6.0549759"/>
<trkpt lat="52.4616039" lon="6.0550798"/>
<trkpt lat="52.4616214" lon="6.0551256"/>
<trkpt lat="52.4616390" lon="6.0551549"/>
<trkpt lat="52.4616716" lon="6.0552051"/>
<trkpt lat="52.4617044" lon="6.0552222"/>
<trkpt lat="52.4617574" lon="6.0552520"/>
<trkpt lat="52.4618131" lon="6.0552653"/>
<trkpt lat="52.4618510" lon="6.0552659"/>
<trkpt lat="52.4619043" lon="6.0552543"/>
<trkpt lat="52.4619423" lon="6.0552465"/>
<trkpt lat="52.4619847" lon="6.0551970"/>
<trkpt lat="52.4620920" lon="6.0550904"/>
<trkpt lat="52.4621839" lon="6.0550290"/>
<trkpt lat="52.4622649" lon="6.0550111"/>
<trkpt lat="52.4623437" lon="6.0550186"/>
<trkpt lat="52.4623907" lon="6.0550330"/>
<trkpt lat="52.4624533" lon="6.0550733"/>
<trkpt lat="52.4625373" lon="6.0551691"/>
<trkpt lat="52.4625617" lon="6.0551992"/>
<trkpt lat="52.4626004" lon="6.0552097"/>
<trkpt lat="52.4627117" lon="6.0552342"/>
<trkpt lat="52.4627895" lon="6.0550533"/>
<trkpt lat="52.4628851" lon="6.0548666"/>
<trkpt lat="52.4629706" lon="6.0547317"/>
<trkpt lat="52.4630795" lon="6.0545656"/>
<trkpt lat="52.4631825" lon="6.0541387"/>
<trkpt lat="52.4632453" lon="6.0538001"/>
<trkpt lat="52.4633595" lon="6.0534946"/>
<trkpt lat="52.4636600" lon="6.0540565"/>
<trkpt lat="52.4645730" lon="6.0543605"/>
<trkpt lat="52.4646803" lon="6.0543565"/>
<trkpt lat="52.4648290" lon="6.0543025"/>
<trkpt lat="52.4649934" lon="6.0541852"/>
<trkpt lat="52.4651003" lon="6.0541781"/>
<trkpt lat="52.4652187" lon="6.0542412"/>
<trkpt lat="52.4652550" lon="6.0542583"/>
<trkpt lat="52.4652738" lon="6.0542897"/>
<trkpt lat="52.4653112" lon="6.0544031"/>
<trkpt lat="52.4653629" lon="6.0544812"/>
<trkpt lat="52.4654402" lon="6.0545539"/>
<trkpt lat="52.4655045" lon="6.0546493"/>
<trkpt lat="52.4656073" lon="6.0548327"/>
</trkseg></trk>
<trk><name>Assenradepad - route verlenger</name><type>extensionRoute</type><trkseg>
<trkpt lat="52.4728753" lon="6.0435376"/>
<trkpt lat="52.4727135" lon="6.0428839"/>
<trkpt lat="52.4725018" lon="6.0415759"/>
<trkpt lat="52.4723150" lon="6.0405120"/>
<trkpt lat="52.4720086" lon="6.0404932"/>
<trkpt lat="52.4716469" lon="6.0378065"/>
<trkpt lat="52.4697714" lon="6.0381087"/>
<trkpt lat="52.4695960" lon="6.0381634"/>
<trkpt lat="52.4695752" lon="6.0387510"/>
<trkpt lat="52.4695171" lon="6.0397681"/>
<trkpt lat="52.4694191" lon="6.0400678"/>
<trkpt lat="52.4694576" lon="6.0410290"/>
<trkpt lat="52.4696437" lon="6.0422075"/>
<trkpt lat="52.4698061" lon="6.0429411"/>
<trkpt lat="52.4702370" lon="6.0441806"/>
<trkpt lat="52.4703843" lon="6.0444695"/>
<trkpt lat="52.4706076" lon="6.0445996"/>
</trkseg></trk>
<trk><name>Assenradepad - hoogwaterroute</name><type>alternativeRoute</type><trkseg>
<trkpt lat="52.4798535" lon="6.0635404"/>
<trkpt lat="52.4801630" lon="6.0632271"/>
<trkpt lat="52.4803071" lon="6.0629953"/>
<trkpt lat="52.4803261" lon="6.0628756"/>
<trkpt lat="52.4814024" lon="6.0617101"/>
<trkpt lat="52.4814507" lon="6.0615909"/>
<trkpt lat="52.4814738" lon="6.0613872"/>
<trkpt lat="52.4814745" lon="6.0612672"/>
<trkpt lat="52.4815668" lon="6.0611427"/>
<trkpt lat="52.4817141" lon="6.0610129"/>
<trkpt lat="52.4819738" lon="6.0610709"/>
<trkpt lat="52.4823454" lon="6.0607885"/>
<trkpt lat="52.4830075" lon="6.0603066"/>
<trkpt lat="52.4836315" lon="6.0600761"/>
<trkpt lat="52.4842070" lon="6.0600129"/>
<trkpt lat="52.4844817" lon="6.0600171"/>
<trkpt lat="52.4848479" lon="6.0600407"/>
<trkpt lat="52.4852550" lon="6.0599449"/>
</trkseg></trk>
<trk><name>Assenradepad - aanlooproute</name><type>connectionRoute</type><trkseg>
<trkpt lat="52.4749640" lon="6.0297451"/>
<trkpt lat="52.4749588" lon="6.0302145"/>
<trkpt lat="52.4754500" lon="6.0317171"/>
<trkpt lat="52.4761112" lon="6.0334442"/>
<trkpt lat="52.4764759" lon="6.0345945"/>
<trkpt lat="52.4767408" lon="6.0357316"/>
<trkpt lat="52.4770698" lon="6.0368697"/>
<trkpt lat="52.4770758" lon="6.0373955"/>
</trkseg></trk>
</gpx>