<?xml version="1.0" encoding="UTF-8"?>
<gpx version="1.1" creator="klompenpaden.nl via Jimbo API" xmlns="http://www.topografix.com/GPX/1/1">
<metadata><name>Avervoorderpad</name><desc>Ontdek het mooie buitengebied van buurtschap De Vecht (Terwolde). Rust, ruimte, karakteristieke boerderijen en een landschap op de overgang van Veluwe naar de IJssel bepalen hier de sfeer. Klompen aan, rugzak op en gaan!</desc><link href="https://www.klompenpaden.nl/klompenpaden/Avervoorderpad/b44dc90e-2d28-4a84-8656-72cf505803ca"><text>klompenpaden.nl</text></link></metadata>
<wpt lat="52.258281476042576" lon="6.034197807312012"><name>Start De Vecht</name></wpt>
<trk><name>Avervoorderpad - mainRoute</name><type>mainRoute</type><trkseg>
<trkpt lat="52.2586500" lon="6.0318500"/>
<trkpt lat="52.2581900" lon="6.0342200"/>
<trkpt lat="52.2583600" lon="6.0343800"/>
<trkpt lat="52.2583300" lon="6.0347100"/>
<trkpt lat="52.2583700" lon="6.0350500"/>
<trkpt lat="52.2584900" lon="6.0351800"/>
<trkpt lat="52.2593300" lon="6.0354500"/>
<trkpt lat="52.2598600" lon="6.0355600"/>
<trkpt lat="52.2598800" lon="6.0354400"/>
<trkpt lat="52.2599600" lon="6.0354700"/>
<trkpt lat="52.2598300" lon="6.0365900"/>
<trkpt lat="52.2605100" lon="6.0369500"/>
<trkpt lat="52.2607300" lon="6.0370900"/>
<trkpt lat="52.2619800" lon="6.0374800"/>
<trkpt lat="52.2626300" lon="6.0376200"/>
<trkpt lat="52.2633800" lon="6.0376300"/>
<trkpt lat="52.2636400" lon="6.0376700"/>
<trkpt lat="52.2633700" lon="6.0390200"/>
<trkpt lat="52.2633600" lon="6.0391600"/>
<trkpt lat="52.2634300" lon="6.0392800"/>
<trkpt lat="52.2636200" lon="6.0402300"/>
<trkpt lat="52.2637500" lon="6.0406400"/>
<trkpt lat="52.2639200" lon="6.0408900"/>
<trkpt lat="52.2642000" lon="6.0409700"/>
<trkpt lat="52.2644500" lon="6.0410200"/>
<trkpt lat="52.2645500" lon="6.0412900"/>
<trkpt lat="52.2648000" lon="6.0414900"/>
<trkpt lat="52.2650600" lon="6.0418000"/>
<trkpt lat="52.2654300" lon="6.0420900"/>
<trkpt lat="52.2657400" lon="6.0423000"/>
<trkpt lat="52.2660800" lon="6.0424000"/>
<trkpt lat="52.2664000" lon="6.0424500"/>
<trkpt lat="52.2676000" lon="6.0430000"/>
<trkpt lat="52.2680900" lon="6.0430500"/>
<trkpt lat="52.2686800" lon="6.0431800"/>
<trkpt lat="52.2694800" lon="6.0432300"/>
<trkpt lat="52.2699500" lon="6.0480200"/>
<trkpt lat="52.2700600" lon="6.0492000"/>
<trkpt lat="52.2700700" lon="6.0495600"/>
<trkpt lat="52.2704900" lon="6.0540500"/>
<trkpt lat="52.2706100" lon="6.0542700"/>
<trkpt lat="52.2703300" lon="6.0545000"/>
<trkpt lat="52.2679600" lon="6.0559600"/>
<trkpt lat="52.2679100" lon="6.0561300"/>
<trkpt lat="52.2686300" lon="6.0615900"/>
<trkpt lat="52.2673400" lon="6.0620500"/>
<trkpt lat="52.2668300" lon="6.0623600"/>
<trkpt lat="52.2659300" lon="6.0631400"/>
<trkpt lat="52.2640700" lon="6.0648900"/>
<trkpt lat="52.2639000" lon="6.0648500"/>
<trkpt lat="52.2636400" lon="6.0651200"/>
<trkpt lat="52.2632200" lon="6.0655300"/>
<trkpt lat="52.2628200" lon="6.0659600"/>
<trkpt lat="52.2625200" lon="6.0662100"/>
<trkpt lat="52.2612700" lon="6.0667800"/>
<trkpt lat="52.2608900" lon="6.0669400"/>
<trkpt lat="52.2603200" lon="6.0671600"/>
<trkpt lat="52.2591500" lon="6.0676900"/>
<trkpt lat="52.2589900" lon="6.0677200"/>
<trkpt lat="52.2590600" lon="6.0681000"/>
<trkpt lat="52.2594900" lon="6.0713900"/>
<trkpt lat="52.2595900" lon="6.0723200"/>
<trkpt lat="52.2578700" lon="6.0726400"/>
<trkpt lat="52.2574100" lon="6.0727200"/>
<trkpt lat="52.2571900" lon="6.0727200"/>
<trkpt lat="52.2569200" lon="6.0725600"/>
<trkpt lat="52.2565200" lon="6.0725000"/>
<trkpt lat="52.2541400" lon="6.0726600"/>
<trkpt lat="52.2540000" lon="6.0726500"/>
<trkpt lat="52.2538000" lon="6.0726000"/>
<trkpt lat="52.2531600" lon="6.0717700"/>
<trkpt lat="52.2515400" lon="6.0742400"/>
<trkpt lat="52.2514300" lon="6.0743400"/>
<trkpt lat="52.2514400" lon="6.0741900"/>
<trkpt lat="52.2505700" lon="6.0726200"/>
<trkpt lat="52.2505700" lon="6.0727000"/>
<trkpt lat="52.2498700" lon="6.0716900"/>
<trkpt lat="52.2499100" lon="6.0716200"/>
<trkpt lat="52.2494400" lon="6.0709000"/>
<trkpt lat="52.2493200" lon="6.0708400"/>
<trkpt lat="52.2481600" lon="6.0696900"/>
<trkpt lat="52.2463400" lon="6.0678400"/>
<trkpt lat="52.2458800" lon="6.0672300"/>
<trkpt lat="52.2463700" lon="6.0661900"/>
<trkpt lat="52.2465000" lon="6.0656400"/>
<trkpt lat="52.2463500" lon="6.0653200"/>
<trkpt lat="52.2453300" lon="6.0637600"/>
<trkpt lat="52.2450800" lon="6.0632500"/>
<trkpt lat="52.2441900" lon="6.0621800"/>
<trkpt lat="52.2441400" lon="6.0604100"/>
<trkpt lat="52.2442200" lon="6.0601600"/>
<trkpt lat="52.2441200" lon="6.0578000"/>
<trkpt lat="52.2441500" lon="6.0575400"/>
<trkpt lat="52.2442400" lon="6.0572600"/>
<trkpt lat="52.2443400" lon="6.0571300"/>
<trkpt lat="52.2445300" lon="6.0570700"/>
<trkpt lat="52.2450600" lon="6.0570400"/>
<trkpt lat="52.2451500" lon="6.0569100"/>
<trkpt lat="52.2451700" lon="6.0565600"/>
<trkpt lat="52.2450800" lon="6.0547000"/>
<trkpt lat="52.2451500" lon="6.0545100"/>
<trkpt lat="52.2466300" lon="6.0544500"/>
<trkpt lat="52.2469400" lon="6.0544200"/>
<trkpt lat="52.2477400" lon="6.0539600"/>
<trkpt lat="52.2475200" lon="6.0529800"/>
<trkpt lat="52.2473400" lon="6.0523500"/>
<trkpt lat="52.2460900" lon="6.0510200"/>
<trkpt lat="52.2458900" lon="6.0507500"/>
<trkpt lat="52.2463300" lon="6.0504400"/>
<trkpt lat="52.2463500" lon="6.0502100"/>
<trkpt lat="52.2465000" lon="6.0502200"/>
<trkpt lat="52.2468600" lon="6.0504300"/>
<trkpt lat="52.2471900" lon="6.0504800"/>
<trkpt lat="52.2476000" lon="6.0493600"/>
<trkpt lat="52.2476600" lon="6.0490700"/>
<trkpt lat="52.2480500" lon="6.0452200"/>
<trkpt lat="52.2470400" lon="6.0447600"/>
<trkpt lat="52.2449600" lon="6.0430500"/>
<trkpt lat="52.2448800" lon="6.0429600"/>
<trkpt lat="52.2455200" lon="6.0404700"/>
<trkpt lat="52.2462400" lon="6.0409500"/>
<trkpt lat="52.2472000" lon="6.0374000"/>
<trkpt lat="52.2469600" lon="6.0362700"/>
<trkpt lat="52.2470300" lon="6.0359000"/>
<trkpt lat="52.2467700" lon="6.0357600"/>
<trkpt lat="52.2465500" lon="6.0357800"/>
<trkpt lat="52.2465200" lon="6.0354200"/>
<trkpt lat="52.2453800" lon="6.0356900"/>
<trkpt lat="52.2457800" lon="6.0341500"/>
<trkpt lat="52.2467700" lon="6.0305300"/>
<trkpt lat="52.2466700" lon="6.0304300"/>
<trkpt lat="52.2471800" lon="6.0286000"/>
<trkpt lat="52.2470400" lon="6.0262900"/>
<trkpt lat="52.2474900" lon="6.0259400"/>
<trkpt lat="52.2471700" lon="6.0246600"/>
<trkpt lat="52.2472900" lon="6.0242100"/>
<trkpt lat="52.2471800" lon="6.0237000"/>
<trkpt lat="52.2471200" lon="6.0230800"/>
<trkpt lat="52.2459900" lon="6.0194500"/>
<trkpt lat="52.2457700" lon="6.0188800"/>
<trkpt lat="52.2469400" lon="6.0168900"/>
<trkpt lat="52.2484100" lon="6.0212000"/>
<trkpt lat="52.2487400" lon="6.0220600"/>
<trkpt lat="52.2492800" lon="6.0236000"/>
<trkpt lat="52.2497300" lon="6.0249400"/>
<trkpt lat="52.2499400" lon="6.0252200"/>
<trkpt lat="52.2501500" lon="6.0252700"/>
<trkpt lat="52.2529200" lon="6.0257900"/>
<trkpt lat="52.2529100" lon="6.0258700"/>
<trkpt lat="52.2530900" lon="6.0260200"/>
<trkpt lat="52.2531800" lon="6.0263100"/>
<trkpt lat="52.2532100" lon="6.0266900"/>
<trkpt lat="52.2532000" lon="6.0311600"/>
<trkpt lat="52.2532100" lon="6.0312500"/>
<trkpt lat="52.2538900" lon="6.0313200"/>
<trkpt lat="52.2539000" lon="6.0314300"/>
<trkpt lat="52.2542400" lon="6.0314300"/>
<trkpt lat="52.2542500" lon="6.0313300"/>
<trkpt lat="52.2553400" lon="6.0313300"/>
<trkpt lat="52.2554600" lon="6.0313700"/>
<trkpt lat="52.2558100" lon="6.0320300"/>
<trkpt lat="52.2559100" lon="6.0320400"/>
<trkpt lat="52.2563500" lon="6.0315000"/>
<trkpt lat="52.2564200" lon="6.0314900"/>
<trkpt lat="52.2565500" lon="6.0315500"/>
<trkpt lat="52.2571200" lon="6.0318800"/>
<trkpt lat="52.2575300" lon="6.0320000"/>
<trkpt lat="52.2580500" lon="6.0320100"/>
<trkpt lat="52.2585300" lon="6.0318500"/>
<trkpt lat="52.2586500" lon="6.0318500"/>
</trkseg></trk>
<trk><name>Avervoorderpad - connectionRoute</name><type>connectionRoute</type><trkseg>
<trkpt lat="52.2481800" lon="6.0149600"/>
<trkpt lat="52.2475100" lon="6.0159100"/>
<trkpt lat="52.2469400" lon="6.0168900"/>
</trkseg></trk>
</gpx>