<?xml version="1.0" encoding="UTF-8"?>
<gpx version="1.1" creator="klompenpaden.nl via Jimbo API" xmlns="http://www.topografix.com/GPX/1/1">
<metadata><name>Baanbrekerpad</name><desc>Ontdek het mooie afwisselende buitengebied van Ammerzoden en Well. Wandel door het rivierenlandschap met weidse vergezichten en historische bouwwerken en karakteristieke landschapselementen. Wandel over stroomruggen, oude dijken en ontdek vroegere rivierbeddingen, relicten van dijkdoorbraken en verdedigingswerken uit een ver verleden. 
Klompen aan, rugzak op en gaan!</desc><link href="https://www.klompenpaden.nl/klompenpaden/Baanbrekerpad/8abc75b8-29df-46ac-97c8-f253047bc9ed"><text>klompenpaden.nl</text></link></metadata>
<wpt lat="51.7430209010087" lon="5.20359053630866"><name>Start Ammerzoden en Well</name></wpt>
<trk><name>Baanbrekerpad - Hoofdroute</name><type>mainRoute</type><trkseg>
<trkpt lat="51.7430209" lon="5.2035906"/>
<trkpt lat="51.7426233" lon="5.2036424"/>
<trkpt lat="51.7421070" lon="5.2025095"/>
<trkpt lat="51.7417261" lon="5.2013369"/>
<trkpt lat="51.7413869" lon="5.1988960"/>
<trkpt lat="51.7411652" lon="5.1970418"/>
<trkpt lat="51.7410905" lon="5.1959150"/>
<trkpt lat="51.7413348" lon="5.1937770"/>
<trkpt lat="51.7416373" lon="5.1915918"/>
<trkpt lat="51.7424331" lon="5.1879954"/>
<trkpt lat="51.7426810" lon="5.1880648"/>
<trkpt lat="51.7438051" lon="5.1889757"/>
<trkpt lat="51.7445467" lon="5.1878687"/>
<trkpt lat="51.7458133" lon="5.1868298"/>
<trkpt lat="51.7461195" lon="5.1868989"/>
<trkpt lat="51.7462071" lon="5.1869947"/>
<trkpt lat="51.7462898" lon="5.1869327"/>
<trkpt lat="51.7460377" lon="5.1863461"/>
<trkpt lat="51.7461253" lon="5.1864396"/>
<trkpt lat="51.7461252" lon="5.1863457"/>
<trkpt lat="51.7462792" lon="5.1864754"/>
<trkpt lat="51.7467163" lon="5.1863326"/>
<trkpt lat="51.7473871" lon="5.1864470"/>
<trkpt lat="51.7477808" lon="5.1865157"/>
<trkpt lat="51.7486849" lon="5.1866291"/>
<trkpt lat="51.7496182" lon="5.1868129"/>
<trkpt lat="51.7503020" lon="5.1869070"/>
<trkpt lat="51.7505826" lon="5.1868751"/>
<trkpt lat="51.7510155" lon="5.1869192"/>
<trkpt lat="51.7512869" lon="5.1872321"/>
<trkpt lat="51.7512799" lon="5.1879682"/>
<trkpt lat="51.7512509" lon="5.1887600"/>
<trkpt lat="51.7511337" lon="5.1888595"/>
<trkpt lat="51.7510943" lon="5.1889907"/>
<trkpt lat="51.7510657" lon="5.1892962"/>
<trkpt lat="51.7511420" lon="5.1907016"/>
<trkpt lat="51.7513011" lon="5.1906607"/>
<trkpt lat="51.7515268" lon="5.1905639"/>
<trkpt lat="51.7519487" lon="5.1903896"/>
<trkpt lat="51.7524834" lon="5.1901766"/>
<trkpt lat="51.7531015" lon="5.1900206"/>
<trkpt lat="51.7536364" lon="5.1899129"/>
<trkpt lat="51.7542308" lon="5.1898145"/>
<trkpt lat="51.7546171" lon="5.1897458"/>
<trkpt lat="51.7550573" lon="5.1898875"/>
<trkpt lat="51.7554919" lon="5.1901826"/>
<trkpt lat="51.7558727" lon="5.1904109"/>
<trkpt lat="51.7562178" lon="5.1905339"/>
<trkpt lat="51.7563902" lon="5.1905236"/>
<trkpt lat="51.7566041" lon="5.1904364"/>
<trkpt lat="51.7568297" lon="5.1902438"/>
<trkpt lat="51.7569958" lon="5.1900419"/>
<trkpt lat="51.7571736" lon="5.1896867"/>
<trkpt lat="51.7573929" lon="5.1892833"/>
<trkpt lat="51.7576659" lon="5.1889660"/>
<trkpt lat="51.7580098" lon="5.1887198"/>
<trkpt lat="51.7584414" lon="5.1884127"/>
<trkpt lat="51.7591143" lon="5.1876337"/>
<trkpt lat="51.7596838" lon="5.1868721"/>
<trkpt lat="51.7599684" lon="5.1864457"/>
<trkpt lat="51.7601210" lon="5.1859564"/>
<trkpt lat="51.7602498" lon="5.1853230"/>
<trkpt lat="51.7603526" lon="5.1853885"/>
<trkpt lat="51.7603735" lon="5.1856251"/>
<trkpt lat="51.7603420" lon="5.1858787"/>
<trkpt lat="51.7603461" lon="5.1860435"/>
<trkpt lat="51.7602862" lon="5.1863492"/>
<trkpt lat="51.7602128" lon="5.1866855"/>
<trkpt lat="51.7611467" lon="5.1889468"/>
<trkpt lat="51.7612632" lon="5.1889836"/>
<trkpt lat="51.7611774" lon="5.1930773"/>
<trkpt lat="51.7611158" lon="5.1932905"/>
<trkpt lat="51.7610458" lon="5.1933901"/>
<trkpt lat="51.7594896" lon="5.1945339"/>
<trkpt lat="51.7599185" lon="5.1962318"/>
<trkpt lat="51.7601846" lon="5.1972975"/>
<trkpt lat="51.7604174" lon="5.1982094"/>
<trkpt lat="51.7604707" lon="5.1983843"/>
<trkpt lat="51.7604840" lon="5.1985632"/>
<trkpt lat="51.7604140" lon="5.1987375"/>
<trkpt lat="51.7604173" lon="5.1990140"/>
<trkpt lat="51.7602686" lon="5.1989667"/>
<trkpt lat="51.7601259" lon="5.1989673"/>
<trkpt lat="51.7600309" lon="5.1990156"/>
<trkpt lat="51.7592559" lon="5.1992090"/>
<trkpt lat="51.7591675" lon="5.1992420"/>
<trkpt lat="51.7587960" lon="5.1993784"/>
<trkpt lat="51.7585224" lon="5.1994528"/>
<trkpt lat="51.7582665" lon="5.1994590"/>
<trkpt lat="51.7579250" lon="5.1993676"/>
<trkpt lat="51.7576571" lon="5.1992428"/>
<trkpt lat="51.7575410" lon="5.1994968"/>
<trkpt lat="51.7573807" lon="5.1999045"/>
<trkpt lat="51.7571209" lon="5.2005654"/>
<trkpt lat="51.7566464" lon="5.2017726"/>
<trkpt lat="51.7564839" lon="5.2021858"/>
<trkpt lat="51.7565757" lon="5.2022509"/>
<trkpt lat="51.7570290" lon="5.2031227"/>
<trkpt lat="51.7573629" lon="5.2037728"/>
<trkpt lat="51.7577590" lon="5.2045913"/>
<trkpt lat="51.7578831" lon="5.2048974"/>
<trkpt lat="51.7580599" lon="5.2053795"/>
<trkpt lat="51.7581841" lon="5.2057393"/>
<trkpt lat="51.7582940" lon="5.2060607"/>
<trkpt lat="51.7584130" lon="5.2065610"/>
<trkpt lat="51.7585148" lon="5.2070904"/>
<trkpt lat="51.7582012" lon="5.2072519"/>
<trkpt lat="51.7577858" lon="5.2074658"/>
<trkpt lat="51.7574806" lon="5.2076230"/>
<trkpt lat="51.7570605" lon="5.2078460"/>
<trkpt lat="51.7565117" lon="5.2081437"/>
<trkpt lat="51.7562223" lon="5.2083006"/>
<trkpt lat="51.7560022" lon="5.2084200"/>
<trkpt lat="51.7560342" lon="5.2085298"/>
<trkpt lat="51.7556996" lon="5.2088251"/>
<trkpt lat="51.7558488" lon="5.2091807"/>
<trkpt lat="51.7560648" lon="5.2096986"/>
<trkpt lat="51.7562156" lon="5.2100694"/>
<trkpt lat="51.7564837" lon="5.2107982"/>
<trkpt lat="51.7564228" lon="5.2108536"/>
<trkpt lat="51.7565832" lon="5.2114498"/>
<trkpt lat="51.7567226" lon="5.2118739"/>
<trkpt lat="51.7568526" lon="5.2122746"/>
<trkpt lat="51.7569750" lon="5.2126859"/>
<trkpt lat="51.7570964" lon="5.2131581"/>
<trkpt lat="51.7571988" lon="5.2136390"/>
<trkpt lat="51.7572627" lon="5.2140073"/>
<trkpt lat="51.7572956" lon="5.2142477"/>
<trkpt lat="51.7573175" lon="5.2144076"/>
<trkpt lat="51.7573780" lon="5.2146561"/>
<trkpt lat="51.7574479" lon="5.2149144"/>
<trkpt lat="51.7574973" lon="5.2151513"/>
<trkpt lat="51.7575681" lon="5.2155802"/>
<trkpt lat="51.7576393" lon="5.2161329"/>
<trkpt lat="51.7576406" lon="5.2162310"/>
<trkpt lat="51.7577074" lon="5.2164434"/>
<trkpt lat="51.7578671" lon="5.2166187"/>
<trkpt lat="51.7578846" lon="5.2168836"/>
<trkpt lat="51.7579295" lon="5.2172867"/>
<trkpt lat="51.7579688" lon="5.2176394"/>
<trkpt lat="51.7579796" lon="5.2177646"/>
<trkpt lat="51.7582261" lon="5.2179575"/>
<trkpt lat="51.7584215" lon="5.2180897"/>
<trkpt lat="51.7585739" lon="5.2182075"/>
<trkpt lat="51.7586683" lon="5.2190139"/>
<trkpt lat="51.7587192" lon="5.2198249"/>
<trkpt lat="51.7587422" lon="5.2204993"/>
<trkpt lat="51.7587235" lon="5.2215795"/>
<trkpt lat="51.7586642" lon="5.2228749"/>
<trkpt lat="51.7586527" lon="5.2230344"/>
<trkpt lat="51.7585525" lon="5.2236168"/>
<trkpt lat="51.7583606" lon="5.2247328"/>
<trkpt lat="51.7582446" lon="5.2252787"/>
<trkpt lat="51.7581261" lon="5.2256327"/>
<trkpt lat="51.7578446" lon="5.2261542"/>
<trkpt lat="51.7573337" lon="5.2257766"/>
<trkpt lat="51.7568525" lon="5.2253989"/>
<trkpt lat="51.7566455" lon="5.2258438"/>
<trkpt lat="51.7563780" lon="5.2263889"/>
<trkpt lat="51.7562076" lon="5.2267302"/>
<trkpt lat="51.7560399" lon="5.2270373"/>
<trkpt lat="51.7558345" lon="5.2273950"/>
<trkpt lat="51.7555884" lon="5.2277072"/>
<trkpt lat="51.7550487" lon="5.2282943"/>
<trkpt lat="51.7547111" lon="5.2286368"/>
<trkpt lat="51.7548523" lon="5.2295603"/>
<trkpt lat="51.7544481" lon="5.2297931"/>
<trkpt lat="51.7540627" lon="5.2300070"/>
<trkpt lat="51.7538287" lon="5.2301368"/>
<trkpt lat="51.7534294" lon="5.2303175"/>
<trkpt lat="51.7530450" lon="5.2304559"/>
<trkpt lat="51.7526492" lon="5.2305258"/>
<trkpt lat="51.7521509" lon="5.2305683"/>
<trkpt lat="51.7517615" lon="5.2305670"/>
<trkpt lat="51.7511541" lon="5.2304924"/>
<trkpt lat="51.7505650" lon="5.2303252"/>
<trkpt lat="51.7498172" lon="5.2301041"/>
<trkpt lat="51.7498951" lon="5.2297961"/>
<trkpt lat="51.7499762" lon="5.2295070"/>
<trkpt lat="51.7499801" lon="5.2293437"/>
<trkpt lat="51.7499894" lon="5.2291674"/>
<trkpt lat="51.7499559" lon="5.2289913"/>
<trkpt lat="51.7499747" lon="5.2288150"/>
<trkpt lat="51.7499745" lon="5.2286770"/>
<trkpt lat="51.7500644" lon="5.2283184"/>
<trkpt lat="51.7503455" lon="5.2276600"/>
<trkpt lat="51.7506486" lon="5.2270796"/>
<trkpt lat="51.7502486" lon="5.2266201"/>
<trkpt lat="51.7500739" lon="5.2264288"/>
<trkpt lat="51.7497803" lon="5.2261735"/>
<trkpt lat="51.7494156" lon="5.2258628"/>
<trkpt lat="51.7491532" lon="5.2256273"/>
<trkpt lat="51.7489052" lon="5.2254454"/>
<trkpt lat="51.7487406" lon="5.2254234"/>
<trkpt lat="51.7486719" lon="5.2254426"/>
<trkpt lat="51.7485877" lon="5.2258421"/>
<trkpt lat="51.7484473" lon="5.2263748"/>
<trkpt lat="51.7483217" lon="5.2268056"/>
<trkpt lat="51.7481653" lon="5.2273074"/>
<trkpt lat="51.7480213" lon="5.2277519"/>
<trkpt lat="51.7478639" lon="5.2282380"/>
<trkpt lat="51.7476681" lon="5.2288107"/>
<trkpt lat="51.7475715" lon="5.2291486"/>
<trkpt lat="51.7474938" lon="5.2291284"/>
<trkpt lat="51.7472376" lon="5.2290619"/>
<trkpt lat="51.7467897" lon="5.2289456"/>
<trkpt lat="51.7463932" lon="5.2288426"/>
<trkpt lat="51.7461816" lon="5.2287837"/>
<trkpt lat="51.7459490" lon="5.2287119"/>
<trkpt lat="51.7458217" lon="5.2286726"/>
<trkpt lat="51.7457110" lon="5.2287709"/>
<trkpt lat="51.7455613" lon="5.2291165"/>
<trkpt lat="51.7454699" lon="5.2294734"/>
<trkpt lat="51.7454795" lon="5.2291525"/>
<trkpt lat="51.7454979" lon="5.2286859"/>
<trkpt lat="51.7454867" lon="5.2284032"/>
<trkpt lat="51.7454329" lon="5.2280733"/>
<trkpt lat="51.7453833" lon="5.2279107"/>
<trkpt lat="51.7453143" lon="5.2277340"/>
<trkpt lat="51.7452385" lon="5.2276106"/>
<trkpt lat="51.7450667" lon="5.2274094"/>
<trkpt lat="51.7449794" lon="5.2272603"/>
<trkpt lat="51.7449071" lon="5.2270408"/>
<trkpt lat="51.7448795" lon="5.2266787"/>
<trkpt lat="51.7448844" lon="5.2262808"/>
<trkpt lat="51.7449832" lon="5.2255676"/>
<trkpt lat="51.7450552" lon="5.2249103"/>
<trkpt lat="51.7451328" lon="5.2242017"/>
<trkpt lat="51.7452241" lon="5.2233682"/>
<trkpt lat="51.7453265" lon="5.2226977"/>
<trkpt lat="51.7454396" lon="5.2220261"/>
<trkpt lat="51.7452384" lon="5.2218158"/>
<trkpt lat="51.7451066" lon="5.2216194"/>
<trkpt lat="51.7449222" lon="5.2214311"/>
<trkpt lat="51.7444386" lon="5.2209286"/>
<trkpt lat="51.7445105" lon="5.2205447"/>
<trkpt lat="51.7445030" lon="5.2202241"/>
<trkpt lat="51.7444761" lon="5.2200557"/>
<trkpt lat="51.7444436" lon="5.2198352"/>
<trkpt lat="51.7444101" lon="5.2197013"/>
<trkpt lat="51.7444027" lon="5.2195289"/>
<trkpt lat="51.7443703" lon="5.2193221"/>
<trkpt lat="51.7444057" lon="5.2191381"/>
<trkpt lat="51.7445159" lon="5.2188389"/>
<trkpt lat="51.7445654" lon="5.2185571"/>
<trkpt lat="51.7445471" lon="5.2182009"/>
<trkpt lat="51.7445146" lon="5.2179137"/>
<trkpt lat="51.7444644" lon="5.2177300"/>
<trkpt lat="51.7444784" lon="5.2175863"/>
<trkpt lat="51.7444960" lon="5.2174425"/>
<trkpt lat="51.7445062" lon="5.2170690"/>
<trkpt lat="51.7444912" lon="5.2165806"/>
<trkpt lat="51.7445121" lon="5.2162414"/>
<trkpt lat="51.7445329" lon="5.2157931"/>
<trkpt lat="51.7444967" lon="5.2154580"/>
<trkpt lat="51.7444428" lon="5.2151613"/>
<trkpt lat="51.7443948" lon="5.2149029"/>
<trkpt lat="51.7443942" lon="5.2144911"/>
<trkpt lat="51.7443282" lon="5.2140795"/>
<trkpt lat="51.7442621" lon="5.2136200"/>
<trkpt lat="51.7442142" lon="5.2133712"/>
<trkpt lat="51.7441959" lon="5.2130265"/>
<trkpt lat="51.7441717" lon="5.2127392"/>
<trkpt lat="51.7440759" lon="5.2123182"/>
<trkpt lat="51.7439683" lon="5.2118972"/>
<trkpt lat="51.7438007" lon="5.2111604"/>
<trkpt lat="51.7436391" lon="5.2104810"/>
<trkpt lat="51.7433647" lon="5.2098787"/>
<trkpt lat="51.7431623" lon="5.2096688"/>
<trkpt lat="51.7430248" lon="5.2091809"/>
<trkpt lat="51.7426838" lon="5.2078319"/>
<trkpt lat="51.7425462" lon="5.2072290"/>
<trkpt lat="51.7424561" lon="5.2066931"/>
<trkpt lat="51.7424081" lon="5.2063772"/>
<trkpt lat="51.7424434" lon="5.2061185"/>
<trkpt lat="51.7424071" lon="5.2057260"/>
<trkpt lat="51.7423531" lon="5.2053910"/>
<trkpt lat="51.7422988" lon="5.2049219"/>
<trkpt lat="51.7422268" lon="5.2045104"/>
<trkpt lat="51.7422263" lon="5.2041944"/>
<trkpt lat="51.7421652" lon="5.2037358"/>
<trkpt lat="51.7426233" lon="5.2036424"/>
<trkpt lat="51.7430209" lon="5.2035906"/>
</trkseg></trk>
<trk><name>Baanbrekerpad - Routeverkorter</name><type>shorteningRoute</type><trkseg>
<trkpt lat="51.7430200" lon="5.2035900"/>
<trkpt lat="51.7431700" lon="5.2039000"/>
<trkpt lat="51.7435700" lon="5.2052900"/>
<trkpt lat="51.7437000" lon="5.2056400"/>
<trkpt lat="51.7442300" lon="5.2054300"/>
<trkpt lat="51.7445100" lon="5.2053700"/>
<trkpt lat="51.7448000" lon="5.2052600"/>
<trkpt lat="51.7452300" lon="5.2052600"/>
<trkpt lat="51.7455100" lon="5.2053200"/>
<trkpt lat="51.7459000" lon="5.2052600"/>
<trkpt lat="51.7460900" lon="5.2052700"/>
<trkpt lat="51.7461200" lon="5.2055400"/>
<trkpt lat="51.7465400" lon="5.2054200"/>
<trkpt lat="51.7467100" lon="5.2055100"/>
<trkpt lat="51.7469100" lon="5.2054600"/>
<trkpt lat="51.7470500" lon="5.2054800"/>
<trkpt lat="51.7470700" lon="5.2053400"/>
<trkpt lat="51.7471900" lon="5.2052400"/>
<trkpt lat="51.7473600" lon="5.2056700"/>
<trkpt lat="51.7475900" lon="5.2055300"/>
<trkpt lat="51.7484500" lon="5.2052800"/>
<trkpt lat="51.7487800" lon="5.2053300"/>
<trkpt lat="51.7514400" lon="5.2058900"/>
<trkpt lat="51.7516100" lon="5.2059900"/>
<trkpt lat="51.7516400" lon="5.2056300"/>
<trkpt lat="51.7519800" lon="5.2057000"/>
<trkpt lat="51.7525600" lon="5.2058700"/>
<trkpt lat="51.7528100" lon="5.2060300"/>
<trkpt lat="51.7534000" lon="5.2063000"/>
<trkpt lat="51.7538700" lon="5.2066700"/>
<trkpt lat="51.7545300" lon="5.2072500"/>
<trkpt lat="51.7548600" lon="5.2076500"/>
<trkpt lat="51.7556900" lon="5.2088200"/>
</trkseg></trk>
<trk><name>Baanbrekerpad - Alternatieve route</name><type>alternativeRoute</type><trkseg>
<trkpt lat="51.7430200" lon="5.2035900"/>
<trkpt lat="51.7425800" lon="5.2023300"/>
<trkpt lat="51.7425600" lon="5.2022200"/>
<trkpt lat="51.7426000" lon="5.2019500"/>
<trkpt lat="51.7437900" lon="5.2001500"/>
<trkpt lat="51.7446500" lon="5.1987700"/>
<trkpt lat="51.7455000" lon="5.1972100"/>
<trkpt lat="51.7462900" lon="5.1961900"/>
<trkpt lat="51.7474000" lon="5.1945000"/>
<trkpt lat="51.7482300" lon="5.1930300"/>
<trkpt lat="51.7488900" lon="5.1917700"/>
<trkpt lat="51.7490600" lon="5.1915100"/>
<trkpt lat="51.7493500" lon="5.1912700"/>
<trkpt lat="51.7496100" lon="5.1910900"/>
<trkpt lat="51.7499500" lon="5.1909700"/>
<trkpt lat="51.7506700" lon="5.1908300"/>
<trkpt lat="51.7511400" lon="5.1907000"/>
</trkseg></trk>
<trk><name>Baanbrekerpad - Overstaproute</name><type>connectionRoute</type><trkseg>
<trkpt lat="51.7623128" lon="5.1787746"/>
<trkpt lat="51.7622251" lon="5.1791441"/>
<trkpt lat="51.7621516" lon="5.1797736"/>
<trkpt lat="51.7620667" lon="5.1802389"/>
<trkpt lat="51.7619313" lon="5.1808127"/>
<trkpt lat="51.7617669" lon="5.1813988"/>
<trkpt lat="51.7616116" lon="5.1819035"/>
<trkpt lat="51.7613918" lon="5.1825282"/>
<trkpt lat="51.7606994" lon="5.1841135"/>
<trkpt lat="51.7605348" lon="5.1844633"/>
<trkpt lat="51.7604280" lon="5.1847841"/>
<trkpt lat="51.7603136" lon="5.1853637"/>
</trkseg></trk>
</gpx>