<?xml version="1.0" encoding="UTF-8"?>
<gpx version="1.1" creator="klompenpaden.nl via Jimbo API" xmlns="http://www.topografix.com/GPX/1/1">
<metadata><name>Babborgapad</name><desc>Ontdek het afwisselende buitengebied van Babberich en het grensgebied met Duitsland. Wandelen over brede en smalle bospaden, weilanden en landerijen. Klompen aan, rugzak op en gaan!  
</desc><link href="https://www.klompenpaden.nl/klompenpaden/Babborgapad/a4491a9a-32de-4f99-a924-ff4d17c3b6e2"><text>klompenpaden.nl</text></link></metadata>
<wpt lat="51.905113764490764" lon="6.117611825466157"><name>Start Babberich</name></wpt>
<trk><name>Babborgapad - Geimporteerde shapefile</name><type>mainRoute</type><trkseg>
<trkpt lat="51.9048145" lon="6.1172414"/>
<trkpt lat="51.9041573" lon="6.1179506"/>
<trkpt lat="51.9041746" lon="6.1181696"/>
<trkpt lat="51.9039360" lon="6.1187627"/>
<trkpt lat="51.9037705" lon="6.1193641"/>
<trkpt lat="51.9037205" lon="6.1198359"/>
<trkpt lat="51.9037264" lon="6.1201825"/>
<trkpt lat="51.9037488" lon="6.1206070"/>
<trkpt lat="51.9038394" lon="6.1210500"/>
<trkpt lat="51.9039126" lon="6.1214001"/>
<trkpt lat="51.9039390" lon="6.1216340"/>
<trkpt lat="51.9039514" lon="6.1218783"/>
<trkpt lat="51.9040742" lon="6.1221718"/>
<trkpt lat="51.9041125" lon="6.1222696"/>
<trkpt lat="51.9042626" lon="6.1222353"/>
<trkpt lat="51.9044364" lon="6.1221823"/>
<trkpt lat="51.9046664" lon="6.1221768"/>
<trkpt lat="51.9051112" lon="6.1220582"/>
<trkpt lat="51.9054142" lon="6.1220597"/>
<trkpt lat="51.9055312" lon="6.1222102"/>
<trkpt lat="51.9054628" lon="6.1227195"/>
<trkpt lat="51.9054660" lon="6.1234068"/>
<trkpt lat="51.9054647" lon="6.1237735"/>
<trkpt lat="51.9054482" lon="6.1242847"/>
<trkpt lat="51.9054500" lon="6.1252963"/>
<trkpt lat="51.9054762" lon="6.1265766"/>
<trkpt lat="51.9054443" lon="6.1286588"/>
<trkpt lat="51.9054972" lon="6.1292507"/>
<trkpt lat="51.9054541" lon="6.1295413"/>
<trkpt lat="51.9051562" lon="6.1302522"/>
<trkpt lat="51.9048216" lon="6.1310623"/>
<trkpt lat="51.9044612" lon="6.1318637"/>
<trkpt lat="51.9040757" lon="6.1325815"/>
<trkpt lat="51.9035908" lon="6.1335389"/>
<trkpt lat="51.9033617" lon="6.1339513"/>
<trkpt lat="51.9031117" lon="6.1344155"/>
<trkpt lat="51.9024238" lon="6.1356665"/>
<trkpt lat="51.9023307" lon="6.1349730"/>
<trkpt lat="51.9022629" lon="6.1344067"/>
<trkpt lat="51.9023410" lon="6.1340927"/>
<trkpt lat="51.9025177" lon="6.1346946"/>
<trkpt lat="51.9026603" lon="6.1351207"/>
<trkpt lat="51.9029894" lon="6.1359829"/>
<trkpt lat="51.9031330" lon="6.1363147"/>
<trkpt lat="51.9032557" lon="6.1368459"/>
<trkpt lat="51.9032480" lon="6.1376971"/>
<trkpt lat="51.9028902" lon="6.1384462"/>
<trkpt lat="51.9033526" lon="6.1402101"/>
<trkpt lat="51.9037906" lon="6.1417489"/>
<trkpt lat="51.9038092" lon="6.1420738"/>
<trkpt lat="51.9035664" lon="6.1430019"/>
<trkpt lat="51.9034299" lon="6.1433991"/>
<trkpt lat="51.9031869" lon="6.1454499"/>
<trkpt lat="51.9031261" lon="6.1458077"/>
<trkpt lat="51.9030269" lon="6.1460224"/>
<trkpt lat="51.9025614" lon="6.1463558"/>
<trkpt lat="51.9014651" lon="6.1471030"/>
<trkpt lat="51.9001457" lon="6.1479431"/>
<trkpt lat="51.8998913" lon="6.1481267"/>
<trkpt lat="51.8989367" lon="6.1487746"/>
<trkpt lat="51.8990692" lon="6.1489766"/>
<trkpt lat="51.8985808" lon="6.1504497"/>
<trkpt lat="51.8982812" lon="6.1514016"/>
<trkpt lat="51.8979926" lon="6.1522373"/>
<trkpt lat="51.8967104" lon="6.1562099"/>
<trkpt lat="51.8963447" lon="6.1570016"/>
<trkpt lat="51.8957683" lon="6.1581457"/>
<trkpt lat="51.8954533" lon="6.1588272"/>
<trkpt lat="51.8950347" lon="6.1597179"/>
<trkpt lat="51.8927378" lon="6.1604991"/>
<trkpt lat="51.8918972" lon="6.1608498"/>
<trkpt lat="51.8916408" lon="6.1609703"/>
<trkpt lat="51.8899764" lon="6.1619302"/>
<trkpt lat="51.8882647" lon="6.1628133"/>
<trkpt lat="51.8888183" lon="6.1600604"/>
<trkpt lat="51.8892652" lon="6.1578715"/>
<trkpt lat="51.8893231" lon="6.1577773"/>
<trkpt lat="51.8899316" lon="6.1546539"/>
<trkpt lat="51.8906319" lon="6.1512051"/>
<trkpt lat="51.8909571" lon="6.1494799"/>
<trkpt lat="51.8913379" lon="6.1495196"/>
<trkpt lat="51.8915368" lon="6.1490154"/>
<trkpt lat="51.8916765" lon="6.1489013"/>
<trkpt lat="51.8932262" lon="6.1504919"/>
<trkpt lat="51.8934043" lon="6.1491859"/>
<trkpt lat="51.8935026" lon="6.1484665"/>
<trkpt lat="51.8938374" lon="6.1459422"/>
<trkpt lat="51.8939612" lon="6.1451205"/>
<trkpt lat="51.8941163" lon="6.1450149"/>
<trkpt lat="51.8946627" lon="6.1445976"/>
<trkpt lat="51.8949166" lon="6.1444324"/>
<trkpt lat="51.8957817" lon="6.1438363"/>
<trkpt lat="51.8958924" lon="6.1434388"/>
<trkpt lat="51.8974805" lon="6.1422588"/>
<trkpt lat="51.8976165" lon="6.1419282"/>
<trkpt lat="51.8981744" lon="6.1416463"/>
<trkpt lat="51.8986097" lon="6.1411959"/>
<trkpt lat="51.8993027" lon="6.1407165"/>
<trkpt lat="51.8994525" lon="6.1406441"/>
<trkpt lat="51.9005690" lon="6.1399387"/>
<trkpt lat="51.9016183" lon="6.1392672"/>
<trkpt lat="51.9028628" lon="6.1383533"/>
<trkpt lat="51.9031284" lon="6.1380500"/>
<trkpt lat="51.9033744" lon="6.1376053"/>
<trkpt lat="51.9037437" lon="6.1370122"/>
<trkpt lat="51.9038830" lon="6.1369483"/>
<trkpt lat="51.9044773" lon="6.1369230"/>
<trkpt lat="51.9048466" lon="6.1368392"/>
<trkpt lat="51.9053522" lon="6.1366379"/>
<trkpt lat="51.9057814" lon="6.1363803"/>
<trkpt lat="51.9058304" lon="6.1348337"/>
<trkpt lat="51.9057817" lon="6.1340116"/>
<trkpt lat="51.9057751" lon="6.1339128"/>
</trkseg></trk>
<trk><name>Babborgapad - Geimporteerde shapefile</name><type>mainRoute</type><trkseg>
<trkpt lat="51.9079185" lon="6.1227936"/>
<trkpt lat="51.9078245" lon="6.1227828"/>
<trkpt lat="51.9075628" lon="6.1227654"/>
<trkpt lat="51.9069196" lon="6.1227450"/>
<trkpt lat="51.9066235" lon="6.1227106"/>
<trkpt lat="51.9062969" lon="6.1226889"/>
<trkpt lat="51.9059054" lon="6.1226660"/>
<trkpt lat="51.9056519" lon="6.1226422"/>
<trkpt lat="51.9056546" lon="6.1225973"/>
<trkpt lat="51.9056697" lon="6.1223866"/>
<trkpt lat="51.9057117" lon="6.1221459"/>
<trkpt lat="51.9057821" lon="6.1215894"/>
<trkpt lat="51.9057541" lon="6.1211312"/>
<trkpt lat="51.9054385" lon="6.1196585"/>
<trkpt lat="51.9057655" lon="6.1194481"/>
<trkpt lat="51.9058814" lon="6.1193257"/>
<trkpt lat="51.9061806" lon="6.1194612"/>
<trkpt lat="51.9062424" lon="6.1194368"/>
<trkpt lat="51.9063796" lon="6.1193991"/>
<trkpt lat="51.9063925" lon="6.1194769"/>
<trkpt lat="51.9066242" lon="6.1195449"/>
<trkpt lat="51.9067030" lon="6.1192666"/>
<trkpt lat="51.9066100" lon="6.1191478"/>
<trkpt lat="51.9064042" lon="6.1192606"/>
<trkpt lat="51.9063311" lon="6.1193645"/>
<trkpt lat="51.9061696" lon="6.1193734"/>
<trkpt lat="51.9059373" lon="6.1192499"/>
<trkpt lat="51.9058215" lon="6.1188612"/>
<trkpt lat="51.9057653" lon="6.1185094"/>
<trkpt lat="51.9056027" lon="6.1184059"/>
<trkpt lat="51.9055157" lon="6.1183872"/>
<trkpt lat="51.9054025" lon="6.1184090"/>
<trkpt lat="51.9052558" lon="6.1184845"/>
<trkpt lat="51.9052020" lon="6.1176843"/>
<trkpt lat="51.9052001" lon="6.1175014"/>
<trkpt lat="51.9052622" lon="6.1172736"/>
<trkpt lat="51.9051811" lon="6.1171432"/>
<trkpt lat="51.9051311" lon="6.1170009"/>
<trkpt lat="51.9050432" lon="6.1170744"/>
<trkpt lat="51.9049282" lon="6.1171344"/>
<trkpt lat="51.9048393" lon="6.1171971"/>
<trkpt lat="51.9048145" lon="6.1172414"/>
</trkseg></trk>
<trk><name>Babborgapad - Geimporteerde shapefile</name><type>mainRoute</type><trkseg>
<trkpt lat="51.9079311" lon="6.1227927"/>
<trkpt lat="51.9079730" lon="6.1227933"/>
<trkpt lat="51.9093191" lon="6.1190793"/>
<trkpt lat="51.9093301" lon="6.1189202"/>
<trkpt lat="51.9093922" lon="6.1187715"/>
<trkpt lat="51.9094136" lon="6.1186120"/>
<trkpt lat="51.9094885" lon="6.1186792"/>
<trkpt lat="51.9093927" lon="6.1189517"/>
<trkpt lat="51.9094208" lon="6.1189750"/>
<trkpt lat="51.9095628" lon="6.1185891"/>
<trkpt lat="51.9100759" lon="6.1186101"/>
<trkpt lat="51.9100755" lon="6.1186685"/>
<trkpt lat="51.9098810" lon="6.1186552"/>
<trkpt lat="51.9098671" lon="6.1186169"/>
<trkpt lat="51.9098169" lon="6.1186110"/>
<trkpt lat="51.9094687" lon="6.1195948"/>
<trkpt lat="51.9083443" lon="6.1227290"/>
<trkpt lat="51.9075334" lon="6.1249704"/>
<trkpt lat="51.9067064" lon="6.1273167"/>
<trkpt lat="51.9066714" lon="6.1273967"/>
<trkpt lat="51.9067047" lon="6.1281839"/>
<trkpt lat="51.9066866" lon="6.1286234"/>
<trkpt lat="51.9065377" lon="6.1291536"/>
<trkpt lat="51.9064131" lon="6.1294736"/>
<trkpt lat="51.9063849" lon="6.1296900"/>
<trkpt lat="51.9063707" lon="6.1307303"/>
<trkpt lat="51.9063556" lon="6.1318946"/>
<trkpt lat="51.9063213" lon="6.1324700"/>
<trkpt lat="51.9062798" lon="6.1329773"/>
<trkpt lat="51.9062783" lon="6.1332064"/>
<trkpt lat="51.9063058" lon="6.1337086"/>
<trkpt lat="51.9062628" lon="6.1338442"/>
<trkpt lat="51.9061741" lon="6.1339418"/>
<trkpt lat="51.9060514" lon="6.1339459"/>
<trkpt lat="51.9059596" lon="6.1339258"/>
<trkpt lat="51.9057758" lon="6.1339166"/>
</trkseg></trk>
</gpx>