<?xml version="1.0" encoding="UTF-8"?>
<gpx version="1.1" creator="klompenpaden.nl via Jimbo API" xmlns="http://www.topografix.com/GPX/1/1">
<metadata><name>Batouwepad</name><desc>Ontdek het mooie buitengebied van Lienden en Kesteren. Wandelen langs oeverwallen, oude stroombeddingen en dijken in het prachtige buitengebied van de gemeenten Buren. Klompen aan, rugzak op en gaan!</desc><link href="https://www.klompenpaden.nl/klompenpaden/Batouwepad/6c30eaeb-f84c-4393-8279-496beff931bc"><text>klompenpaden.nl</text></link></metadata>
<wpt lat="51.94681102430293" lon="5.518838167190551"><name>Start Lienden</name></wpt>
<trk><name>Batouwepad - Geimporteerde shapefile</name><type>mainRoute</type><trkseg>
<trkpt lat="51.9469229" lon="5.5189276"/>
<trkpt lat="51.9469878" lon="5.5193800"/>
<trkpt lat="51.9471244" lon="5.5194959"/>
<trkpt lat="51.9474217" lon="5.5195064"/>
<trkpt lat="51.9477964" lon="5.5193631"/>
<trkpt lat="51.9481950" lon="5.5191046"/>
<trkpt lat="51.9484627" lon="5.5190284"/>
<trkpt lat="51.9488610" lon="5.5190007"/>
<trkpt lat="51.9490216" lon="5.5189915"/>
<trkpt lat="51.9491702" lon="5.5189823"/>
<trkpt lat="51.9492831" lon="5.5190596"/>
<trkpt lat="51.9493059" lon="5.5199160"/>
<trkpt lat="51.9493525" lon="5.5207436"/>
<trkpt lat="51.9493552" lon="5.5236300"/>
<trkpt lat="51.9494442" lon="5.5237553"/>
<trkpt lat="51.9497355" lon="5.5237851"/>
<trkpt lat="51.9508232" lon="5.5240482"/>
<trkpt lat="51.9516374" lon="5.5242623"/>
<trkpt lat="51.9518812" lon="5.5242823"/>
<trkpt lat="51.9523806" lon="5.5242454"/>
<trkpt lat="51.9531001" lon="5.5241225"/>
<trkpt lat="51.9543907" lon="5.5237896"/>
<trkpt lat="51.9561390" lon="5.5234197"/>
<trkpt lat="51.9562878" lon="5.5232854"/>
<trkpt lat="51.9562881" lon="5.5230256"/>
<trkpt lat="51.9562827" lon="5.5225733"/>
<trkpt lat="51.9564084" lon="5.5218423"/>
<trkpt lat="51.9567001" lon="5.5214776"/>
<trkpt lat="51.9569262" lon="5.5213243"/>
<trkpt lat="51.9571818" lon="5.5213635"/>
<trkpt lat="51.9574017" lon="5.5214893"/>
<trkpt lat="51.9576514" lon="5.5214515"/>
<trkpt lat="51.9580593" lon="5.5215206"/>
<trkpt lat="51.9576031" lon="5.5212425"/>
<trkpt lat="51.9576372" lon="5.5211837"/>
<trkpt lat="51.9578922" lon="5.5212126"/>
<trkpt lat="51.9584765" lon="5.5198126"/>
<trkpt lat="51.9586937" lon="5.5192882"/>
<trkpt lat="51.9589148" lon="5.5187897"/>
<trkpt lat="51.9596783" lon="5.5165689"/>
<trkpt lat="51.9611042" lon="5.5175065"/>
<trkpt lat="51.9611459" lon="5.5173526"/>
<trkpt lat="51.9612886" lon="5.5173819"/>
<trkpt lat="51.9618242" lon="5.5169311"/>
<trkpt lat="51.9619132" lon="5.5171046"/>
<trkpt lat="51.9617167" lon="5.5173062"/>
<trkpt lat="51.9616333" lon="5.5174695"/>
<trkpt lat="51.9616213" lon="5.5176331"/>
<trkpt lat="51.9647500" lon="5.5215498"/>
<trkpt lat="51.9648690" lon="5.5215117"/>
<trkpt lat="51.9652076" lon="5.5217533"/>
<trkpt lat="51.9652550" lon="5.5218785"/>
<trkpt lat="51.9651356" lon="5.5223305"/>
<trkpt lat="51.9649389" lon="5.5228016"/>
<trkpt lat="51.9646533" lon="5.5229932"/>
<trkpt lat="51.9641297" lon="5.5233188"/>
<trkpt lat="51.9639927" lon="5.5235013"/>
<trkpt lat="51.9639803" lon="5.5240017"/>
<trkpt lat="51.9640908" lon="5.5261002"/>
<trkpt lat="51.9642564" lon="5.5261509"/>
<trkpt lat="51.9648144" lon="5.5262208"/>
<trkpt lat="51.9647438" lon="5.5268722"/>
<trkpt lat="51.9646473" lon="5.5280653"/>
<trkpt lat="51.9645930" lon="5.5286715"/>
<trkpt lat="51.9645033" lon="5.5291524"/>
<trkpt lat="51.9643002" lon="5.5298929"/>
<trkpt lat="51.9640853" lon="5.5306525"/>
<trkpt lat="51.9639896" lon="5.5311238"/>
<trkpt lat="51.9639415" lon="5.5315857"/>
<trkpt lat="51.9639523" lon="5.5324423"/>
<trkpt lat="51.9640286" lon="5.5332317"/>
<trkpt lat="51.9639742" lon="5.5339726"/>
<trkpt lat="51.9638598" lon="5.5350694"/>
<trkpt lat="51.9637881" lon="5.5353868"/>
<trkpt lat="51.9631977" lon="5.5367707"/>
<trkpt lat="51.9628579" lon="5.5375010"/>
<trkpt lat="51.9627329" lon="5.5376546"/>
<trkpt lat="51.9626553" lon="5.5378468"/>
<trkpt lat="51.9625243" lon="5.5380677"/>
<trkpt lat="51.9623033" lon="5.5388273"/>
<trkpt lat="51.9621004" lon="5.5393848"/>
<trkpt lat="51.9619992" lon="5.5395288"/>
<trkpt lat="51.9618150" lon="5.5394416"/>
<trkpt lat="51.9616369" lon="5.5392678"/>
<trkpt lat="51.9618338" lon="5.5386910"/>
<trkpt lat="51.9621678" lon="5.5378933"/>
<trkpt lat="51.9624837" lon="5.5372496"/>
<trkpt lat="51.9625672" lon="5.5370285"/>
<trkpt lat="51.9625437" lon="5.5368167"/>
<trkpt lat="51.9622644" lon="5.5367003"/>
<trkpt lat="51.9618961" lon="5.5365065"/>
<trkpt lat="51.9610289" lon="5.5358107"/>
<trkpt lat="51.9604884" lon="5.5354433"/>
<trkpt lat="51.9597577" lon="5.5349789"/>
<trkpt lat="51.9591577" lon="5.5345535"/>
<trkpt lat="51.9588074" lon="5.5342059"/>
<trkpt lat="51.9578694" lon="5.5331154"/>
<trkpt lat="51.9576491" lon="5.5333649"/>
<trkpt lat="51.9574286" lon="5.5337876"/>
<trkpt lat="51.9571367" lon="5.5342485"/>
<trkpt lat="51.9564697" lon="5.5351605"/>
<trkpt lat="51.9559695" lon="5.5357651"/>
<trkpt lat="51.9560585" lon="5.5359386"/>
<trkpt lat="51.9561117" lon="5.5361120"/>
<trkpt lat="51.9560519" lon="5.5363812"/>
<trkpt lat="51.9557246" lon="5.5366881"/>
<trkpt lat="51.9554689" lon="5.5367161"/>
<trkpt lat="51.9552962" lon="5.5369561"/>
<trkpt lat="51.9550041" lon="5.5375036"/>
<trkpt lat="51.9548908" lon="5.5377919"/>
<trkpt lat="51.9546821" lon="5.5382627"/>
<trkpt lat="51.9544738" lon="5.5384159"/>
<trkpt lat="51.9543310" lon="5.5384924"/>
<trkpt lat="51.9541344" lon="5.5388093"/>
<trkpt lat="51.9541341" lon="5.5390306"/>
<trkpt lat="51.9541634" lon="5.5393771"/>
<trkpt lat="51.9540800" lon="5.5395597"/>
<trkpt lat="51.9539253" lon="5.5396554"/>
<trkpt lat="51.9537232" lon="5.5396162"/>
<trkpt lat="51.9535271" lon="5.5395097"/>
<trkpt lat="51.9534379" lon="5.5395190"/>
<trkpt lat="51.9531522" lon="5.5397586"/>
<trkpt lat="51.9530390" lon="5.5399795"/>
<trkpt lat="51.9528186" lon="5.5403059"/>
<trkpt lat="51.9525982" lon="5.5406034"/>
<trkpt lat="51.9523302" lon="5.5409297"/>
<trkpt lat="51.9522406" lon="5.5412854"/>
<trkpt lat="51.9519609" lon="5.5415153"/>
<trkpt lat="51.9517702" lon="5.5418226"/>
<trkpt lat="51.9516269" lon="5.5422743"/>
<trkpt lat="51.9516682" lon="5.5425054"/>
<trkpt lat="51.9516144" lon="5.5427169"/>
<trkpt lat="51.9513583" lon="5.5430624"/>
<trkpt lat="51.9510248" lon="5.5435230"/>
<trkpt lat="51.9506556" lon="5.5439355"/>
<trkpt lat="51.9504647" lon="5.5444640"/>
<trkpt lat="51.9507201" lon="5.5446381"/>
<trkpt lat="51.9509814" lon="5.5448795"/>
<trkpt lat="51.9510228" lon="5.5450048"/>
<trkpt lat="51.9510047" lon="5.5452164"/>
<trkpt lat="51.9510036" lon="5.5459861"/>
<trkpt lat="51.9507891" lon="5.5463702"/>
<trkpt lat="51.9504795" lon="5.5467059"/>
<trkpt lat="51.9503244" lon="5.5470902"/>
<trkpt lat="51.9502645" lon="5.5473786"/>
<trkpt lat="51.9502582" lon="5.5476865"/>
<trkpt lat="51.9501796" lon="5.5486387"/>
<trkpt lat="51.9502267" lon="5.5489372"/>
<trkpt lat="51.9500714" lon="5.5495043"/>
<trkpt lat="51.9498576" lon="5.5493207"/>
<trkpt lat="51.9497978" lon="5.5495225"/>
<trkpt lat="51.9493230" lon="5.5489724"/>
<trkpt lat="51.9485216" lon="5.5480651"/>
<trkpt lat="51.9477439" lon="5.5472157"/>
<trkpt lat="51.9476549" lon="5.5470710"/>
<trkpt lat="51.9475179" lon="5.5472918"/>
<trkpt lat="51.9472317" lon="5.5478584"/>
<trkpt lat="51.9467370" lon="5.5487803"/>
<trkpt lat="51.9466236" lon="5.5491166"/>
<trkpt lat="51.9466470" lon="5.5493572"/>
<trkpt lat="51.9463546" lon="5.5501546"/>
<trkpt lat="51.9453464" lon="5.5493490"/>
<trkpt lat="51.9444842" lon="5.5486301"/>
<trkpt lat="51.9443988" lon="5.5484798"/>
<trkpt lat="51.9441992" lon="5.5483290"/>
<trkpt lat="51.9424232" lon="5.5479647"/>
<trkpt lat="51.9423189" lon="5.5479776"/>
<trkpt lat="51.9422383" lon="5.5475600"/>
<trkpt lat="51.9422961" lon="5.5470523"/>
<trkpt lat="51.9425472" lon="5.5459681"/>
<trkpt lat="51.9421332" lon="5.5461282"/>
<trkpt lat="51.9415122" lon="5.5463338"/>
<trkpt lat="51.9410984" lon="5.5464016"/>
<trkpt lat="51.9408904" lon="5.5471743"/>
<trkpt lat="51.9406682" lon="5.5479700"/>
<trkpt lat="51.9401262" lon="5.5477487"/>
<trkpt lat="51.9388645" lon="5.5469478"/>
<trkpt lat="51.9379450" lon="5.5463443"/>
<trkpt lat="51.9375885" lon="5.5461583"/>
<trkpt lat="51.9372681" lon="5.5457417"/>
<trkpt lat="51.9363637" lon="5.5444342"/>
<trkpt lat="51.9361571" lon="5.5442603"/>
<trkpt lat="51.9359433" lon="5.5440518"/>
<trkpt lat="51.9353591" lon="5.5434496"/>
<trkpt lat="51.9353022" lon="5.5433340"/>
<trkpt lat="51.9352887" lon="5.5427338"/>
<trkpt lat="51.9352895" lon="5.5421567"/>
<trkpt lat="51.9351113" lon="5.5420060"/>
<trkpt lat="51.9347263" lon="5.5417854"/>
<trkpt lat="51.9345840" lon="5.5415540"/>
<trkpt lat="51.9345202" lon="5.5412307"/>
<trkpt lat="51.9343849" lon="5.5410224"/>
<trkpt lat="51.9345995" lon="5.5405961"/>
<trkpt lat="51.9347141" lon="5.5402387"/>
<trkpt lat="51.9348934" lon="5.5395122"/>
<trkpt lat="51.9352232" lon="5.5382668"/>
<trkpt lat="51.9356097" lon="5.5372755"/>
<trkpt lat="51.9360102" lon="5.5365035"/>
<trkpt lat="51.9362749" lon="5.5359965"/>
<trkpt lat="51.9365826" lon="5.5352127"/>
<trkpt lat="51.9368832" lon="5.5344865"/>
<trkpt lat="51.9372193" lon="5.5338412"/>
<trkpt lat="51.9382197" lon="5.5325632"/>
<trkpt lat="51.9388127" lon="5.5319303"/>
<trkpt lat="51.9392412" lon="5.5315508"/>
<trkpt lat="51.9385927" lon="5.5309831"/>
<trkpt lat="51.9378231" lon="5.5302304"/>
<trkpt lat="51.9352075" lon="5.5279252"/>
<trkpt lat="51.9350436" lon="5.5277631"/>
<trkpt lat="51.9362466" lon="5.5240733"/>
<trkpt lat="51.9367621" lon="5.5224705"/>
<trkpt lat="51.9372273" lon="5.5211907"/>
<trkpt lat="51.9374490" lon="5.5206835"/>
<trkpt lat="51.9371354" lon="5.5204171"/>
<trkpt lat="51.9366362" lon="5.5202771"/>
<trkpt lat="51.9363866" lon="5.5201494"/>
<trkpt lat="51.9361514" lon="5.5199294"/>
<trkpt lat="51.9353178" lon="5.5189690"/>
<trkpt lat="51.9337786" lon="5.5173371"/>
<trkpt lat="51.9358529" lon="5.5124262"/>
<trkpt lat="51.9365370" lon="5.5131322"/>
<trkpt lat="51.9369148" lon="5.5135026"/>
<trkpt lat="51.9370645" lon="5.5135953"/>
<trkpt lat="51.9376827" lon="5.5091647"/>
<trkpt lat="51.9376216" lon="5.5090918"/>
<trkpt lat="51.9373270" lon="5.5088525"/>
<trkpt lat="51.9373129" lon="5.5086908"/>
<trkpt lat="51.9371982" lon="5.5085748"/>
<trkpt lat="51.9379814" lon="5.5030479"/>
<trkpt lat="51.9385304" lon="5.5034187"/>
<trkpt lat="51.9385449" lon="5.5031879"/>
<trkpt lat="51.9377108" lon="5.5025740"/>
<trkpt lat="51.9379555" lon="5.5004046"/>
<trkpt lat="51.9381427" lon="5.4986044"/>
<trkpt lat="51.9387273" lon="5.4990445"/>
<trkpt lat="51.9395900" lon="5.4996238"/>
<trkpt lat="51.9402815" lon="5.5002258"/>
<trkpt lat="51.9409018" lon="5.5006198"/>
<trkpt lat="51.9412251" lon="5.5009026"/>
<trkpt lat="51.9413878" lon="5.5004612"/>
<trkpt lat="51.9414943" lon="5.5003566"/>
<trkpt lat="51.9416686" lon="5.5004555"/>
<trkpt lat="51.9418727" lon="5.4999792"/>
<trkpt lat="51.9419635" lon="5.5000904"/>
<trkpt lat="51.9420465" lon="5.4998701"/>
<trkpt lat="51.9421992" lon="5.5000286"/>
<trkpt lat="51.9425597" lon="5.5001783"/>
<trkpt lat="51.9426329" lon="5.5004321"/>
<trkpt lat="51.9427806" lon="5.5002131"/>
<trkpt lat="51.9428828" lon="5.5000777"/>
<trkpt lat="51.9429660" lon="5.5000030"/>
<trkpt lat="51.9430039" lon="5.5000379"/>
<trkpt lat="51.9430355" lon="5.5000940"/>
<trkpt lat="51.9429936" lon="5.5004269"/>
<trkpt lat="51.9429916" lon="5.5006277"/>
<trkpt lat="51.9430650" lon="5.5006676"/>
<trkpt lat="51.9431368" lon="5.5004243"/>
<trkpt lat="51.9432612" lon="5.4999720"/>
<trkpt lat="51.9431588" lon="5.4991732"/>
<trkpt lat="51.9433525" lon="5.4987002"/>
<trkpt lat="51.9436852" lon="5.4983921"/>
<trkpt lat="51.9437199" lon="5.4984567"/>
<trkpt lat="51.9449129" lon="5.4992331"/>
<trkpt lat="51.9445961" lon="5.5005336"/>
<trkpt lat="51.9445481" lon="5.5008109"/>
<trkpt lat="51.9443906" lon="5.5016593"/>
<trkpt lat="51.9443926" lon="5.5017217"/>
<trkpt lat="51.9442593" lon="5.5026974"/>
<trkpt lat="51.9442371" lon="5.5035514"/>
<trkpt lat="51.9442457" lon="5.5040740"/>
<trkpt lat="51.9442232" lon="5.5043688"/>
<trkpt lat="51.9442011" lon="5.5044513"/>
<trkpt lat="51.9440785" lon="5.5047883"/>
<trkpt lat="51.9440691" lon="5.5053407"/>
<trkpt lat="51.9441118" lon="5.5060399"/>
<trkpt lat="51.9441887" lon="5.5060642"/>
<trkpt lat="51.9442485" lon="5.5071162"/>
<trkpt lat="51.9443541" lon="5.5085364"/>
<trkpt lat="51.9446018" lon="5.5104073"/>
<trkpt lat="51.9446865" lon="5.5112964"/>
<trkpt lat="51.9447710" lon="5.5123818"/>
<trkpt lat="51.9447770" lon="5.5133746"/>
<trkpt lat="51.9447961" lon="5.5155566"/>
<trkpt lat="51.9457165" lon="5.5154669"/>
<trkpt lat="51.9457154" lon="5.5160901"/>
<trkpt lat="51.9456671" lon="5.5163695"/>
<trkpt lat="51.9458139" lon="5.5177299"/>
<trkpt lat="51.9458799" lon="5.5182250"/>
<trkpt lat="51.9459869" lon="5.5182561"/>
<trkpt lat="51.9461272" lon="5.5182988"/>
<trkpt lat="51.9463080" lon="5.5182762"/>
<trkpt lat="51.9465031" lon="5.5181267"/>
<trkpt lat="51.9465644" lon="5.5186464"/>
<trkpt lat="51.9465688" lon="5.5188117"/>
<trkpt lat="51.9467448" lon="5.5189125"/>
<trkpt lat="51.9468209" lon="5.5189666"/>
<trkpt lat="51.9469229" lon="5.5189276"/>
</trkseg></trk>
<trk><name>Batouwepad - shorteningRoute</name><type>shorteningRoute</type><trkseg>
<trkpt lat="51.9352800" lon="5.5422200"/>
<trkpt lat="51.9354900" lon="5.5410300"/>
<trkpt lat="51.9359100" lon="5.5396400"/>
<trkpt lat="51.9359700" lon="5.5388500"/>
<trkpt lat="51.9361000" lon="5.5385400"/>
<trkpt lat="51.9362700" lon="5.5384100"/>
<trkpt lat="51.9365800" lon="5.5384800"/>
<trkpt lat="51.9369100" lon="5.5385200"/>
<trkpt lat="51.9377400" lon="5.5382600"/>
<trkpt lat="51.9383900" lon="5.5373500"/>
<trkpt lat="51.9395900" lon="5.5358200"/>
<trkpt lat="51.9415200" lon="5.5335400"/>
<trkpt lat="51.9426600" lon="5.5324200"/>
<trkpt lat="51.9427600" lon="5.5322000"/>
<trkpt lat="51.9428500" lon="5.5319000"/>
<trkpt lat="51.9432000" lon="5.5312000"/>
<trkpt lat="51.9435000" lon="5.5306300"/>
<trkpt lat="51.9437000" lon="5.5304600"/>
<trkpt lat="51.9440000" lon="5.5302700"/>
<trkpt lat="51.9442300" lon="5.5300500"/>
<trkpt lat="51.9445000" lon="5.5296600"/>
<trkpt lat="51.9447800" lon="5.5291700"/>
<trkpt lat="51.9454600" lon="5.5285300"/>
<trkpt lat="51.9459500" lon="5.5281200"/>
<trkpt lat="51.9462100" lon="5.5277800"/>
<trkpt lat="51.9466800" lon="5.5276200"/>
<trkpt lat="51.9468500" lon="5.5272200"/>
<trkpt lat="51.9470600" lon="5.5270300"/>
<trkpt lat="51.9472600" lon="5.5269100"/>
<trkpt lat="51.9475000" lon="5.5265900"/>
<trkpt lat="51.9492600" lon="5.5238200"/>
<trkpt lat="51.9493500" lon="5.5236200"/>
</trkseg></trk>
</gpx>