<?xml version="1.0" encoding="UTF-8"?>
<gpx version="1.1" creator="klompenpaden.nl via Jimbo API" xmlns="http://www.topografix.com/GPX/1/1">
<metadata><name>Beek- en Bultpad</name><desc>Ontdek het afwisselende landschap van Wekerom. Wandelen langs oude landbouwgronden, grotendeels over onverharde paden, over de Wekeromse Bult met prachtig vergezicht over de Gelderse Vallei. Het agrarisch gebied valt hier in alle rust te beleven. Klompen aan, rugzak op en gaan!</desc><link href="https://www.klompenpaden.nl/klompenpaden/Beek-_en_Bultpad/a55d820d-0066-440a-b02f-f1c53b4e8ea2"><text>klompenpaden.nl</text></link></metadata>
<wpt lat="52.111651374479734" lon="5.715942978858948"><name>Start Wekerom</name></wpt>
<trk><name>Beek- en Bultpad - Geimporteerde shapefile</name><type>mainRoute</type><trkseg>
<trkpt lat="52.0966138" lon="5.7017779"/>
<trkpt lat="52.0966328" lon="5.7016527"/>
<trkpt lat="52.0967156" lon="5.7015324"/>
<trkpt lat="52.0968304" lon="5.7008984"/>
<trkpt lat="52.0968217" lon="5.7006037"/>
<trkpt lat="52.0974036" lon="5.6996929"/>
<trkpt lat="52.0973647" lon="5.6993181"/>
<trkpt lat="52.0971783" lon="5.6985484"/>
<trkpt lat="52.0970719" lon="5.6984068"/>
<trkpt lat="52.0954836" lon="5.6991235"/>
<trkpt lat="52.0948187" lon="5.6987482"/>
<trkpt lat="52.0945457" lon="5.6974012"/>
<trkpt lat="52.0939611" lon="5.6972723"/>
<trkpt lat="52.0947247" lon="5.6968200"/>
<trkpt lat="52.0948788" lon="5.6967366"/>
<trkpt lat="52.0951640" lon="5.6966394"/>
<trkpt lat="52.0953383" lon="5.6965818"/>
<trkpt lat="52.0954832" lon="5.6965351"/>
<trkpt lat="52.0961372" lon="5.6964001"/>
<trkpt lat="52.0975034" lon="5.6963691"/>
<trkpt lat="52.0976686" lon="5.6963666"/>
<trkpt lat="52.0979920" lon="5.6963652"/>
<trkpt lat="52.0983720" lon="5.6963605"/>
<trkpt lat="52.0985167" lon="5.6963651"/>
<trkpt lat="52.0987473" lon="5.6964071"/>
<trkpt lat="52.0989779" lon="5.6964528"/>
<trkpt lat="52.0991927" lon="5.6964947"/>
<trkpt lat="52.0993328" lon="5.6965250"/>
<trkpt lat="52.0995272" lon="5.6965778"/>
<trkpt lat="52.0996877" lon="5.6966046"/>
<trkpt lat="52.1004155" lon="5.6967970"/>
<trkpt lat="52.1005918" lon="5.6968386"/>
<trkpt lat="52.1007840" lon="5.6968840"/>
<trkpt lat="52.1009512" lon="5.6969549"/>
<trkpt lat="52.1010618" lon="5.6970145"/>
<trkpt lat="52.1016040" lon="5.6972790"/>
<trkpt lat="52.1018050" lon="5.6973795"/>
<trkpt lat="52.1021619" lon="5.6975583"/>
<trkpt lat="52.1023697" lon="5.6976589"/>
<trkpt lat="52.1027357" lon="5.6978378"/>
<trkpt lat="52.1028305" lon="5.6978899"/>
<trkpt lat="52.1028937" lon="5.6979454"/>
<trkpt lat="52.1030946" lon="5.6980974"/>
<trkpt lat="52.1031511" lon="5.6981125"/>
<trkpt lat="52.1032212" lon="5.6981203"/>
<trkpt lat="52.1033456" lon="5.6981101"/>
<trkpt lat="52.1035176" lon="5.6980820"/>
<trkpt lat="52.1036352" lon="5.6980828"/>
<trkpt lat="52.1038003" lon="5.6980876"/>
<trkpt lat="52.1038952" lon="5.6981176"/>
<trkpt lat="52.1039878" lon="5.6981624"/>
<trkpt lat="52.1041121" lon="5.6982000"/>
<trkpt lat="52.1042590" lon="5.6982451"/>
<trkpt lat="52.1043743" lon="5.6983010"/>
<trkpt lat="52.1046114" lon="5.6984165"/>
<trkpt lat="52.1048306" lon="5.6985172"/>
<trkpt lat="52.1049480" lon="5.6985731"/>
<trkpt lat="52.1050270" lon="5.6986398"/>
<trkpt lat="52.1051451" lon="5.6984643"/>
<trkpt lat="52.1052178" lon="5.6983472"/>
<trkpt lat="52.1053791" lon="5.6980839"/>
<trkpt lat="52.1055062" lon="5.6979048"/>
<trkpt lat="52.1055743" lon="5.6978061"/>
<trkpt lat="52.1056538" lon="5.6976964"/>
<trkpt lat="52.1057536" lon="5.6975869"/>
<trkpt lat="52.1058919" lon="5.6974704"/>
<trkpt lat="52.1060302" lon="5.6973354"/>
<trkpt lat="52.1061254" lon="5.6972516"/>
<trkpt lat="52.1062365" lon="5.6971348"/>
<trkpt lat="52.1064293" lon="5.6969341"/>
<trkpt lat="52.1064928" lon="5.6968648"/>
<trkpt lat="52.1065314" lon="5.6968283"/>
<trkpt lat="52.1065721" lon="5.6968213"/>
<trkpt lat="52.1066242" lon="5.6968069"/>
<trkpt lat="52.1066966" lon="5.6967817"/>
<trkpt lat="52.1068188" lon="5.6967495"/>
<trkpt lat="52.1070474" lon="5.6966997"/>
<trkpt lat="52.1071221" lon="5.6966928"/>
<trkpt lat="52.1072034" lon="5.6967338"/>
<trkpt lat="52.1072372" lon="5.6967598"/>
<trkpt lat="52.1073432" lon="5.6968854"/>
<trkpt lat="52.1075326" lon="5.6971218"/>
<trkpt lat="52.1076724" lon="5.6972697"/>
<trkpt lat="52.1079548" lon="5.6974039"/>
<trkpt lat="52.1080135" lon="5.6974374"/>
<trkpt lat="52.1080948" lon="5.6974967"/>
<trkpt lat="52.1082752" lon="5.6976926"/>
<trkpt lat="52.1083474" lon="5.6977593"/>
<trkpt lat="52.1083948" lon="5.6978110"/>
<trkpt lat="52.1084717" lon="5.6978115"/>
<trkpt lat="52.1085419" lon="5.6977680"/>
<trkpt lat="52.1086146" lon="5.6976325"/>
<trkpt lat="52.1089738" lon="5.6969408"/>
<trkpt lat="52.1094466" lon="5.6960771"/>
<trkpt lat="52.1101009" lon="5.6949318"/>
<trkpt lat="52.1103145" lon="5.6945696"/>
<trkpt lat="52.1103487" lon="5.6944780"/>
<trkpt lat="52.1104463" lon="5.6943354"/>
<trkpt lat="52.1110164" lon="5.6942953"/>
<trkpt lat="52.1125118" lon="5.6941696"/>
<trkpt lat="52.1125021" lon="5.6943863"/>
<trkpt lat="52.1124969" lon="5.6946471"/>
<trkpt lat="52.1124967" lon="5.6947463"/>
<trkpt lat="52.1124893" lon="5.6949630"/>
<trkpt lat="52.1124845" lon="5.6950768"/>
<trkpt lat="52.1124684" lon="5.6951796"/>
<trkpt lat="52.1124045" lon="5.6953922"/>
<trkpt lat="52.1128064" lon="5.6956521"/>
<trkpt lat="52.1132219" lon="5.6959306"/>
<trkpt lat="52.1136486" lon="5.6962201"/>
<trkpt lat="52.1146285" lon="5.6968734"/>
<trkpt lat="52.1147487" lon="5.6967567"/>
<trkpt lat="52.1148462" lon="5.6966545"/>
<trkpt lat="52.1149143" lon="5.6965852"/>
<trkpt lat="52.1153195" lon="5.6973154"/>
<trkpt lat="52.1157472" lon="5.6980826"/>
<trkpt lat="52.1161096" lon="5.6987464"/>
<trkpt lat="52.1153968" lon="5.7002881"/>
<trkpt lat="52.1150243" lon="5.7010708"/>
<trkpt lat="52.1148318" lon="5.7014680"/>
<trkpt lat="52.1147224" lon="5.7016937"/>
<trkpt lat="52.1142055" lon="5.7027953"/>
<trkpt lat="52.1141663" lon="5.7029086"/>
<trkpt lat="52.1154967" lon="5.7033912"/>
<trkpt lat="52.1156379" lon="5.7034348"/>
<trkpt lat="52.1145860" lon="5.7051982"/>
<trkpt lat="52.1141588" lon="5.7059262"/>
<trkpt lat="52.1135545" lon="5.7069248"/>
<trkpt lat="52.1132454" lon="5.7074553"/>
<trkpt lat="52.1128887" lon="5.7080589"/>
<trkpt lat="52.1129246" lon="5.7081341"/>
<trkpt lat="52.1133705" lon="5.7088240"/>
<trkpt lat="52.1131745" lon="5.7090921"/>
<trkpt lat="52.1135488" lon="5.7096205"/>
<trkpt lat="52.1132862" lon="5.7102346"/>
<trkpt lat="52.1124764" lon="5.7097064"/>
<trkpt lat="52.1124251" lon="5.7096647"/>
<trkpt lat="52.1122255" lon="5.7098690"/>
<trkpt lat="52.1120872" lon="5.7100076"/>
<trkpt lat="52.1120441" lon="5.7100403"/>
<trkpt lat="52.1119739" lon="5.7100619"/>
<trkpt lat="52.1119037" lon="5.7100981"/>
<trkpt lat="52.1118333" lon="5.7101968"/>
<trkpt lat="52.1117808" lon="5.7103837"/>
<trkpt lat="52.1117213" lon="5.7106258"/>
<trkpt lat="52.1115723" lon="5.7113484"/>
<trkpt lat="52.1115721" lon="5.7114476"/>
<trkpt lat="52.1115327" lon="5.7117158"/>
<trkpt lat="52.1115144" lon="5.7118513"/>
<trkpt lat="52.1114914" lon="5.7119944"/>
<trkpt lat="52.1114506" lon="5.7120345"/>
<trkpt lat="52.1114809" lon="5.7125233"/>
<trkpt lat="52.1115157" lon="5.7130048"/>
<trkpt lat="52.1115041" lon="5.7131296"/>
<trkpt lat="52.1114350" lon="5.7135589"/>
<trkpt lat="52.1113777" lon="5.7138377"/>
<trkpt lat="52.1113275" lon="5.7140247"/>
<trkpt lat="52.1113000" lon="5.7141384"/>
<trkpt lat="52.1111541" lon="5.7145524"/>
<trkpt lat="52.1110561" lon="5.7148272"/>
<trkpt lat="52.1109492" lon="5.7150175"/>
<trkpt lat="52.1109060" lon="5.7151200"/>
<trkpt lat="52.1108786" lon="5.7151896"/>
<trkpt lat="52.1108735" lon="5.7152176"/>
</trkseg></trk>
<trk><name>Beek- en Bultpad - Geimporteerde shapefile</name><type>mainRoute</type><trkseg>
<trkpt lat="52.1108603" lon="5.7152923"/>
<trkpt lat="52.1108373" lon="5.7154207"/>
<trkpt lat="52.1108256" lon="5.7155529"/>
<trkpt lat="52.1108140" lon="5.7156704"/>
<trkpt lat="52.1107969" lon="5.7161258"/>
<trkpt lat="52.1107516" lon="5.7161401"/>
<trkpt lat="52.1107352" lon="5.7163237"/>
<trkpt lat="52.1106917" lon="5.7165181"/>
<trkpt lat="52.1106343" lon="5.7168262"/>
<trkpt lat="52.1106087" lon="5.7170758"/>
<trkpt lat="52.1105902" lon="5.7172226"/>
<trkpt lat="52.1105445" lon="5.7174023"/>
<trkpt lat="52.1104646" lon="5.7176589"/>
<trkpt lat="52.1103688" lon="5.7179520"/>
<trkpt lat="52.1105441" lon="5.7179971"/>
<trkpt lat="52.1106016" lon="5.7180511"/>
<trkpt lat="52.1105284" lon="5.7184620"/>
<trkpt lat="52.1104631" lon="5.7189833"/>
<trkpt lat="52.1103938" lon="5.7194444"/>
<trkpt lat="52.1103351" lon="5.7198286"/>
<trkpt lat="52.1102998" lon="5.7199387"/>
<trkpt lat="52.1101516" lon="5.7199008"/>
<trkpt lat="52.1097650" lon="5.7196772"/>
<trkpt lat="52.1097479" lon="5.7198023"/>
<trkpt lat="52.1096911" lon="5.7200446"/>
<trkpt lat="52.1096316" lon="5.7203233"/>
<trkpt lat="52.1094907" lon="5.7209809"/>
<trkpt lat="52.1094733" lon="5.7210610"/>
<trkpt lat="52.1090825" lon="5.7205313"/>
<trkpt lat="52.1088558" lon="5.7202246"/>
<trkpt lat="52.1086602" lon="5.7199513"/>
<trkpt lat="52.1079291" lon="5.7188974"/>
<trkpt lat="52.1079029" lon="5.7189458"/>
<trkpt lat="52.1075354" lon="5.7196301"/>
<trkpt lat="52.1074485" lon="5.7195494"/>
<trkpt lat="52.1062597" lon="5.7177196"/>
<trkpt lat="52.1059714" lon="5.7173061"/>
<trkpt lat="52.1057020" lon="5.7178536"/>
<trkpt lat="52.1054278" lon="5.7184468"/>
<trkpt lat="52.1052918" lon="5.7187085"/>
<trkpt lat="52.1051737" lon="5.7185441"/>
<trkpt lat="52.1050810" lon="5.7187068"/>
<trkpt lat="52.1050324" lon="5.7186576"/>
<trkpt lat="52.1040658" lon="5.7203261"/>
<trkpt lat="52.1034092" lon="5.7193733"/>
<trkpt lat="52.1033261" lon="5.7197114"/>
<trkpt lat="52.1031983" lon="5.7201891"/>
<trkpt lat="52.1029740" lon="5.7209199"/>
<trkpt lat="52.1027308" lon="5.7219465"/>
<trkpt lat="52.1026542" lon="5.7225310"/>
<trkpt lat="52.1026317" lon="5.7229189"/>
<trkpt lat="52.1029310" lon="5.7242708"/>
<trkpt lat="52.1029729" lon="5.7246071"/>
<trkpt lat="52.1024084" lon="5.7269604"/>
<trkpt lat="52.1021506" lon="5.7277173"/>
<trkpt lat="52.1018854" lon="5.7273291"/>
<trkpt lat="52.1017327" lon="5.7272853"/>
<trkpt lat="52.1003602" lon="5.7267289"/>
<trkpt lat="52.0997998" lon="5.7265091"/>
<trkpt lat="52.0997450" lon="5.7266324"/>
<trkpt lat="52.0995344" lon="5.7279167"/>
<trkpt lat="52.0993514" lon="5.7278767"/>
<trkpt lat="52.0993448" lon="5.7281083"/>
<trkpt lat="52.0992618" lon="5.7280498"/>
<trkpt lat="52.0992022" lon="5.7280976"/>
<trkpt lat="52.0995802" lon="5.7289403"/>
<trkpt lat="52.0999168" lon="5.7297249"/>
<trkpt lat="52.1006259" lon="5.7312170"/>
<trkpt lat="52.1005068" lon="5.7312837"/>
<trkpt lat="52.0984187" lon="5.7317502"/>
<trkpt lat="52.0976342" lon="5.7316573"/>
<trkpt lat="52.0965288" lon="5.7315137"/>
<trkpt lat="52.0948457" lon="5.7317130"/>
<trkpt lat="52.0944483" lon="5.7313818"/>
<trkpt lat="52.0944010" lon="5.7313042"/>
<trkpt lat="52.0937780" lon="5.7308650"/>
<trkpt lat="52.0932868" lon="5.7300891"/>
<trkpt lat="52.0926288" lon="5.7294277"/>
<trkpt lat="52.0913833" lon="5.7283757"/>
<trkpt lat="52.0912055" lon="5.7282033"/>
<trkpt lat="52.0900613" lon="5.7270955"/>
<trkpt lat="52.0902300" lon="5.7262957"/>
<trkpt lat="52.0904670" lon="5.7245216"/>
<trkpt lat="52.0908113" lon="5.7226228"/>
<trkpt lat="52.0909640" lon="5.7211858"/>
<trkpt lat="52.0909839" lon="5.7204717"/>
<trkpt lat="52.0897337" lon="5.7146908"/>
<trkpt lat="52.0889589" lon="5.7132663"/>
<trkpt lat="52.0895138" lon="5.7103846"/>
<trkpt lat="52.0903151" lon="5.7065007"/>
<trkpt lat="52.0917234" lon="5.6995597"/>
<trkpt lat="52.0917746" lon="5.6994609"/>
<trkpt lat="52.0947235" lon="5.7008701"/>
<trkpt lat="52.0959202" lon="5.7015052"/>
<trkpt lat="52.0966085" lon="5.7017778"/>
</trkseg></trk>
<trk><name>Beek- en Bultpad - Geimporteerde shapefile</name><type>mainRoute</type><trkseg>
<trkpt lat="52.1108735" lon="5.7152176"/>
<trkpt lat="52.1108603" lon="5.7152886"/>
</trkseg></trk>
<trk><name>Beek- en Bultpad - Geimporteerde shapefile</name><type>mainRoute</type><trkseg>
<trkpt lat="52.1116740" lon="5.7159748"/>
<trkpt lat="52.1115488" lon="5.7157695"/>
<trkpt lat="52.1115090" lon="5.7158025"/>
<trkpt lat="52.1113848" lon="5.7155601"/>
<trkpt lat="52.1108735" lon="5.7152176"/>
</trkseg></trk>
<trk><name>Beek- en Bultpad - Geimporteerde shapefile</name><type>mainRoute</type><trkseg>
<trkpt lat="52.0966138" lon="5.7017779"/>
<trkpt lat="52.0966328" lon="5.7016527"/>
<trkpt lat="52.0967156" lon="5.7015324"/>
<trkpt lat="52.0968304" lon="5.7008984"/>
<trkpt lat="52.0968217" lon="5.7006037"/>
<trkpt lat="52.0974036" lon="5.6996929"/>
<trkpt lat="52.0973647" lon="5.6993181"/>
<trkpt lat="52.0971783" lon="5.6985484"/>
<trkpt lat="52.0970719" lon="5.6984068"/>
<trkpt lat="52.0954836" lon="5.6991235"/>
<trkpt lat="52.0948187" lon="5.6987482"/>
<trkpt lat="52.0945457" lon="5.6974012"/>
<trkpt lat="52.0939611" lon="5.6972723"/>
<trkpt lat="52.0947247" lon="5.6968200"/>
<trkpt lat="52.0948788" lon="5.6967366"/>
<trkpt lat="52.0951640" lon="5.6966394"/>
<trkpt lat="52.0953383" lon="5.6965818"/>
<trkpt lat="52.0954832" lon="5.6965351"/>
<trkpt lat="52.0961372" lon="5.6964001"/>
<trkpt lat="52.0975034" lon="5.6963691"/>
<trkpt lat="52.0976686" lon="5.6963666"/>
<trkpt lat="52.0979920" lon="5.6963652"/>
<trkpt lat="52.0983720" lon="5.6963605"/>
<trkpt lat="52.0985167" lon="5.6963651"/>
<trkpt lat="52.0987473" lon="5.6964071"/>
<trkpt lat="52.0989779" lon="5.6964528"/>
<trkpt lat="52.0991927" lon="5.6964947"/>
<trkpt lat="52.0993328" lon="5.6965250"/>
<trkpt lat="52.0995272" lon="5.6965778"/>
<trkpt lat="52.0996877" lon="5.6966046"/>
<trkpt lat="52.1004155" lon="5.6967970"/>
<trkpt lat="52.1005918" lon="5.6968386"/>
<trkpt lat="52.1007840" lon="5.6968840"/>
<trkpt lat="52.1009512" lon="5.6969549"/>
<trkpt lat="52.1010618" lon="5.6970145"/>
<trkpt lat="52.1016040" lon="5.6972790"/>
<trkpt lat="52.1018050" lon="5.6973795"/>
<trkpt lat="52.1021619" lon="5.6975583"/>
<trkpt lat="52.1023697" lon="5.6976589"/>
<trkpt lat="52.1027357" lon="5.6978378"/>
<trkpt lat="52.1028305" lon="5.6978899"/>
<trkpt lat="52.1028937" lon="5.6979454"/>
<trkpt lat="52.1030946" lon="5.6980974"/>
<trkpt lat="52.1031511" lon="5.6981125"/>
<trkpt lat="52.1032212" lon="5.6981203"/>
<trkpt lat="52.1033456" lon="5.6981101"/>
<trkpt lat="52.1035176" lon="5.6980820"/>
<trkpt lat="52.1036352" lon="5.6980828"/>
<trkpt lat="52.1038003" lon="5.6980876"/>
<trkpt lat="52.1038952" lon="5.6981176"/>
<trkpt lat="52.1039878" lon="5.6981624"/>
<trkpt lat="52.1041121" lon="5.6982000"/>
<trkpt lat="52.1042590" lon="5.6982451"/>
<trkpt lat="52.1043743" lon="5.6983010"/>
<trkpt lat="52.1046114" lon="5.6984165"/>
<trkpt lat="52.1048306" lon="5.6985172"/>
<trkpt lat="52.1049480" lon="5.6985731"/>
<trkpt lat="52.1050270" lon="5.6986398"/>
<trkpt lat="52.1051451" lon="5.6984643"/>
<trkpt lat="52.1052178" lon="5.6983472"/>
<trkpt lat="52.1053791" lon="5.6980839"/>
<trkpt lat="52.1055062" lon="5.6979048"/>
<trkpt lat="52.1055743" lon="5.6978061"/>
<trkpt lat="52.1056538" lon="5.6976964"/>
<trkpt lat="52.1057536" lon="5.6975869"/>
<trkpt lat="52.1058919" lon="5.6974704"/>
<trkpt lat="52.1060302" lon="5.6973354"/>
<trkpt lat="52.1061254" lon="5.6972516"/>
<trkpt lat="52.1062365" lon="5.6971348"/>
<trkpt lat="52.1064293" lon="5.6969341"/>
<trkpt lat="52.1064928" lon="5.6968648"/>
<trkpt lat="52.1065314" lon="5.6968283"/>
<trkpt lat="52.1065721" lon="5.6968213"/>
<trkpt lat="52.1066242" lon="5.6968069"/>
<trkpt lat="52.1066966" lon="5.6967817"/>
<trkpt lat="52.1068188" lon="5.6967495"/>
<trkpt lat="52.1070474" lon="5.6966997"/>
<trkpt lat="52.1071221" lon="5.6966928"/>
<trkpt lat="52.1072034" lon="5.6967338"/>
<trkpt lat="52.1072372" lon="5.6967598"/>
<trkpt lat="52.1073432" lon="5.6968854"/>
<trkpt lat="52.1075326" lon="5.6971218"/>
<trkpt lat="52.1076724" lon="5.6972697"/>
<trkpt lat="52.1079548" lon="5.6974039"/>
<trkpt lat="52.1080135" lon="5.6974374"/>
<trkpt lat="52.1080948" lon="5.6974967"/>
<trkpt lat="52.1082752" lon="5.6976926"/>
<trkpt lat="52.1083474" lon="5.6977593"/>
<trkpt lat="52.1083948" lon="5.6978110"/>
<trkpt lat="52.1084717" lon="5.6978115"/>
<trkpt lat="52.1085419" lon="5.6977680"/>
<trkpt lat="52.1086146" lon="5.6976325"/>
<trkpt lat="52.1089738" lon="5.6969408"/>
<trkpt lat="52.1094466" lon="5.6960771"/>
<trkpt lat="52.1101009" lon="5.6949318"/>
<trkpt lat="52.1103145" lon="5.6945696"/>
<trkpt lat="52.1103487" lon="5.6944780"/>
<trkpt lat="52.1104463" lon="5.6943354"/>
<trkpt lat="52.1110164" lon="5.6942953"/>
<trkpt lat="52.1125118" lon="5.6941696"/>
<trkpt lat="52.1125021" lon="5.6943863"/>
<trkpt lat="52.1124969" lon="5.6946471"/>
<trkpt lat="52.1124967" lon="5.6947463"/>
<trkpt lat="52.1124893" lon="5.6949630"/>
<trkpt lat="52.1124845" lon="5.6950768"/>
<trkpt lat="52.1124684" lon="5.6951796"/>
<trkpt lat="52.1124045" lon="5.6953922"/>
<trkpt lat="52.1128064" lon="5.6956521"/>
<trkpt lat="52.1132219" lon="5.6959306"/>
<trkpt lat="52.1136486" lon="5.6962201"/>
<trkpt lat="52.1146285" lon="5.6968734"/>
<trkpt lat="52.1147487" lon="5.6967567"/>
<trkpt lat="52.1148462" lon="5.6966545"/>
<trkpt lat="52.1149143" lon="5.6965852"/>
<trkpt lat="52.1153195" lon="5.6973154"/>
<trkpt lat="52.1157472" lon="5.6980826"/>
<trkpt lat="52.1161096" lon="5.6987464"/>
<trkpt lat="52.1153968" lon="5.7002881"/>
<trkpt lat="52.1150243" lon="5.7010708"/>
<trkpt lat="52.1148318" lon="5.7014680"/>
<trkpt lat="52.1147224" lon="5.7016937"/>
<trkpt lat="52.1142055" lon="5.7027953"/>
<trkpt lat="52.1141663" lon="5.7029086"/>
<trkpt lat="52.1154967" lon="5.7033912"/>
<trkpt lat="52.1156379" lon="5.7034348"/>
<trkpt lat="52.1145860" lon="5.7051982"/>
<trkpt lat="52.1141588" lon="5.7059262"/>
<trkpt lat="52.1135545" lon="5.7069248"/>
<trkpt lat="52.1132454" lon="5.7074553"/>
<trkpt lat="52.1128887" lon="5.7080589"/>
<trkpt lat="52.1129246" lon="5.7081341"/>
<trkpt lat="52.1133705" lon="5.7088240"/>
<trkpt lat="52.1131745" lon="5.7090921"/>
<trkpt lat="52.1135488" lon="5.7096205"/>
<trkpt lat="52.1132862" lon="5.7102346"/>
<trkpt lat="52.1124764" lon="5.7097064"/>
<trkpt lat="52.1124251" lon="5.7096647"/>
<trkpt lat="52.1122255" lon="5.7098690"/>
<trkpt lat="52.1120872" lon="5.7100076"/>
<trkpt lat="52.1120441" lon="5.7100403"/>
<trkpt lat="52.1119739" lon="5.7100619"/>
<trkpt lat="52.1119037" lon="5.7100981"/>
<trkpt lat="52.1118333" lon="5.7101968"/>
<trkpt lat="52.1117808" lon="5.7103837"/>
<trkpt lat="52.1117213" lon="5.7106258"/>
<trkpt lat="52.1115723" lon="5.7113484"/>
<trkpt lat="52.1115721" lon="5.7114476"/>
<trkpt lat="52.1115327" lon="5.7117158"/>
<trkpt lat="52.1115144" lon="5.7118513"/>
<trkpt lat="52.1114914" lon="5.7119944"/>
<trkpt lat="52.1114506" lon="5.7120345"/>
<trkpt lat="52.1114809" lon="5.7125233"/>
<trkpt lat="52.1115157" lon="5.7130048"/>
<trkpt lat="52.1115041" lon="5.7131296"/>
<trkpt lat="52.1114350" lon="5.7135589"/>
<trkpt lat="52.1113777" lon="5.7138377"/>
<trkpt lat="52.1113275" lon="5.7140247"/>
<trkpt lat="52.1113000" lon="5.7141384"/>
<trkpt lat="52.1111541" lon="5.7145524"/>
<trkpt lat="52.1110561" lon="5.7148272"/>
<trkpt lat="52.1109492" lon="5.7150175"/>
<trkpt lat="52.1109060" lon="5.7151200"/>
<trkpt lat="52.1108786" lon="5.7151896"/>
<trkpt lat="52.1108735" lon="5.7152176"/>
</trkseg></trk>
<trk><name>Beek- en Bultpad - Geimporteerde shapefile</name><type>mainRoute</type><trkseg>
<trkpt lat="52.1108603" lon="5.7152923"/>
<trkpt lat="52.1108373" lon="5.7154207"/>
<trkpt lat="52.1108256" lon="5.7155529"/>
<trkpt lat="52.1108140" lon="5.7156704"/>
<trkpt lat="52.1107969" lon="5.7161258"/>
<trkpt lat="52.1107516" lon="5.7161401"/>
<trkpt lat="52.1107352" lon="5.7163237"/>
<trkpt lat="52.1106917" lon="5.7165181"/>
<trkpt lat="52.1106343" lon="5.7168262"/>
<trkpt lat="52.1106087" lon="5.7170758"/>
<trkpt lat="52.1105902" lon="5.7172226"/>
<trkpt lat="52.1105445" lon="5.7174023"/>
<trkpt lat="52.1104646" lon="5.7176589"/>
<trkpt lat="52.1103688" lon="5.7179520"/>
<trkpt lat="52.1105441" lon="5.7179971"/>
<trkpt lat="52.1106016" lon="5.7180511"/>
<trkpt lat="52.1105284" lon="5.7184620"/>
<trkpt lat="52.1104631" lon="5.7189833"/>
<trkpt lat="52.1103938" lon="5.7194444"/>
<trkpt lat="52.1103351" lon="5.7198286"/>
<trkpt lat="52.1102998" lon="5.7199387"/>
<trkpt lat="52.1101516" lon="5.7199008"/>
<trkpt lat="52.1097650" lon="5.7196772"/>
<trkpt lat="52.1097479" lon="5.7198023"/>
<trkpt lat="52.1096911" lon="5.7200446"/>
<trkpt lat="52.1096316" lon="5.7203233"/>
<trkpt lat="52.1094907" lon="5.7209809"/>
<trkpt lat="52.1094733" lon="5.7210610"/>
<trkpt lat="52.1090825" lon="5.7205313"/>
<trkpt lat="52.1088558" lon="5.7202246"/>
<trkpt lat="52.1086602" lon="5.7199513"/>
<trkpt lat="52.1079291" lon="5.7188974"/>
<trkpt lat="52.1079029" lon="5.7189458"/>
<trkpt lat="52.1075354" lon="5.7196301"/>
<trkpt lat="52.1074485" lon="5.7195494"/>
<trkpt lat="52.1062597" lon="5.7177196"/>
<trkpt lat="52.1059714" lon="5.7173061"/>
<trkpt lat="52.1057020" lon="5.7178536"/>
<trkpt lat="52.1054278" lon="5.7184468"/>
<trkpt lat="52.1052918" lon="5.7187085"/>
<trkpt lat="52.1051737" lon="5.7185441"/>
<trkpt lat="52.1050810" lon="5.7187068"/>
<trkpt lat="52.1050324" lon="5.7186576"/>
<trkpt lat="52.1040658" lon="5.7203261"/>
<trkpt lat="52.1034092" lon="5.7193733"/>
<trkpt lat="52.1033261" lon="5.7197114"/>
<trkpt lat="52.1031983" lon="5.7201891"/>
<trkpt lat="52.1029740" lon="5.7209199"/>
<trkpt lat="52.1027308" lon="5.7219465"/>
<trkpt lat="52.1026542" lon="5.7225310"/>
<trkpt lat="52.1026317" lon="5.7229189"/>
<trkpt lat="52.1029310" lon="5.7242708"/>
<trkpt lat="52.1029729" lon="5.7246071"/>
<trkpt lat="52.1024084" lon="5.7269604"/>
<trkpt lat="52.1021506" lon="5.7277173"/>
<trkpt lat="52.1018854" lon="5.7273291"/>
<trkpt lat="52.1017327" lon="5.7272853"/>
<trkpt lat="52.1003602" lon="5.7267289"/>
<trkpt lat="52.0997998" lon="5.7265091"/>
<trkpt lat="52.0997450" lon="5.7266324"/>
<trkpt lat="52.0995344" lon="5.7279167"/>
<trkpt lat="52.0993514" lon="5.7278767"/>
<trkpt lat="52.0993448" lon="5.7281083"/>
<trkpt lat="52.0992618" lon="5.7280498"/>
<trkpt lat="52.0992022" lon="5.7280976"/>
<trkpt lat="52.0995802" lon="5.7289403"/>
<trkpt lat="52.0999168" lon="5.7297249"/>
<trkpt lat="52.1006259" lon="5.7312170"/>
<trkpt lat="52.1005068" lon="5.7312837"/>
<trkpt lat="52.0984187" lon="5.7317502"/>
<trkpt lat="52.0976342" lon="5.7316573"/>
<trkpt lat="52.0965288" lon="5.7315137"/>
<trkpt lat="52.0948457" lon="5.7317130"/>
<trkpt lat="52.0944483" lon="5.7313818"/>
<trkpt lat="52.0944010" lon="5.7313042"/>
<trkpt lat="52.0937780" lon="5.7308650"/>
<trkpt lat="52.0932868" lon="5.7300891"/>
<trkpt lat="52.0926288" lon="5.7294277"/>
<trkpt lat="52.0913833" lon="5.7283757"/>
<trkpt lat="52.0912055" lon="5.7282033"/>
<trkpt lat="52.0900613" lon="5.7270955"/>
<trkpt lat="52.0902300" lon="5.7262957"/>
<trkpt lat="52.0904670" lon="5.7245216"/>
<trkpt lat="52.0908113" lon="5.7226228"/>
<trkpt lat="52.0909640" lon="5.7211858"/>
<trkpt lat="52.0909839" lon="5.7204717"/>
<trkpt lat="52.0897337" lon="5.7146908"/>
<trkpt lat="52.0889589" lon="5.7132663"/>
<trkpt lat="52.0895138" lon="5.7103846"/>
<trkpt lat="52.0903151" lon="5.7065007"/>
<trkpt lat="52.0917234" lon="5.6995597"/>
<trkpt lat="52.0917746" lon="5.6994609"/>
<trkpt lat="52.0947235" lon="5.7008701"/>
<trkpt lat="52.0959202" lon="5.7015052"/>
<trkpt lat="52.0966085" lon="5.7017778"/>
</trkseg></trk>
<trk><name>Beek- en Bultpad - Geimporteerde shapefile</name><type>mainRoute</type><trkseg>
<trkpt lat="52.1108735" lon="5.7152176"/>
<trkpt lat="52.1108603" lon="5.7152886"/>
</trkseg></trk>
<trk><name>Beek- en Bultpad - Geimporteerde shapefile</name><type>mainRoute</type><trkseg>
<trkpt lat="52.1116740" lon="5.7159748"/>
<trkpt lat="52.1115488" lon="5.7157695"/>
<trkpt lat="52.1115090" lon="5.7158025"/>
<trkpt lat="52.1113848" lon="5.7155601"/>
<trkpt lat="52.1108735" lon="5.7152176"/>
</trkseg></trk>
<trk><name>Beek- en Bultpad - Geimporteerde shapefile</name><type>alternativeRoute</type><trkseg>
<trkpt lat="52.0968304" lon="5.7008984"/>
<trkpt lat="52.0935262" lon="5.6992653"/>
<trkpt lat="52.0933267" lon="5.6991283"/>
<trkpt lat="52.0933984" lon="5.6987498"/>
<trkpt lat="52.0939609" lon="5.6976738"/>
<trkpt lat="52.0940952" lon="5.6974111"/>
<trkpt lat="52.0939611" lon="5.6972723"/>
</trkseg></trk>
<trk><name>Beek- en Bultpad - Geimporteerde shapefile</name><type>alternativeRoute</type><trkseg>
<trkpt lat="52.0968304" lon="5.7008984"/>
<trkpt lat="52.0935262" lon="5.6992653"/>
<trkpt lat="52.0933267" lon="5.6991283"/>
<trkpt lat="52.0933984" lon="5.6987498"/>
<trkpt lat="52.0939609" lon="5.6976738"/>
<trkpt lat="52.0940952" lon="5.6974111"/>
<trkpt lat="52.0939611" lon="5.6972723"/>
</trkseg></trk>
<trk><name>Beek- en Bultpad - Geimporteerde shapefile</name><type>connectionRoute</type><trkseg>
<trkpt lat="52.0990124" lon="5.6782231"/>
<trkpt lat="52.0989421" lon="5.6788773"/>
<trkpt lat="52.0988183" lon="5.6794450"/>
<trkpt lat="52.0985647" lon="5.6800611"/>
<trkpt lat="52.0982158" lon="5.6807539"/>
<trkpt lat="52.0977042" lon="5.6818162"/>
<trkpt lat="52.0975065" lon="5.6820794"/>
<trkpt lat="52.0970364" lon="5.6825995"/>
<trkpt lat="52.0968258" lon="5.6831233"/>
<trkpt lat="52.0966206" lon="5.6834153"/>
<trkpt lat="52.0965108" lon="5.6835459"/>
<trkpt lat="52.0963875" lon="5.6835617"/>
<trkpt lat="52.0962683" lon="5.6835443"/>
<trkpt lat="52.0960840" lon="5.6830643"/>
<trkpt lat="52.0959131" lon="5.6829242"/>
<trkpt lat="52.0955441" lon="5.6826798"/>
<trkpt lat="52.0954278" lon="5.6824600"/>
<trkpt lat="52.0954011" lon="5.6822644"/>
<trkpt lat="52.0953114" lon="5.6822402"/>
<trkpt lat="52.0949384" lon="5.6828173"/>
<trkpt lat="52.0947524" lon="5.6830014"/>
<trkpt lat="52.0943759" lon="5.6830980"/>
<trkpt lat="52.0940288" lon="5.6832514"/>
<trkpt lat="52.0932558" lon="5.6841251"/>
<trkpt lat="52.0929131" lon="5.6843560"/>
<trkpt lat="52.0926620" lon="5.6839837"/>
<trkpt lat="52.0925723" lon="5.6840913"/>
<trkpt lat="52.0924797" lon="5.6851421"/>
<trkpt lat="52.0926303" lon="5.6876599"/>
<trkpt lat="52.0926443" lon="5.6878884"/>
<trkpt lat="52.0925664" lon="5.6884023"/>
<trkpt lat="52.0925521" lon="5.6886662"/>
<trkpt lat="52.0926161" lon="5.6891790"/>
<trkpt lat="52.0926685" lon="5.6897008"/>
<trkpt lat="52.0928965" lon="5.6930029"/>
<trkpt lat="52.0934499" lon="5.6932112"/>
<trkpt lat="52.0940622" lon="5.6935168"/>
<trkpt lat="52.0950424" lon="5.6938411"/>
<trkpt lat="52.0961254" lon="5.6941965"/>
<trkpt lat="52.0963488" lon="5.6943328"/>
<trkpt lat="52.0968023" lon="5.6946384"/>
<trkpt lat="52.0975794" lon="5.6946515"/>
<trkpt lat="52.0979580" lon="5.6947050"/>
<trkpt lat="52.0981468" lon="5.6949165"/>
<trkpt lat="52.0986447" lon="5.6955799"/>
<trkpt lat="52.0990297" lon="5.6960628"/>
<trkpt lat="52.0991932" lon="5.6963147"/>
<trkpt lat="52.0992040" lon="5.6964948"/>
</trkseg></trk>
<trk><name>Beek- en Bultpad - Geimporteerde shapefile</name><type>connectionRoute</type><trkseg>
<trkpt lat="52.0990124" lon="5.6782231"/>
<trkpt lat="52.0989421" lon="5.6788773"/>
<trkpt lat="52.0988183" lon="5.6794450"/>
<trkpt lat="52.0985647" lon="5.6800611"/>
<trkpt lat="52.0982158" lon="5.6807539"/>
<trkpt lat="52.0977042" lon="5.6818162"/>
<trkpt lat="52.0975065" lon="5.6820794"/>
<trkpt lat="52.0970364" lon="5.6825995"/>
<trkpt lat="52.0968258" lon="5.6831233"/>
<trkpt lat="52.0966206" lon="5.6834153"/>
<trkpt lat="52.0965108" lon="5.6835459"/>
<trkpt lat="52.0963875" lon="5.6835617"/>
<trkpt lat="52.0962683" lon="5.6835443"/>
<trkpt lat="52.0960840" lon="5.6830643"/>
<trkpt lat="52.0959131" lon="5.6829242"/>
<trkpt lat="52.0955441" lon="5.6826798"/>
<trkpt lat="52.0954278" lon="5.6824600"/>
<trkpt lat="52.0954011" lon="5.6822644"/>
<trkpt lat="52.0953114" lon="5.6822402"/>
<trkpt lat="52.0949384" lon="5.6828173"/>
<trkpt lat="52.0947524" lon="5.6830014"/>
<trkpt lat="52.0943759" lon="5.6830980"/>
<trkpt lat="52.0940288" lon="5.6832514"/>
<trkpt lat="52.0932558" lon="5.6841251"/>
<trkpt lat="52.0929131" lon="5.6843560"/>
<trkpt lat="52.0926620" lon="5.6839837"/>
<trkpt lat="52.0925723" lon="5.6840913"/>
<trkpt lat="52.0924797" lon="5.6851421"/>
<trkpt lat="52.0926303" lon="5.6876599"/>
<trkpt lat="52.0926443" lon="5.6878884"/>
<trkpt lat="52.0925664" lon="5.6884023"/>
<trkpt lat="52.0925521" lon="5.6886662"/>
<trkpt lat="52.0926161" lon="5.6891790"/>
<trkpt lat="52.0926685" lon="5.6897008"/>
<trkpt lat="52.0928965" lon="5.6930029"/>
<trkpt lat="52.0934499" lon="5.6932112"/>
<trkpt lat="52.0940622" lon="5.6935168"/>
<trkpt lat="52.0950424" lon="5.6938411"/>
<trkpt lat="52.0961254" lon="5.6941965"/>
<trkpt lat="52.0963488" lon="5.6943328"/>
<trkpt lat="52.0968023" lon="5.6946384"/>
<trkpt lat="52.0975794" lon="5.6946515"/>
<trkpt lat="52.0979580" lon="5.6947050"/>
<trkpt lat="52.0981468" lon="5.6949165"/>
<trkpt lat="52.0986447" lon="5.6955799"/>
<trkpt lat="52.0990297" lon="5.6960628"/>
<trkpt lat="52.0991932" lon="5.6963147"/>
<trkpt lat="52.0992040" lon="5.6964948"/>
</trkseg></trk>
<trk><name>Beek- en Bultpad - Geimporteerde shapefile</name><type>approachRoute</type><trkseg>
<trkpt lat="52.0885333" lon="5.7347591"/>
<trkpt lat="52.0886312" lon="5.7348508"/>
<trkpt lat="52.0888000" lon="5.7348824"/>
<trkpt lat="52.0889382" lon="5.7349069"/>
<trkpt lat="52.0890711" lon="5.7349031"/>
<trkpt lat="52.0890199" lon="5.7359060"/>
<trkpt lat="52.0891688" lon="5.7360211"/>
<trkpt lat="52.0892194" lon="5.7361455"/>
<trkpt lat="52.0893922" lon="5.7361423"/>
<trkpt lat="52.0894974" lon="5.7354534"/>
<trkpt lat="52.0895362" lon="5.7351301"/>
<trkpt lat="52.0895762" lon="5.7348197"/>
<trkpt lat="52.0896457" lon="5.7346905"/>
<trkpt lat="52.0895459" lon="5.7344254"/>
<trkpt lat="52.0894313" lon="5.7343001"/>
<trkpt lat="52.0893551" lon="5.7341674"/>
<trkpt lat="52.0892126" lon="5.7340728"/>
<trkpt lat="52.0884539" lon="5.7333611"/>
<trkpt lat="52.0886118" lon="5.7329023"/>
<trkpt lat="52.0887797" lon="5.7323809"/>
<trkpt lat="52.0888527" lon="5.7323755"/>
<trkpt lat="52.0889627" lon="5.7324308"/>
<trkpt lat="52.0890595" lon="5.7320895"/>
<trkpt lat="52.0892361" lon="5.7318971"/>
<trkpt lat="52.0893650" lon="5.7318384"/>
<trkpt lat="52.0895519" lon="5.7318547"/>
<trkpt lat="52.0896981" lon="5.7317529"/>
<trkpt lat="52.0897852" lon="5.7314795"/>
<trkpt lat="52.0899702" lon="5.7309864"/>
<trkpt lat="52.0901003" lon="5.7305815"/>
<trkpt lat="52.0905847" lon="5.7292156"/>
<trkpt lat="52.0908407" lon="5.7284756"/>
<trkpt lat="52.0909810" lon="5.7285972"/>
<trkpt lat="52.0910322" lon="5.7284390"/>
<trkpt lat="52.0910985" lon="5.7284903"/>
<trkpt lat="52.0912126" lon="5.7282121"/>
</trkseg></trk>
<trk><name>Beek- en Bultpad - Geimporteerde shapefile</name><type>approachRoute</type><trkseg>
<trkpt lat="52.0885333" lon="5.7347591"/>
<trkpt lat="52.0886312" lon="5.7348508"/>
<trkpt lat="52.0888000" lon="5.7348824"/>
<trkpt lat="52.0889382" lon="5.7349069"/>
<trkpt lat="52.0890711" lon="5.7349031"/>
<trkpt lat="52.0890199" lon="5.7359060"/>
<trkpt lat="52.0891688" lon="5.7360211"/>
<trkpt lat="52.0892194" lon="5.7361455"/>
<trkpt lat="52.0893922" lon="5.7361423"/>
<trkpt lat="52.0894974" lon="5.7354534"/>
<trkpt lat="52.0895362" lon="5.7351301"/>
<trkpt lat="52.0895762" lon="5.7348197"/>
<trkpt lat="52.0896457" lon="5.7346905"/>
<trkpt lat="52.0895459" lon="5.7344254"/>
<trkpt lat="52.0894313" lon="5.7343001"/>
<trkpt lat="52.0893551" lon="5.7341674"/>
<trkpt lat="52.0892126" lon="5.7340728"/>
<trkpt lat="52.0884539" lon="5.7333611"/>
<trkpt lat="52.0886118" lon="5.7329023"/>
<trkpt lat="52.0887797" lon="5.7323809"/>
<trkpt lat="52.0888527" lon="5.7323755"/>
<trkpt lat="52.0889627" lon="5.7324308"/>
<trkpt lat="52.0890595" lon="5.7320895"/>
<trkpt lat="52.0892361" lon="5.7318971"/>
<trkpt lat="52.0893650" lon="5.7318384"/>
<trkpt lat="52.0895519" lon="5.7318547"/>
<trkpt lat="52.0896981" lon="5.7317529"/>
<trkpt lat="52.0897852" lon="5.7314795"/>
<trkpt lat="52.0899702" lon="5.7309864"/>
<trkpt lat="52.0901003" lon="5.7305815"/>
<trkpt lat="52.0905847" lon="5.7292156"/>
<trkpt lat="52.0908407" lon="5.7284756"/>
<trkpt lat="52.0909810" lon="5.7285972"/>
<trkpt lat="52.0910322" lon="5.7284390"/>
<trkpt lat="52.0910985" lon="5.7284903"/>
<trkpt lat="52.0912126" lon="5.7282121"/>
</trkseg></trk>
</gpx>