<?xml version="1.0" encoding="UTF-8"?>
<gpx version="1.1" creator="klompenpaden.nl via Jimbo API" xmlns="http://www.topografix.com/GPX/1/1">
<metadata><name>Beekweidenpad</name><desc>Ontdek het mooie afwisselende buitengebied van Voorst. Wandelen door beekdal en bossen, over dijken, enken en landgoederen. Klompen aan, rugzak op en gaan!
</desc><link href="https://www.klompenpaden.nl/klompenpaden/Beekweidenpad/42cd2914-6791-4bad-bf23-03c50618fe8a"><text>klompenpaden.nl</text></link></metadata>
<wpt lat="52.17029629532744" lon="6.147408485412598"><name>Start Voorst</name></wpt>
<trk><name>Beekweidenpad - mainRoute</name><type>mainRoute</type><trkseg>
<trkpt lat="52.1776600" lon="6.1376000"/>
<trkpt lat="52.1774200" lon="6.1373900"/>
<trkpt lat="52.1772000" lon="6.1371500"/>
<trkpt lat="52.1769200" lon="6.1367400"/>
<trkpt lat="52.1763100" lon="6.1347300"/>
<trkpt lat="52.1759100" lon="6.1351400"/>
<trkpt lat="52.1758500" lon="6.1352200"/>
<trkpt lat="52.1755000" lon="6.1363200"/>
<trkpt lat="52.1752300" lon="6.1359500"/>
<trkpt lat="52.1747300" lon="6.1347200"/>
<trkpt lat="52.1745400" lon="6.1344100"/>
<trkpt lat="52.1742500" lon="6.1341700"/>
<trkpt lat="52.1737700" lon="6.1343700"/>
<trkpt lat="52.1737000" lon="6.1339000"/>
<trkpt lat="52.1736400" lon="6.1336000"/>
<trkpt lat="52.1734800" lon="6.1324000"/>
<trkpt lat="52.1735400" lon="6.1323200"/>
<trkpt lat="52.1739000" lon="6.1321600"/>
<trkpt lat="52.1748200" lon="6.1318100"/>
<trkpt lat="52.1746300" lon="6.1309900"/>
<trkpt lat="52.1741200" lon="6.1292200"/>
<trkpt lat="52.1739000" lon="6.1287600"/>
<trkpt lat="52.1734900" lon="6.1280200"/>
<trkpt lat="52.1732400" lon="6.1273400"/>
<trkpt lat="52.1731100" lon="6.1268200"/>
<trkpt lat="52.1733400" lon="6.1241300"/>
<trkpt lat="52.1734000" lon="6.1231400"/>
<trkpt lat="52.1733900" lon="6.1225900"/>
<trkpt lat="52.1735100" lon="6.1224000"/>
<trkpt lat="52.1733700" lon="6.1205600"/>
<trkpt lat="52.1736200" lon="6.1203800"/>
<trkpt lat="52.1765000" lon="6.1191000"/>
<trkpt lat="52.1770400" lon="6.1191800"/>
<trkpt lat="52.1772500" lon="6.1191700"/>
<trkpt lat="52.1778200" lon="6.1189600"/>
<trkpt lat="52.1784500" lon="6.1186100"/>
<trkpt lat="52.1787200" lon="6.1184200"/>
<trkpt lat="52.1785000" lon="6.1138000"/>
<trkpt lat="52.1784400" lon="6.1134800"/>
<trkpt lat="52.1783600" lon="6.1132000"/>
<trkpt lat="52.1782300" lon="6.1129900"/>
<trkpt lat="52.1780700" lon="6.1126900"/>
<trkpt lat="52.1775700" lon="6.1111200"/>
<trkpt lat="52.1780400" lon="6.1095400"/>
<trkpt lat="52.1782700" lon="6.1090500"/>
<trkpt lat="52.1790700" lon="6.1082000"/>
<trkpt lat="52.1813700" lon="6.1063700"/>
<trkpt lat="52.1821300" lon="6.1094500"/>
<trkpt lat="52.1838200" lon="6.1089600"/>
<trkpt lat="52.1838700" lon="6.1089200"/>
<trkpt lat="52.1840200" lon="6.1106000"/>
<trkpt lat="52.1843300" lon="6.1116800"/>
<trkpt lat="52.1842600" lon="6.1132600"/>
<trkpt lat="52.1842600" lon="6.1152700"/>
<trkpt lat="52.1844700" lon="6.1162800"/>
<trkpt lat="52.1858300" lon="6.1163200"/>
<trkpt lat="52.1871600" lon="6.1163100"/>
<trkpt lat="52.1873800" lon="6.1178100"/>
<trkpt lat="52.1875700" lon="6.1194700"/>
<trkpt lat="52.1876500" lon="6.1212200"/>
<trkpt lat="52.1879100" lon="6.1227100"/>
<trkpt lat="52.1883600" lon="6.1246100"/>
<trkpt lat="52.1889500" lon="6.1266700"/>
<trkpt lat="52.1890900" lon="6.1274400"/>
<trkpt lat="52.1892400" lon="6.1286600"/>
<trkpt lat="52.1893700" lon="6.1300800"/>
<trkpt lat="52.1887700" lon="6.1306500"/>
<trkpt lat="52.1883200" lon="6.1305200"/>
<trkpt lat="52.1872000" lon="6.1303700"/>
<trkpt lat="52.1858200" lon="6.1296700"/>
<trkpt lat="52.1848900" lon="6.1291000"/>
<trkpt lat="52.1845400" lon="6.1287200"/>
<trkpt lat="52.1838700" lon="6.1281800"/>
<trkpt lat="52.1835600" lon="6.1279900"/>
<trkpt lat="52.1832000" lon="6.1280500"/>
<trkpt lat="52.1828000" lon="6.1282800"/>
<trkpt lat="52.1823600" lon="6.1283100"/>
<trkpt lat="52.1818200" lon="6.1287900"/>
<trkpt lat="52.1814700" lon="6.1298800"/>
<trkpt lat="52.1815600" lon="6.1306600"/>
<trkpt lat="52.1815300" lon="6.1312800"/>
<trkpt lat="52.1812000" lon="6.1320500"/>
<trkpt lat="52.1802200" lon="6.1320700"/>
<trkpt lat="52.1802300" lon="6.1333200"/>
<trkpt lat="52.1802200" lon="6.1347600"/>
<trkpt lat="52.1802100" lon="6.1351900"/>
<trkpt lat="52.1797300" lon="6.1357000"/>
<trkpt lat="52.1792400" lon="6.1364400"/>
<trkpt lat="52.1788300" lon="6.1369100"/>
<trkpt lat="52.1779200" lon="6.1369400"/>
<trkpt lat="52.1778200" lon="6.1371200"/>
<trkpt lat="52.1777100" lon="6.1374900"/>
<trkpt lat="52.1779700" lon="6.1378100"/>
<trkpt lat="52.1783800" lon="6.1393600"/>
<trkpt lat="52.1784300" lon="6.1395100"/>
<trkpt lat="52.1791100" lon="6.1391000"/>
<trkpt lat="52.1797000" lon="6.1400700"/>
<trkpt lat="52.1810600" lon="6.1415400"/>
<trkpt lat="52.1815600" lon="6.1418900"/>
<trkpt lat="52.1824800" lon="6.1427300"/>
<trkpt lat="52.1823200" lon="6.1430100"/>
<trkpt lat="52.1820600" lon="6.1433000"/>
<trkpt lat="52.1813800" lon="6.1435600"/>
<trkpt lat="52.1812200" lon="6.1437200"/>
<trkpt lat="52.1811100" lon="6.1439300"/>
<trkpt lat="52.1811200" lon="6.1449100"/>
<trkpt lat="52.1812000" lon="6.1456600"/>
<trkpt lat="52.1811300" lon="6.1459300"/>
<trkpt lat="52.1809700" lon="6.1463100"/>
<trkpt lat="52.1807300" lon="6.1467500"/>
<trkpt lat="52.1803700" lon="6.1471100"/>
<trkpt lat="52.1800900" lon="6.1474300"/>
<trkpt lat="52.1800200" lon="6.1481000"/>
<trkpt lat="52.1798600" lon="6.1507000"/>
<trkpt lat="52.1796300" lon="6.1527000"/>
<trkpt lat="52.1796200" lon="6.1534700"/>
<trkpt lat="52.1800400" lon="6.1557900"/>
<trkpt lat="52.1803700" lon="6.1575500"/>
<trkpt lat="52.1808500" lon="6.1611800"/>
<trkpt lat="52.1808600" lon="6.1615200"/>
<trkpt lat="52.1807600" lon="6.1636200"/>
<trkpt lat="52.1806500" lon="6.1641900"/>
<trkpt lat="52.1800900" lon="6.1641400"/>
<trkpt lat="52.1782000" lon="6.1648400"/>
<trkpt lat="52.1771500" lon="6.1652000"/>
<trkpt lat="52.1770500" lon="6.1651400"/>
<trkpt lat="52.1767100" lon="6.1651700"/>
<trkpt lat="52.1766000" lon="6.1651200"/>
<trkpt lat="52.1764500" lon="6.1642700"/>
<trkpt lat="52.1755500" lon="6.1645600"/>
<trkpt lat="52.1753900" lon="6.1644800"/>
<trkpt lat="52.1755200" lon="6.1640200"/>
<trkpt lat="52.1755900" lon="6.1632900"/>
<trkpt lat="52.1755900" lon="6.1609900"/>
<trkpt lat="52.1755600" lon="6.1607200"/>
<trkpt lat="52.1754300" lon="6.1604900"/>
<trkpt lat="52.1752500" lon="6.1602900"/>
<trkpt lat="52.1751700" lon="6.1601000"/>
<trkpt lat="52.1751800" lon="6.1597800"/>
<trkpt lat="52.1754700" lon="6.1581200"/>
<trkpt lat="52.1761100" lon="6.1549300"/>
<trkpt lat="52.1761500" lon="6.1547000"/>
<trkpt lat="52.1761200" lon="6.1545600"/>
<trkpt lat="52.1759700" lon="6.1541200"/>
<trkpt lat="52.1756400" lon="6.1534400"/>
<trkpt lat="52.1753200" lon="6.1532900"/>
<trkpt lat="52.1738500" lon="6.1526800"/>
<trkpt lat="52.1731000" lon="6.1524600"/>
<trkpt lat="52.1719600" lon="6.1502600"/>
<trkpt lat="52.1714100" lon="6.1491400"/>
<trkpt lat="52.1711900" lon="6.1485100"/>
<trkpt lat="52.1711800" lon="6.1478300"/>
<trkpt lat="52.1710700" lon="6.1471700"/>
<trkpt lat="52.1708600" lon="6.1471800"/>
<trkpt lat="52.1706100" lon="6.1470100"/>
<trkpt lat="52.1702900" lon="6.1473700"/>
<trkpt lat="52.1703200" lon="6.1474300"/>
<trkpt lat="52.1703500" lon="6.1475500"/>
<trkpt lat="52.1703200" lon="6.1474300"/>
<trkpt lat="52.1702900" lon="6.1473700"/>
<trkpt lat="52.1693400" lon="6.1484500"/>
<trkpt lat="52.1694100" lon="6.1488600"/>
<trkpt lat="52.1692800" lon="6.1493600"/>
<trkpt lat="52.1692500" lon="6.1496200"/>
<trkpt lat="52.1683500" lon="6.1500500"/>
<trkpt lat="52.1673300" lon="6.1506500"/>
<trkpt lat="52.1667000" lon="6.1510500"/>
<trkpt lat="52.1669400" lon="6.1515400"/>
<trkpt lat="52.1669600" lon="6.1517900"/>
<trkpt lat="52.1668700" lon="6.1520500"/>
<trkpt lat="52.1667900" lon="6.1520600"/>
<trkpt lat="52.1665200" lon="6.1516500"/>
<trkpt lat="52.1661800" lon="6.1513400"/>
<trkpt lat="52.1653700" lon="6.1516200"/>
<trkpt lat="52.1650600" lon="6.1518700"/>
<trkpt lat="52.1645500" lon="6.1530800"/>
<trkpt lat="52.1641100" lon="6.1535600"/>
<trkpt lat="52.1638400" lon="6.1537300"/>
<trkpt lat="52.1633500" lon="6.1536100"/>
<trkpt lat="52.1632000" lon="6.1538000"/>
<trkpt lat="52.1630500" lon="6.1540600"/>
<trkpt lat="52.1638400" lon="6.1566400"/>
<trkpt lat="52.1641400" lon="6.1562800"/>
<trkpt lat="52.1652300" lon="6.1553600"/>
<trkpt lat="52.1661700" lon="6.1546600"/>
<trkpt lat="52.1671400" lon="6.1540800"/>
<trkpt lat="52.1685600" lon="6.1538300"/>
<trkpt lat="52.1688100" lon="6.1538100"/>
<trkpt lat="52.1688300" lon="6.1531300"/>
<trkpt lat="52.1689900" lon="6.1528400"/>
<trkpt lat="52.1692000" lon="6.1526600"/>
<trkpt lat="52.1693200" lon="6.1524900"/>
<trkpt lat="52.1694100" lon="6.1521400"/>
<trkpt lat="52.1694900" lon="6.1514800"/>
<trkpt lat="52.1695300" lon="6.1506800"/>
<trkpt lat="52.1694700" lon="6.1504700"/>
<trkpt lat="52.1701100" lon="6.1501500"/>
<trkpt lat="52.1703700" lon="6.1499500"/>
<trkpt lat="52.1706400" lon="6.1495700"/>
<trkpt lat="52.1708200" lon="6.1492700"/>
<trkpt lat="52.1709900" lon="6.1491200"/>
<trkpt lat="52.1710500" lon="6.1489600"/>
<trkpt lat="52.1710900" lon="6.1487500"/>
<trkpt lat="52.1711900" lon="6.1486800"/>
<trkpt lat="52.1714700" lon="6.1484000"/>
<trkpt lat="52.1716800" lon="6.1482900"/>
<trkpt lat="52.1719200" lon="6.1482600"/>
<trkpt lat="52.1723000" lon="6.1482300"/>
<trkpt lat="52.1725700" lon="6.1482700"/>
<trkpt lat="52.1726100" lon="6.1481900"/>
<trkpt lat="52.1725700" lon="6.1474400"/>
<trkpt lat="52.1725700" lon="6.1471300"/>
<trkpt lat="52.1725800" lon="6.1471100"/>
<trkpt lat="52.1725500" lon="6.1469200"/>
<trkpt lat="52.1725400" lon="6.1467300"/>
<trkpt lat="52.1724600" lon="6.1462900"/>
<trkpt lat="52.1728000" lon="6.1460400"/>
<trkpt lat="52.1735500" lon="6.1458700"/>
<trkpt lat="52.1736000" lon="6.1447600"/>
<trkpt lat="52.1736100" lon="6.1439700"/>
<trkpt lat="52.1742900" lon="6.1440100"/>
<trkpt lat="52.1759200" lon="6.1440500"/>
<trkpt lat="52.1759100" lon="6.1433400"/>
<trkpt lat="52.1764900" lon="6.1432400"/>
<trkpt lat="52.1764800" lon="6.1416800"/>
<trkpt lat="52.1767800" lon="6.1416800"/>
<trkpt lat="52.1772200" lon="6.1416300"/>
<trkpt lat="52.1773000" lon="6.1412000"/>
<trkpt lat="52.1769300" lon="6.1402800"/>
<trkpt lat="52.1769000" lon="6.1400300"/>
<trkpt lat="52.1776000" lon="6.1397200"/>
<trkpt lat="52.1777100" lon="6.1396900"/>
<trkpt lat="52.1777700" lon="6.1396100"/>
<trkpt lat="52.1777700" lon="6.1393300"/>
<trkpt lat="52.1777300" lon="6.1387400"/>
<trkpt lat="52.1777800" lon="6.1381200"/>
<trkpt lat="52.1776600" lon="6.1376000"/>
</trkseg></trk>
<trk><name>Beekweidenpad - connectionRoute</name><type>connectionRoute</type><trkseg>
<trkpt lat="52.1775700" lon="6.1111200"/>
<trkpt lat="52.1774300" lon="6.1105500"/>
<trkpt lat="52.1767200" lon="6.1091900"/>
<trkpt lat="52.1763400" lon="6.1082700"/>
<trkpt lat="52.1759800" lon="6.1071700"/>
<trkpt lat="52.1728600" lon="6.0809800"/>
</trkseg></trk>
<trk><name>Beekweidenpad - approachRoute</name><type>approachRoute</type><trkseg>
<trkpt lat="52.1633000" lon="6.1536600"/>
<trkpt lat="52.1630200" lon="6.1527500"/>
<trkpt lat="52.1628100" lon="6.1519700"/>
<trkpt lat="52.1627500" lon="6.1514000"/>
<trkpt lat="52.1627600" lon="6.1510100"/>
<trkpt lat="52.1628700" lon="6.1505700"/>
<trkpt lat="52.1631400" lon="6.1502500"/>
<trkpt lat="52.1633800" lon="6.1501000"/>
<trkpt lat="52.1635800" lon="6.1499000"/>
<trkpt lat="52.1637800" lon="6.1497200"/>
<trkpt lat="52.1619700" lon="6.1443600"/>
<trkpt lat="52.1619000" lon="6.1439400"/>
<trkpt lat="52.1605100" lon="6.1440300"/>
<trkpt lat="52.1593400" lon="6.1440200"/>
<trkpt lat="52.1586700" lon="6.1437700"/>
<trkpt lat="52.1579900" lon="6.1432300"/>
</trkseg></trk>
</gpx>