<?xml version="1.0" encoding="UTF-8"?>
<gpx version="1.1" creator="klompenpaden.nl via Jimbo API" xmlns="http://www.topografix.com/GPX/1/1">
<metadata><name>Benedeneindsepad</name><desc>Ontdek het prachtige gebied van de Lopiker- en Utrechtse waarden. Wandelen door een waterrijk natuurgebied en een cultuurhistorisch agrarisch landschap. Geniet van verschillende vogels, hazen, vergezichten en dorpsverhalen. Klompen aan en gaan!</desc><link href="https://www.klompenpaden.nl/klompenpaden/Benedeneindsepad/4aff5e62-8b98-412d-b6c4-fd4d5467e423"><text>klompenpaden.nl</text></link></metadata>
<wpt lat="52.000190546922646" lon="4.918473958969116"><name>Start Benschop</name></wpt>
<trk><name>Benedeneindsepad - Hoofdroute</name><type>mainRoute</type><trkseg>
<trkpt lat="52.0006000" lon="4.9182500"/>
<trkpt lat="52.0012600" lon="4.9178300"/>
<trkpt lat="52.0011600" lon="4.9172500"/>
<trkpt lat="52.0019000" lon="4.9167800"/>
<trkpt lat="52.0019600" lon="4.9170100"/>
<trkpt lat="52.0035100" lon="4.9160300"/>
<trkpt lat="52.0050800" lon="4.9150900"/>
<trkpt lat="52.0051800" lon="4.9150400"/>
<trkpt lat="52.0053700" lon="4.9150400"/>
<trkpt lat="52.0053600" lon="4.9153400"/>
<trkpt lat="52.0053900" lon="4.9156200"/>
<trkpt lat="52.0053400" lon="4.9158600"/>
<trkpt lat="52.0053200" lon="4.9161600"/>
<trkpt lat="52.0053300" lon="4.9165700"/>
<trkpt lat="52.0073100" lon="4.9153500"/>
<trkpt lat="52.0080700" lon="4.9148500"/>
<trkpt lat="52.0109000" lon="4.9130900"/>
<trkpt lat="52.0109000" lon="4.9133800"/>
<trkpt lat="52.0110400" lon="4.9133700"/>
<trkpt lat="52.0110200" lon="4.9138600"/>
<trkpt lat="52.0109800" lon="4.9140500"/>
<trkpt lat="52.0107900" lon="4.9146800"/>
<trkpt lat="52.0106600" lon="4.9152300"/>
<trkpt lat="52.0105800" lon="4.9155300"/>
<trkpt lat="52.0101800" lon="4.9164300"/>
<trkpt lat="52.0101200" lon="4.9166700"/>
<trkpt lat="52.0100800" lon="4.9170200"/>
<trkpt lat="52.0100600" lon="4.9176000"/>
<trkpt lat="52.0100600" lon="4.9187600"/>
<trkpt lat="52.0099400" lon="4.9197200"/>
<trkpt lat="52.0099400" lon="4.9198800"/>
<trkpt lat="52.0100500" lon="4.9198500"/>
<trkpt lat="52.0102100" lon="4.9197400"/>
<trkpt lat="52.0116300" lon="4.9182900"/>
<trkpt lat="52.0132600" lon="4.9166600"/>
<trkpt lat="52.0134500" lon="4.9167300"/>
<trkpt lat="52.0132900" lon="4.9176700"/>
<trkpt lat="52.0132300" lon="4.9178700"/>
<trkpt lat="52.0130800" lon="4.9182200"/>
<trkpt lat="52.0126500" lon="4.9196000"/>
<trkpt lat="52.0126600" lon="4.9200600"/>
<trkpt lat="52.0126000" lon="4.9209400"/>
<trkpt lat="52.0127000" lon="4.9216600"/>
<trkpt lat="52.0128200" lon="4.9222900"/>
<trkpt lat="52.0130000" lon="4.9230600"/>
<trkpt lat="52.0134100" lon="4.9246500"/>
<trkpt lat="52.0134500" lon="4.9247100"/>
<trkpt lat="52.0137000" lon="4.9257900"/>
<trkpt lat="52.0142600" lon="4.9289600"/>
<trkpt lat="52.0146500" lon="4.9314700"/>
<trkpt lat="52.0148200" lon="4.9321800"/>
<trkpt lat="52.0149300" lon="4.9325300"/>
<trkpt lat="52.0163500" lon="4.9365500"/>
<trkpt lat="52.0164100" lon="4.9366700"/>
<trkpt lat="52.0168500" lon="4.9373300"/>
<trkpt lat="52.0166500" lon="4.9374600"/>
<trkpt lat="52.0143500" lon="4.9393300"/>
<trkpt lat="52.0139800" lon="4.9395300"/>
<trkpt lat="52.0135500" lon="4.9374300"/>
<trkpt lat="52.0133600" lon="4.9364200"/>
<trkpt lat="52.0132600" lon="4.9360100"/>
<trkpt lat="52.0130200" lon="4.9351200"/>
<trkpt lat="52.0128800" lon="4.9345100"/>
<trkpt lat="52.0116100" lon="4.9282900"/>
<trkpt lat="52.0115200" lon="4.9279500"/>
<trkpt lat="52.0111800" lon="4.9263000"/>
<trkpt lat="52.0101700" lon="4.9211900"/>
<trkpt lat="52.0099400" lon="4.9199800"/>
<trkpt lat="52.0099400" lon="4.9198800"/>
<trkpt lat="52.0097800" lon="4.9199500"/>
<trkpt lat="52.0070000" lon="4.9216900"/>
<trkpt lat="52.0069700" lon="4.9217500"/>
<trkpt lat="52.0069600" lon="4.9218100"/>
<trkpt lat="52.0072400" lon="4.9229900"/>
<trkpt lat="52.0046900" lon="4.9245100"/>
<trkpt lat="52.0035400" lon="4.9252500"/>
<trkpt lat="52.0006200" lon="4.9270500"/>
<trkpt lat="52.0004300" lon="4.9270800"/>
<trkpt lat="52.0002000" lon="4.9273200"/>
<trkpt lat="51.9995900" lon="4.9277100"/>
<trkpt lat="51.9994400" lon="4.9269300"/>
<trkpt lat="51.9993200" lon="4.9261700"/>
<trkpt lat="51.9993000" lon="4.9258900"/>
<trkpt lat="51.9993100" lon="4.9250900"/>
<trkpt lat="51.9992800" lon="4.9249900"/>
<trkpt lat="51.9993100" lon="4.9245400"/>
<trkpt lat="51.9993400" lon="4.9245000"/>
<trkpt lat="51.9995400" lon="4.9234400"/>
<trkpt lat="51.9995800" lon="4.9233000"/>
<trkpt lat="51.9996600" lon="4.9229200"/>
<trkpt lat="51.9997700" lon="4.9222400"/>
<trkpt lat="51.9997900" lon="4.9219000"/>
<trkpt lat="51.9999800" lon="4.9209400"/>
<trkpt lat="52.0000600" lon="4.9198200"/>
<trkpt lat="52.0000600" lon="4.9195900"/>
<trkpt lat="51.9999500" lon="4.9184300"/>
<trkpt lat="52.0002700" lon="4.9182500"/>
<trkpt lat="52.0003000" lon="4.9184200"/>
<trkpt lat="52.0006100" lon="4.9182400"/>
</trkseg></trk>
<trk><name>Benedeneindsepad - Opstaproute</name><type>approachRoute</type><trkseg>
<trkpt lat="52.0058100" lon="4.8967100"/>
<trkpt lat="52.0060000" lon="4.8965900"/>
<trkpt lat="52.0060900" lon="4.8964100"/>
<trkpt lat="52.0060700" lon="4.8961400"/>
<trkpt lat="52.0060500" lon="4.8960400"/>
<trkpt lat="52.0063000" lon="4.8958300"/>
<trkpt lat="52.0065500" lon="4.8965700"/>
<trkpt lat="52.0066600" lon="4.8969600"/>
<trkpt lat="52.0067000" lon="4.8972200"/>
<trkpt lat="52.0071600" lon="4.8984700"/>
<trkpt lat="52.0074600" lon="4.8996300"/>
<trkpt lat="52.0078800" lon="4.9003300"/>
<trkpt lat="52.0079700" lon="4.9006400"/>
<trkpt lat="52.0080800" lon="4.9014600"/>
<trkpt lat="52.0082600" lon="4.9017200"/>
<trkpt lat="52.0087900" lon="4.9033500"/>
<trkpt lat="52.0101000" lon="4.9072000"/>
<trkpt lat="52.0102800" lon="4.9076600"/>
<trkpt lat="52.0106900" lon="4.9085800"/>
<trkpt lat="52.0108200" lon="4.9090100"/>
<trkpt lat="52.0108400" lon="4.9091600"/>
<trkpt lat="52.0109700" lon="4.9097200"/>
<trkpt lat="52.0110500" lon="4.9101600"/>
<trkpt lat="52.0110700" lon="4.9106700"/>
<trkpt lat="52.0110700" lon="4.9113100"/>
<trkpt lat="52.0110500" lon="4.9126000"/>
<trkpt lat="52.0110300" lon="4.9129000"/>
<trkpt lat="52.0110500" lon="4.9132000"/>
<trkpt lat="52.0110400" lon="4.9134300"/>
</trkseg></trk>
</gpx>