<?xml version="1.0" encoding="UTF-8"?>
<gpx version="1.1" creator="klompenpaden.nl via Jimbo API" xmlns="http://www.topografix.com/GPX/1/1">
<metadata><name>Beukenburgerpad</name><desc>Ontdek het mooie buitengebied van Groenekan. Wandelen op de grens van de Utrechtse Heuvelrug en het veenweidegebied. Geniet van het slagenlandschap, historische landgoederen, lanen en fort Voordorp. Klompen aan, rugzak op en gaan!</desc><link href="https://www.klompenpaden.nl/klompenpaden/Beukenburgerpad/76f32ffc-f4a1-4f31-80c8-aa16dc18bc8e"><text>klompenpaden.nl</text></link></metadata>
<wpt lat="52.1244253116045" lon="5.147910118103027"><name>Start Groenekan</name></wpt>
<trk><name>Beukenburgerpad - Geimporteerde shapefile</name><type>mainRoute</type><trkseg>
<trkpt lat="52.1223251" lon="5.1559508"/>
<trkpt lat="52.1234687" lon="5.1564089"/>
<trkpt lat="52.1235649" lon="5.1551209"/>
<trkpt lat="52.1236997" lon="5.1550477"/>
<trkpt lat="52.1237992" lon="5.1548082"/>
<trkpt lat="52.1240182" lon="5.1545897"/>
<trkpt lat="52.1241541" lon="5.1545320"/>
<trkpt lat="52.1243818" lon="5.1545307"/>
<trkpt lat="52.1246729" lon="5.1545877"/>
<trkpt lat="52.1248543" lon="5.1546780"/>
<trkpt lat="52.1249820" lon="5.1549019"/>
<trkpt lat="52.1250374" lon="5.1552259"/>
<trkpt lat="52.1250336" lon="5.1554789"/>
<trkpt lat="52.1249945" lon="5.1557683"/>
<trkpt lat="52.1250692" lon="5.1558094"/>
<trkpt lat="52.1258680" lon="5.1562610"/>
<trkpt lat="52.1271525" lon="5.1570344"/>
<trkpt lat="52.1282563" lon="5.1577357"/>
<trkpt lat="52.1281124" lon="5.1585237"/>
<trkpt lat="52.1292338" lon="5.1591627"/>
<trkpt lat="52.1292841" lon="5.1593142"/>
<trkpt lat="52.1293068" lon="5.1597539"/>
<trkpt lat="52.1292920" lon="5.1599723"/>
<trkpt lat="52.1292412" lon="5.1605755"/>
<trkpt lat="52.1291627" lon="5.1611419"/>
<trkpt lat="52.1291673" lon="5.1612916"/>
<trkpt lat="52.1293192" lon="5.1614819"/>
<trkpt lat="52.1294333" lon="5.1615682"/>
<trkpt lat="52.1294721" lon="5.1611653"/>
<trkpt lat="52.1295423" lon="5.1600352"/>
<trkpt lat="52.1295067" lon="5.1597930"/>
<trkpt lat="52.1294058" lon="5.1597864"/>
<trkpt lat="52.1293705" lon="5.1596819"/>
<trkpt lat="52.1293460" lon="5.1593440"/>
<trkpt lat="52.1293327" lon="5.1592211"/>
<trkpt lat="52.1297271" lon="5.1596222"/>
<trkpt lat="52.1299475" lon="5.1598432"/>
<trkpt lat="52.1304866" lon="5.1601860"/>
<trkpt lat="52.1314889" lon="5.1607048"/>
<trkpt lat="52.1315988" lon="5.1605066"/>
<trkpt lat="52.1323617" lon="5.1609337"/>
<trkpt lat="52.1324991" lon="5.1606216"/>
<trkpt lat="52.1342871" lon="5.1616422"/>
<trkpt lat="52.1363652" lon="5.1628440"/>
<trkpt lat="52.1371708" lon="5.1633057"/>
<trkpt lat="52.1386997" lon="5.1641619"/>
<trkpt lat="52.1387756" lon="5.1642039"/>
<trkpt lat="52.1390948" lon="5.1641664"/>
<trkpt lat="52.1398942" lon="5.1646120"/>
<trkpt lat="52.1398391" lon="5.1653779"/>
<trkpt lat="52.1397788" lon="5.1660875"/>
<trkpt lat="52.1397047" lon="5.1668002"/>
<trkpt lat="52.1396195" lon="5.1675941"/>
<trkpt lat="52.1395416" lon="5.1680913"/>
<trkpt lat="52.1394610" lon="5.1692315"/>
<trkpt lat="52.1394094" lon="5.1701485"/>
<trkpt lat="52.1393908" lon="5.1705976"/>
<trkpt lat="52.1393147" lon="5.1712260"/>
<trkpt lat="52.1392266" lon="5.1718448"/>
<trkpt lat="52.1391154" lon="5.1728115"/>
<trkpt lat="52.1390938" lon="5.1739904"/>
<trkpt lat="52.1391246" lon="5.1745893"/>
<trkpt lat="52.1392699" lon="5.1760670"/>
<trkpt lat="52.1393244" lon="5.1766174"/>
<trkpt lat="52.1391935" lon="5.1765408"/>
<trkpt lat="52.1390982" lon="5.1764253"/>
<trkpt lat="52.1390145" lon="5.1761938"/>
<trkpt lat="52.1388654" lon="5.1759336"/>
<trkpt lat="52.1387643" lon="5.1758858"/>
<trkpt lat="52.1386394" lon="5.1758670"/>
<trkpt lat="52.1384730" lon="5.1759161"/>
<trkpt lat="52.1382709" lon="5.1759074"/>
<trkpt lat="52.1380864" lon="5.1758213"/>
<trkpt lat="52.1379672" lon="5.1756673"/>
<trkpt lat="52.1377230" lon="5.1756040"/>
<trkpt lat="52.1373882" lon="5.1756725"/>
<trkpt lat="52.1371023" lon="5.1756462"/>
<trkpt lat="52.1368373" lon="5.1753632"/>
<trkpt lat="52.1366187" lon="5.1751029"/>
<trkpt lat="52.1362919" lon="5.1749080"/>
<trkpt lat="52.1357853" lon="5.1746207"/>
<trkpt lat="52.1356498" lon="5.1745438"/>
<trkpt lat="52.1355589" lon="5.1747979"/>
<trkpt lat="52.1354641" lon="5.1749190"/>
<trkpt lat="52.1353068" lon="5.1749884"/>
<trkpt lat="52.1350342" lon="5.1748961"/>
<trkpt lat="52.1346271" lon="5.1748045"/>
<trkpt lat="52.1343597" lon="5.1746751"/>
<trkpt lat="52.1339454" lon="5.1744453"/>
<trkpt lat="52.1333218" lon="5.1741326"/>
<trkpt lat="52.1329336" lon="5.1739255"/>
<trkpt lat="52.1325141" lon="5.1736689"/>
<trkpt lat="52.1323145" lon="5.1736379"/>
<trkpt lat="52.1322618" lon="5.1737452"/>
<trkpt lat="52.1322076" lon="5.1738552"/>
<trkpt lat="52.1320945" lon="5.1738557"/>
<trkpt lat="52.1320105" lon="5.1738703"/>
<trkpt lat="52.1318861" lon="5.1740593"/>
<trkpt lat="52.1317645" lon="5.1741542"/>
<trkpt lat="52.1314744" lon="5.1741461"/>
<trkpt lat="52.1311392" lon="5.1739994"/>
<trkpt lat="52.1306470" lon="5.1736175"/>
<trkpt lat="52.1305621" lon="5.1739957"/>
<trkpt lat="52.1304781" lon="5.1740751"/>
<trkpt lat="52.1302465" lon="5.1750501"/>
<trkpt lat="52.1302629" lon="5.1753172"/>
<trkpt lat="52.1302261" lon="5.1755156"/>
<trkpt lat="52.1302370" lon="5.1756620"/>
<trkpt lat="52.1301220" lon="5.1765761"/>
<trkpt lat="52.1288371" lon="5.1758496"/>
<trkpt lat="52.1289803" lon="5.1736106"/>
<trkpt lat="52.1291138" lon="5.1718325"/>
<trkpt lat="52.1292841" lon="5.1706725"/>
<trkpt lat="52.1295426" lon="5.1690097"/>
<trkpt lat="52.1289534" lon="5.1686745"/>
<trkpt lat="52.1276262" lon="5.1678889"/>
<trkpt lat="52.1264953" lon="5.1672086"/>
<trkpt lat="52.1247158" lon="5.1661742"/>
<trkpt lat="52.1236147" lon="5.1655132"/>
<trkpt lat="52.1217338" lon="5.1643828"/>
<trkpt lat="52.1212934" lon="5.1641146"/>
<trkpt lat="52.1200614" lon="5.1633867"/>
<trkpt lat="52.1199364" lon="5.1633131"/>
<trkpt lat="52.1198361" lon="5.1636902"/>
<trkpt lat="52.1197715" lon="5.1641252"/>
<trkpt lat="52.1197187" lon="5.1644924"/>
<trkpt lat="52.1196302" lon="5.1648406"/>
<trkpt lat="52.1193991" lon="5.1652570"/>
<trkpt lat="52.1191924" lon="5.1660114"/>
<trkpt lat="52.1188145" lon="5.1673943"/>
<trkpt lat="52.1180818" lon="5.1697930"/>
<trkpt lat="52.1176915" lon="5.1709538"/>
<trkpt lat="52.1171593" lon="5.1724919"/>
<trkpt lat="52.1164373" lon="5.1743302"/>
<trkpt lat="52.1139135" lon="5.1727006"/>
<trkpt lat="52.1116898" lon="5.1712803"/>
<trkpt lat="52.1111127" lon="5.1709207"/>
<trkpt lat="52.1105040" lon="5.1705562"/>
<trkpt lat="52.1106098" lon="5.1701991"/>
<trkpt lat="52.1105881" lon="5.1700688"/>
<trkpt lat="52.1105165" lon="5.1700234"/>
<trkpt lat="52.1102757" lon="5.1697383"/>
<trkpt lat="52.1102705" lon="5.1695060"/>
<trkpt lat="52.1104418" lon="5.1692495"/>
<trkpt lat="52.1106087" lon="5.1691790"/>
<trkpt lat="52.1108854" lon="5.1691466"/>
<trkpt lat="52.1111236" lon="5.1697591"/>
<trkpt lat="52.1111469" lon="5.1700354"/>
<trkpt lat="52.1111547" lon="5.1702763"/>
<trkpt lat="52.1107480" lon="5.1701699"/>
<trkpt lat="52.1106098" lon="5.1701991"/>
<trkpt lat="52.1098726" lon="5.1697260"/>
<trkpt lat="52.1089715" lon="5.1691999"/>
<trkpt lat="52.1083020" lon="5.1686953"/>
<trkpt lat="52.1082568" lon="5.1685642"/>
<trkpt lat="52.1083334" lon="5.1680746"/>
<trkpt lat="52.1083433" lon="5.1679386"/>
<trkpt lat="52.1082734" lon="5.1678240"/>
<trkpt lat="52.1080597" lon="5.1674182"/>
<trkpt lat="52.1079639" lon="5.1670904"/>
<trkpt lat="52.1079334" lon="5.1666753"/>
<trkpt lat="52.1079862" lon="5.1662792"/>
<trkpt lat="52.1081804" lon="5.1652161"/>
<trkpt lat="52.1084925" lon="5.1636504"/>
<trkpt lat="52.1086572" lon="5.1627226"/>
<trkpt lat="52.1088223" lon="5.1619590"/>
<trkpt lat="52.1089154" lon="5.1609254"/>
<trkpt lat="52.1090332" lon="5.1603261"/>
<trkpt lat="52.1092772" lon="5.1604504"/>
<trkpt lat="52.1098010" lon="5.1608243"/>
<trkpt lat="52.1101399" lon="5.1608226"/>
<trkpt lat="52.1103535" lon="5.1606091"/>
<trkpt lat="52.1104769" lon="5.1598263"/>
<trkpt lat="52.1106754" lon="5.1587246"/>
<trkpt lat="52.1114388" lon="5.1591841"/>
<trkpt lat="52.1116411" lon="5.1592604"/>
<trkpt lat="52.1118371" lon="5.1592014"/>
<trkpt lat="52.1120807" lon="5.1591229"/>
<trkpt lat="52.1123485" lon="5.1592471"/>
<trkpt lat="52.1131103" lon="5.1596585"/>
<trkpt lat="52.1142710" lon="5.1604058"/>
<trkpt lat="52.1154555" lon="5.1610951"/>
<trkpt lat="52.1169852" lon="5.1620627"/>
<trkpt lat="52.1172710" lon="5.1622834"/>
<trkpt lat="52.1173307" lon="5.1623894"/>
<trkpt lat="52.1173488" lon="5.1625534"/>
<trkpt lat="52.1173491" lon="5.1627080"/>
<trkpt lat="52.1172664" lon="5.1629691"/>
<trkpt lat="52.1171719" lon="5.1633269"/>
<trkpt lat="52.1169893" lon="5.1641970"/>
<trkpt lat="52.1169305" lon="5.1645739"/>
<trkpt lat="52.1169015" lon="5.1649314"/>
<trkpt lat="52.1169731" lon="5.1650566"/>
<trkpt lat="52.1181279" lon="5.1658042"/>
<trkpt lat="52.1190386" lon="5.1663984"/>
<trkpt lat="52.1190920" lon="5.1663692"/>
<trkpt lat="52.1192810" lon="5.1656729"/>
<trkpt lat="52.1193518" lon="5.1654118"/>
<trkpt lat="52.1194346" lon="5.1651699"/>
<trkpt lat="52.1195532" lon="5.1649858"/>
<trkpt lat="52.1195887" lon="5.1649084"/>
<trkpt lat="52.1196715" lon="5.1647052"/>
<trkpt lat="52.1197481" lon="5.1643281"/>
<trkpt lat="52.1198068" lon="5.1639222"/>
<trkpt lat="52.1198715" lon="5.1635452"/>
<trkpt lat="52.1200903" lon="5.1629356"/>
<trkpt lat="52.1204095" lon="5.1619489"/>
<trkpt lat="52.1212426" lon="5.1592887"/>
<trkpt lat="52.1218632" lon="5.1573828"/>
<trkpt lat="52.1223390" lon="5.1558863"/>
<trkpt lat="52.1244305" lon="5.1478941"/>
<trkpt lat="52.1223251" lon="5.1559508"/>
</trkseg></trk>
<trk><name>Beukenburgerpad - approachRoute</name><type>approachRoute</type><trkseg>
<trkpt lat="52.1126300" lon="5.1480100"/>
<trkpt lat="52.1136500" lon="5.1473600"/>
<trkpt lat="52.1139600" lon="5.1477000"/>
<trkpt lat="52.1134100" lon="5.1497300"/>
<trkpt lat="52.1132400" lon="5.1501800"/>
<trkpt lat="52.1130300" lon="5.1506600"/>
<trkpt lat="52.1110100" lon="5.1544100"/>
<trkpt lat="52.1108000" lon="5.1548700"/>
<trkpt lat="52.1105400" lon="5.1555100"/>
<trkpt lat="52.1101000" lon="5.1564900"/>
<trkpt lat="52.1100000" lon="5.1567600"/>
<trkpt lat="52.1100000" lon="5.1569400"/>
<trkpt lat="52.1100800" lon="5.1570400"/>
<trkpt lat="52.1104300" lon="5.1572400"/>
<trkpt lat="52.1106800" lon="5.1574800"/>
<trkpt lat="52.1107400" lon="5.1579200"/>
<trkpt lat="52.1106700" lon="5.1587200"/>
</trkseg></trk>
</gpx>