<?xml version="1.0" encoding="UTF-8"?>
<gpx version="1.1" creator="klompenpaden.nl via Jimbo API" xmlns="http://www.topografix.com/GPX/1/1">
<metadata><name>Bevermeersepad</name><desc>Ontdek het mooie afwisselende buitengebied van Angerlo. Wandelen langs weteringen, over broekgronden en door het coulisselandschap. Klompen aan, rugzak op en gaan!</desc><link href="https://www.klompenpaden.nl/klompenpaden/Bevermeersepad/7c2a92a7-f245-497f-8baa-36bed958ec72"><text>klompenpaden.nl</text></link></metadata>
<wpt lat="51.99657069457271" lon="6.134389042854308"><name>Start Angerlo</name></wpt>
<trk><name>Bevermeersepad - mainRoute</name><type>mainRoute</type><trkseg>
<trkpt lat="51.9957700" lon="6.1470800"/>
<trkpt lat="51.9958600" lon="6.1471000"/>
<trkpt lat="51.9965900" lon="6.1474000"/>
<trkpt lat="51.9975800" lon="6.1478700"/>
<trkpt lat="51.9978200" lon="6.1480000"/>
<trkpt lat="51.9980600" lon="6.1482000"/>
<trkpt lat="51.9983900" lon="6.1485200"/>
<trkpt lat="51.9988300" lon="6.1490100"/>
<trkpt lat="51.9991400" lon="6.1493300"/>
<trkpt lat="51.9993200" lon="6.1496700"/>
<trkpt lat="51.9993700" lon="6.1499400"/>
<trkpt lat="51.9994100" lon="6.1504000"/>
<trkpt lat="51.9993000" lon="6.1519000"/>
<trkpt lat="51.9989600" lon="6.1549900"/>
<trkpt lat="51.9990200" lon="6.1552200"/>
<trkpt lat="51.9991500" lon="6.1555400"/>
<trkpt lat="51.9995600" lon="6.1560400"/>
<trkpt lat="51.9995100" lon="6.1562400"/>
<trkpt lat="51.9995000" lon="6.1566300"/>
<trkpt lat="51.9994700" lon="6.1567400"/>
<trkpt lat="51.9993600" lon="6.1570100"/>
<trkpt lat="51.9992400" lon="6.1571900"/>
<trkpt lat="51.9985800" lon="6.1578400"/>
<trkpt lat="51.9976100" lon="6.1589000"/>
<trkpt lat="51.9973500" lon="6.1590000"/>
<trkpt lat="51.9973100" lon="6.1589000"/>
<trkpt lat="51.9972600" lon="6.1588300"/>
<trkpt lat="51.9969600" lon="6.1586900"/>
<trkpt lat="51.9968500" lon="6.1585900"/>
<trkpt lat="51.9967100" lon="6.1583500"/>
<trkpt lat="51.9966400" lon="6.1582100"/>
<trkpt lat="51.9965400" lon="6.1578900"/>
<trkpt lat="51.9964700" lon="6.1577400"/>
<trkpt lat="51.9964100" lon="6.1576700"/>
<trkpt lat="51.9962400" lon="6.1576700"/>
<trkpt lat="51.9961200" lon="6.1576900"/>
<trkpt lat="51.9958800" lon="6.1577600"/>
<trkpt lat="51.9948900" lon="6.1586200"/>
<trkpt lat="51.9946900" lon="6.1587700"/>
<trkpt lat="51.9945900" lon="6.1587900"/>
<trkpt lat="51.9944500" lon="6.1588000"/>
<trkpt lat="51.9942600" lon="6.1587700"/>
<trkpt lat="51.9940900" lon="6.1587000"/>
<trkpt lat="51.9932700" lon="6.1582400"/>
<trkpt lat="51.9931700" lon="6.1586100"/>
<trkpt lat="51.9929600" lon="6.1585400"/>
<trkpt lat="51.9927900" lon="6.1592500"/>
<trkpt lat="51.9927400" lon="6.1596400"/>
<trkpt lat="51.9927300" lon="6.1602600"/>
<trkpt lat="51.9927400" lon="6.1610100"/>
<trkpt lat="51.9927300" lon="6.1615400"/>
<trkpt lat="51.9927100" lon="6.1617000"/>
<trkpt lat="51.9926200" lon="6.1617900"/>
<trkpt lat="51.9925000" lon="6.1617600"/>
<trkpt lat="51.9916900" lon="6.1614900"/>
<trkpt lat="51.9914800" lon="6.1614500"/>
<trkpt lat="51.9907300" lon="6.1614600"/>
<trkpt lat="51.9903900" lon="6.1631700"/>
<trkpt lat="51.9902300" lon="6.1630700"/>
<trkpt lat="51.9901300" lon="6.1630300"/>
<trkpt lat="51.9898900" lon="6.1630200"/>
<trkpt lat="51.9896700" lon="6.1631300"/>
<trkpt lat="51.9894000" lon="6.1634100"/>
<trkpt lat="51.9892900" lon="6.1636200"/>
<trkpt lat="51.9886800" lon="6.1653300"/>
<trkpt lat="51.9884800" lon="6.1656900"/>
<trkpt lat="51.9883800" lon="6.1658500"/>
<trkpt lat="51.9881600" lon="6.1660700"/>
<trkpt lat="51.9879300" lon="6.1662400"/>
<trkpt lat="51.9876800" lon="6.1663600"/>
<trkpt lat="51.9875300" lon="6.1664100"/>
<trkpt lat="51.9872500" lon="6.1664100"/>
<trkpt lat="51.9850100" lon="6.1662800"/>
<trkpt lat="51.9825500" lon="6.1661900"/>
<trkpt lat="51.9809100" lon="6.1661200"/>
<trkpt lat="51.9804300" lon="6.1660800"/>
<trkpt lat="51.9799100" lon="6.1660800"/>
<trkpt lat="51.9798700" lon="6.1660900"/>
<trkpt lat="51.9798600" lon="6.1661700"/>
<trkpt lat="51.9797100" lon="6.1661500"/>
<trkpt lat="51.9797200" lon="6.1655100"/>
<trkpt lat="51.9797500" lon="6.1654600"/>
<trkpt lat="51.9797700" lon="6.1653800"/>
<trkpt lat="51.9797900" lon="6.1650900"/>
<trkpt lat="51.9797800" lon="6.1635000"/>
<trkpt lat="51.9795800" lon="6.1615000"/>
<trkpt lat="51.9795800" lon="6.1614000"/>
<trkpt lat="51.9796100" lon="6.1611000"/>
<trkpt lat="51.9796700" lon="6.1609800"/>
<trkpt lat="51.9797700" lon="6.1609100"/>
<trkpt lat="51.9798500" lon="6.1608700"/>
<trkpt lat="51.9801400" lon="6.1608600"/>
<trkpt lat="51.9807300" lon="6.1607500"/>
<trkpt lat="51.9808400" lon="6.1606400"/>
<trkpt lat="51.9809300" lon="6.1604300"/>
<trkpt lat="51.9809800" lon="6.1602100"/>
<trkpt lat="51.9806100" lon="6.1536000"/>
<trkpt lat="51.9804600" lon="6.1519000"/>
<trkpt lat="51.9804400" lon="6.1513000"/>
<trkpt lat="51.9808000" lon="6.1500200"/>
<trkpt lat="51.9808300" lon="6.1498400"/>
<trkpt lat="51.9808200" lon="6.1494600"/>
<trkpt lat="51.9807800" lon="6.1489600"/>
<trkpt lat="51.9806700" lon="6.1479500"/>
<trkpt lat="51.9805100" lon="6.1469700"/>
<trkpt lat="51.9804900" lon="6.1467200"/>
<trkpt lat="51.9804500" lon="6.1455900"/>
<trkpt lat="51.9804600" lon="6.1454500"/>
<trkpt lat="51.9805200" lon="6.1453300"/>
<trkpt lat="51.9805800" lon="6.1452600"/>
<trkpt lat="51.9805800" lon="6.1452400"/>
<trkpt lat="51.9804900" lon="6.1451200"/>
<trkpt lat="51.9804100" lon="6.1449400"/>
<trkpt lat="51.9803500" lon="6.1447700"/>
<trkpt lat="51.9802900" lon="6.1445000"/>
<trkpt lat="51.9796500" lon="6.1385900"/>
<trkpt lat="51.9795400" lon="6.1378700"/>
<trkpt lat="51.9784300" lon="6.1313200"/>
<trkpt lat="51.9786300" lon="6.1312500"/>
<trkpt lat="51.9797400" lon="6.1305100"/>
<trkpt lat="51.9806600" lon="6.1297800"/>
<trkpt lat="51.9809900" lon="6.1295000"/>
<trkpt lat="51.9812300" lon="6.1293300"/>
<trkpt lat="51.9820900" lon="6.1286600"/>
<trkpt lat="51.9824600" lon="6.1284100"/>
<trkpt lat="51.9827400" lon="6.1282600"/>
<trkpt lat="51.9828600" lon="6.1281400"/>
<trkpt lat="51.9829600" lon="6.1278500"/>
<trkpt lat="51.9831100" lon="6.1277100"/>
<trkpt lat="51.9834000" lon="6.1275400"/>
<trkpt lat="51.9836500" lon="6.1275000"/>
<trkpt lat="51.9838600" lon="6.1275100"/>
<trkpt lat="51.9841000" lon="6.1277200"/>
<trkpt lat="51.9844600" lon="6.1281700"/>
<trkpt lat="51.9846000" lon="6.1282000"/>
<trkpt lat="51.9847500" lon="6.1282000"/>
<trkpt lat="51.9852200" lon="6.1280100"/>
<trkpt lat="51.9854500" lon="6.1279000"/>
<trkpt lat="51.9862500" lon="6.1269600"/>
<trkpt lat="51.9866500" lon="6.1265500"/>
<trkpt lat="51.9878100" lon="6.1257500"/>
<trkpt lat="51.9878500" lon="6.1259900"/>
<trkpt lat="51.9881000" lon="6.1267300"/>
<trkpt lat="51.9909100" lon="6.1347700"/>
<trkpt lat="51.9909300" lon="6.1348800"/>
<trkpt lat="51.9908900" lon="6.1349900"/>
<trkpt lat="51.9903400" lon="6.1357200"/>
<trkpt lat="51.9895300" lon="6.1368400"/>
<trkpt lat="51.9899900" lon="6.1380200"/>
<trkpt lat="51.9900300" lon="6.1380500"/>
<trkpt lat="51.9904300" lon="6.1374300"/>
<trkpt lat="51.9916400" lon="6.1363100"/>
<trkpt lat="51.9918300" lon="6.1361600"/>
<trkpt lat="51.9931400" lon="6.1358900"/>
<trkpt lat="51.9937400" lon="6.1357300"/>
<trkpt lat="51.9945600" lon="6.1355900"/>
<trkpt lat="51.9946200" lon="6.1359300"/>
<trkpt lat="51.9947300" lon="6.1362600"/>
<trkpt lat="51.9948300" lon="6.1364200"/>
<trkpt lat="51.9950400" lon="6.1365600"/>
<trkpt lat="51.9953600" lon="6.1366800"/>
<trkpt lat="51.9953800" lon="6.1370300"/>
<trkpt lat="51.9955900" lon="6.1380100"/>
<trkpt lat="51.9957000" lon="6.1383600"/>
<trkpt lat="51.9958000" lon="6.1389300"/>
<trkpt lat="51.9959000" lon="6.1396400"/>
<trkpt lat="51.9959800" lon="6.1400200"/>
<trkpt lat="51.9962200" lon="6.1408000"/>
<trkpt lat="51.9964200" lon="6.1415500"/>
<trkpt lat="51.9965000" lon="6.1416600"/>
<trkpt lat="51.9966300" lon="6.1417400"/>
<trkpt lat="51.9966500" lon="6.1420000"/>
<trkpt lat="51.9965600" lon="6.1421100"/>
<trkpt lat="51.9964100" lon="6.1427300"/>
<trkpt lat="51.9961400" lon="6.1444300"/>
<trkpt lat="51.9960500" lon="6.1448500"/>
<trkpt lat="51.9958900" lon="6.1454500"/>
<trkpt lat="51.9958300" lon="6.1459700"/>
<trkpt lat="51.9958100" lon="6.1465400"/>
<trkpt lat="51.9957400" lon="6.1471000"/>
<trkpt lat="51.9957700" lon="6.1470700"/>
</trkseg></trk>
<trk><name>Bevermeersepad - approachRoute</name><type>approachRoute</type><trkseg>
<trkpt lat="51.9953600" lon="6.1366800"/>
<trkpt lat="51.9953800" lon="6.1363500"/>
<trkpt lat="51.9954600" lon="6.1359600"/>
<trkpt lat="51.9956000" lon="6.1355700"/>
<trkpt lat="51.9956400" lon="6.1353400"/>
<trkpt lat="51.9958500" lon="6.1354000"/>
<trkpt lat="51.9960200" lon="6.1353500"/>
<trkpt lat="51.9962400" lon="6.1352500"/>
<trkpt lat="51.9963500" lon="6.1351200"/>
<trkpt lat="51.9964600" lon="6.1347900"/>
<trkpt lat="51.9965900" lon="6.1344600"/>
</trkseg></trk>
</gpx>