<?xml version="1.0" encoding="UTF-8"?>
<gpx version="1.1" creator="klompenpaden.nl via Jimbo API" xmlns="http://www.topografix.com/GPX/1/1">
<metadata><name>Boereneschpad</name><desc>Ontdek het afwisselde buitengebied van Noordijk, Geesteren en Gelselaar. Over de eeuwenoude es, nieuwe landgoederen, langs beken en door de herstelde natuur op het Noordijkerveld. Klompen aan, rugzak op en gaan!</desc><link href="https://www.klompenpaden.nl/klompenpaden/Boereneschpad/490a7cea-1aad-4010-82be-5c58ec4b2013"><text>klompenpaden.nl</text></link></metadata>
<wpt lat="52.17533971231739" lon="6.5172529220581055"><name>Start Gelselaar</name></wpt>
<trk><name>Boereneschpad - Geimporteerde shapefile</name><type>mainRoute</type><trkseg>
<trkpt lat="52.1716426" lon="6.5199903"/>
<trkpt lat="52.1716417" lon="6.5199904"/>
</trkseg></trk>
<trk><name>Boereneschpad - Geimporteerde shapefile</name><type>mainRoute</type><trkseg>
<trkpt lat="52.1716426" lon="6.5199903"/>
<trkpt lat="52.1716435" lon="6.5199895"/>
<trkpt lat="52.1716628" lon="6.5199724"/>
<trkpt lat="52.1718649" lon="6.5194689"/>
<trkpt lat="52.1717675" lon="6.5187597"/>
<trkpt lat="52.1715581" lon="6.5179602"/>
<trkpt lat="52.1715150" lon="6.5176580"/>
<trkpt lat="52.1715313" lon="6.5174217"/>
<trkpt lat="52.1716705" lon="6.5168292"/>
<trkpt lat="52.1717770" lon="6.5165524"/>
<trkpt lat="52.1718281" lon="6.5162893"/>
<trkpt lat="52.1720374" lon="6.5162803"/>
<trkpt lat="52.1722275" lon="6.5163399"/>
<trkpt lat="52.1723680" lon="6.5166217"/>
<trkpt lat="52.1726875" lon="6.5166756"/>
<trkpt lat="52.1728087" lon="6.5165319"/>
<trkpt lat="52.1740945" lon="6.5165754"/>
<trkpt lat="52.1743598" lon="6.5165108"/>
<trkpt lat="52.1745159" lon="6.5163297"/>
<trkpt lat="52.1746370" lon="6.5160921"/>
<trkpt lat="52.1747479" lon="6.5158671"/>
<trkpt lat="52.1748250" lon="6.5158132"/>
<trkpt lat="52.1748746" lon="6.5157054"/>
<trkpt lat="52.1750840" lon="6.5158671"/>
<trkpt lat="52.1751721" lon="6.5158402"/>
<trkpt lat="52.1752382" lon="6.5157413"/>
<trkpt lat="52.1753038" lon="6.5158360"/>
<trkpt lat="52.1755081" lon="6.5160378"/>
<trkpt lat="52.1756128" lon="6.5161276"/>
<trkpt lat="52.1757836" lon="6.5163971"/>
<trkpt lat="52.1756597" lon="6.5165816"/>
<trkpt lat="52.1756569" lon="6.5165858"/>
<trkpt lat="52.1756768" lon="6.5166148"/>
<trkpt lat="52.1761325" lon="6.5172774"/>
<trkpt lat="52.1773756" lon="6.5191100"/>
<trkpt lat="52.1775960" lon="6.5192448"/>
<trkpt lat="52.1794028" lon="6.5201072"/>
<trkpt lat="52.1792783" lon="6.5229394"/>
<trkpt lat="52.1794010" lon="6.5229722"/>
<trkpt lat="52.1796504" lon="6.5229882"/>
<trkpt lat="52.1799889" lon="6.5229681"/>
<trkpt lat="52.1801133" lon="6.5229548"/>
<trkpt lat="52.1802786" lon="6.5229728"/>
<trkpt lat="52.1803998" lon="6.5229458"/>
<trkpt lat="52.1800466" lon="6.5258813"/>
<trkpt lat="52.1796947" lon="6.5286412"/>
<trkpt lat="52.1795625" lon="6.5291891"/>
<trkpt lat="52.1792430" lon="6.5299976"/>
<trkpt lat="52.1790006" lon="6.5308959"/>
<trkpt lat="52.1789015" lon="6.5313361"/>
<trkpt lat="52.1789896" lon="6.5314888"/>
<trkpt lat="52.1789841" lon="6.5319470"/>
<trkpt lat="52.1791659" lon="6.5319919"/>
<trkpt lat="52.1795184" lon="6.5320098"/>
<trkpt lat="52.1799604" lon="6.5318841"/>
<trkpt lat="52.1809781" lon="6.5315786"/>
<trkpt lat="52.1812040" lon="6.5315876"/>
<trkpt lat="52.1815832" lon="6.5313492"/>
<trkpt lat="52.1816611" lon="6.5313002"/>
<trkpt lat="52.1817592" lon="6.5313141"/>
</trkseg></trk>
<trk><name>Boereneschpad - Geimporteerde shapefile</name><type>mainRoute</type><trkseg>
<trkpt lat="52.1716579" lon="6.5199895"/>
<trkpt lat="52.1716426" lon="6.5199903"/>
</trkseg></trk>
<trk><name>Boereneschpad - Geimporteerde shapefile</name><type>mainRoute</type><trkseg>
<trkpt lat="52.1756488" lon="6.5165742"/>
<trkpt lat="52.1756367" lon="6.5165915"/>
<trkpt lat="52.1755510" lon="6.5167138"/>
</trkseg></trk>
<trk><name>Boereneschpad - Geimporteerde shapefile</name><type>mainRoute</type><trkseg>
<trkpt lat="52.1817592" lon="6.5313141"/>
<trkpt lat="52.1817540" lon="6.5313384"/>
<trkpt lat="52.1817217" lon="6.5314888"/>
<trkpt lat="52.1817007" lon="6.5316287"/>
<trkpt lat="52.1816279" lon="6.5321137"/>
<trkpt lat="52.1815895" lon="6.5323692"/>
<trkpt lat="52.1815118" lon="6.5326468"/>
<trkpt lat="52.1814739" lon="6.5327824"/>
<trkpt lat="52.1811940" lon="6.5334537"/>
<trkpt lat="52.1808175" lon="6.5342193"/>
<trkpt lat="52.1804450" lon="6.5350165"/>
<trkpt lat="52.1802125" lon="6.5355492"/>
<trkpt lat="52.1800582" lon="6.5360612"/>
<trkpt lat="52.1797112" lon="6.5360163"/>
<trkpt lat="52.1793990" lon="6.5361778"/>
<trkpt lat="52.1786358" lon="6.5365727"/>
<trkpt lat="52.1772930" lon="6.5372829"/>
<trkpt lat="52.1771286" lon="6.5381093"/>
<trkpt lat="52.1765201" lon="6.5411672"/>
<trkpt lat="52.1758121" lon="6.5447247"/>
<trkpt lat="52.1754115" lon="6.5467373"/>
<trkpt lat="52.1751347" lon="6.5465772"/>
<trkpt lat="52.1733205" lon="6.5454687"/>
<trkpt lat="52.1711119" lon="6.5456732"/>
<trkpt lat="52.1663074" lon="6.5458529"/>
<trkpt lat="52.1659768" lon="6.5477214"/>
<trkpt lat="52.1650676" lon="6.5487814"/>
<trkpt lat="52.1644692" lon="6.5494296"/>
<trkpt lat="52.1641529" lon="6.5497875"/>
<trkpt lat="52.1633925" lon="6.5508385"/>
<trkpt lat="52.1630343" lon="6.5501109"/>
<trkpt lat="52.1627863" lon="6.5494551"/>
<trkpt lat="52.1626872" lon="6.5493114"/>
<trkpt lat="52.1625163" lon="6.5492395"/>
<trkpt lat="52.1622463" lon="6.5489341"/>
<trkpt lat="52.1621196" lon="6.5486107"/>
<trkpt lat="52.1620580" lon="6.5483161"/>
<trkpt lat="52.1621361" lon="6.5476136"/>
<trkpt lat="52.1623014" lon="6.5474249"/>
<trkpt lat="52.1623235" lon="6.5471105"/>
<trkpt lat="52.1622518" lon="6.5467961"/>
<trkpt lat="52.1622133" lon="6.5464637"/>
<trkpt lat="52.1622629" lon="6.5460146"/>
<trkpt lat="52.1611540" lon="6.5458424"/>
<trkpt lat="52.1593422" lon="6.5455295"/>
<trkpt lat="52.1579369" lon="6.5453947"/>
<trkpt lat="52.1565977" lon="6.5454846"/>
<trkpt lat="52.1559253" lon="6.5453768"/>
<trkpt lat="52.1556690" lon="6.5454425"/>
<trkpt lat="52.1558316" lon="6.5451432"/>
<trkpt lat="52.1557490" lon="6.5448737"/>
<trkpt lat="52.1554513" lon="6.5448288"/>
<trkpt lat="52.1551482" lon="6.5449276"/>
<trkpt lat="52.1550380" lon="6.5448557"/>
<trkpt lat="52.1549167" lon="6.5433825"/>
<trkpt lat="52.1548286" lon="6.5431579"/>
<trkpt lat="52.1547293" lon="6.5433825"/>
<trkpt lat="52.1540459" lon="6.5438137"/>
<trkpt lat="52.1533184" lon="6.5450174"/>
<trkpt lat="52.1530153" lon="6.5445863"/>
<trkpt lat="52.1528117" lon="6.5440335"/>
<trkpt lat="52.1529751" lon="6.5435685"/>
<trkpt lat="52.1532062" lon="6.5429103"/>
<trkpt lat="52.1547955" lon="6.5385049"/>
<trkpt lat="52.1550321" lon="6.5371005"/>
<trkpt lat="52.1553405" lon="6.5371993"/>
<trkpt lat="52.1564849" lon="6.5360423"/>
<trkpt lat="52.1570496" lon="6.5340041"/>
<trkpt lat="52.1579154" lon="6.5351044"/>
<trkpt lat="52.1588048" lon="6.5367529"/>
<trkpt lat="52.1598187" lon="6.5360087"/>
<trkpt lat="52.1596796" lon="6.5355237"/>
<trkpt lat="52.1603682" lon="6.5350916"/>
<trkpt lat="52.1605809" lon="6.5350517"/>
<trkpt lat="52.1607266" lon="6.5357295"/>
<trkpt lat="52.1609142" lon="6.5355693"/>
<trkpt lat="52.1606577" lon="6.5341184"/>
<trkpt lat="52.1612126" lon="6.5335962"/>
<trkpt lat="52.1618028" lon="6.5326711"/>
<trkpt lat="52.1623159" lon="6.5320012"/>
<trkpt lat="52.1624193" lon="6.5320013"/>
<trkpt lat="52.1646155" lon="6.5308663"/>
<trkpt lat="52.1650333" lon="6.5321002"/>
<trkpt lat="52.1654258" lon="6.5343185"/>
<trkpt lat="52.1662523" lon="6.5343185"/>
<trkpt lat="52.1671835" lon="6.5341748"/>
<trkpt lat="52.1679493" lon="6.5339412"/>
<trkpt lat="52.1696629" lon="6.5329531"/>
<trkpt lat="52.1691725" lon="6.5300425"/>
<trkpt lat="52.1693378" lon="6.5294317"/>
<trkpt lat="52.1697997" lon="6.5291225"/>
<trkpt lat="52.1697086" lon="6.5286568"/>
<trkpt lat="52.1695608" lon="6.5280787"/>
<trkpt lat="52.1693874" lon="6.5275542"/>
<trkpt lat="52.1691890" lon="6.5269703"/>
<trkpt lat="52.1691735" lon="6.5267637"/>
<trkpt lat="52.1690659" lon="6.5265054"/>
<trkpt lat="52.1690183" lon="6.5262663"/>
<trkpt lat="52.1689550" lon="6.5257947"/>
<trkpt lat="52.1689252" lon="6.5251906"/>
<trkpt lat="52.1688970" lon="6.5247155"/>
<trkpt lat="52.1690348" lon="6.5245628"/>
<trkpt lat="52.1690843" lon="6.5240777"/>
<trkpt lat="52.1687923" lon="6.5241226"/>
<trkpt lat="52.1687262" lon="6.5241765"/>
<trkpt lat="52.1684507" lon="6.5241675"/>
<trkpt lat="52.1684562" lon="6.5238711"/>
<trkpt lat="52.1684893" lon="6.5237184"/>
<trkpt lat="52.1684953" lon="6.5234985"/>
<trkpt lat="52.1684287" lon="6.5225596"/>
<trkpt lat="52.1686601" lon="6.5209606"/>
<trkpt lat="52.1694106" lon="6.5212413"/>
<trkpt lat="52.1701422" lon="6.5218050"/>
<trkpt lat="52.1705774" lon="6.5209246"/>
<trkpt lat="52.1711118" lon="6.5204610"/>
<trkpt lat="52.1715795" lon="6.5200462"/>
<trkpt lat="52.1716426" lon="6.5199903"/>
</trkseg></trk>
<trk><name>Boereneschpad - Geimporteerde shapefile</name><type>mainRoute</type><trkseg>
<trkpt lat="52.1817592" lon="6.5313141"/>
<trkpt lat="52.1818533" lon="6.5313274"/>
</trkseg></trk>
<trk><name>Boereneschpad - Geimporteerde shapefile</name><type>mainRoute</type><trkseg>
<trkpt lat="52.1818533" lon="6.5313274"/>
<trkpt lat="52.1820136" lon="6.5313275"/>
<trkpt lat="52.1820136" lon="6.5313271"/>
</trkseg></trk>
<trk><name>Boereneschpad - Geimporteerde shapefile</name><type>mainRoute</type><trkseg>
<trkpt lat="52.1820136" lon="6.5313271"/>
<trkpt lat="52.1818533" lon="6.5313274"/>
</trkseg></trk>
<trk><name>Boereneschpad - Geimporteerde shapefile</name><type>mainRoute</type><trkseg>
<trkpt lat="52.1820136" lon="6.5313271"/>
<trkpt lat="52.1820247" lon="6.5311385"/>
<trkpt lat="52.1820569" lon="6.5310445"/>
</trkseg></trk>
<trk><name>Boereneschpad - Geimporteerde shapefile</name><type>mainRoute</type><trkseg>
<trkpt lat="52.1820569" lon="6.5310445"/>
<trkpt lat="52.1820245" lon="6.5311418"/>
<trkpt lat="52.1820137" lon="6.5313271"/>
<trkpt lat="52.1820136" lon="6.5313271"/>
</trkseg></trk>
<trk><name>Boereneschpad - Geimporteerde shapefile</name><type>mainRoute</type><trkseg>
<trkpt lat="52.1820569" lon="6.5310445"/>
<trkpt lat="52.1821065" lon="6.5310435"/>
<trkpt lat="52.1822340" lon="6.5311475"/>
</trkseg></trk>
<trk><name>Boereneschpad - Geimporteerde shapefile</name><type>shorteningRoute</type><trkseg>
<trkpt lat="52.1792783" lon="6.5229394"/>
<trkpt lat="52.1792761" lon="6.5229908"/>
<trkpt lat="52.1784722" lon="6.5230289"/>
<trkpt lat="52.1777998" lon="6.5230536"/>
<trkpt lat="52.1777833" lon="6.5231884"/>
<trkpt lat="52.1766173" lon="6.5232343"/>
<trkpt lat="52.1759484" lon="6.5232513"/>
<trkpt lat="52.1757726" lon="6.5232692"/>
<trkpt lat="52.1756569" lon="6.5233501"/>
<trkpt lat="52.1756459" lon="6.5235657"/>
<trkpt lat="52.1756955" lon="6.5244909"/>
<trkpt lat="52.1745716" lon="6.5244281"/>
<trkpt lat="52.1741419" lon="6.5262014"/>
<trkpt lat="52.1738279" lon="6.5279495"/>
<trkpt lat="52.1731062" lon="6.5273027"/>
<trkpt lat="52.1727206" lon="6.5286501"/>
<trkpt lat="52.1722743" lon="6.5284615"/>
<trkpt lat="52.1718336" lon="6.5282100"/>
<trkpt lat="52.1717493" lon="6.5279919"/>
<trkpt lat="52.1710602" lon="6.5281060"/>
<trkpt lat="52.1710489" lon="6.5281556"/>
<trkpt lat="52.1706667" lon="6.5282571"/>
<trkpt lat="52.1705148" lon="6.5282671"/>
<trkpt lat="52.1703185" lon="6.5283357"/>
<trkpt lat="52.1697997" lon="6.5291225"/>
</trkseg></trk>
<trk><name>Boereneschpad - Geimporteerde shapefile</name><type>extensionRoute</type><trkseg>
<trkpt lat="52.1650194" lon="6.5487928"/>
<trkpt lat="52.1662541" lon="6.5512355"/>
<trkpt lat="52.1661034" lon="6.5515036"/>
<trkpt lat="52.1660646" lon="6.5521066"/>
<trkpt lat="52.1659220" lon="6.5525208"/>
<trkpt lat="52.1659878" lon="6.5530035"/>
<trkpt lat="52.1658501" lon="6.5538748"/>
<trkpt lat="52.1658556" lon="6.5541533"/>
<trkpt lat="52.1659469" lon="6.5545473"/>
<trkpt lat="52.1660870" lon="6.5546923"/>
<trkpt lat="52.1662710" lon="6.5552059"/>
<trkpt lat="52.1667603" lon="6.5566065"/>
<trkpt lat="52.1654313" lon="6.5579352"/>
<trkpt lat="52.1652715" lon="6.5578364"/>
<trkpt lat="52.1649519" lon="6.5569381"/>
<trkpt lat="52.1642962" lon="6.5564350"/>
<trkpt lat="52.1640246" lon="6.5559975"/>
<trkpt lat="52.1637011" lon="6.5552043"/>
<trkpt lat="52.1644357" lon="6.5542980"/>
<trkpt lat="52.1630008" lon="6.5512585"/>
<trkpt lat="52.1603617" lon="6.5544498"/>
<trkpt lat="52.1598922" lon="6.5550007"/>
<trkpt lat="52.1558924" lon="6.5600238"/>
<trkpt lat="52.1540129" lon="6.5623370"/>
<trkpt lat="52.1520261" lon="6.5660634"/>
<trkpt lat="52.1491294" lon="6.5713381"/>
<trkpt lat="52.1491294" lon="6.5726406"/>
<trkpt lat="52.1474536" lon="6.5732425"/>
<trkpt lat="52.1472938" lon="6.5722993"/>
<trkpt lat="52.1459543" lon="6.5710686"/>
<trkpt lat="52.1453203" lon="6.5709608"/>
<trkpt lat="52.1452652" lon="6.5702960"/>
<trkpt lat="52.1453699" lon="6.5678796"/>
<trkpt lat="52.1453258" lon="6.5676428"/>
<trkpt lat="52.1441801" lon="6.5645825"/>
<trkpt lat="52.1431773" lon="6.5612743"/>
<trkpt lat="52.1430673" lon="6.5609349"/>
<trkpt lat="52.1430325" lon="6.5596868"/>
<trkpt lat="52.1452269" lon="6.5576118"/>
<trkpt lat="52.1462708" lon="6.5548410"/>
<trkpt lat="52.1473203" lon="6.5523344"/>
<trkpt lat="52.1478521" lon="6.5512827"/>
<trkpt lat="52.1479851" lon="6.5512144"/>
<trkpt lat="52.1481530" lon="6.5512878"/>
<trkpt lat="52.1506223" lon="6.5533715"/>
<trkpt lat="52.1507264" lon="6.5546688"/>
<trkpt lat="52.1508436" lon="6.5545935"/>
<trkpt lat="52.1525302" lon="6.5528508"/>
<trkpt lat="52.1529767" lon="6.5522489"/>
<trkpt lat="52.1531255" lon="6.5521321"/>
<trkpt lat="52.1525235" lon="6.5449693"/>
<trkpt lat="52.1525563" lon="6.5447286"/>
<trkpt lat="52.1526995" lon="6.5445220"/>
<trkpt lat="52.1528117" lon="6.5440335"/>
<trkpt lat="52.1525661" lon="6.5446360"/>
<trkpt lat="52.1523672" lon="6.5447765"/>
<trkpt lat="52.1521497" lon="6.5448101"/>
<trkpt lat="52.1517511" lon="6.5444964"/>
<trkpt lat="52.1519768" lon="6.5441223"/>
<trkpt lat="52.1519294" lon="6.5436969"/>
<trkpt lat="52.1499837" lon="6.5404455"/>
<trkpt lat="52.1493664" lon="6.5398162"/>
<trkpt lat="52.1490412" lon="6.5404720"/>
<trkpt lat="52.1481702" lon="6.5413972"/>
<trkpt lat="52.1480724" lon="6.5411030"/>
<trkpt lat="52.1469686" lon="6.5382082"/>
<trkpt lat="52.1476907" lon="6.5370763"/>
<trkpt lat="52.1482033" lon="6.5364116"/>
<trkpt lat="52.1484468" lon="6.5359693"/>
<trkpt lat="52.1487490" lon="6.5354324"/>
<trkpt lat="52.1490412" lon="6.5347407"/>
<trkpt lat="52.1492672" lon="6.5343994"/>
<trkpt lat="52.1479828" lon="6.5326387"/>
<trkpt lat="52.1477635" lon="6.5323645"/>
<trkpt lat="52.1469124" lon="6.5321208"/>
<trkpt lat="52.1434184" lon="6.5307702"/>
<trkpt lat="52.1427624" lon="6.5307342"/>
<trkpt lat="52.1419520" lon="6.5318571"/>
<trkpt lat="52.1408328" lon="6.5302851"/>
<trkpt lat="52.1407115" lon="6.5301054"/>
<trkpt lat="52.1403587" lon="6.5300605"/>
<trkpt lat="52.1402760" lon="6.5289196"/>
<trkpt lat="52.1401823" lon="6.5282369"/>
<trkpt lat="52.1391788" lon="6.5280213"/>
<trkpt lat="52.1392064" lon="6.5275452"/>
<trkpt lat="52.1390410" lon="6.5275632"/>
<trkpt lat="52.1389032" lon="6.5273476"/>
<trkpt lat="52.1390079" lon="6.5267816"/>
<trkpt lat="52.1391871" lon="6.5260395"/>
<trkpt lat="52.1392946" lon="6.5254701"/>
<trkpt lat="52.1393498" lon="6.5250479"/>
<trkpt lat="52.1393001" lon="6.5246976"/>
<trkpt lat="52.1398625" lon="6.5244101"/>
<trkpt lat="52.1399948" lon="6.5244999"/>
<trkpt lat="52.1404765" lon="6.5242139"/>
<trkpt lat="52.1410983" lon="6.5237317"/>
<trkpt lat="52.1413464" lon="6.5234937"/>
<trkpt lat="52.1417811" lon="6.5229548"/>
<trkpt lat="52.1449620" lon="6.5227302"/>
<trkpt lat="52.1455463" lon="6.5218229"/>
<trkpt lat="52.1465496" lon="6.5220026"/>
<trkpt lat="52.1473758" lon="6.5217674"/>
<trkpt lat="52.1474702" lon="6.5217241"/>
<trkpt lat="52.1473048" lon="6.5209336"/>
<trkpt lat="52.1474977" lon="6.5199814"/>
<trkpt lat="52.1470843" lon="6.5184093"/>
<trkpt lat="52.1470127" lon="6.5176727"/>
<trkpt lat="52.1468914" lon="6.5170888"/>
<trkpt lat="52.1465717" lon="6.5114205"/>
<trkpt lat="52.1471064" lon="6.5106299"/>
<trkpt lat="52.1472662" lon="6.5109264"/>
<trkpt lat="52.1473048" lon="6.5112498"/>
<trkpt lat="52.1473710" lon="6.5115013"/>
<trkpt lat="52.1474922" lon="6.5116181"/>
<trkpt lat="52.1477954" lon="6.5117888"/>
<trkpt lat="52.1478505" lon="6.5115103"/>
<trkpt lat="52.1480324" lon="6.5096687"/>
<trkpt lat="52.1480269" lon="6.5091747"/>
<trkpt lat="52.1485230" lon="6.5083931"/>
<trkpt lat="52.1489144" lon="6.5089231"/>
<trkpt lat="52.1493443" lon="6.5096148"/>
<trkpt lat="52.1495042" lon="6.5095609"/>
<trkpt lat="52.1498527" lon="6.5086102"/>
<trkpt lat="52.1501656" lon="6.5077284"/>
<trkpt lat="52.1504523" lon="6.5077553"/>
<trkpt lat="52.1508216" lon="6.5081775"/>
<trkpt lat="52.1509318" lon="6.5086447"/>
<trkpt lat="52.1510641" lon="6.5106479"/>
<trkpt lat="52.1511468" lon="6.5108276"/>
<trkpt lat="52.1513507" lon="6.5109623"/>
<trkpt lat="52.1516924" lon="6.5109354"/>
<trkpt lat="52.1524972" lon="6.5107018"/>
<trkpt lat="52.1525523" lon="6.5106120"/>
<trkpt lat="52.1522050" lon="6.5077913"/>
<trkpt lat="52.1526515" lon="6.5074229"/>
<trkpt lat="52.1526625" lon="6.5073152"/>
<trkpt lat="52.1552529" lon="6.5053209"/>
<trkpt lat="52.1555836" lon="6.5101179"/>
<trkpt lat="52.1565371" lon="6.5099203"/>
<trkpt lat="52.1574740" lon="6.5099203"/>
<trkpt lat="52.1579700" lon="6.5098574"/>
<trkpt lat="52.1584770" lon="6.5100011"/>
<trkpt lat="52.1586368" lon="6.5101808"/>
<trkpt lat="52.1595626" lon="6.5121571"/>
<trkpt lat="52.1604554" lon="6.5143310"/>
<trkpt lat="52.1610996" lon="6.5148576"/>
<trkpt lat="52.1616291" lon="6.5151934"/>
<trkpt lat="52.1618385" lon="6.5153910"/>
<trkpt lat="52.1620259" lon="6.5156874"/>
<trkpt lat="52.1620865" lon="6.5159300"/>
<trkpt lat="52.1621141" lon="6.5161636"/>
<trkpt lat="52.1621251" lon="6.5180051"/>
<trkpt lat="52.1622022" lon="6.5184363"/>
<trkpt lat="52.1626265" lon="6.5192448"/>
<trkpt lat="52.1655470" lon="6.5165498"/>
<trkpt lat="52.1662802" lon="6.5210892"/>
<trkpt lat="52.1664727" lon="6.5225775"/>
<trkpt lat="52.1664772" lon="6.5235749"/>
<trkpt lat="52.1663845" lon="6.5259732"/>
<trkpt lat="52.1665168" lon="6.5260181"/>
<trkpt lat="52.1671394" lon="6.5259462"/>
<trkpt lat="52.1682138" lon="6.5254791"/>
<trkpt lat="52.1684617" lon="6.5250030"/>
<trkpt lat="52.1689466" lon="6.5251018"/>
</trkseg></trk>
</gpx>