<?xml version="1.0" encoding="UTF-8"?>
<gpx version="1.1" creator="klompenpaden.nl via Jimbo API" xmlns="http://www.topografix.com/GPX/1/1">
<metadata><name>Braakhekke Bultenpad</name><desc>Ontdek het mooie buitengebied van Harfsen. Wandelend door de bossen, de stuwwallen van de Braakhekke Bulten en de laag gelegen natte broeklanden. Klompen aan, rugzak op en gaan! </desc><link href="https://www.klompenpaden.nl/klompenpaden/Braakhekke_Bultenpad/314c3ed3-2d4f-470f-90f2-38f3e12359d8"><text>klompenpaden.nl</text></link></metadata>
<wpt lat="52.206755256153556" lon="6.297727525234222"><name>Start Harfsen</name></wpt>
<trk><name>Braakhekke Bultenpad - hoofdroute</name><type>mainRoute</type><trkseg>
<trkpt lat="52.1955901" lon="6.3158535"/>
<trkpt lat="52.1946740" lon="6.3160621"/>
<trkpt lat="52.1937572" lon="6.3162412"/>
<trkpt lat="52.1926777" lon="6.3163348"/>
<trkpt lat="52.1921393" lon="6.3163666"/>
<trkpt lat="52.1916088" lon="6.3164306"/>
<trkpt lat="52.1915746" lon="6.3169036"/>
<trkpt lat="52.1915193" lon="6.3174330"/>
<trkpt lat="52.1914476" lon="6.3180494"/>
<trkpt lat="52.1913845" lon="6.3186399"/>
<trkpt lat="52.1913707" lon="6.3190272"/>
<trkpt lat="52.1913483" lon="6.3195463"/>
<trkpt lat="52.1913198" lon="6.3205037"/>
<trkpt lat="52.1912924" lon="6.3213089"/>
<trkpt lat="52.1912750" lon="6.3216387"/>
<trkpt lat="52.1912655" lon="6.3219326"/>
<trkpt lat="52.1912489" lon="6.3220872"/>
<trkpt lat="52.1912555" lon="6.3221499"/>
<trkpt lat="52.1903076" lon="6.3220270"/>
<trkpt lat="52.1894056" lon="6.3218879"/>
<trkpt lat="52.1870292" lon="6.3216238"/>
<trkpt lat="52.1846191" lon="6.3216005"/>
<trkpt lat="52.1842700" lon="6.3212609"/>
<trkpt lat="52.1839243" lon="6.3208227"/>
<trkpt lat="52.1837709" lon="6.3206432"/>
<trkpt lat="52.1837920" lon="6.3197600"/>
<trkpt lat="52.1839034" lon="6.3175206"/>
<trkpt lat="52.1840780" lon="6.3154249"/>
<trkpt lat="52.1836025" lon="6.3154873"/>
<trkpt lat="52.1830505" lon="6.3156967"/>
<trkpt lat="52.1830672" lon="6.3155211"/>
<trkpt lat="52.1824845" lon="6.3156874"/>
<trkpt lat="52.1817952" lon="6.3159706"/>
<trkpt lat="52.1810164" lon="6.3162967"/>
<trkpt lat="52.1801092" lon="6.3165793"/>
<trkpt lat="52.1800176" lon="6.3171582"/>
<trkpt lat="52.1798913" lon="6.3171866"/>
<trkpt lat="52.1798133" lon="6.3169089"/>
<trkpt lat="52.1794851" lon="6.3171893"/>
<trkpt lat="52.1791746" lon="6.3171893"/>
<trkpt lat="52.1788536" lon="6.3170520"/>
<trkpt lat="52.1785194" lon="6.3167044"/>
<trkpt lat="52.1782168" lon="6.3162968"/>
<trkpt lat="52.1779037" lon="6.3159234"/>
<trkpt lat="52.1775893" lon="6.3154406"/>
<trkpt lat="52.1772873" lon="6.3146736"/>
<trkpt lat="52.1769525" lon="6.3138744"/>
<trkpt lat="52.1766236" lon="6.3130377"/>
<trkpt lat="52.1764690" lon="6.3126086"/>
<trkpt lat="52.1763308" lon="6.3121259"/>
<trkpt lat="52.1764032" lon="6.3099857"/>
<trkpt lat="52.1764756" lon="6.3089371"/>
<trkpt lat="52.1765184" lon="6.3078777"/>
<trkpt lat="52.1765907" lon="6.3066870"/>
<trkpt lat="52.1766793" lon="6.3051861"/>
<trkpt lat="52.1765450" lon="6.3051239"/>
<trkpt lat="52.1763868" lon="6.3042454"/>
<trkpt lat="52.1761960" lon="6.3032435"/>
<trkpt lat="52.1761118" lon="6.3025054"/>
<trkpt lat="52.1761381" lon="6.3017941"/>
<trkpt lat="52.1761678" lon="6.3011258"/>
<trkpt lat="52.1762033" lon="6.3010014"/>
<trkpt lat="52.1763539" lon="6.3010443"/>
<trkpt lat="52.1764960" lon="6.2999652"/>
<trkpt lat="52.1767486" lon="6.2986950"/>
<trkpt lat="52.1785047" lon="6.2988153"/>
<trkpt lat="52.1787643" lon="6.2988281"/>
<trkpt lat="52.1790541" lon="6.2986741"/>
<trkpt lat="52.1794046" lon="6.2986810"/>
<trkpt lat="52.1796564" lon="6.2985482"/>
<trkpt lat="52.1803259" lon="6.2984724"/>
<trkpt lat="52.1803337" lon="6.2989258"/>
<trkpt lat="52.1808797" lon="6.2988774"/>
<trkpt lat="52.1811112" lon="6.2989128"/>
<trkpt lat="52.1812638" lon="6.2990556"/>
<trkpt lat="52.1814467" lon="6.2994653"/>
<trkpt lat="52.1816263" lon="6.3000950"/>
<trkpt lat="52.1821525" lon="6.3011249"/>
<trkpt lat="52.1825936" lon="6.3018068"/>
<trkpt lat="52.1829671" lon="6.3013785"/>
<trkpt lat="52.1833078" lon="6.3007088"/>
<trkpt lat="52.1834428" lon="6.3005786"/>
<trkpt lat="52.1835440" lon="6.3005622"/>
<trkpt lat="52.1836504" lon="6.3005444"/>
<trkpt lat="52.1842167" lon="6.3005413"/>
<trkpt lat="52.1845271" lon="6.3005813"/>
<trkpt lat="52.1846990" lon="6.3005999"/>
<trkpt lat="52.1848019" lon="6.3006100"/>
<trkpt lat="52.1860364" lon="6.3008836"/>
<trkpt lat="52.1866099" lon="6.3009908"/>
<trkpt lat="52.1866553" lon="6.3014242"/>
<trkpt lat="52.1866793" lon="6.3016409"/>
<trkpt lat="52.1867149" lon="6.3019330"/>
<trkpt lat="52.1871686" lon="6.3013643"/>
<trkpt lat="52.1877003" lon="6.3009193"/>
<trkpt lat="52.1878636" lon="6.3007921"/>
<trkpt lat="52.1890644" lon="6.3022031"/>
<trkpt lat="52.1898181" lon="6.3030271"/>
<trkpt lat="52.1905480" lon="6.3038488"/>
<trkpt lat="52.1910402" lon="6.3044564"/>
<trkpt lat="52.1911715" lon="6.3042232"/>
<trkpt lat="52.1912718" lon="6.3040453"/>
<trkpt lat="52.1914819" lon="6.3036995"/>
<trkpt lat="52.1916910" lon="6.3033879"/>
<trkpt lat="52.1917906" lon="6.3032214"/>
<trkpt lat="52.1919051" lon="6.3029959"/>
<trkpt lat="52.1923087" lon="6.3023866"/>
<trkpt lat="52.1925187" lon="6.3020686"/>
<trkpt lat="52.1927082" lon="6.3017463"/>
<trkpt lat="52.1898404" lon="6.2990329"/>
<trkpt lat="52.1898907" lon="6.2989419"/>
<trkpt lat="52.1898003" lon="6.2988409"/>
<trkpt lat="52.1902088" lon="6.2981491"/>
<trkpt lat="52.1904824" lon="6.2976444"/>
<trkpt lat="52.1907428" lon="6.2971826"/>
<trkpt lat="52.1909336" lon="6.2968683"/>
<trkpt lat="52.1911604" lon="6.2966721"/>
<trkpt lat="52.1913531" lon="6.2965685"/>
<trkpt lat="52.1915293" lon="6.2965561"/>
<trkpt lat="52.1917556" lon="6.2964971"/>
<trkpt lat="52.1919488" lon="6.2963362"/>
<trkpt lat="52.1921251" lon="6.2960429"/>
<trkpt lat="52.1921771" lon="6.2958854"/>
<trkpt lat="52.1922221" lon="6.2958016"/>
<trkpt lat="52.1923274" lon="6.2958131"/>
<trkpt lat="52.1926118" lon="6.2961421"/>
<trkpt lat="52.1930662" lon="6.2966570"/>
<trkpt lat="52.1936271" lon="6.2972813"/>
<trkpt lat="52.1938671" lon="6.2975323"/>
<trkpt lat="52.1940526" lon="6.2977543"/>
<trkpt lat="52.1942721" lon="6.2979942"/>
<trkpt lat="52.1945049" lon="6.2982662"/>
<trkpt lat="52.1946765" lon="6.2984390"/>
<trkpt lat="52.1951434" lon="6.2988582"/>
<trkpt lat="52.1956997" lon="6.2991736"/>
<trkpt lat="52.1961377" lon="6.2994537"/>
<trkpt lat="52.1965342" lon="6.2996817"/>
<trkpt lat="52.1969012" lon="6.2999793"/>
<trkpt lat="52.1974857" lon="6.3002677"/>
<trkpt lat="52.1981013" lon="6.3005183"/>
<trkpt lat="52.1982135" lon="6.2998520"/>
<trkpt lat="52.1984454" lon="6.2986516"/>
<trkpt lat="52.1986600" lon="6.2975653"/>
<trkpt lat="52.1988386" lon="6.2973592"/>
<trkpt lat="52.1990907" lon="6.2970093"/>
<trkpt lat="52.1995253" lon="6.2967000"/>
<trkpt lat="52.1997308" lon="6.2966099"/>
<trkpt lat="52.1999600" lon="6.2963738"/>
<trkpt lat="52.2000460" lon="6.2962864"/>
<trkpt lat="52.2001058" lon="6.2962186"/>
<trkpt lat="52.2001097" lon="6.2964988"/>
<trkpt lat="52.2001622" lon="6.2967490"/>
<trkpt lat="52.2000992" lon="6.2970590"/>
<trkpt lat="52.2001592" lon="6.2972920"/>
<trkpt lat="52.1999951" lon="6.2975460"/>
<trkpt lat="52.1999253" lon="6.2979065"/>
<trkpt lat="52.1997972" lon="6.2982090"/>
<trkpt lat="52.1995422" lon="6.2985330"/>
<trkpt lat="52.1992562" lon="6.2997360"/>
<trkpt lat="52.1995627" lon="6.3005113"/>
<trkpt lat="52.1996207" lon="6.3007710"/>
<trkpt lat="52.1996621" lon="6.3011360"/>
<trkpt lat="52.2024856" lon="6.3034494"/>
<trkpt lat="52.2027093" lon="6.3036138"/>
<trkpt lat="52.2035732" lon="6.3009530"/>
<trkpt lat="52.2037512" lon="6.3005260"/>
<trkpt lat="52.2037752" lon="6.2997030"/>
<trkpt lat="52.2040727" lon="6.2988369"/>
<trkpt lat="52.2041182" lon="6.2983110"/>
<trkpt lat="52.2042932" lon="6.2977330"/>
<trkpt lat="52.2048412" lon="6.2969180"/>
<trkpt lat="52.2050022" lon="6.2969221"/>
<trkpt lat="52.2054322" lon="6.2970000"/>
<trkpt lat="52.2055252" lon="6.2969696"/>
<trkpt lat="52.2057540" lon="6.2962856"/>
<trkpt lat="52.2057832" lon="6.2962690"/>
<trkpt lat="52.2068705" lon="6.2973997"/>
<trkpt lat="52.2068822" lon="6.2974623"/>
<trkpt lat="52.2067655" lon="6.2977612"/>
<trkpt lat="52.2060279" lon="6.3001357"/>
<trkpt lat="52.2059238" lon="6.3004930"/>
<trkpt lat="52.2049559" lon="6.3036055"/>
<trkpt lat="52.2035553" lon="6.3043203"/>
<trkpt lat="52.2026365" lon="6.3036161"/>
<trkpt lat="52.2023362" lon="6.3043514"/>
<trkpt lat="52.2019932" lon="6.3052327"/>
<trkpt lat="52.2017260" lon="6.3059447"/>
<trkpt lat="52.2014886" lon="6.3065430"/>
<trkpt lat="52.2013244" lon="6.3069730"/>
<trkpt lat="52.2011851" lon="6.3073390"/>
<trkpt lat="52.2010564" lon="6.3076880"/>
<trkpt lat="52.2009080" lon="6.3080584"/>
<trkpt lat="52.2007735" lon="6.3084185"/>
<trkpt lat="52.2006325" lon="6.3087862"/>
<trkpt lat="52.2004867" lon="6.3091180"/>
<trkpt lat="52.2003683" lon="6.3092892"/>
<trkpt lat="52.2002606" lon="6.3094031"/>
<trkpt lat="52.2001088" lon="6.3095641"/>
<trkpt lat="52.1999435" lon="6.3097406"/>
<trkpt lat="52.1996667" lon="6.3100130"/>
<trkpt lat="52.1993553" lon="6.3103040"/>
<trkpt lat="52.1987270" lon="6.3109547"/>
<trkpt lat="52.1980911" lon="6.3116010"/>
<trkpt lat="52.1973935" lon="6.3123503"/>
<trkpt lat="52.1969375" lon="6.3128122"/>
<trkpt lat="52.1965222" lon="6.3130488"/>
<trkpt lat="52.1960907" lon="6.3132577"/>
<trkpt lat="52.1956596" lon="6.3134493"/>
<trkpt lat="52.1952689" lon="6.3136282"/>
<trkpt lat="52.1953704" lon="6.3142559"/>
<trkpt lat="52.1954591" lon="6.3148499"/>
<trkpt lat="52.1955327" lon="6.3153342"/>
<trkpt lat="52.1955901" lon="6.3158535"/>
</trkseg></trk>
<trk><name>Braakhekke Bultenpad - routeverkorter</name><type>shorteningRoute</type><trkseg>
<trkpt lat="52.1910402" lon="6.3044563"/>
<trkpt lat="52.1942011" lon="6.3079558"/>
<trkpt lat="52.1953321" lon="6.3091572"/>
<trkpt lat="52.1958845" lon="6.3101871"/>
<trkpt lat="52.1969366" lon="6.3127617"/>
<trkpt lat="52.1969366" lon="6.3128046"/>
</trkseg></trk>
<trk><name>Braakhekke Bultenpad - aanlooproute</name><type>approachRoute</type><trkseg>
<trkpt lat="52.1797493" lon="6.3257246"/>
<trkpt lat="52.1799226" lon="6.3256588"/>
<trkpt lat="52.1799584" lon="6.3261656"/>
<trkpt lat="52.1812968" lon="6.3261418"/>
<trkpt lat="52.1827525" lon="6.3260002"/>
<trkpt lat="52.1828450" lon="6.3259306"/>
<trkpt lat="52.1829253" lon="6.3248212"/>
<trkpt lat="52.1827029" lon="6.3234123"/>
<trkpt lat="52.1827547" lon="6.3231464"/>
<trkpt lat="52.1831110" lon="6.3223043"/>
<trkpt lat="52.1831495" lon="6.3220226"/>
<trkpt lat="52.1830699" lon="6.3186815"/>
<trkpt lat="52.1830129" lon="6.3162266"/>
<trkpt lat="52.1830505" lon="6.3156955"/>
</trkseg></trk>
<trk><name>Braakhekke Bultenpad - aanlooproute</name><type>approachRoute</type><trkseg>
<trkpt lat="52.2075358" lon="6.2968574"/>
<trkpt lat="52.2074118" lon="6.2977473"/>
<trkpt lat="52.2072801" lon="6.2978056"/>
<trkpt lat="52.2069401" lon="6.2974228"/>
<trkpt lat="52.2067655" lon="6.2977612"/>
</trkseg></trk>
</gpx>