<?xml version="1.0" encoding="UTF-8"?>
<gpx version="1.1" creator="klompenpaden.nl via Jimbo API" xmlns="http://www.topografix.com/GPX/1/1">
<metadata><name>Breedlersepad</name><desc>Ontdek Park Lingezegen en het oude boerenland, over akkers met oude heggen en hagen, boomgaarden, herinneringen aan het oorlogsverleden en met ruimte voor natuur en recreatie! Klompen aan, rugzak op en gaan!</desc><link href="https://www.klompenpaden.nl/klompenpaden/Breedlersepad/0a4aea8f-e381-4473-b24f-dadcb1b23b0c"><text>klompenpaden.nl</text></link></metadata>
<wpt lat="51.90899086569956" lon="5.88642418384552"><name>Start Elst</name></wpt>
<trk><name>Breedlersepad - Geimporteerde shapefile</name><type>mainRoute</type><trkseg>
<trkpt lat="51.9052198" lon="5.8793822"/>
<trkpt lat="51.9051956" lon="5.8795842"/>
</trkseg></trk>
<trk><name>Breedlersepad - nieuwe hoofdroute</name><type>mainRoute</type><trkseg>
<trkpt lat="51.9000669" lon="5.8757854"/>
<trkpt lat="51.9000559" lon="5.8757821"/>
<trkpt lat="51.9000049" lon="5.8757423"/>
<trkpt lat="51.8998314" lon="5.8754922"/>
<trkpt lat="51.8995837" lon="5.8751203"/>
<trkpt lat="51.8992169" lon="5.8745683"/>
<trkpt lat="51.8990706" lon="5.8745264"/>
<trkpt lat="51.8989117" lon="5.8745398"/>
<trkpt lat="51.8985955" lon="5.8737404"/>
<trkpt lat="51.8985806" lon="5.8735917"/>
<trkpt lat="51.8985777" lon="5.8735388"/>
<trkpt lat="51.8981381" lon="5.8735919"/>
<trkpt lat="51.8978326" lon="5.8736037"/>
<trkpt lat="51.8973681" lon="5.8736566"/>
<trkpt lat="51.8969191" lon="5.8737198"/>
<trkpt lat="51.8967228" lon="5.8737101"/>
<trkpt lat="51.8967867" lon="5.8740835"/>
<trkpt lat="51.8967815" lon="5.8745771"/>
<trkpt lat="51.8968011" lon="5.8749747"/>
<trkpt lat="51.8969625" lon="5.8756076"/>
<trkpt lat="51.8969786" lon="5.8757260"/>
<trkpt lat="51.8970884" lon="5.8757761"/>
<trkpt lat="51.8970579" lon="5.8760327"/>
<trkpt lat="51.8970621" lon="5.8764534"/>
<trkpt lat="51.8970713" lon="5.8766963"/>
<trkpt lat="51.8970931" lon="5.8769243"/>
<trkpt lat="51.8971127" lon="5.8770960"/>
<trkpt lat="51.8971578" lon="5.8773885"/>
<trkpt lat="51.8971675" lon="5.8776600"/>
<trkpt lat="51.8971213" lon="5.8778730"/>
<trkpt lat="51.8970135" lon="5.8780255"/>
<trkpt lat="51.8968602" lon="5.8782054"/>
<trkpt lat="51.8969297" lon="5.8782786"/>
<trkpt lat="51.8973606" lon="5.8784495"/>
<trkpt lat="51.8976059" lon="5.8786637"/>
<trkpt lat="51.8976043" lon="5.8789191"/>
<trkpt lat="51.8976276" lon="5.8790677"/>
<trkpt lat="51.8976297" lon="5.8797479"/>
<trkpt lat="51.8976441" lon="5.8803622"/>
<trkpt lat="51.8976507" lon="5.8811812"/>
<trkpt lat="51.8976613" lon="5.8817326"/>
<trkpt lat="51.8977008" lon="5.8818168"/>
<trkpt lat="51.8977816" lon="5.8818129"/>
<trkpt lat="51.8982086" lon="5.8817153"/>
<trkpt lat="51.8982074" lon="5.8822899"/>
<trkpt lat="51.8982086" lon="5.8829459"/>
<trkpt lat="51.8982087" lon="5.8843500"/>
<trkpt lat="51.8982281" lon="5.8851223"/>
<trkpt lat="51.8984560" lon="5.8851058"/>
<trkpt lat="51.8987442" lon="5.8851165"/>
<trkpt lat="51.8988088" lon="5.8852044"/>
<trkpt lat="51.8988082" lon="5.8858149"/>
<trkpt lat="51.8988078" lon="5.8873740"/>
<trkpt lat="51.8988018" lon="5.8887869"/>
<trkpt lat="51.8987736" lon="5.8899099"/>
<trkpt lat="51.8985528" lon="5.8899682"/>
<trkpt lat="51.8983948" lon="5.8900535"/>
<trkpt lat="51.8985074" lon="5.8907673"/>
<trkpt lat="51.8986130" lon="5.8915099"/>
<trkpt lat="51.8987637" lon="5.8926207"/>
<trkpt lat="51.8989358" lon="5.8925082"/>
<trkpt lat="51.8992438" lon="5.8923004"/>
<trkpt lat="51.8995155" lon="5.8921858"/>
<trkpt lat="51.8997782" lon="5.8921017"/>
<trkpt lat="51.8999789" lon="5.8920331"/>
<trkpt lat="51.9002783" lon="5.8919487"/>
<trkpt lat="51.9007943" lon="5.8917990"/>
<trkpt lat="51.9015723" lon="5.8916297"/>
<trkpt lat="51.9018110" lon="5.8916048"/>
<trkpt lat="51.9026115" lon="5.8917159"/>
<trkpt lat="51.9044491" lon="5.8914642"/>
<trkpt lat="51.9044813" lon="5.8918443"/>
<trkpt lat="51.9044114" lon="5.8918528"/>
<trkpt lat="51.9045540" lon="5.8937616"/>
<trkpt lat="51.9054101" lon="5.8936330"/>
<trkpt lat="51.9053113" lon="5.8954293"/>
<trkpt lat="51.9053088" lon="5.8956098"/>
<trkpt lat="51.9053036" lon="5.8957592"/>
<trkpt lat="51.9050932" lon="5.8972154"/>
<trkpt lat="51.9050354" lon="5.8976153"/>
<trkpt lat="51.9048689" lon="5.8986361"/>
<trkpt lat="51.9047809" lon="5.8991540"/>
<trkpt lat="51.9045981" lon="5.8992653"/>
<trkpt lat="51.9045236" lon="5.9002771"/>
<trkpt lat="51.9044750" lon="5.9008416"/>
<trkpt lat="51.9044165" lon="5.9010978"/>
<trkpt lat="51.9041938" lon="5.9016576"/>
<trkpt lat="51.9040610" lon="5.9019666"/>
<trkpt lat="51.9039166" lon="5.9022848"/>
<trkpt lat="51.9035512" lon="5.9033100"/>
<trkpt lat="51.9038123" lon="5.9034619"/>
<trkpt lat="51.9043480" lon="5.9038420"/>
<trkpt lat="51.9045374" lon="5.9040261"/>
<trkpt lat="51.9046771" lon="5.9041068"/>
<trkpt lat="51.9050393" lon="5.9044632"/>
<trkpt lat="51.9051933" lon="5.9045656"/>
<trkpt lat="51.9053011" lon="5.9046643"/>
<trkpt lat="51.9053473" lon="5.9046655"/>
<trkpt lat="51.9054815" lon="5.9042808"/>
<trkpt lat="51.9057570" lon="5.9032889"/>
<trkpt lat="51.9060475" lon="5.9034736"/>
<trkpt lat="51.9064418" lon="5.9037574"/>
<trkpt lat="51.9069180" lon="5.9040998"/>
<trkpt lat="51.9070502" lon="5.9041868"/>
<trkpt lat="51.9073475" lon="5.9043805"/>
<trkpt lat="51.9075763" lon="5.9045056"/>
<trkpt lat="51.9077048" lon="5.9045553"/>
<trkpt lat="51.9078280" lon="5.9046456"/>
<trkpt lat="51.9079383" lon="5.9045017"/>
<trkpt lat="51.9080618" lon="5.9040985"/>
<trkpt lat="51.9081496" lon="5.9036416"/>
<trkpt lat="51.9081530" lon="5.9033014"/>
<trkpt lat="51.9080376" lon="5.9031375"/>
<trkpt lat="51.9079107" lon="5.9028504"/>
<trkpt lat="51.9078182" lon="5.9025672"/>
<trkpt lat="51.9077555" lon="5.9020925"/>
<trkpt lat="51.9077303" lon="5.9014634"/>
<trkpt lat="51.9077392" lon="5.9012442"/>
<trkpt lat="51.9077634" lon="5.9011913"/>
<trkpt lat="51.9077506" lon="5.9009170"/>
<trkpt lat="51.9079957" lon="5.9009895"/>
<trkpt lat="51.9082443" lon="5.9011468"/>
<trkpt lat="51.9085292" lon="5.9013464"/>
<trkpt lat="51.9086878" lon="5.9014308"/>
<trkpt lat="51.9087720" lon="5.9010980"/>
<trkpt lat="51.9087392" lon="5.9010815"/>
<trkpt lat="51.9086785" lon="5.9013479"/>
<trkpt lat="51.9084070" lon="5.9011899"/>
<trkpt lat="51.9080804" lon="5.9009818"/>
<trkpt lat="51.9079009" lon="5.9008621"/>
<trkpt lat="51.9077538" lon="5.9007882"/>
<trkpt lat="51.9077685" lon="5.9006264"/>
<trkpt lat="51.9077526" lon="5.9004673"/>
<trkpt lat="51.9077852" lon="5.9000742"/>
<trkpt lat="51.9078674" lon="5.8997495"/>
<trkpt lat="51.9080013" lon="5.8994688"/>
<trkpt lat="51.9081195" lon="5.8995830"/>
<trkpt lat="51.9083292" lon="5.8990501"/>
<trkpt lat="51.9084157" lon="5.8989153"/>
<trkpt lat="51.9084954" lon="5.8988311"/>
<trkpt lat="51.9087132" lon="5.8985615"/>
<trkpt lat="51.9089708" lon="5.8980882"/>
<trkpt lat="51.9092839" lon="5.8973965"/>
<trkpt lat="51.9094689" lon="5.8970170"/>
<trkpt lat="51.9095420" lon="5.8967571"/>
<trkpt lat="51.9097407" lon="5.8962188"/>
<trkpt lat="51.9098126" lon="5.8960908"/>
<trkpt lat="51.9099028" lon="5.8957620"/>
<trkpt lat="51.9100745" lon="5.8954766"/>
<trkpt lat="51.9101999" lon="5.8951828"/>
<trkpt lat="51.9103286" lon="5.8947000"/>
<trkpt lat="51.9103288" lon="5.8946512"/>
<trkpt lat="51.9103336" lon="5.8943937"/>
<trkpt lat="51.9103541" lon="5.8939877"/>
<trkpt lat="51.9103102" lon="5.8929392"/>
<trkpt lat="51.9102962" lon="5.8922683"/>
<trkpt lat="51.9103077" lon="5.8921221"/>
<trkpt lat="51.9105308" lon="5.8920925"/>
<trkpt lat="51.9105590" lon="5.8920904"/>
<trkpt lat="51.9105962" lon="5.8920976"/>
<trkpt lat="51.9108764" lon="5.8922843"/>
<trkpt lat="51.9109446" lon="5.8919724"/>
<trkpt lat="51.9108153" lon="5.8918920"/>
<trkpt lat="51.9106603" lon="5.8917645"/>
<trkpt lat="51.9106465" lon="5.8917321"/>
<trkpt lat="51.9107154" lon="5.8914765"/>
<trkpt lat="51.9109675" lon="5.8906371"/>
<trkpt lat="51.9111894" lon="5.8899065"/>
<trkpt lat="51.9112072" lon="5.8898204"/>
<trkpt lat="51.9107616" lon="5.8895518"/>
<trkpt lat="51.9107127" lon="5.8894504"/>
<trkpt lat="51.9105854" lon="5.8892051"/>
<trkpt lat="51.9104533" lon="5.8889634"/>
<trkpt lat="51.9102776" lon="5.8886383"/>
<trkpt lat="51.9101437" lon="5.8884389"/>
<trkpt lat="51.9099916" lon="5.8882287"/>
<trkpt lat="51.9098858" lon="5.8882481"/>
<trkpt lat="51.9095228" lon="5.8890264"/>
<trkpt lat="51.9088881" lon="5.8882754"/>
<trkpt lat="51.9087063" lon="5.8880923"/>
<trkpt lat="51.9088823" lon="5.8873502"/>
<trkpt lat="51.9091038" lon="5.8862151"/>
<trkpt lat="51.9093757" lon="5.8864110"/>
<trkpt lat="51.9097749" lon="5.8866860"/>
<trkpt lat="51.9098231" lon="5.8864752"/>
<trkpt lat="51.9103794" lon="5.8868394"/>
<trkpt lat="51.9110254" lon="5.8843351"/>
<trkpt lat="51.9098941" lon="5.8835668"/>
<trkpt lat="51.9101721" lon="5.8823062"/>
<trkpt lat="51.9104077" lon="5.8812932"/>
<trkpt lat="51.9105929" lon="5.8806811"/>
<trkpt lat="51.9104977" lon="5.8806017"/>
<trkpt lat="51.9107051" lon="5.8800380"/>
<trkpt lat="51.9108807" lon="5.8795497"/>
<trkpt lat="51.9110554" lon="5.8790341"/>
<trkpt lat="51.9111744" lon="5.8786282"/>
<trkpt lat="51.9109143" lon="5.8783910"/>
<trkpt lat="51.9105108" lon="5.8781058"/>
<trkpt lat="51.9102174" lon="5.8779027"/>
<trkpt lat="51.9099608" lon="5.8777499"/>
<trkpt lat="51.9096347" lon="5.8775810"/>
<trkpt lat="51.9087685" lon="5.8771811"/>
<trkpt lat="51.9087159" lon="5.8771204"/>
<trkpt lat="51.9086911" lon="5.8770944"/>
<trkpt lat="51.9087004" lon="5.8770122"/>
<trkpt lat="51.9082027" lon="5.8768424"/>
<trkpt lat="51.9082913" lon="5.8761581"/>
<trkpt lat="51.9081920" lon="5.8761166"/>
<trkpt lat="51.9079035" lon="5.8761035"/>
<trkpt lat="51.9073833" lon="5.8760525"/>
<trkpt lat="51.9068475" lon="5.8760114"/>
<trkpt lat="51.9062027" lon="5.8759515"/>
<trkpt lat="51.9057261" lon="5.8759060"/>
<trkpt lat="51.9056161" lon="5.8760364"/>
<trkpt lat="51.9056484" lon="5.8763472"/>
<trkpt lat="51.9056796" lon="5.8773429"/>
<trkpt lat="51.9057626" lon="5.8792257"/>
<trkpt lat="51.9056755" lon="5.8792328"/>
<trkpt lat="51.9052678" lon="5.8792737"/>
<trkpt lat="51.9052198" lon="5.8793822"/>
</trkseg></trk>
<trk><name>Breedlersepad - Geimporteerde shapefile</name><type>mainRoute</type><trkseg>
<trkpt lat="51.9001160" lon="5.8758790"/>
<trkpt lat="51.9001196" lon="5.8760598"/>
<trkpt lat="51.9001410" lon="5.8761625"/>
<trkpt lat="51.9001444" lon="5.8762248"/>
<trkpt lat="51.9001528" lon="5.8765307"/>
<trkpt lat="51.9001898" lon="5.8773359"/>
<trkpt lat="51.9002240" lon="5.8783025"/>
<trkpt lat="51.9002773" lon="5.8793941"/>
<trkpt lat="51.9002829" lon="5.8801765"/>
<trkpt lat="51.9003538" lon="5.8814432"/>
<trkpt lat="51.9003361" lon="5.8814727"/>
<trkpt lat="51.9001909" lon="5.8815196"/>
<trkpt lat="51.8997526" lon="5.8816274"/>
<trkpt lat="51.8997301" lon="5.8816191"/>
<trkpt lat="51.8996770" lon="5.8815603"/>
<trkpt lat="51.8996332" lon="5.8808470"/>
<trkpt lat="51.8995673" lon="5.8788905"/>
<trkpt lat="51.8994901" lon="5.8768708"/>
<trkpt lat="51.8994310" lon="5.8755605"/>
<trkpt lat="51.8994748" lon="5.8754980"/>
<trkpt lat="51.8995807" lon="5.8755218"/>
<trkpt lat="51.8998812" lon="5.8759608"/>
<trkpt lat="51.8999550" lon="5.8760490"/>
<trkpt lat="51.9000244" lon="5.8760930"/>
<trkpt lat="51.9001041" lon="5.8761063"/>
<trkpt lat="51.9000875" lon="5.8758774"/>
</trkseg></trk>
<trk><name>Breedlersepad - Geimporteerde shapefile</name><type>mainRoute</type><trkseg>
<trkpt lat="51.9052198" lon="5.8793822"/>
<trkpt lat="51.9051956" lon="5.8795842"/>
</trkseg></trk>
<trk><name>Breedlersepad - hoofdroute</name><type>mainRoute</type><trkseg>
<trkpt lat="51.9000673" lon="5.8757866"/>
<trkpt lat="51.9000613" lon="5.8758067"/>
<trkpt lat="51.9000882" lon="5.8758771"/>
</trkseg></trk>
<trk><name>Breedlersepad - hoofdroute</name><type>mainRoute</type><trkseg>
<trkpt lat="51.9000669" lon="5.8757854"/>
<trkpt lat="51.9000559" lon="5.8757821"/>
<trkpt lat="51.9000049" lon="5.8757423"/>
<trkpt lat="51.8998314" lon="5.8754922"/>
<trkpt lat="51.8995837" lon="5.8751203"/>
<trkpt lat="51.8992169" lon="5.8745683"/>
<trkpt lat="51.8990706" lon="5.8745264"/>
<trkpt lat="51.8989117" lon="5.8745398"/>
<trkpt lat="51.8985955" lon="5.8737404"/>
<trkpt lat="51.8985806" lon="5.8735917"/>
<trkpt lat="51.8985777" lon="5.8735388"/>
<trkpt lat="51.8981381" lon="5.8735919"/>
<trkpt lat="51.8978326" lon="5.8736037"/>
<trkpt lat="51.8973681" lon="5.8736566"/>
<trkpt lat="51.8969191" lon="5.8737198"/>
<trkpt lat="51.8967228" lon="5.8737101"/>
<trkpt lat="51.8967867" lon="5.8740835"/>
<trkpt lat="51.8967815" lon="5.8745771"/>
<trkpt lat="51.8968011" lon="5.8749747"/>
<trkpt lat="51.8969625" lon="5.8756076"/>
<trkpt lat="51.8969786" lon="5.8757260"/>
<trkpt lat="51.8970884" lon="5.8757761"/>
<trkpt lat="51.8970579" lon="5.8760327"/>
<trkpt lat="51.8970621" lon="5.8764534"/>
<trkpt lat="51.8970713" lon="5.8766963"/>
<trkpt lat="51.8970931" lon="5.8769243"/>
<trkpt lat="51.8971127" lon="5.8770960"/>
<trkpt lat="51.8971578" lon="5.8773885"/>
<trkpt lat="51.8971675" lon="5.8776600"/>
<trkpt lat="51.8971213" lon="5.8778730"/>
<trkpt lat="51.8970135" lon="5.8780255"/>
<trkpt lat="51.8968602" lon="5.8782054"/>
<trkpt lat="51.8969297" lon="5.8782786"/>
<trkpt lat="51.8973606" lon="5.8784495"/>
<trkpt lat="51.8976059" lon="5.8786637"/>
<trkpt lat="51.8976043" lon="5.8789191"/>
<trkpt lat="51.8976276" lon="5.8790677"/>
<trkpt lat="51.8976297" lon="5.8797479"/>
<trkpt lat="51.8976441" lon="5.8803622"/>
<trkpt lat="51.8976507" lon="5.8811812"/>
<trkpt lat="51.8976613" lon="5.8817326"/>
<trkpt lat="51.8977008" lon="5.8818168"/>
<trkpt lat="51.8977816" lon="5.8818129"/>
<trkpt lat="51.8982086" lon="5.8817153"/>
<trkpt lat="51.8982074" lon="5.8822899"/>
<trkpt lat="51.8982086" lon="5.8829459"/>
<trkpt lat="51.8982087" lon="5.8843500"/>
<trkpt lat="51.8982281" lon="5.8851223"/>
<trkpt lat="51.8984560" lon="5.8851058"/>
<trkpt lat="51.8987442" lon="5.8851165"/>
<trkpt lat="51.8988088" lon="5.8852044"/>
<trkpt lat="51.8988082" lon="5.8858149"/>
<trkpt lat="51.8988078" lon="5.8873740"/>
<trkpt lat="51.8988018" lon="5.8887869"/>
<trkpt lat="51.8987736" lon="5.8899099"/>
<trkpt lat="51.8985528" lon="5.8899682"/>
<trkpt lat="51.8983948" lon="5.8900535"/>
<trkpt lat="51.8985074" lon="5.8907673"/>
<trkpt lat="51.8986130" lon="5.8915099"/>
<trkpt lat="51.8987637" lon="5.8926207"/>
<trkpt lat="51.8989358" lon="5.8925082"/>
<trkpt lat="51.8992438" lon="5.8923004"/>
<trkpt lat="51.8995155" lon="5.8921858"/>
<trkpt lat="51.8997782" lon="5.8921017"/>
<trkpt lat="51.8999789" lon="5.8920331"/>
<trkpt lat="51.9002783" lon="5.8919487"/>
<trkpt lat="51.9007943" lon="5.8917990"/>
<trkpt lat="51.9015723" lon="5.8916297"/>
<trkpt lat="51.9018110" lon="5.8916048"/>
<trkpt lat="51.9026115" lon="5.8917159"/>
<trkpt lat="51.9044491" lon="5.8914642"/>
<trkpt lat="51.9044813" lon="5.8918443"/>
<trkpt lat="51.9044114" lon="5.8918528"/>
<trkpt lat="51.9045540" lon="5.8937616"/>
<trkpt lat="51.9054101" lon="5.8936330"/>
<trkpt lat="51.9053113" lon="5.8954293"/>
<trkpt lat="51.9053088" lon="5.8956098"/>
<trkpt lat="51.9053036" lon="5.8957592"/>
<trkpt lat="51.9050932" lon="5.8972154"/>
<trkpt lat="51.9050354" lon="5.8976153"/>
<trkpt lat="51.9048689" lon="5.8986361"/>
<trkpt lat="51.9047809" lon="5.8991540"/>
<trkpt lat="51.9045981" lon="5.8992653"/>
<trkpt lat="51.9045236" lon="5.9002771"/>
<trkpt lat="51.9044750" lon="5.9008416"/>
<trkpt lat="51.9044165" lon="5.9010978"/>
<trkpt lat="51.9041938" lon="5.9016576"/>
<trkpt lat="51.9040610" lon="5.9019666"/>
<trkpt lat="51.9039166" lon="5.9022848"/>
<trkpt lat="51.9035512" lon="5.9033100"/>
<trkpt lat="51.9038123" lon="5.9034619"/>
<trkpt lat="51.9043480" lon="5.9038420"/>
<trkpt lat="51.9045374" lon="5.9040261"/>
<trkpt lat="51.9046771" lon="5.9041068"/>
<trkpt lat="51.9050393" lon="5.9044632"/>
<trkpt lat="51.9051933" lon="5.9045656"/>
<trkpt lat="51.9053011" lon="5.9046643"/>
<trkpt lat="51.9053473" lon="5.9046655"/>
<trkpt lat="51.9054815" lon="5.9042808"/>
<trkpt lat="51.9057570" lon="5.9032889"/>
<trkpt lat="51.9060475" lon="5.9034736"/>
<trkpt lat="51.9064418" lon="5.9037574"/>
<trkpt lat="51.9069180" lon="5.9040998"/>
<trkpt lat="51.9070502" lon="5.9041868"/>
<trkpt lat="51.9073475" lon="5.9043805"/>
<trkpt lat="51.9075763" lon="5.9045056"/>
<trkpt lat="51.9077048" lon="5.9045553"/>
<trkpt lat="51.9078280" lon="5.9046456"/>
<trkpt lat="51.9079383" lon="5.9045017"/>
<trkpt lat="51.9080618" lon="5.9040985"/>
<trkpt lat="51.9081496" lon="5.9036416"/>
<trkpt lat="51.9081530" lon="5.9033014"/>
<trkpt lat="51.9080376" lon="5.9031375"/>
<trkpt lat="51.9079107" lon="5.9028504"/>
<trkpt lat="51.9078182" lon="5.9025672"/>
<trkpt lat="51.9077555" lon="5.9020925"/>
<trkpt lat="51.9077303" lon="5.9014634"/>
<trkpt lat="51.9077392" lon="5.9012442"/>
<trkpt lat="51.9077634" lon="5.9011913"/>
<trkpt lat="51.9077506" lon="5.9009170"/>
<trkpt lat="51.9079957" lon="5.9009895"/>
<trkpt lat="51.9082443" lon="5.9011468"/>
<trkpt lat="51.9085292" lon="5.9013464"/>
<trkpt lat="51.9086878" lon="5.9014308"/>
<trkpt lat="51.9087720" lon="5.9010980"/>
<trkpt lat="51.9087392" lon="5.9010815"/>
<trkpt lat="51.9086785" lon="5.9013479"/>
<trkpt lat="51.9084070" lon="5.9011899"/>
<trkpt lat="51.9080804" lon="5.9009818"/>
<trkpt lat="51.9079009" lon="5.9008621"/>
<trkpt lat="51.9077538" lon="5.9007882"/>
<trkpt lat="51.9077685" lon="5.9006264"/>
<trkpt lat="51.9077526" lon="5.9004673"/>
<trkpt lat="51.9077852" lon="5.9000742"/>
<trkpt lat="51.9078674" lon="5.8997495"/>
<trkpt lat="51.9080013" lon="5.8994688"/>
<trkpt lat="51.9081195" lon="5.8995830"/>
<trkpt lat="51.9083292" lon="5.8990501"/>
<trkpt lat="51.9084157" lon="5.8989153"/>
<trkpt lat="51.9084954" lon="5.8988311"/>
<trkpt lat="51.9087132" lon="5.8985615"/>
<trkpt lat="51.9089708" lon="5.8980882"/>
<trkpt lat="51.9092839" lon="5.8973965"/>
<trkpt lat="51.9094689" lon="5.8970170"/>
<trkpt lat="51.9095420" lon="5.8967571"/>
<trkpt lat="51.9097407" lon="5.8962188"/>
<trkpt lat="51.9098126" lon="5.8960908"/>
<trkpt lat="51.9099028" lon="5.8957620"/>
<trkpt lat="51.9100745" lon="5.8954766"/>
<trkpt lat="51.9101999" lon="5.8951828"/>
<trkpt lat="51.9103286" lon="5.8947000"/>
<trkpt lat="51.9103288" lon="5.8946512"/>
<trkpt lat="51.9103336" lon="5.8943937"/>
<trkpt lat="51.9103541" lon="5.8939877"/>
<trkpt lat="51.9103102" lon="5.8929392"/>
<trkpt lat="51.9102962" lon="5.8922683"/>
<trkpt lat="51.9103077" lon="5.8921221"/>
<trkpt lat="51.9105308" lon="5.8920925"/>
<trkpt lat="51.9105590" lon="5.8920904"/>
<trkpt lat="51.9105962" lon="5.8920976"/>
<trkpt lat="51.9108764" lon="5.8922843"/>
<trkpt lat="51.9109446" lon="5.8919724"/>
<trkpt lat="51.9108153" lon="5.8918920"/>
<trkpt lat="51.9106603" lon="5.8917645"/>
<trkpt lat="51.9106465" lon="5.8917321"/>
<trkpt lat="51.9107154" lon="5.8914765"/>
<trkpt lat="51.9109675" lon="5.8906371"/>
<trkpt lat="51.9111894" lon="5.8899065"/>
<trkpt lat="51.9112072" lon="5.8898204"/>
<trkpt lat="51.9107616" lon="5.8895518"/>
<trkpt lat="51.9107127" lon="5.8894504"/>
<trkpt lat="51.9105854" lon="5.8892051"/>
<trkpt lat="51.9104533" lon="5.8889634"/>
<trkpt lat="51.9102776" lon="5.8886383"/>
<trkpt lat="51.9101437" lon="5.8884389"/>
<trkpt lat="51.9099916" lon="5.8882287"/>
<trkpt lat="51.9098858" lon="5.8882481"/>
<trkpt lat="51.9095228" lon="5.8890264"/>
<trkpt lat="51.9088881" lon="5.8882754"/>
<trkpt lat="51.9087063" lon="5.8880923"/>
<trkpt lat="51.9088823" lon="5.8873502"/>
<trkpt lat="51.9091038" lon="5.8862151"/>
<trkpt lat="51.9093757" lon="5.8864110"/>
<trkpt lat="51.9097749" lon="5.8866860"/>
<trkpt lat="51.9098231" lon="5.8864752"/>
<trkpt lat="51.9103794" lon="5.8868394"/>
<trkpt lat="51.9110254" lon="5.8843351"/>
<trkpt lat="51.9098941" lon="5.8835668"/>
<trkpt lat="51.9101721" lon="5.8823062"/>
<trkpt lat="51.9104077" lon="5.8812932"/>
<trkpt lat="51.9105929" lon="5.8806811"/>
<trkpt lat="51.9104977" lon="5.8806017"/>
<trkpt lat="51.9107051" lon="5.8800380"/>
<trkpt lat="51.9108807" lon="5.8795497"/>
<trkpt lat="51.9110554" lon="5.8790341"/>
<trkpt lat="51.9111744" lon="5.8786282"/>
<trkpt lat="51.9109143" lon="5.8783910"/>
<trkpt lat="51.9105108" lon="5.8781058"/>
<trkpt lat="51.9102174" lon="5.8779027"/>
<trkpt lat="51.9099608" lon="5.8777499"/>
<trkpt lat="51.9096347" lon="5.8775810"/>
<trkpt lat="51.9087685" lon="5.8771811"/>
<trkpt lat="51.9087159" lon="5.8771204"/>
<trkpt lat="51.9086911" lon="5.8770944"/>
<trkpt lat="51.9087004" lon="5.8770122"/>
<trkpt lat="51.9082027" lon="5.8768424"/>
<trkpt lat="51.9082913" lon="5.8761581"/>
<trkpt lat="51.9081920" lon="5.8761166"/>
<trkpt lat="51.9079035" lon="5.8761035"/>
<trkpt lat="51.9073833" lon="5.8760525"/>
<trkpt lat="51.9068475" lon="5.8760114"/>
<trkpt lat="51.9062027" lon="5.8759515"/>
<trkpt lat="51.9057261" lon="5.8759060"/>
<trkpt lat="51.9056161" lon="5.8760364"/>
<trkpt lat="51.9056484" lon="5.8763472"/>
<trkpt lat="51.9056796" lon="5.8773429"/>
<trkpt lat="51.9057626" lon="5.8792257"/>
<trkpt lat="51.9056755" lon="5.8792328"/>
<trkpt lat="51.9052678" lon="5.8792737"/>
<trkpt lat="51.9052198" lon="5.8793822"/>
</trkseg></trk>
<trk><name>Breedlersepad - hoofdroute</name><type>mainRoute</type><trkseg>
<trkpt lat="51.9001156" lon="5.8758796"/>
<trkpt lat="51.9001171" lon="5.8758007"/>
<trkpt lat="51.9001092" lon="5.8755279"/>
<trkpt lat="51.9001064" lon="5.8745088"/>
<trkpt lat="51.9000914" lon="5.8742481"/>
<trkpt lat="51.9000464" lon="5.8732310"/>
<trkpt lat="51.9000267" lon="5.8715568"/>
<trkpt lat="51.8999999" lon="5.8710116"/>
<trkpt lat="51.9003320" lon="5.8709227"/>
<trkpt lat="51.9004538" lon="5.8708966"/>
<trkpt lat="51.9006586" lon="5.8710455"/>
<trkpt lat="51.9008073" lon="5.8712486"/>
<trkpt lat="51.9009144" lon="5.8714126"/>
<trkpt lat="51.9009030" lon="5.8715156"/>
<trkpt lat="51.9009743" lon="5.8725997"/>
<trkpt lat="51.9009992" lon="5.8730739"/>
<trkpt lat="51.9010334" lon="5.8737400"/>
<trkpt lat="51.9010524" lon="5.8741997"/>
<trkpt lat="51.9010727" lon="5.8748479"/>
<trkpt lat="51.9010939" lon="5.8754962"/>
<trkpt lat="51.9011132" lon="5.8756946"/>
<trkpt lat="51.9013067" lon="5.8756287"/>
<trkpt lat="51.9014725" lon="5.8755713"/>
<trkpt lat="51.9016687" lon="5.8754648"/>
<trkpt lat="51.9019968" lon="5.8752962"/>
<trkpt lat="51.9021136" lon="5.8753100"/>
<trkpt lat="51.9026152" lon="5.8753407"/>
<trkpt lat="51.9028256" lon="5.8753228"/>
<trkpt lat="51.9032577" lon="5.8752217"/>
<trkpt lat="51.9037442" lon="5.8751161"/>
<trkpt lat="51.9041734" lon="5.8750238"/>
<trkpt lat="51.9043676" lon="5.8749837"/>
<trkpt lat="51.9046698" lon="5.8749199"/>
<trkpt lat="51.9047994" lon="5.8748913"/>
<trkpt lat="51.9049681" lon="5.8748488"/>
<trkpt lat="51.9050741" lon="5.8748396"/>
<trkpt lat="51.9051805" lon="5.8748345"/>
<trkpt lat="51.9052434" lon="5.8750745"/>
<trkpt lat="51.9053245" lon="5.8754230"/>
<trkpt lat="51.9053991" lon="5.8754591"/>
<trkpt lat="51.9055102" lon="5.8756229"/>
<trkpt lat="51.9055630" lon="5.8761066"/>
<trkpt lat="51.9056433" lon="5.8776482"/>
<trkpt lat="51.9056983" lon="5.8790106"/>
<trkpt lat="51.9056321" lon="5.8790330"/>
<trkpt lat="51.9055550" lon="5.8791000"/>
<trkpt lat="51.9052115" lon="5.8791900"/>
<trkpt lat="51.9052198" lon="5.8793822"/>
</trkseg></trk>
<trk><name>Breedlersepad - hoofdroute</name><type>mainRoute</type><trkseg>
<trkpt lat="51.9001160" lon="5.8758790"/>
<trkpt lat="51.9001196" lon="5.8760598"/>
<trkpt lat="51.9001410" lon="5.8761625"/>
<trkpt lat="51.9001444" lon="5.8762248"/>
<trkpt lat="51.9001528" lon="5.8765307"/>
<trkpt lat="51.9001898" lon="5.8773359"/>
<trkpt lat="51.9002240" lon="5.8783025"/>
<trkpt lat="51.9002773" lon="5.8793941"/>
<trkpt lat="51.9002829" lon="5.8801765"/>
<trkpt lat="51.9003538" lon="5.8814432"/>
<trkpt lat="51.9003361" lon="5.8814727"/>
<trkpt lat="51.9001909" lon="5.8815196"/>
<trkpt lat="51.8997526" lon="5.8816274"/>
<trkpt lat="51.8997301" lon="5.8816191"/>
<trkpt lat="51.8996770" lon="5.8815603"/>
<trkpt lat="51.8996332" lon="5.8808470"/>
<trkpt lat="51.8995673" lon="5.8788905"/>
<trkpt lat="51.8994901" lon="5.8768708"/>
<trkpt lat="51.8994310" lon="5.8755605"/>
<trkpt lat="51.8994748" lon="5.8754980"/>
<trkpt lat="51.8995807" lon="5.8755218"/>
<trkpt lat="51.8998812" lon="5.8759608"/>
<trkpt lat="51.8999550" lon="5.8760490"/>
<trkpt lat="51.9000244" lon="5.8760930"/>
<trkpt lat="51.9001041" lon="5.8761063"/>
<trkpt lat="51.9000875" lon="5.8758774"/>
</trkseg></trk>
<trk><name>Breedlersepad - hoofdroute</name><type>mainRoute</type><trkseg>
<trkpt lat="51.9051956" lon="5.8795842"/>
<trkpt lat="51.9051836" lon="5.8796837"/>
<trkpt lat="51.9051590" lon="5.8799782"/>
<trkpt lat="51.9050772" lon="5.8801662"/>
<trkpt lat="51.9049226" lon="5.8802476"/>
<trkpt lat="51.9047142" lon="5.8801446"/>
<trkpt lat="51.9046134" lon="5.8800326"/>
<trkpt lat="51.9045735" lon="5.8798886"/>
<trkpt lat="51.9045850" lon="5.8797452"/>
<trkpt lat="51.9046900" lon="5.8795952"/>
<trkpt lat="51.9048478" lon="5.8795037"/>
<trkpt lat="51.9050690" lon="5.8795238"/>
<trkpt lat="51.9051667" lon="5.8796180"/>
<trkpt lat="51.9051956" lon="5.8795842"/>
</trkseg></trk>
<trk><name>Breedlersepad - Geimporteerde shapefile</name><type>mainRoute</type><trkseg>
<trkpt lat="51.9051956" lon="5.8795842"/>
<trkpt lat="51.9052165" lon="5.8795597"/>
<trkpt lat="51.9052198" lon="5.8793822"/>
</trkseg></trk>
<trk><name>Breedlersepad - Geimporteerde shapefile</name><type>mainRoute</type><trkseg>
<trkpt lat="51.9052198" lon="5.8793822"/>
<trkpt lat="51.9051956" lon="5.8795842"/>
</trkseg></trk>
<trk><name>Breedlersepad - verbindingsroute</name><type>connectionRoute</type><trkseg>
<trkpt lat="51.9111744" lon="5.8786282"/>
<trkpt lat="51.9114420" lon="5.8778330"/>
<trkpt lat="51.9121449" lon="5.8759272"/>
<trkpt lat="51.9122115" lon="5.8759110"/>
<trkpt lat="51.9126772" lon="5.8761688"/>
<trkpt lat="51.9131053" lon="5.8764654"/>
<trkpt lat="51.9133956" lon="5.8765576"/>
<trkpt lat="51.9137805" lon="5.8766437"/>
<trkpt lat="51.9143504" lon="5.8767282"/>
<trkpt lat="51.9148106" lon="5.8767118"/>
<trkpt lat="51.9156333" lon="5.8767273"/>
<trkpt lat="51.9161018" lon="5.8765766"/>
<trkpt lat="51.9166440" lon="5.8760596"/>
<trkpt lat="51.9171687" lon="5.8756425"/>
<trkpt lat="51.9174408" lon="5.8755453"/>
<trkpt lat="51.9181531" lon="5.8755197"/>
<trkpt lat="51.9188029" lon="5.8756158"/>
<trkpt lat="51.9193186" lon="5.8756826"/>
<trkpt lat="51.9197828" lon="5.8757377"/>
<trkpt lat="51.9205942" lon="5.8758466"/>
<trkpt lat="51.9212163" lon="5.8759869"/>
<trkpt lat="51.9217766" lon="5.8760821"/>
<trkpt lat="51.9226498" lon="5.8762307"/>
<trkpt lat="51.9233203" lon="5.8763159"/>
<trkpt lat="51.9235336" lon="5.8763182"/>
<trkpt lat="51.9239091" lon="5.8761887"/>
<trkpt lat="51.9247925" lon="5.8763653"/>
<trkpt lat="51.9249949" lon="5.8764899"/>
<trkpt lat="51.9253129" lon="5.8769663"/>
<trkpt lat="51.9260905" lon="5.8769191"/>
<trkpt lat="51.9269715" lon="5.8768620"/>
<trkpt lat="51.9273424" lon="5.8770107"/>
<trkpt lat="51.9275140" lon="5.8771016"/>
<trkpt lat="51.9275636" lon="5.8767460"/>
<trkpt lat="51.9273163" lon="5.8766598"/>
<trkpt lat="51.9263499" lon="5.8765992"/>
<trkpt lat="51.9255760" lon="5.8765741"/>
<trkpt lat="51.9253423" lon="5.8765048"/>
<trkpt lat="51.9253612" lon="5.8760877"/>
<trkpt lat="51.9253877" lon="5.8755204"/>
<trkpt lat="51.9254269" lon="5.8751926"/>
<trkpt lat="51.9256093" lon="5.8751723"/>
<trkpt lat="51.9267720" lon="5.8751905"/>
<trkpt lat="51.9276905" lon="5.8752005"/>
<trkpt lat="51.9279791" lon="5.8752759"/>
<trkpt lat="51.9280791" lon="5.8752270"/>
<trkpt lat="51.9283429" lon="5.8752408"/>
<trkpt lat="51.9287763" lon="5.8754595"/>
<trkpt lat="51.9293153" lon="5.8754670"/>
<trkpt lat="51.9293773" lon="5.8756100"/>
<trkpt lat="51.9306016" lon="5.8758659"/>
<trkpt lat="51.9311746" lon="5.8759142"/>
<trkpt lat="51.9325097" lon="5.8761006"/>
<trkpt lat="51.9327940" lon="5.8746931"/>
</trkseg></trk>
<trk><name>Breedlersepad - overstaproute zeegsepad</name><type>connectionRoute</type><trkseg>
<trkpt lat="51.8967525" lon="5.8736922"/>
<trkpt lat="51.8964900" lon="5.8731147"/>
<trkpt lat="51.8963755" lon="5.8729430"/>
<trkpt lat="51.8956014" lon="5.8727801"/>
<trkpt lat="51.8951104" lon="5.8723309"/>
<trkpt lat="51.8948538" lon="5.8721181"/>
<trkpt lat="51.8945374" lon="5.8720609"/>
<trkpt lat="51.8944698" lon="5.8720506"/>
<trkpt lat="51.8944780" lon="5.8717803"/>
<trkpt lat="51.8944050" lon="5.8717751"/>
</trkseg></trk>
</gpx>