<?xml version="1.0" encoding="UTF-8"?>
<gpx version="1.1" creator="klompenpaden.nl via Jimbo API" xmlns="http://www.topografix.com/GPX/1/1">
<metadata><name>Breeschoterpad</name><desc>Ontdek het mooie buitengebied van Renswoude en Scherpenzeel. Wandelen door het agrarische gebied, over landgoederen, langs boerenerven en delen van de Grebbelinie. Rust, kleinschaligheid en de combinatie van cultuur en natuur bepalen hier de sfeer. Klompen aan, rugzak op en gaan!</desc><link href="https://www.klompenpaden.nl/klompenpaden/Breeschoterpad/8f23f903-9630-4cf1-8803-4ef9a8f79131"><text>klompenpaden.nl</text></link></metadata>
<wpt lat="52.07635085806512" lon="5.524041652679443"><name>Start Renswoude</name></wpt>
<trk><name>Breeschoterpad - mainRoute</name><type>mainRoute</type><trkseg>
<trkpt lat="52.0762900" lon="5.5236800"/>
<trkpt lat="52.0762900" lon="5.5239300"/>
<trkpt lat="52.0763400" lon="5.5240200"/>
<trkpt lat="52.0765000" lon="5.5241600"/>
<trkpt lat="52.0767000" lon="5.5241800"/>
<trkpt lat="52.0768700" lon="5.5241100"/>
<trkpt lat="52.0769500" lon="5.5240500"/>
<trkpt lat="52.0773800" lon="5.5241200"/>
<trkpt lat="52.0779300" lon="5.5242900"/>
<trkpt lat="52.0786300" lon="5.5248000"/>
<trkpt lat="52.0795700" lon="5.5256300"/>
<trkpt lat="52.0801100" lon="5.5262000"/>
<trkpt lat="52.0808100" lon="5.5271300"/>
<trkpt lat="52.0810000" lon="5.5275400"/>
<trkpt lat="52.0813800" lon="5.5282200"/>
<trkpt lat="52.0818500" lon="5.5295700"/>
<trkpt lat="52.0819200" lon="5.5299900"/>
<trkpt lat="52.0821700" lon="5.5305400"/>
<trkpt lat="52.0824500" lon="5.5310000"/>
<trkpt lat="52.0829600" lon="5.5312200"/>
<trkpt lat="52.0836000" lon="5.5314700"/>
<trkpt lat="52.0838800" lon="5.5316000"/>
<trkpt lat="52.0842200" lon="5.5302400"/>
<trkpt lat="52.0853100" lon="5.5251400"/>
<trkpt lat="52.0871400" lon="5.5264400"/>
<trkpt lat="52.0882400" lon="5.5272900"/>
<trkpt lat="52.0905500" lon="5.5289500"/>
<trkpt lat="52.0905100" lon="5.5283900"/>
<trkpt lat="52.0901700" lon="5.5247800"/>
<trkpt lat="52.0901800" lon="5.5246700"/>
<trkpt lat="52.0907000" lon="5.5246100"/>
<trkpt lat="52.0908200" lon="5.5234100"/>
<trkpt lat="52.0906500" lon="5.5225200"/>
<trkpt lat="52.0904500" lon="5.5207300"/>
<trkpt lat="52.0904400" lon="5.5202400"/>
<trkpt lat="52.0905600" lon="5.5192100"/>
<trkpt lat="52.0909000" lon="5.5168500"/>
<trkpt lat="52.0909100" lon="5.5163200"/>
<trkpt lat="52.0908700" lon="5.5151300"/>
<trkpt lat="52.0909300" lon="5.5136600"/>
<trkpt lat="52.0911500" lon="5.5117000"/>
<trkpt lat="52.0911500" lon="5.5110100"/>
<trkpt lat="52.0907300" lon="5.5083400"/>
<trkpt lat="52.0894200" lon="5.5076900"/>
<trkpt lat="52.0889900" lon="5.5074500"/>
<trkpt lat="52.0887000" lon="5.5067200"/>
<trkpt lat="52.0883100" lon="5.5071000"/>
<trkpt lat="52.0881900" lon="5.5072500"/>
<trkpt lat="52.0881700" lon="5.5078200"/>
<trkpt lat="52.0882700" lon="5.5101000"/>
<trkpt lat="52.0882600" lon="5.5104900"/>
<trkpt lat="52.0883900" lon="5.5124700"/>
<trkpt lat="52.0883500" lon="5.5126700"/>
<trkpt lat="52.0882500" lon="5.5130400"/>
<trkpt lat="52.0881300" lon="5.5132800"/>
<trkpt lat="52.0873000" lon="5.5133400"/>
<trkpt lat="52.0871600" lon="5.5134400"/>
<trkpt lat="52.0870200" lon="5.5136800"/>
<trkpt lat="52.0868600" lon="5.5137800"/>
<trkpt lat="52.0850400" lon="5.5145700"/>
<trkpt lat="52.0848300" lon="5.5146500"/>
<trkpt lat="52.0843500" lon="5.5144700"/>
<trkpt lat="52.0841400" lon="5.5145000"/>
<trkpt lat="52.0839300" lon="5.5154200"/>
<trkpt lat="52.0838900" lon="5.5159000"/>
<trkpt lat="52.0837500" lon="5.5164900"/>
<trkpt lat="52.0835600" lon="5.5171500"/>
<trkpt lat="52.0834500" lon="5.5176300"/>
<trkpt lat="52.0834400" lon="5.5180900"/>
<trkpt lat="52.0836700" lon="5.5188900"/>
<trkpt lat="52.0838700" lon="5.5192900"/>
<trkpt lat="52.0835900" lon="5.5194800"/>
<trkpt lat="52.0822200" lon="5.5202100"/>
<trkpt lat="52.0818700" lon="5.5203800"/>
<trkpt lat="52.0816100" lon="5.5206900"/>
<trkpt lat="52.0813300" lon="5.5211000"/>
<trkpt lat="52.0810200" lon="5.5217800"/>
<trkpt lat="52.0807500" lon="5.5222000"/>
<trkpt lat="52.0802900" lon="5.5227500"/>
<trkpt lat="52.0794300" lon="5.5233400"/>
<trkpt lat="52.0789500" lon="5.5235700"/>
<trkpt lat="52.0781800" lon="5.5236400"/>
<trkpt lat="52.0781200" lon="5.5244100"/>
<trkpt lat="52.0779400" lon="5.5242900"/>
<trkpt lat="52.0772100" lon="5.5240900"/>
<trkpt lat="52.0769800" lon="5.5240400"/>
<trkpt lat="52.0769100" lon="5.5240700"/>
<trkpt lat="52.0767600" lon="5.5241600"/>
<trkpt lat="52.0765800" lon="5.5241800"/>
<trkpt lat="52.0764300" lon="5.5241200"/>
<trkpt lat="52.0762800" lon="5.5239000"/>
<trkpt lat="52.0762800" lon="5.5237100"/>
</trkseg></trk>
</gpx>