<?xml version="1.0" encoding="UTF-8"?>
<gpx version="1.1" creator="klompenpaden.nl via Jimbo API" xmlns="http://www.topografix.com/GPX/1/1">
<metadata><name>Breukerengpad</name><desc>Ontdek het mooie buitengebied van Bennekom. U wandelt over het oude bouwland en langs plekken waar kastelen en landgoederen stonden. De combinatie van natuur en cultuur bepalen hier de sfeer. Klompen aan, rugzak op en gaan!</desc><link href="https://www.klompenpaden.nl/klompenpaden/Breukerengpad/80e1e14c-da1a-4009-8137-1d652957b0d3"><text>klompenpaden.nl</text></link></metadata>
<wpt lat="52.01441941002028" lon="5.675854682922363"><name>Start Bennekom</name></wpt>
<trk><name>Breukerengpad - mainRoute</name><type>mainRoute</type><trkseg>
<trkpt lat="52.0125300" lon="5.6706700"/>
<trkpt lat="52.0127800" lon="5.6681600"/>
<trkpt lat="52.0128700" lon="5.6674500"/>
<trkpt lat="52.0128400" lon="5.6672700"/>
<trkpt lat="52.0125100" lon="5.6664400"/>
<trkpt lat="52.0123200" lon="5.6658900"/>
<trkpt lat="52.0119700" lon="5.6644600"/>
<trkpt lat="52.0116500" lon="5.6635900"/>
<trkpt lat="52.0113300" lon="5.6628600"/>
<trkpt lat="52.0119400" lon="5.6626800"/>
<trkpt lat="52.0131800" lon="5.6624300"/>
<trkpt lat="52.0129600" lon="5.6594500"/>
<trkpt lat="52.0129200" lon="5.6590600"/>
<trkpt lat="52.0128300" lon="5.6589400"/>
<trkpt lat="52.0124200" lon="5.6545800"/>
<trkpt lat="52.0117300" lon="5.6547500"/>
<trkpt lat="52.0118700" lon="5.6563700"/>
<trkpt lat="52.0106600" lon="5.6566600"/>
<trkpt lat="52.0110900" lon="5.6618200"/>
<trkpt lat="52.0111300" lon="5.6622700"/>
<trkpt lat="52.0112600" lon="5.6627800"/>
<trkpt lat="52.0104600" lon="5.6629800"/>
<trkpt lat="52.0098800" lon="5.6630000"/>
<trkpt lat="52.0097300" lon="5.6629300"/>
<trkpt lat="52.0096200" lon="5.6626300"/>
<trkpt lat="52.0095900" lon="5.6622900"/>
<trkpt lat="52.0095400" lon="5.6621100"/>
<trkpt lat="52.0094200" lon="5.6617900"/>
<trkpt lat="52.0093200" lon="5.6617200"/>
<trkpt lat="52.0089000" lon="5.6618600"/>
<trkpt lat="52.0084300" lon="5.6611200"/>
<trkpt lat="52.0080800" lon="5.6606000"/>
<trkpt lat="52.0073500" lon="5.6593000"/>
<trkpt lat="52.0065200" lon="5.6576400"/>
<trkpt lat="52.0063600" lon="5.6572100"/>
<trkpt lat="52.0062200" lon="5.6567500"/>
<trkpt lat="52.0061200" lon="5.6553400"/>
<trkpt lat="52.0061000" lon="5.6531500"/>
<trkpt lat="52.0041000" lon="5.6536200"/>
<trkpt lat="52.0023400" lon="5.6540700"/>
<trkpt lat="52.0018500" lon="5.6543400"/>
<trkpt lat="52.0017800" lon="5.6544600"/>
<trkpt lat="52.0022200" lon="5.6562100"/>
<trkpt lat="52.0022200" lon="5.6565300"/>
<trkpt lat="52.0022600" lon="5.6566600"/>
<trkpt lat="52.0024900" lon="5.6570400"/>
<trkpt lat="52.0026800" lon="5.6577800"/>
<trkpt lat="52.0030500" lon="5.6583300"/>
<trkpt lat="52.0036400" lon="5.6593200"/>
<trkpt lat="52.0039700" lon="5.6598000"/>
<trkpt lat="52.0041800" lon="5.6600100"/>
<trkpt lat="52.0048900" lon="5.6605700"/>
<trkpt lat="52.0051400" lon="5.6609600"/>
<trkpt lat="52.0055300" lon="5.6615200"/>
<trkpt lat="52.0058100" lon="5.6620200"/>
<trkpt lat="52.0060200" lon="5.6624800"/>
<trkpt lat="52.0062100" lon="5.6631400"/>
<trkpt lat="52.0063000" lon="5.6635600"/>
<trkpt lat="52.0064900" lon="5.6636100"/>
<trkpt lat="52.0072100" lon="5.6632000"/>
<trkpt lat="52.0075600" lon="5.6629700"/>
<trkpt lat="52.0079000" lon="5.6645400"/>
<trkpt lat="52.0080800" lon="5.6650300"/>
<trkpt lat="52.0102500" lon="5.6693900"/>
<trkpt lat="52.0103400" lon="5.6695900"/>
<trkpt lat="52.0104300" lon="5.6695400"/>
<trkpt lat="52.0104800" lon="5.6695700"/>
<trkpt lat="52.0105100" lon="5.6696900"/>
<trkpt lat="52.0104900" lon="5.6698200"/>
<trkpt lat="52.0108700" lon="5.6701100"/>
<trkpt lat="52.0111500" lon="5.6702800"/>
<trkpt lat="52.0113200" lon="5.6702700"/>
<trkpt lat="52.0114400" lon="5.6703300"/>
<trkpt lat="52.0117100" lon="5.6706200"/>
<trkpt lat="52.0120000" lon="5.6705900"/>
<trkpt lat="52.0122300" lon="5.6704600"/>
<trkpt lat="52.0123800" lon="5.6706000"/>
<trkpt lat="52.0125300" lon="5.6706900"/>
</trkseg></trk>
<trk><name>Breukerengpad - shorteningRoute</name><type>shorteningRoute</type><trkseg>
<trkpt lat="52.0085600" lon="5.6659400"/>
<trkpt lat="52.0091300" lon="5.6652200"/>
<trkpt lat="52.0093300" lon="5.6647000"/>
<trkpt lat="52.0090700" lon="5.6633300"/>
<trkpt lat="52.0095600" lon="5.6630400"/>
<trkpt lat="52.0096100" lon="5.6629200"/>
<trkpt lat="52.0095600" lon="5.6626700"/>
<trkpt lat="52.0096200" lon="5.6626200"/>
</trkseg></trk>
<trk><name>Breukerengpad - connectionRoute</name><type>connectionRoute</type><trkseg>
<trkpt lat="52.0061000" lon="5.6531400"/>
<trkpt lat="52.0064100" lon="5.6527500"/>
<trkpt lat="52.0068300" lon="5.6522800"/>
<trkpt lat="52.0069100" lon="5.6520700"/>
<trkpt lat="52.0069700" lon="5.6509500"/>
<trkpt lat="52.0069500" lon="5.6505600"/>
<trkpt lat="52.0067300" lon="5.6501500"/>
<trkpt lat="52.0064900" lon="5.6498900"/>
<trkpt lat="52.0061500" lon="5.6497000"/>
<trkpt lat="52.0058700" lon="5.6496000"/>
<trkpt lat="52.0055700" lon="5.6493900"/>
<trkpt lat="52.0052200" lon="5.6488300"/>
<trkpt lat="52.0050000" lon="5.6483600"/>
<trkpt lat="52.0047500" lon="5.6477100"/>
<trkpt lat="52.0045300" lon="5.6468200"/>
<trkpt lat="52.0043400" lon="5.6461600"/>
<trkpt lat="52.0041400" lon="5.6455600"/>
<trkpt lat="52.0037800" lon="5.6446800"/>
<trkpt lat="52.0035300" lon="5.6443500"/>
</trkseg></trk>
<trk><name>Breukerengpad - approachRoute</name><type>approachRoute</type><trkseg>
<trkpt lat="52.0145500" lon="5.6777200"/>
<trkpt lat="52.0144500" lon="5.6762900"/>
<trkpt lat="52.0142100" lon="5.6760800"/>
<trkpt lat="52.0137600" lon="5.6729000"/>
<trkpt lat="52.0137100" lon="5.6728300"/>
<trkpt lat="52.0121400" lon="5.6730100"/>
<trkpt lat="52.0122200" lon="5.6727300"/>
<trkpt lat="52.0123900" lon="5.6722700"/>
<trkpt lat="52.0125300" lon="5.6707000"/>
</trkseg></trk>
</gpx>