<?xml version="1.0" encoding="UTF-8"?>
<gpx version="1.1" creator="klompenpaden.nl via Jimbo API" xmlns="http://www.topografix.com/GPX/1/1">
<metadata><name>Broekerpad</name><desc>Ontdek het mooie buitengebied van Woudenberg en Scherpenzeel. Wandelen op de grens van Gelderland en Utrecht. Door het argrarische gebied, over landgoederen, boerenerven en langs beken. Rust, kleinschaligheid en de combinatie van natuur en cultuur bepalen hier de sfeer. Klompen aan, rugzak op en gaan!</desc><link href="https://www.klompenpaden.nl/klompenpaden/Broekerpad/18ea2796-9532-4d14-8359-b87636b22da3"><text>klompenpaden.nl</text></link></metadata>
<wpt lat="52.08447070316309" lon="5.489982962608337"><name>Start Scherpenzeel</name></wpt>
<trk><name>Broekerpad - mainRoute</name><type>mainRoute</type><trkseg>
<trkpt lat="52.0844800" lon="5.4899700"/>
<trkpt lat="52.0842900" lon="5.4898900"/>
<trkpt lat="52.0841100" lon="5.4898500"/>
<trkpt lat="52.0840000" lon="5.4908000"/>
<trkpt lat="52.0829500" lon="5.4905800"/>
<trkpt lat="52.0816100" lon="5.4902100"/>
<trkpt lat="52.0810400" lon="5.4901200"/>
<trkpt lat="52.0809200" lon="5.4899900"/>
<trkpt lat="52.0808100" lon="5.4899400"/>
<trkpt lat="52.0806800" lon="5.4900400"/>
<trkpt lat="52.0803000" lon="5.4899300"/>
<trkpt lat="52.0795500" lon="5.4898500"/>
<trkpt lat="52.0794400" lon="5.4897600"/>
<trkpt lat="52.0793600" lon="5.4894000"/>
<trkpt lat="52.0787900" lon="5.4894000"/>
<trkpt lat="52.0786400" lon="5.4897400"/>
<trkpt lat="52.0785300" lon="5.4899100"/>
<trkpt lat="52.0784200" lon="5.4899000"/>
<trkpt lat="52.0782900" lon="5.4898400"/>
<trkpt lat="52.0782200" lon="5.4897600"/>
<trkpt lat="52.0779400" lon="5.4896900"/>
<trkpt lat="52.0777200" lon="5.4897800"/>
<trkpt lat="52.0774500" lon="5.4900500"/>
<trkpt lat="52.0772100" lon="5.4902100"/>
<trkpt lat="52.0768500" lon="5.4903800"/>
<trkpt lat="52.0766100" lon="5.4904400"/>
<trkpt lat="52.0763300" lon="5.4903900"/>
<trkpt lat="52.0756000" lon="5.4897700"/>
<trkpt lat="52.0750900" lon="5.4893800"/>
<trkpt lat="52.0747200" lon="5.4902300"/>
<trkpt lat="52.0744900" lon="5.4908400"/>
<trkpt lat="52.0732300" lon="5.4899400"/>
<trkpt lat="52.0730100" lon="5.4898000"/>
<trkpt lat="52.0729300" lon="5.4897700"/>
<trkpt lat="52.0721400" lon="5.4905100"/>
<trkpt lat="52.0720100" lon="5.4903800"/>
<trkpt lat="52.0719200" lon="5.4899900"/>
<trkpt lat="52.0716000" lon="5.4895000"/>
<trkpt lat="52.0715600" lon="5.4894900"/>
<trkpt lat="52.0712800" lon="5.4895300"/>
<trkpt lat="52.0710200" lon="5.4899800"/>
<trkpt lat="52.0707900" lon="5.4902500"/>
<trkpt lat="52.0706600" lon="5.4902600"/>
<trkpt lat="52.0700700" lon="5.4901300"/>
<trkpt lat="52.0695200" lon="5.4905900"/>
<trkpt lat="52.0685800" lon="5.4893100"/>
<trkpt lat="52.0682700" lon="5.4887500"/>
<trkpt lat="52.0682300" lon="5.4883300"/>
<trkpt lat="52.0682500" lon="5.4879600"/>
<trkpt lat="52.0681300" lon="5.4876800"/>
<trkpt lat="52.0680500" lon="5.4873400"/>
<trkpt lat="52.0676000" lon="5.4844900"/>
<trkpt lat="52.0673800" lon="5.4826000"/>
<trkpt lat="52.0672200" lon="5.4811000"/>
<trkpt lat="52.0671600" lon="5.4793900"/>
<trkpt lat="52.0671700" lon="5.4789500"/>
<trkpt lat="52.0670600" lon="5.4785800"/>
<trkpt lat="52.0669400" lon="5.4782600"/>
<trkpt lat="52.0670700" lon="5.4762700"/>
<trkpt lat="52.0671000" lon="5.4761100"/>
<trkpt lat="52.0685800" lon="5.4765100"/>
<trkpt lat="52.0695900" lon="5.4769300"/>
<trkpt lat="52.0709100" lon="5.4772300"/>
<trkpt lat="52.0712700" lon="5.4770600"/>
<trkpt lat="52.0715900" lon="5.4768400"/>
<trkpt lat="52.0721700" lon="5.4762200"/>
<trkpt lat="52.0723500" lon="5.4759800"/>
<trkpt lat="52.0725600" lon="5.4762000"/>
<trkpt lat="52.0726400" lon="5.4759700"/>
<trkpt lat="52.0727700" lon="5.4748400"/>
<trkpt lat="52.0733200" lon="5.4748400"/>
<trkpt lat="52.0741400" lon="5.4748700"/>
<trkpt lat="52.0748000" lon="5.4751800"/>
<trkpt lat="52.0757400" lon="5.4755800"/>
<trkpt lat="52.0766000" lon="5.4758200"/>
<trkpt lat="52.0772000" lon="5.4759100"/>
<trkpt lat="52.0774200" lon="5.4760800"/>
<trkpt lat="52.0784600" lon="5.4782500"/>
<trkpt lat="52.0782500" lon="5.4792800"/>
<trkpt lat="52.0781000" lon="5.4798200"/>
<trkpt lat="52.0776300" lon="5.4810200"/>
<trkpt lat="52.0774900" lon="5.4814200"/>
<trkpt lat="52.0774300" lon="5.4819800"/>
<trkpt lat="52.0779200" lon="5.4821600"/>
<trkpt lat="52.0784200" lon="5.4823800"/>
<trkpt lat="52.0785600" lon="5.4825300"/>
<trkpt lat="52.0787400" lon="5.4822600"/>
<trkpt lat="52.0788900" lon="5.4821600"/>
<trkpt lat="52.0790400" lon="5.4823000"/>
<trkpt lat="52.0795800" lon="5.4831400"/>
<trkpt lat="52.0796300" lon="5.4836000"/>
<trkpt lat="52.0796500" lon="5.4845500"/>
<trkpt lat="52.0808200" lon="5.4845400"/>
<trkpt lat="52.0819600" lon="5.4844800"/>
<trkpt lat="52.0839800" lon="5.4844400"/>
<trkpt lat="52.0859100" lon="5.4843700"/>
<trkpt lat="52.0861500" lon="5.4847600"/>
<trkpt lat="52.0860500" lon="5.4849000"/>
<trkpt lat="52.0859700" lon="5.4851900"/>
<trkpt lat="52.0855200" lon="5.4877100"/>
<trkpt lat="52.0851000" lon="5.4901700"/>
<trkpt lat="52.0845800" lon="5.4900000"/>
</trkseg></trk>
</gpx>