<?xml version="1.0" encoding="UTF-8"?>
<gpx version="1.1" creator="klompenpaden.nl via Jimbo API" xmlns="http://www.topografix.com/GPX/1/1">
<metadata><name>Bruilschepad</name><desc>Ontdek De Bruil, een buurtschap met een voornaam kasteel en boerderijen op de overgang van hogere zandgronden en het voorheen moerassige broekgebied. Klompen aan, rugzak op en gaan!</desc><link href="https://www.klompenpaden.nl/klompenpaden/Bruilschepad/6ff77306-a8f9-477a-ac3a-80741f695166"><text>klompenpaden.nl</text></link></metadata>
<wpt lat="52.06629048766669" lon="6.4551758766174325"><name>Start De Bruil</name></wpt>
<trk><name>Bruilschepad - Geimporteerde shapefile</name><type>mainRoute</type><trkseg>
<trkpt lat="52.0661870" lon="6.4561954"/>
<trkpt lat="52.0661958" lon="6.4562035"/>
</trkseg></trk>
<trk><name>Bruilschepad - Geimporteerde shapefile</name><type>mainRoute</type><trkseg>
<trkpt lat="52.0661958" lon="6.4562035"/>
<trkpt lat="52.0662200" lon="6.4561954"/>
</trkseg></trk>
<trk><name>Bruilschepad - Geimporteerde shapefile</name><type>mainRoute</type><trkseg>
<trkpt lat="52.0661958" lon="6.4562035"/>
<trkpt lat="52.0665630" lon="6.4565388"/>
<trkpt lat="52.0668796" lon="6.4570538"/>
<trkpt lat="52.0672225" lon="6.4564851"/>
<trkpt lat="52.0673676" lon="6.4568821"/>
<trkpt lat="52.0674401" lon="6.4573005"/>
<trkpt lat="52.0677963" lon="6.4604977"/>
<trkpt lat="52.0679414" lon="6.4604226"/>
<trkpt lat="52.0682777" lon="6.4633839"/>
<trkpt lat="52.0708300" lon="6.4610664"/>
<trkpt lat="52.0728063" lon="6.4594428"/>
<trkpt lat="52.0739493" lon="6.4581052"/>
<trkpt lat="52.0752462" lon="6.4547327"/>
<trkpt lat="52.0755715" lon="6.4537279"/>
<trkpt lat="52.0760199" lon="6.4526335"/>
<trkpt lat="52.0761847" lon="6.4522258"/>
<trkpt lat="52.0768442" lon="6.4517860"/>
<trkpt lat="52.0775497" lon="6.4512924"/>
<trkpt lat="52.0779981" lon="6.4511208"/>
<trkpt lat="52.0779717" lon="6.4499084"/>
<trkpt lat="52.0774112" lon="6.4488355"/>
<trkpt lat="52.0783014" lon="6.4478913"/>
<trkpt lat="52.0791718" lon="6.4468829"/>
<trkpt lat="52.0794718" lon="6.4466576"/>
<trkpt lat="52.0796240" lon="6.4464304"/>
<trkpt lat="52.0797146" lon="6.4461103"/>
<trkpt lat="52.0799300" lon="6.4455597"/>
<trkpt lat="52.0799751" lon="6.4451716"/>
<trkpt lat="52.0798202" lon="6.4447979"/>
<trkpt lat="52.0795707" lon="6.4438197"/>
<trkpt lat="52.0792905" lon="6.4428344"/>
<trkpt lat="52.0792619" lon="6.4420906"/>
<trkpt lat="52.0792031" lon="6.4416579"/>
<trkpt lat="52.0792190" lon="6.4412752"/>
<trkpt lat="52.0796020" lon="6.4387790"/>
<trkpt lat="52.0795561" lon="6.4384464"/>
<trkpt lat="52.0796255" lon="6.4381656"/>
<trkpt lat="52.0793217" lon="6.4378322"/>
<trkpt lat="52.0794775" lon="6.4371719"/>
<trkpt lat="52.0796218" lon="6.4357201"/>
<trkpt lat="52.0799595" lon="6.4347547"/>
<trkpt lat="52.0801614" lon="6.4338336"/>
<trkpt lat="52.0803150" lon="6.4329302"/>
<trkpt lat="52.0796458" lon="6.4326844"/>
<trkpt lat="52.0790383" lon="6.4326244"/>
<trkpt lat="52.0784560" lon="6.4326190"/>
<trkpt lat="52.0781356" lon="6.4329943"/>
<trkpt lat="52.0778552" lon="6.4326864"/>
<trkpt lat="52.0776783" lon="6.4319454"/>
<trkpt lat="52.0769958" lon="6.4307467"/>
<trkpt lat="52.0765716" lon="6.4300564"/>
<trkpt lat="52.0760617" lon="6.4293519"/>
<trkpt lat="52.0756210" lon="6.4288477"/>
<trkpt lat="52.0750571" lon="6.4285151"/>
<trkpt lat="52.0744900" lon="6.4276138"/>
<trkpt lat="52.0743780" lon="6.4269737"/>
<trkpt lat="52.0740548" lon="6.4268199"/>
<trkpt lat="52.0705728" lon="6.4366476"/>
<trkpt lat="52.0695177" lon="6.4355961"/>
<trkpt lat="52.0689768" lon="6.4351240"/>
<trkpt lat="52.0679084" lon="6.4338366"/>
<trkpt lat="52.0667344" lon="6.4322058"/>
<trkpt lat="52.0645579" lon="6.4296738"/>
<trkpt lat="52.0637268" lon="6.4308540"/>
<trkpt lat="52.0642940" lon="6.4331928"/>
<trkpt lat="52.0626714" lon="6.4329139"/>
<trkpt lat="52.0616292" lon="6.4331928"/>
<trkpt lat="52.0606926" lon="6.4327637"/>
<trkpt lat="52.0587136" lon="6.4313690"/>
<trkpt lat="52.0583706" lon="6.4323346"/>
<trkpt lat="52.0578297" lon="6.4335362"/>
<trkpt lat="52.0570248" lon="6.4351455"/>
<trkpt lat="52.0562200" lon="6.4355961"/>
<trkpt lat="52.0542145" lon="6.4383856"/>
<trkpt lat="52.0541617" lon="6.4384929"/>
<trkpt lat="52.0560353" lon="6.4418617"/>
<trkpt lat="52.0560485" lon="6.4425269"/>
<trkpt lat="52.0559693" lon="6.4446513"/>
<trkpt lat="52.0559033" lon="6.4465181"/>
<trkpt lat="52.0559429" lon="6.4472476"/>
<trkpt lat="52.0560089" lon="6.4479343"/>
<trkpt lat="52.0562200" lon="6.4488141"/>
<trkpt lat="52.0565367" lon="6.4499727"/>
<trkpt lat="52.0565894" lon="6.4510457"/>
<trkpt lat="52.0566422" lon="6.4518611"/>
<trkpt lat="52.0565103" lon="6.4525048"/>
<trkpt lat="52.0563784" lon="6.4529339"/>
<trkpt lat="52.0565103" lon="6.4531485"/>
<trkpt lat="52.0557714" lon="6.4556805"/>
<trkpt lat="52.0555867" lon="6.4571182"/>
<trkpt lat="52.0553888" lon="6.4586202"/>
<trkpt lat="52.0545839" lon="6.4628688"/>
<trkpt lat="52.0557450" lon="6.4640919"/>
<trkpt lat="52.0579088" lon="6.4590494"/>
<trkpt lat="52.0640962" lon="6.4552513"/>
<trkpt lat="52.0648481" lon="6.4562384"/>
<trkpt lat="52.0647953" lon="6.4563457"/>
<trkpt lat="52.0651911" lon="6.4565388"/>
<trkpt lat="52.0661958" lon="6.4562035"/>
</trkseg></trk>
<trk><name>Bruilschepad - Geimporteerde shapefile</name><type>shorteningRoute</type><trkseg>
<trkpt lat="52.0705509" lon="6.4366669"/>
<trkpt lat="52.0712598" lon="6.4377898"/>
<trkpt lat="52.0721067" lon="6.4388662"/>
<trkpt lat="52.0728466" lon="6.4391470"/>
<trkpt lat="52.0725924" lon="6.4404031"/>
<trkpt lat="52.0727026" lon="6.4414032"/>
<trkpt lat="52.0726258" lon="6.4419748"/>
<trkpt lat="52.0710223" lon="6.4416311"/>
<trkpt lat="52.0704403" lon="6.4424177"/>
<trkpt lat="52.0697976" lon="6.4428968"/>
<trkpt lat="52.0695114" lon="6.4455111"/>
<trkpt lat="52.0691925" lon="6.4474476"/>
<trkpt lat="52.0687104" lon="6.4474202"/>
<trkpt lat="52.0680129" lon="6.4478436"/>
<trkpt lat="52.0678013" lon="6.4491003"/>
<trkpt lat="52.0669568" lon="6.4493709"/>
<trkpt lat="52.0669037" lon="6.4502138"/>
<trkpt lat="52.0668707" lon="6.4508683"/>
<trkpt lat="52.0667460" lon="6.4521666"/>
<trkpt lat="52.0666061" lon="6.4521444"/>
<trkpt lat="52.0666173" lon="6.4521955"/>
<trkpt lat="52.0667349" lon="6.4522407"/>
<trkpt lat="52.0667322" lon="6.4527172"/>
<trkpt lat="52.0666531" lon="6.4533251"/>
<trkpt lat="52.0663431" lon="6.4532930"/>
<trkpt lat="52.0661453" lon="6.4561790"/>
</trkseg></trk>
<trk><name>Bruilschepad - Geimporteerde shapefile</name><type>approachRoute</type><trkseg>
<trkpt lat="52.0799751" lon="6.4451716"/>
<trkpt lat="52.0801019" lon="6.4455818"/>
<trkpt lat="52.0800722" lon="6.4456796"/>
<trkpt lat="52.0802053" lon="6.4457858"/>
<trkpt lat="52.0803669" lon="6.4457130"/>
<trkpt lat="52.0810153" lon="6.4463085"/>
<trkpt lat="52.0814500" lon="6.4467723"/>
<trkpt lat="52.0808287" lon="6.4491195"/>
<trkpt lat="52.0809979" lon="6.4493101"/>
<trkpt lat="52.0811037" lon="6.4494397"/>
</trkseg></trk>
</gpx>