<?xml version="1.0" encoding="UTF-8"?>
<gpx version="1.1" creator="klompenpaden.nl via Jimbo API" xmlns="http://www.topografix.com/GPX/1/1">
<metadata><name>Burensepad</name><desc>Ontdek het prachtige buitengebied van Buren. Wandel over een middeleeuwse dijk en kasteelterrein, door het vestingstadje Buren en haar prachtige, afwisselende buitengebied. Klompen aan, rugzak op en gaan!</desc><link href="https://www.klompenpaden.nl/klompenpaden/Burensepad/3704587c-7e79-4627-9b5c-7ca4f6156007"><text>klompenpaden.nl</text></link></metadata>
<wpt lat="51.91181039378652" lon="5.331262777122335"><name>Start Buren</name></wpt>
<trk><name>Burensepad - hoofdroute</name><type>mainRoute</type><trkseg>
<trkpt lat="51.9090864" lon="5.3206155"/>
<trkpt lat="51.9090930" lon="5.3209374"/>
<trkpt lat="51.9094319" lon="5.3209738"/>
<trkpt lat="51.9095378" lon="5.3211670"/>
<trkpt lat="51.9096437" lon="5.3217034"/>
<trkpt lat="51.9096172" lon="5.3218536"/>
<trkpt lat="51.9091671" lon="5.3220682"/>
<trkpt lat="51.9105861" lon="5.3253169"/>
<trkpt lat="51.9106030" lon="5.3258462"/>
<trkpt lat="51.9112919" lon="5.3258449"/>
<trkpt lat="51.9117929" lon="5.3254657"/>
<trkpt lat="51.9120515" lon="5.3261402"/>
<trkpt lat="51.9121213" lon="5.3263702"/>
<trkpt lat="51.9120851" lon="5.3264628"/>
<trkpt lat="51.9121849" lon="5.3267081"/>
<trkpt lat="51.9126240" lon="5.3268823"/>
<trkpt lat="51.9130737" lon="5.3272883"/>
<trkpt lat="51.9131477" lon="5.3273903"/>
<trkpt lat="51.9132111" lon="5.3275826"/>
<trkpt lat="51.9132243" lon="5.3280666"/>
<trkpt lat="51.9130164" lon="5.3282763"/>
<trkpt lat="51.9130157" lon="5.3286602"/>
<trkpt lat="51.9129770" lon="5.3288951"/>
<trkpt lat="51.9128112" lon="5.3290441"/>
<trkpt lat="51.9127832" lon="5.3291715"/>
<trkpt lat="51.9127897" lon="5.3293761"/>
<trkpt lat="51.9126605" lon="5.3295686"/>
<trkpt lat="51.9125473" lon="5.3298039"/>
<trkpt lat="51.9123135" lon="5.3297153"/>
<trkpt lat="51.9121833" lon="5.3297649"/>
<trkpt lat="51.9121482" lon="5.3300205"/>
<trkpt lat="51.9119300" lon="5.3300854"/>
<trkpt lat="51.9118286" lon="5.3307245"/>
<trkpt lat="51.9119168" lon="5.3308660"/>
<trkpt lat="51.9120077" lon="5.3309131"/>
</trkseg></trk>
<trk><name>Burensepad - Hoofdroute</name><type>mainRoute</type><trkseg>
<trkpt lat="51.9090903" lon="5.3206021"/>
<trkpt lat="51.9091930" lon="5.3200540"/>
<trkpt lat="51.9092216" lon="5.3195658"/>
<trkpt lat="51.9091410" lon="5.3189586"/>
<trkpt lat="51.9088740" lon="5.3180190"/>
<trkpt lat="51.9092821" lon="5.3170621"/>
<trkpt lat="51.9097644" lon="5.3161825"/>
<trkpt lat="51.9090160" lon="5.3149125"/>
<trkpt lat="51.9084793" lon="5.3141919"/>
<trkpt lat="51.9094515" lon="5.3121076"/>
<trkpt lat="51.9108033" lon="5.3141650"/>
<trkpt lat="51.9109479" lon="5.3140938"/>
<trkpt lat="51.9113532" lon="5.3146180"/>
<trkpt lat="51.9114939" lon="5.3146895"/>
<trkpt lat="51.9115223" lon="5.3149576"/>
<trkpt lat="51.9122073" lon="5.3159983"/>
<trkpt lat="51.9120260" lon="5.3166293"/>
<trkpt lat="51.9137691" lon="5.3204638"/>
<trkpt lat="51.9143423" lon="5.3202910"/>
<trkpt lat="51.9145077" lon="5.3203414"/>
<trkpt lat="51.9147228" lon="5.3207727"/>
<trkpt lat="51.9157691" lon="5.3235043"/>
<trkpt lat="51.9159300" lon="5.3237221"/>
<trkpt lat="51.9174346" lon="5.3276205"/>
<trkpt lat="51.9175965" lon="5.3280461"/>
<trkpt lat="51.9175531" lon="5.3283105"/>
<trkpt lat="51.9173615" lon="5.3285061"/>
</trkseg></trk>
<trk><name>Burensepad - hoofdroute</name><type>mainRoute</type><trkseg>
<trkpt lat="51.9119935" lon="5.3309183"/>
<trkpt lat="51.9119169" lon="5.3311759"/>
<trkpt lat="51.9117873" lon="5.3310881"/>
<trkpt lat="51.9115876" lon="5.3330087"/>
<trkpt lat="51.9114673" lon="5.3333071"/>
<trkpt lat="51.9123854" lon="5.3341859"/>
<trkpt lat="51.9134090" lon="5.3351566"/>
<trkpt lat="51.9134496" lon="5.3353614"/>
<trkpt lat="51.9132916" lon="5.3363473"/>
<trkpt lat="51.9131588" lon="5.3369963"/>
<trkpt lat="51.9131011" lon="5.3371778"/>
<trkpt lat="51.9127205" lon="5.3376255"/>
<trkpt lat="51.9125834" lon="5.3378221"/>
<trkpt lat="51.9127108" lon="5.3380942"/>
<trkpt lat="51.9128487" lon="5.3389070"/>
<trkpt lat="51.9128882" lon="5.3392999"/>
<trkpt lat="51.9128934" lon="5.3399311"/>
<trkpt lat="51.9129533" lon="5.3401880"/>
<trkpt lat="51.9130734" lon="5.3403248"/>
<trkpt lat="51.9152964" lon="5.3405952"/>
<trkpt lat="51.9156802" lon="5.3400802"/>
<trkpt lat="51.9162361" lon="5.3398226"/>
<trkpt lat="51.9167920" lon="5.3409599"/>
<trkpt lat="51.9177768" lon="5.3412140"/>
<trkpt lat="51.9185074" lon="5.3363097"/>
<trkpt lat="51.9181514" lon="5.3360663"/>
<trkpt lat="51.9176894" lon="5.3357299"/>
<trkpt lat="51.9173599" lon="5.3354601"/>
<trkpt lat="51.9165922" lon="5.3347333"/>
<trkpt lat="51.9159198" lon="5.3339764"/>
<trkpt lat="51.9152094" lon="5.3330856"/>
<trkpt lat="51.9147311" lon="5.3324686"/>
<trkpt lat="51.9145892" lon="5.3322771"/>
<trkpt lat="51.9145135" lon="5.3320748"/>
<trkpt lat="51.9145067" lon="5.3319602"/>
<trkpt lat="51.9144523" lon="5.3317898"/>
<trkpt lat="51.9143781" lon="5.3317138"/>
<trkpt lat="51.9142933" lon="5.3316974"/>
<trkpt lat="51.9142721" lon="5.3316551"/>
<trkpt lat="51.9143242" lon="5.3316119"/>
<trkpt lat="51.9144029" lon="5.3316073"/>
<trkpt lat="51.9148044" lon="5.3311650"/>
<trkpt lat="51.9152550" lon="5.3306905"/>
<trkpt lat="51.9157899" lon="5.3301088"/>
<trkpt lat="51.9163558" lon="5.3294941"/>
<trkpt lat="51.9168148" lon="5.3290085"/>
<trkpt lat="51.9169371" lon="5.3289503"/>
<trkpt lat="51.9173651" lon="5.3284908"/>
</trkseg></trk>
</gpx>