<?xml version="1.0" encoding="UTF-8"?>
<gpx version="1.1" creator="klompenpaden.nl via Jimbo API" xmlns="http://www.topografix.com/GPX/1/1">
<metadata><name>Cotlandenpad</name><desc>Ontdek het mooie buitengebied van Amerongen en Leersum. Wandel over landgoederen, boerenerven, zuwes en lanen. Geniet van het afwisselende landschap. Ervaar de rust en beleef de combinatie van cultuur en natuur. Klompen aan, rugzak op en gaan!</desc><link href="https://www.klompenpaden.nl/klompenpaden/Cotlandenpad/4bee35d5-9d72-4735-aa83-f5309d6d9f49"><text>klompenpaden.nl</text></link></metadata>
<wpt lat="51.99827496809084" lon="5.47394335269928"><name>Start Amerongen</name></wpt>
<trk><name>Cotlandenpad - Geimporteerde shapefile</name><type>mainRoute</type><trkseg>
<trkpt lat="51.9982344" lon="5.4739969"/>
<trkpt lat="51.9984420" lon="5.4738479"/>
<trkpt lat="51.9987880" lon="5.4735778"/>
<trkpt lat="51.9990648" lon="5.4733449"/>
<trkpt lat="51.9992839" lon="5.4731679"/>
<trkpt lat="51.9996070" lon="5.4727484"/>
<trkpt lat="51.9993251" lon="5.4720102"/>
<trkpt lat="51.9990317" lon="5.4712440"/>
<trkpt lat="51.9987095" lon="5.4705337"/>
<trkpt lat="51.9985829" lon="5.4702160"/>
<trkpt lat="51.9984967" lon="5.4699544"/>
<trkpt lat="51.9984162" lon="5.4696275"/>
<trkpt lat="51.9983933" lon="5.4693940"/>
<trkpt lat="51.9984168" lon="5.4687124"/>
<trkpt lat="51.9984344" lon="5.4682830"/>
<trkpt lat="51.9984463" lon="5.4677881"/>
<trkpt lat="51.9984639" lon="5.4673026"/>
<trkpt lat="51.9984756" lon="5.4670879"/>
<trkpt lat="51.9985335" lon="5.4667238"/>
<trkpt lat="51.9984355" lon="5.4666770"/>
<trkpt lat="51.9982973" lon="5.4666020"/>
<trkpt lat="51.9981936" lon="5.4664711"/>
<trkpt lat="51.9979693" lon="5.4657985"/>
<trkpt lat="51.9973366" lon="5.4638833"/>
<trkpt lat="51.9968937" lon="5.4625380"/>
<trkpt lat="51.9961746" lon="5.4603147"/>
<trkpt lat="51.9941359" lon="5.4611800"/>
<trkpt lat="51.9940763" lon="5.4611799"/>
<trkpt lat="51.9940221" lon="5.4611535"/>
<trkpt lat="51.9940005" lon="5.4609954"/>
<trkpt lat="51.9939740" lon="5.4600734"/>
<trkpt lat="51.9939097" lon="5.4588967"/>
<trkpt lat="51.9938452" lon="5.4579659"/>
<trkpt lat="51.9938130" lon="5.4574214"/>
<trkpt lat="51.9938131" lon="5.4572634"/>
<trkpt lat="51.9941167" lon="5.4571058"/>
<trkpt lat="51.9949083" lon="5.4567207"/>
<trkpt lat="51.9954126" lon="5.4564668"/>
<trkpt lat="51.9962205" lon="5.4560554"/>
<trkpt lat="51.9966217" lon="5.4558365"/>
<trkpt lat="51.9966435" lon="5.4555555"/>
<trkpt lat="51.9971175" lon="5.4556047"/>
<trkpt lat="51.9971766" lon="5.4554830"/>
<trkpt lat="51.9973110" lon="5.4551180"/>
<trkpt lat="51.9978323" lon="5.4537971"/>
<trkpt lat="51.9979344" lon="5.4536234"/>
<trkpt lat="51.9987240" lon="5.4525463"/>
<trkpt lat="51.9988476" lon="5.4523378"/>
<trkpt lat="51.9990089" lon="5.4517467"/>
<trkpt lat="51.9990573" lon="5.4515381"/>
<trkpt lat="51.9991977" lon="5.4500340"/>
<trkpt lat="51.9978462" lon="5.4480583"/>
<trkpt lat="51.9971144" lon="5.4469859"/>
<trkpt lat="51.9973856" lon="5.4465121"/>
<trkpt lat="51.9977437" lon="5.4458364"/>
<trkpt lat="51.9981886" lon="5.4450204"/>
<trkpt lat="51.9984164" lon="5.4445728"/>
<trkpt lat="51.9989535" lon="5.4436339"/>
<trkpt lat="51.9988885" lon="5.4435021"/>
<trkpt lat="51.9988236" lon="5.4433352"/>
<trkpt lat="51.9987857" lon="5.4432034"/>
<trkpt lat="51.9987641" lon="5.4429575"/>
<trkpt lat="51.9984503" lon="5.4417277"/>
<trkpt lat="51.9975954" lon="5.4384337"/>
<trkpt lat="51.9980184" lon="5.4379776"/>
<trkpt lat="51.9971525" lon="5.4347188"/>
<trkpt lat="51.9977664" lon="5.4341550"/>
<trkpt lat="51.9975413" lon="5.4334519"/>
<trkpt lat="51.9969847" lon="5.4340425"/>
<trkpt lat="51.9955965" lon="5.4355250"/>
<trkpt lat="51.9946205" lon="5.4365074"/>
<trkpt lat="51.9943439" lon="5.4367793"/>
<trkpt lat="51.9933787" lon="5.4377967"/>
<trkpt lat="51.9932000" lon="5.4373663"/>
<trkpt lat="51.9931947" lon="5.4369360"/>
<trkpt lat="51.9927724" lon="5.4359610"/>
<trkpt lat="51.9933255" lon="5.4353470"/>
<trkpt lat="51.9930439" lon="5.4345828"/>
<trkpt lat="51.9947899" lon="5.4329426"/>
<trkpt lat="51.9930369" lon="5.4274639"/>
<trkpt lat="51.9929327" lon="5.4271470"/>
<trkpt lat="51.9929067" lon="5.4269569"/>
<trkpt lat="51.9929393" lon="5.4267247"/>
<trkpt lat="51.9930502" lon="5.4265347"/>
<trkpt lat="51.9931285" lon="5.4262919"/>
<trkpt lat="51.9931416" lon="5.4260807"/>
<trkpt lat="51.9931026" lon="5.4257850"/>
<trkpt lat="51.9929268" lon="5.4252357"/>
<trkpt lat="51.9921582" lon="5.4230280"/>
<trkpt lat="51.9940688" lon="5.4212766"/>
<trkpt lat="51.9941471" lon="5.4213294"/>
<trkpt lat="51.9947138" lon="5.4228506"/>
<trkpt lat="51.9953195" lon="5.4244246"/>
<trkpt lat="51.9956651" lon="5.4241080"/>
<trkpt lat="51.9957890" lon="5.4241821"/>
<trkpt lat="51.9970200" lon="5.4274781"/>
<trkpt lat="51.9979395" lon="5.4266340"/>
<trkpt lat="51.9997262" lon="5.4249669"/>
<trkpt lat="52.0013173" lon="5.4235107"/>
<trkpt lat="52.0023402" lon="5.4253810"/>
<trkpt lat="52.0026594" lon="5.4259516"/>
<trkpt lat="52.0029461" lon="5.4265117"/>
<trkpt lat="52.0029395" lon="5.4266807"/>
<trkpt lat="52.0030503" lon="5.4269343"/>
<trkpt lat="52.0031284" lon="5.4271139"/>
<trkpt lat="52.0031479" lon="5.4272724"/>
<trkpt lat="52.0031544" lon="5.4274519"/>
<trkpt lat="52.0029262" lon="5.4276207"/>
<trkpt lat="52.0004675" lon="5.4302906"/>
<trkpt lat="51.9992089" lon="5.4316413"/>
<trkpt lat="52.0000420" lon="5.4349479"/>
<trkpt lat="52.0011224" lon="5.4391210"/>
<trkpt lat="52.0011940" lon="5.4393535"/>
<trkpt lat="52.0013634" lon="5.4395543"/>
<trkpt lat="52.0015393" lon="5.4398608"/>
<trkpt lat="52.0020545" lon="5.4392383"/>
<trkpt lat="52.0028558" lon="5.4406546"/>
<trkpt lat="52.0032596" lon="5.4413205"/>
<trkpt lat="52.0036961" lon="5.4420498"/>
<trkpt lat="52.0025087" lon="5.4439179"/>
<trkpt lat="52.0014519" lon="5.4455114"/>
<trkpt lat="52.0011061" lon="5.4460707"/>
<trkpt lat="52.0006625" lon="5.4467039"/>
<trkpt lat="52.0003231" lon="5.4473794"/>
<trkpt lat="51.9999512" lon="5.4480865"/>
<trkpt lat="51.9997228" lon="5.4485509"/>
<trkpt lat="51.9995596" lon="5.4488992"/>
<trkpt lat="51.9993768" lon="5.4494693"/>
<trkpt lat="51.9992005" lon="5.4500393"/>
<trkpt lat="51.9990562" lon="5.4515494"/>
<trkpt lat="51.9990105" lon="5.4517711"/>
<trkpt lat="51.9988435" lon="5.4523365"/>
<trkpt lat="51.9987187" lon="5.4525559"/>
<trkpt lat="51.9979212" lon="5.4536350"/>
<trkpt lat="51.9978289" lon="5.4537929"/>
<trkpt lat="51.9973132" lon="5.4551182"/>
<trkpt lat="51.9971774" lon="5.4554957"/>
<trkpt lat="51.9971123" lon="5.4556009"/>
<trkpt lat="51.9966407" lon="5.4555563"/>
<trkpt lat="51.9966243" lon="5.4558461"/>
<trkpt lat="51.9966296" lon="5.4559866"/>
<trkpt lat="51.9966566" lon="5.4561886"/>
<trkpt lat="51.9967377" lon="5.4565313"/>
<trkpt lat="51.9969594" lon="5.4575503"/>
<trkpt lat="51.9972405" lon="5.4588154"/>
<trkpt lat="51.9974080" lon="5.4596675"/>
<trkpt lat="51.9974837" lon="5.4600101"/>
<trkpt lat="51.9975919" lon="5.4604406"/>
<trkpt lat="51.9976622" lon="5.4606515"/>
<trkpt lat="51.9977270" lon="5.4610029"/>
<trkpt lat="51.9977323" lon="5.4612752"/>
<trkpt lat="51.9977646" lon="5.4615562"/>
<trkpt lat="51.9978566" lon="5.4618023"/>
<trkpt lat="51.9979920" lon="5.4621187"/>
<trkpt lat="51.9981111" lon="5.4623736"/>
<trkpt lat="51.9982410" lon="5.4625846"/>
<trkpt lat="51.9983385" lon="5.4627779"/>
<trkpt lat="51.9984034" lon="5.4629537"/>
<trkpt lat="51.9984629" lon="5.4631646"/>
<trkpt lat="51.9985278" lon="5.4634896"/>
<trkpt lat="51.9985818" lon="5.4638147"/>
<trkpt lat="51.9986356" lon="5.4642890"/>
<trkpt lat="51.9986517" lon="5.4645788"/>
<trkpt lat="51.9986623" lon="5.4649653"/>
<trkpt lat="51.9986513" lon="5.4652287"/>
<trkpt lat="51.9986456" lon="5.4656152"/>
<trkpt lat="51.9986073" lon="5.4662123"/>
<trkpt lat="51.9985310" lon="5.4667215"/>
<trkpt lat="51.9984766" lon="5.4670903"/>
<trkpt lat="51.9984656" lon="5.4673010"/>
<trkpt lat="51.9984490" lon="5.4677840"/>
<trkpt lat="51.9984324" lon="5.4682846"/>
<trkpt lat="51.9984158" lon="5.4687149"/>
<trkpt lat="51.9982963" lon="5.4690572"/>
<trkpt lat="51.9980627" lon="5.4698120"/>
<trkpt lat="51.9978780" lon="5.4704264"/>
<trkpt lat="51.9977150" lon="5.4709443"/>
<trkpt lat="51.9980238" lon="5.4711732"/>
<trkpt lat="51.9980560" lon="5.4715421"/>
<trkpt lat="51.9978226" lon="5.4720247"/>
<trkpt lat="51.9980121" lon="5.4723500"/>
<trkpt lat="51.9980120" lon="5.4725432"/>
<trkpt lat="51.9979630" lon="5.4727451"/>
<trkpt lat="51.9978979" lon="5.4728679"/>
<trkpt lat="51.9982331" lon="5.4740015"/>
</trkseg></trk>
<trk><name>Cotlandenpad - shorteningRoute</name><type>shorteningRoute</type><trkseg>
<trkpt lat="51.9992000" lon="5.4316500"/>
<trkpt lat="51.9985100" lon="5.4323900"/>
<trkpt lat="51.9977100" lon="5.4332000"/>
<trkpt lat="51.9975700" lon="5.4333800"/>
</trkseg></trk>
<trk><name>Cotlandenpad - shorteningRoute</name><type>shorteningRoute</type><trkseg>
<trkpt lat="51.9970200" lon="5.4274400"/>
<trkpt lat="51.9939400" lon="5.4303700"/>
</trkseg></trk>
<trk><name>Cotlandenpad - alternativeRoute</name><type>alternativeRoute</type><trkseg>
<trkpt lat="51.9933700" lon="5.4378000"/>
<trkpt lat="51.9929200" lon="5.4382400"/>
<trkpt lat="51.9927800" lon="5.4372100"/>
<trkpt lat="51.9921200" lon="5.4354800"/>
<trkpt lat="51.9910600" lon="5.4330500"/>
<trkpt lat="51.9939800" lon="5.4303300"/>
</trkseg></trk>
<trk><name>Cotlandenpad - Geimporteerde shapefile</name><type>approachRoute</type><trkseg>
<trkpt lat="52.0095151" lon="5.4355767"/>
<trkpt lat="52.0093452" lon="5.4360630"/>
<trkpt lat="52.0091743" lon="5.4363270"/>
<trkpt lat="52.0090071" lon="5.4366127"/>
<trkpt lat="52.0084595" lon="5.4360404"/>
<trkpt lat="52.0081440" lon="5.4357391"/>
<trkpt lat="52.0080465" lon="5.4357950"/>
<trkpt lat="52.0079595" lon="5.4360762"/>
<trkpt lat="52.0078592" lon="5.4364548"/>
<trkpt lat="52.0077923" lon="5.4368010"/>
<trkpt lat="52.0077053" lon="5.4371580"/>
<trkpt lat="52.0075983" lon="5.4375366"/>
<trkpt lat="52.0074846" lon="5.4378827"/>
<trkpt lat="52.0073777" lon="5.4382180"/>
<trkpt lat="52.0072173" lon="5.4385208"/>
<trkpt lat="52.0069100" lon="5.4388234"/>
<trkpt lat="52.0065516" lon="5.4391837"/>
<trkpt lat="52.0061450" lon="5.4395034"/>
<trkpt lat="52.0058232" lon="5.4397134"/>
<trkpt lat="52.0052642" lon="5.4400969"/>
<trkpt lat="52.0049762" lon="5.4402978"/>
<trkpt lat="52.0048407" lon="5.4403799"/>
<trkpt lat="52.0046938" lon="5.4405169"/>
<trkpt lat="52.0044227" lon="5.4409374"/>
<trkpt lat="52.0040612" lon="5.4414948"/>
<trkpt lat="52.0028332" lon="5.4434074"/>
</trkseg></trk>
</gpx>