<?xml version="1.0" encoding="UTF-8"?>
<gpx version="1.1" creator="klompenpaden.nl via Jimbo API" xmlns="http://www.topografix.com/GPX/1/1">
<metadata><name>Crobschepad</name><desc>Ontdek de uiterwaarden in het prachtige buitengebied van Hellouw en Haaften. Wandelen over de dijk, langs boomgaarden, molens, kerken en een eeuwenoude herberg. Klompen aan, rugzak op en gaan!</desc><link href="https://www.klompenpaden.nl/klompenpaden/Crobschepad/ae0826e3-04fd-4c9f-b6d0-8171cf673413"><text>klompenpaden.nl</text></link></metadata>
<wpt lat="51.81666051114466" lon="5.20354986190796"><name>Start Haaften</name></wpt>
<trk><name>Crobschepad - Geimporteerde shapefile</name><type>mainRoute</type><trkseg>
<trkpt lat="51.8188392" lon="5.1760702"/>
<trkpt lat="51.8191320" lon="5.1762358"/>
<trkpt lat="51.8193244" lon="5.1761428"/>
<trkpt lat="51.8198740" lon="5.1762381"/>
<trkpt lat="51.8205696" lon="5.1762291"/>
<trkpt lat="51.8213509" lon="5.1762772"/>
<trkpt lat="51.8219111" lon="5.1763494"/>
<trkpt lat="51.8223286" lon="5.1764225"/>
</trkseg></trk>
<trk><name>Crobschepad - Geimporteerde shapefile</name><type>mainRoute</type><trkseg>
<trkpt lat="51.8197921" lon="5.1703362"/>
<trkpt lat="51.8196461" lon="5.1704405"/>
<trkpt lat="51.8195886" lon="5.1702393"/>
<trkpt lat="51.8194140" lon="5.1703322"/>
<trkpt lat="51.8194823" lon="5.1706312"/>
<trkpt lat="51.8193041" lon="5.1708300"/>
<trkpt lat="51.8190441" lon="5.1710557"/>
<trkpt lat="51.8190995" lon="5.1720801"/>
<trkpt lat="51.8187863" lon="5.1744703"/>
<trkpt lat="51.8185036" lon="5.1759279"/>
<trkpt lat="51.8188249" lon="5.1760646"/>
</trkseg></trk>
<trk><name>Crobschepad - Geimporteerde shapefile</name><type>mainRoute</type><trkseg>
<trkpt lat="51.8223255" lon="5.1764161"/>
<trkpt lat="51.8225093" lon="5.1767520"/>
<trkpt lat="51.8226300" lon="5.1770868"/>
<trkpt lat="51.8227692" lon="5.1774553"/>
<trkpt lat="51.8228976" lon="5.1776624"/>
<trkpt lat="51.8235586" lon="5.1785178"/>
<trkpt lat="51.8238400" lon="5.1787698"/>
<trkpt lat="51.8241311" lon="5.1790044"/>
<trkpt lat="51.8243919" lon="5.1792105"/>
<trkpt lat="51.8246406" lon="5.1796440"/>
<trkpt lat="51.8246141" lon="5.1797966"/>
</trkseg></trk>
<trk><name>Crobschepad - Geimporteerde shapefile</name><type>mainRoute</type><trkseg>
<trkpt lat="51.8238259" lon="5.1844920"/>
<trkpt lat="51.8239963" lon="5.1845604"/>
<trkpt lat="51.8241677" lon="5.1846351"/>
<trkpt lat="51.8240883" lon="5.1851528"/>
<trkpt lat="51.8239873" lon="5.1855160"/>
<trkpt lat="51.8236709" lon="5.1861823"/>
<trkpt lat="51.8235486" lon="5.1864446"/>
<trkpt lat="51.8233727" lon="5.1867660"/>
<trkpt lat="51.8232267" lon="5.1870517"/>
<trkpt lat="51.8230983" lon="5.1871778"/>
<trkpt lat="51.8228388" lon="5.1874328"/>
<trkpt lat="51.8226291" lon="5.1875667"/>
<trkpt lat="51.8225397" lon="5.1877584"/>
<trkpt lat="51.8224898" lon="5.1880728"/>
<trkpt lat="51.8225297" lon="5.1884353"/>
<trkpt lat="51.8227461" lon="5.1888056"/>
<trkpt lat="51.8230180" lon="5.1892275"/>
<trkpt lat="51.8235688" lon="5.1901117"/>
<trkpt lat="51.8245754" lon="5.1915407"/>
<trkpt lat="51.8249888" lon="5.1921277"/>
<trkpt lat="51.8253302" lon="5.1924311"/>
<trkpt lat="51.8254903" lon="5.1926248"/>
<trkpt lat="51.8256768" lon="5.1926801"/>
<trkpt lat="51.8258097" lon="5.1926608"/>
<trkpt lat="51.8258873" lon="5.1932045"/>
<trkpt lat="51.8259886" lon="5.1940388"/>
<trkpt lat="51.8260035" lon="5.1945028"/>
<trkpt lat="51.8259821" lon="5.1950538"/>
<trkpt lat="51.8259563" lon="5.1962064"/>
<trkpt lat="51.8261636" lon="5.1963985"/>
<trkpt lat="51.8262103" lon="5.1965307"/>
<trkpt lat="51.8262615" lon="5.1969669"/>
<trkpt lat="51.8262450" lon="5.1973918"/>
<trkpt lat="51.8261901" lon="5.1977274"/>
<trkpt lat="51.8264616" lon="5.1979421"/>
<trkpt lat="51.8262500" lon="5.1982730"/>
<trkpt lat="51.8260495" lon="5.1985866"/>
<trkpt lat="51.8257759" lon="5.1992440"/>
<trkpt lat="51.8253717" lon="5.2000205"/>
</trkseg></trk>
<trk><name>Crobschepad - Geimporteerde shapefile</name><type>mainRoute</type><trkseg>
<trkpt lat="51.8240848" lon="5.1820903"/>
<trkpt lat="51.8241283" lon="5.1825074"/>
<trkpt lat="51.8241186" lon="5.1830313"/>
<trkpt lat="51.8239965" lon="5.1836133"/>
<trkpt lat="51.8238302" lon="5.1843970"/>
<trkpt lat="51.8238259" lon="5.1844913"/>
</trkseg></trk>
<trk><name>Crobschepad - Geimporteerde shapefile</name><type>mainRoute</type><trkseg>
<trkpt lat="51.8245796" lon="5.1864782"/>
<trkpt lat="51.8246078" lon="5.1863169"/>
<trkpt lat="51.8245534" lon="5.1857645"/>
<trkpt lat="51.8245740" lon="5.1853327"/>
<trkpt lat="51.8246877" lon="5.1850213"/>
<trkpt lat="51.8247350" lon="5.1856025"/>
<trkpt lat="51.8251121" lon="5.1850021"/>
<trkpt lat="51.8253041" lon="5.1846328"/>
<trkpt lat="51.8255204" lon="5.1838316"/>
<trkpt lat="51.8255908" lon="5.1833362"/>
<trkpt lat="51.8255788" lon="5.1825649"/>
<trkpt lat="51.8254657" lon="5.1811089"/>
<trkpt lat="51.8253355" lon="5.1800962"/>
<trkpt lat="51.8251095" lon="5.1793892"/>
<trkpt lat="51.8249662" lon="5.1790387"/>
<trkpt lat="51.8247123" lon="5.1787060"/>
<trkpt lat="51.8243732" lon="5.1785751"/>
<trkpt lat="51.8241376" lon="5.1785014"/>
<trkpt lat="51.8236911" lon="5.1781638"/>
<trkpt lat="51.8232013" lon="5.1775789"/>
<trkpt lat="51.8232794" lon="5.1773425"/>
<trkpt lat="51.8234829" lon="5.1774106"/>
<trkpt lat="51.8246491" lon="5.1772555"/>
<trkpt lat="51.8247773" lon="5.1771571"/>
<trkpt lat="51.8249480" lon="5.1768512"/>
<trkpt lat="51.8252358" lon="5.1761878"/>
<trkpt lat="51.8245773" lon="5.1750337"/>
<trkpt lat="51.8241299" lon="5.1742299"/>
<trkpt lat="51.8238685" lon="5.1736382"/>
<trkpt lat="51.8237316" lon="5.1729538"/>
<trkpt lat="51.8232684" lon="5.1693236"/>
<trkpt lat="51.8210755" lon="5.1698868"/>
<trkpt lat="51.8205229" lon="5.1700621"/>
<trkpt lat="51.8200773" lon="5.1702197"/>
<trkpt lat="51.8197921" lon="5.1703304"/>
</trkseg></trk>
<trk><name>Crobschepad - Geimporteerde shapefile</name><type>mainRoute</type><trkseg>
<trkpt lat="51.8246123" lon="5.1798110"/>
<trkpt lat="51.8246196" lon="5.1798657"/>
<trkpt lat="51.8237039" lon="5.1805291"/>
<trkpt lat="51.8239858" lon="5.1815870"/>
<trkpt lat="51.8240577" lon="5.1818860"/>
<trkpt lat="51.8240830" lon="5.1820845"/>
</trkseg></trk>
<trk><name>Crobschepad - Geimporteerde shapefile</name><type>mainRoute</type><trkseg>
<trkpt lat="51.8253176" lon="5.1883575"/>
<trkpt lat="51.8248642" lon="5.1881522"/>
<trkpt lat="51.8244501" lon="5.1879410"/>
<trkpt lat="51.8241140" lon="5.1874878"/>
<trkpt lat="51.8241449" lon="5.1867968"/>
<trkpt lat="51.8245724" lon="5.1864783"/>
</trkseg></trk>
<trk><name>Crobschepad - Geimporteerde shapefile</name><type>mainRoute</type><trkseg>
<trkpt lat="51.8253692" lon="5.2000227"/>
<trkpt lat="51.8239914" lon="5.1998358"/>
<trkpt lat="51.8231235" lon="5.1991831"/>
</trkseg></trk>
<trk><name>Crobschepad - Geimporteerde shapefile</name><type>mainRoute</type><trkseg>
<trkpt lat="51.8253692" lon="5.2000227"/>
<trkpt lat="51.8251817" lon="5.2001872"/>
<trkpt lat="51.8249645" lon="5.2003340"/>
<trkpt lat="51.8247147" lon="5.2004315"/>
<trkpt lat="51.8243224" lon="5.2004821"/>
<trkpt lat="51.8239809" lon="5.2004799"/>
<trkpt lat="51.8237258" lon="5.2005421"/>
<trkpt lat="51.8235167" lon="5.2006834"/>
<trkpt lat="51.8233605" lon="5.2009493"/>
<trkpt lat="51.8230787" lon="5.2015469"/>
<trkpt lat="51.8227932" lon="5.2021641"/>
<trkpt lat="51.8223066" lon="5.2033324"/>
<trkpt lat="51.8221386" lon="5.2036139"/>
<trkpt lat="51.8220112" lon="5.2036487"/>
<trkpt lat="51.8218500" lon="5.2038453"/>
<trkpt lat="51.8215974" lon="5.2041746"/>
<trkpt lat="51.8215564" lon="5.2041174"/>
<trkpt lat="51.8213668" lon="5.2043484"/>
<trkpt lat="51.8208776" lon="5.2046610"/>
<trkpt lat="51.8197691" lon="5.2052354"/>
<trkpt lat="51.8193127" lon="5.2053466"/>
<trkpt lat="51.8186631" lon="5.2051535"/>
<trkpt lat="51.8179813" lon="5.2048799"/>
<trkpt lat="51.8174422" lon="5.2045713"/>
<trkpt lat="51.8170066" lon="5.2043600"/>
<trkpt lat="51.8169118" lon="5.2042309"/>
<trkpt lat="51.8167524" lon="5.2037539"/>
<trkpt lat="51.8166665" lon="5.2035614"/>
<trkpt lat="51.8165489" lon="5.2036338"/>
<trkpt lat="51.8164081" lon="5.2037236"/>
<trkpt lat="51.8162904" lon="5.2037471"/>
<trkpt lat="51.8159588" lon="5.2038003"/>
<trkpt lat="51.8158507" lon="5.2036641"/>
<trkpt lat="51.8156730" lon="5.2035483"/>
<trkpt lat="51.8154348" lon="5.2035277"/>
<trkpt lat="51.8152216" lon="5.2035532"/>
<trkpt lat="51.8149253" lon="5.2034163"/>
<trkpt lat="51.8145396" lon="5.2030926"/>
<trkpt lat="51.8142244" lon="5.2028363"/>
<trkpt lat="51.8139660" lon="5.2024475"/>
<trkpt lat="51.8138469" lon="5.2020595"/>
<trkpt lat="51.8136784" lon="5.2018055"/>
<trkpt lat="51.8133781" lon="5.2014750"/>
<trkpt lat="51.8131585" lon="5.2014550"/>
<trkpt lat="51.8130651" lon="5.2016136"/>
<trkpt lat="51.8128685" lon="5.2019453"/>
<trkpt lat="51.8127051" lon="5.2020833"/>
<trkpt lat="51.8125614" lon="5.2023565"/>
<trkpt lat="51.8123983" lon="5.2036334"/>
<trkpt lat="51.8122143" lon="5.2044802"/>
<trkpt lat="51.8121343" lon="5.2052460"/>
<trkpt lat="51.8120910" lon="5.2066735"/>
<trkpt lat="51.8120406" lon="5.2075513"/>
<trkpt lat="51.8120170" lon="5.2084751"/>
<trkpt lat="51.8120023" lon="5.2093673"/>
<trkpt lat="51.8119993" lon="5.2097471"/>
<trkpt lat="51.8120575" lon="5.2104375"/>
<trkpt lat="51.8120632" lon="5.2104928"/>
<trkpt lat="51.8119046" lon="5.2106057"/>
<trkpt lat="51.8118138" lon="5.2107499"/>
<trkpt lat="51.8117926" lon="5.2108593"/>
<trkpt lat="51.8118633" lon="5.2116101"/>
<trkpt lat="51.8119401" lon="5.2128616"/>
<trkpt lat="51.8119710" lon="5.2133046"/>
<trkpt lat="51.8120699" lon="5.2137905"/>
<trkpt lat="51.8121528" lon="5.2143744"/>
<trkpt lat="51.8122158" lon="5.2147626"/>
<trkpt lat="51.8123159" lon="5.2149061"/>
<trkpt lat="51.8124668" lon="5.2149313"/>
<trkpt lat="51.8124707" lon="5.2144666"/>
<trkpt lat="51.8124437" lon="5.2139829"/>
<trkpt lat="51.8127740" lon="5.2127829"/>
<trkpt lat="51.8130258" lon="5.2129954"/>
<trkpt lat="51.8133016" lon="5.2131489"/>
<trkpt lat="51.8135900" lon="5.2133610"/>
<trkpt lat="51.8136173" lon="5.2132695"/>
<trkpt lat="51.8137761" lon="5.2133092"/>
<trkpt lat="51.8138956" lon="5.2133231"/>
<trkpt lat="51.8146570" lon="5.2131878"/>
<trkpt lat="51.8158250" lon="5.2129789"/>
<trkpt lat="51.8174423" lon="5.2127022"/>
<trkpt lat="51.8174883" lon="5.2123940"/>
<trkpt lat="51.8177631" lon="5.2124736"/>
<trkpt lat="51.8179126" lon="5.2123003"/>
<trkpt lat="51.8180856" lon="5.2123083"/>
<trkpt lat="51.8181999" lon="5.2123539"/>
<trkpt lat="51.8185400" lon="5.2120158"/>
<trkpt lat="51.8185022" lon="5.2117829"/>
<trkpt lat="51.8184914" lon="5.2116707"/>
<trkpt lat="51.8187550" lon="5.2114653"/>
<trkpt lat="51.8190951" lon="5.2110466"/>
<trkpt lat="51.8193072" lon="5.2109539"/>
<trkpt lat="51.8199867" lon="5.2103227"/>
<trkpt lat="51.8204563" lon="5.2100261"/>
<trkpt lat="51.8204008" lon="5.2097829"/>
<trkpt lat="51.8206737" lon="5.2096538"/>
<trkpt lat="51.8207883" lon="5.2096789"/>
<trkpt lat="51.8216085" lon="5.2092354"/>
<trkpt lat="51.8221650" lon="5.2089281"/>
<trkpt lat="51.8230585" lon="5.2083630"/>
<trkpt lat="51.8237156" lon="5.2079935"/>
<trkpt lat="51.8244619" lon="5.2075976"/>
<trkpt lat="51.8248923" lon="5.2073274"/>
<trkpt lat="51.8253976" lon="5.2070569"/>
<trkpt lat="51.8258092" lon="5.2067482"/>
<trkpt lat="51.8260506" lon="5.2065448"/>
<trkpt lat="51.8263739" lon="5.2062029"/>
<trkpt lat="51.8266277" lon="5.2059304"/>
<trkpt lat="51.8267100" lon="5.2057425"/>
<trkpt lat="51.8267475" lon="5.2056658"/>
<trkpt lat="51.8268119" lon="5.2056236"/>
<trkpt lat="51.8270601" lon="5.2049887"/>
<trkpt lat="51.8272606" lon="5.2044866"/>
<trkpt lat="51.8273549" lon="5.2040263"/>
<trkpt lat="51.8273969" lon="5.2034101"/>
<trkpt lat="51.8275428" lon="5.2026979"/>
<trkpt lat="51.8276272" lon="5.2014578"/>
<trkpt lat="51.8276710" lon="5.2003866"/>
<trkpt lat="51.8275911" lon="5.1993679"/>
<trkpt lat="51.8272241" lon="5.1970207"/>
<trkpt lat="51.8271961" lon="5.1966641"/>
<trkpt lat="51.8272053" lon="5.1960132"/>
<trkpt lat="51.8272064" lon="5.1959343"/>
<trkpt lat="51.8271977" lon="5.1958415"/>
</trkseg></trk>
<trk><name>Crobschepad - Geimporteerde shapefile</name><type>mainRoute</type><trkseg>
<trkpt lat="51.8253717" lon="5.2000205"/>
<trkpt lat="51.8253692" lon="5.2000227"/>
</trkseg></trk>
<trk><name>Crobschepad - Geimporteerde shapefile</name><type>mainRoute</type><trkseg>
<trkpt lat="51.8253717" lon="5.2000205"/>
<trkpt lat="51.8253704" lon="5.2000229"/>
</trkseg></trk>
<trk><name>Crobschepad - Geimporteerde shapefile</name><type>mainRoute</type><trkseg>
<trkpt lat="51.8253722" lon="5.2000200"/>
<trkpt lat="51.8253717" lon="5.2000205"/>
</trkseg></trk>
<trk><name>Crobschepad - Geimporteerde shapefile</name><type>mainRoute</type><trkseg>
<trkpt lat="51.8271977" lon="5.1958415"/>
<trkpt lat="51.8270801" lon="5.1948884"/>
<trkpt lat="51.8270183" lon="5.1944364"/>
<trkpt lat="51.8267352" lon="5.1934789"/>
<trkpt lat="51.8266493" lon="5.1928511"/>
<trkpt lat="51.8265682" lon="5.1919905"/>
<trkpt lat="51.8264711" lon="5.1915474"/>
<trkpt lat="51.8261858" lon="5.1908475"/>
<trkpt lat="51.8260721" lon="5.1903830"/>
<trkpt lat="51.8259927" lon="5.1900845"/>
<trkpt lat="51.8258275" lon="5.1894637"/>
<trkpt lat="51.8256332" lon="5.1888166"/>
<trkpt lat="51.8255215" lon="5.1886588"/>
<trkpt lat="51.8254662" lon="5.1886504"/>
<trkpt lat="51.8253658" lon="5.1883544"/>
<trkpt lat="51.8253408" lon="5.1883516"/>
</trkseg></trk>
<trk><name>Crobschepad - Geimporteerde shapefile</name><type>mainRoute</type><trkseg>
<trkpt lat="51.8271981" lon="5.1958451"/>
<trkpt lat="51.8271977" lon="5.1958415"/>
</trkseg></trk>
<trk><name>Crobschepad - routeverkorter</name><type>shorteningRoute</type><trkseg>
<trkpt lat="51.8264611" lon="5.1979212"/>
<trkpt lat="51.8265536" lon="5.1976963"/>
<trkpt lat="51.8266315" lon="5.1972814"/>
<trkpt lat="51.8267266" lon="5.1958353"/>
<trkpt lat="51.8267363" lon="5.1945622"/>
<trkpt lat="51.8266221" lon="5.1933751"/>
<trkpt lat="51.8267254" lon="5.1935098"/>
</trkseg></trk>
<trk><name>Crobschepad - Geimporteerde shapefile</name><type>connectionRoute</type><trkseg>
<trkpt lat="51.8195886" lon="5.1702393"/>
<trkpt lat="51.8194948" lon="5.1696545"/>
<trkpt lat="51.8194618" lon="5.1669682"/>
<trkpt lat="51.8190646" lon="5.1646610"/>
<trkpt lat="51.8184787" lon="5.1615247"/>
<trkpt lat="51.8181568" lon="5.1595342"/>
<trkpt lat="51.8180987" lon="5.1585082"/>
<trkpt lat="51.8182926" lon="5.1572093"/>
<trkpt lat="51.8190892" lon="5.1532511"/>
<trkpt lat="51.8193836" lon="5.1508196"/>
<trkpt lat="51.8194476" lon="5.1500798"/>
<trkpt lat="51.8193623" lon="5.1495520"/>
<trkpt lat="51.8193608" lon="5.1493791"/>
<trkpt lat="51.8195548" lon="5.1487228"/>
<trkpt lat="51.8196768" lon="5.1478147"/>
<trkpt lat="51.8189989" lon="5.1467514"/>
<trkpt lat="51.8186765" lon="5.1463287"/>
<trkpt lat="51.8185583" lon="5.1456926"/>
<trkpt lat="51.8189479" lon="5.1432852"/>
<trkpt lat="51.8197912" lon="5.1412290"/>
<trkpt lat="51.8201250" lon="5.1400952"/>
<trkpt lat="51.8202097" lon="5.1387033"/>
<trkpt lat="51.8203285" lon="5.1380780"/>
<trkpt lat="51.8204226" lon="5.1372434"/>
</trkseg></trk>
</gpx>