<?xml version="1.0" encoding="UTF-8"?>
<gpx version="1.1" creator="klompenpaden.nl via Jimbo API" xmlns="http://www.topografix.com/GPX/1/1">
<metadata><name>Dashorsterpad</name><desc>Ontdek het mooie buitengebied van Woudenberg en Scherpenzeel. Wandelen door het agrarische gebied, over landgoederen en langs boerenerven en delen van de Grebbelinie. Rust, kleinschaligheid en de combinatie van cultuur en natuur bepalen hier de sfeer. Klompen aan, rugzak op en gaan!</desc><link href="https://www.klompenpaden.nl/klompenpaden/Dashorsterpad/e90e1946-898d-4edd-b964-5563f337927c"><text>klompenpaden.nl</text></link></metadata>
<wpt lat="52.08060712023812" lon="5.450393557548523"><name>Start Woudenberg</name></wpt>
<trk><name>Dashorsterpad - Hoofdroute</name><type>mainRoute</type><trkseg>
<trkpt lat="52.0803198" lon="5.4489301"/>
<trkpt lat="52.0802260" lon="5.4490495"/>
<trkpt lat="52.0803128" lon="5.4495824"/>
<trkpt lat="52.0804666" lon="5.4500718"/>
<trkpt lat="52.0805670" lon="5.4502785"/>
<trkpt lat="52.0806405" lon="5.4504961"/>
<trkpt lat="52.0807008" lon="5.4505614"/>
<trkpt lat="52.0807476" lon="5.4507789"/>
<trkpt lat="52.0807274" lon="5.4509855"/>
<trkpt lat="52.0807338" lon="5.4514639"/>
<trkpt lat="52.0807536" lon="5.4519423"/>
<trkpt lat="52.0812879" lon="5.4547372"/>
<trkpt lat="52.0815484" lon="5.4560858"/>
<trkpt lat="52.0816689" lon="5.4562491"/>
<trkpt lat="52.0816890" lon="5.4562709"/>
<trkpt lat="52.0824867" lon="5.4551522"/>
<trkpt lat="52.0832376" lon="5.4539900"/>
<trkpt lat="52.0833650" lon="5.4537836"/>
<trkpt lat="52.0838480" lon="5.4525665"/>
<trkpt lat="52.0842706" lon="5.4515016"/>
<trkpt lat="52.0844718" lon="5.4511648"/>
<trkpt lat="52.0847130" lon="5.4509368"/>
<trkpt lat="52.0851419" lon="5.4507200"/>
<trkpt lat="52.0854031" lon="5.4506660"/>
<trkpt lat="52.0858050" lon="5.4507970"/>
<trkpt lat="52.0865549" lon="5.4512656"/>
<trkpt lat="52.0872046" lon="5.4514297"/>
<trkpt lat="52.0879080" lon="5.4513981"/>
<trkpt lat="52.0883501" lon="5.4513661"/>
<trkpt lat="52.0886918" lon="5.4511926"/>
<trkpt lat="52.0890136" lon="5.4508233"/>
<trkpt lat="52.0893824" lon="5.4501170"/>
<trkpt lat="52.0895768" lon="5.4497367"/>
<trkpt lat="52.0898454" lon="5.4500235"/>
<trkpt lat="52.0898714" lon="5.4501068"/>
<trkpt lat="52.0913969" lon="5.4532953"/>
<trkpt lat="52.0925142" lon="5.4556569"/>
<trkpt lat="52.0937318" lon="5.4582036"/>
<trkpt lat="52.0949294" lon="5.4606090"/>
<trkpt lat="52.0962539" lon="5.4634281"/>
<trkpt lat="52.0972974" lon="5.4656160"/>
<trkpt lat="52.0967071" lon="5.4668114"/>
<trkpt lat="52.0975077" lon="5.4678060"/>
<trkpt lat="52.0981601" lon="5.4674958"/>
<trkpt lat="52.0983125" lon="5.4672382"/>
<trkpt lat="52.0994775" lon="5.4654761"/>
<trkpt lat="52.0996637" lon="5.4651526"/>
<trkpt lat="52.0998762" lon="5.4650503"/>
<trkpt lat="52.1002480" lon="5.4650174"/>
<trkpt lat="52.1007290" lon="5.4651141"/>
<trkpt lat="52.1010470" lon="5.4661257"/>
<trkpt lat="52.1021998" lon="5.4669952"/>
<trkpt lat="52.1032782" lon="5.4671385"/>
<trkpt lat="52.1038197" lon="5.4686298"/>
<trkpt lat="52.1044748" lon="5.4705781"/>
<trkpt lat="52.1046478" lon="5.4723081"/>
<trkpt lat="52.1051202" lon="5.4765406"/>
<trkpt lat="52.1053177" lon="5.4776196"/>
<trkpt lat="52.1063372" lon="5.4770002"/>
<trkpt lat="52.1075729" lon="5.4767207"/>
<trkpt lat="52.1076925" lon="5.4777117"/>
<trkpt lat="52.1076513" lon="5.4778185"/>
<trkpt lat="52.1077208" lon="5.4784141"/>
<trkpt lat="52.1075567" lon="5.4788953"/>
<trkpt lat="52.1075712" lon="5.4791443"/>
<trkpt lat="52.1083320" lon="5.4810727"/>
<trkpt lat="52.1085458" lon="5.4816932"/>
<trkpt lat="52.1086257" lon="5.4823788"/>
<trkpt lat="52.1071915" lon="5.4832678"/>
<trkpt lat="52.1059583" lon="5.4839831"/>
<trkpt lat="52.1054156" lon="5.4842321"/>
<trkpt lat="52.1034993" lon="5.4847718"/>
<trkpt lat="52.1015701" lon="5.4848764"/>
<trkpt lat="52.0995671" lon="5.4850025"/>
<trkpt lat="52.0988838" lon="5.4850445"/>
<trkpt lat="52.0990358" lon="5.4874921"/>
<trkpt lat="52.0990756" lon="5.4879599"/>
<trkpt lat="52.0989347" lon="5.4882642"/>
<trkpt lat="52.0988810" lon="5.4883619"/>
<trkpt lat="52.0987804" lon="5.4885140"/>
<trkpt lat="52.0986795" lon="5.4889597"/>
<trkpt lat="52.0983167" lon="5.4902640"/>
<trkpt lat="52.0962077" lon="5.4890302"/>
<trkpt lat="52.0960805" lon="5.4889646"/>
<trkpt lat="52.0956115" lon="5.4891158"/>
<trkpt lat="52.0953231" lon="5.4894958"/>
<trkpt lat="52.0946257" lon="5.4903969"/>
<trkpt lat="52.0938954" lon="5.4905366"/>
<trkpt lat="52.0937745" lon="5.4908843"/>
<trkpt lat="52.0936606" lon="5.4909711"/>
<trkpt lat="52.0927142" lon="5.4930895"/>
<trkpt lat="52.0914016" lon="5.4927384"/>
<trkpt lat="52.0915037" lon="5.4908682"/>
<trkpt lat="52.0916062" lon="5.4885412"/>
<trkpt lat="52.0917222" lon="5.4861055"/>
<trkpt lat="52.0901346" lon="5.4860911"/>
<trkpt lat="52.0902631" lon="5.4846342"/>
<trkpt lat="52.0903171" lon="5.4841123"/>
<trkpt lat="52.0903844" lon="5.4837645"/>
<trkpt lat="52.0910017" lon="5.4824826"/>
<trkpt lat="52.0913575" lon="5.4815372"/>
<trkpt lat="52.0916465" lon="5.4803742"/>
<trkpt lat="52.0917204" lon="5.4800699"/>
<trkpt lat="52.0906707" lon="5.4774904"/>
<trkpt lat="52.0904502" lon="5.4768266"/>
<trkpt lat="52.0903841" lon="5.4756955"/>
<trkpt lat="52.0903244" lon="5.4749233"/>
<trkpt lat="52.0901238" lon="5.4744335"/>
<trkpt lat="52.0892742" lon="5.4728877"/>
<trkpt lat="52.0892074" lon="5.4726592"/>
<trkpt lat="52.0894492" lon="5.4716701"/>
<trkpt lat="52.0899991" lon="5.4708230"/>
<trkpt lat="52.0907165" lon="5.4698782"/>
<trkpt lat="52.0907375" lon="5.4686059"/>
<trkpt lat="52.0904365" lon="5.4680181"/>
<trkpt lat="52.0898144" lon="5.4667556"/>
<trkpt lat="52.0893662" lon="5.4658848"/>
<trkpt lat="52.0883092" lon="5.4637190"/>
<trkpt lat="52.0873652" lon="5.4629888"/>
<trkpt lat="52.0871108" lon="5.4628036"/>
<trkpt lat="52.0870038" lon="5.4625207"/>
<trkpt lat="52.0855770" lon="5.4624856"/>
<trkpt lat="52.0854698" lon="5.4624637"/>
<trkpt lat="52.0854634" lon="5.4621157"/>
<trkpt lat="52.0854772" lon="5.4613764"/>
<trkpt lat="52.0854443" lon="5.4604629"/>
<trkpt lat="52.0854048" lon="5.4592994"/>
<trkpt lat="52.0855057" lon="5.4586798"/>
<trkpt lat="52.0857675" lon="5.4577342"/>
<trkpt lat="52.0858549" lon="5.4572994"/>
<trkpt lat="52.0859095" lon="5.4554728"/>
<trkpt lat="52.0858633" lon="5.4543745"/>
<trkpt lat="52.0858435" lon="5.4537764"/>
<trkpt lat="52.0858639" lon="5.4531893"/>
<trkpt lat="52.0852011" lon="5.4526337"/>
<trkpt lat="52.0847019" lon="5.4514825"/>
<trkpt lat="52.0844981" lon="5.4517696"/>
<trkpt lat="52.0841081" lon="5.4527462"/>
<trkpt lat="52.0838658" lon="5.4533302"/>
<trkpt lat="52.0836262" lon="5.4540123"/>
<trkpt lat="52.0833647" lon="5.4543816"/>
<trkpt lat="52.0831368" lon="5.4546857"/>
<trkpt lat="52.0825669" lon="5.4555220"/>
<trkpt lat="52.0816551" lon="5.4568253"/>
<trkpt lat="52.0815884" lon="5.4563794"/>
<trkpt lat="52.0814215" lon="5.4554768"/>
<trkpt lat="52.0811544" lon="5.4540738"/>
<trkpt lat="52.0809473" lon="5.4529754"/>
<trkpt lat="52.0807803" lon="5.4521054"/>
<trkpt lat="52.0807403" lon="5.4518444"/>
<trkpt lat="52.0807270" lon="5.4516161"/>
<trkpt lat="52.0807272" lon="5.4512899"/>
<trkpt lat="52.0807273" lon="5.4510942"/>
<trkpt lat="52.0807409" lon="5.4507028"/>
<trkpt lat="52.0806004" lon="5.4503330"/>
<trkpt lat="52.0805067" lon="5.4501697"/>
<trkpt lat="52.0804131" lon="5.4499087"/>
<trkpt lat="52.0802861" lon="5.4494084"/>
<trkpt lat="52.0802394" lon="5.4491039"/>
<trkpt lat="52.0803198" lon="5.4489301"/>
</trkseg></trk>
</gpx>