<?xml version="1.0" encoding="UTF-8"?>
<gpx version="1.1" creator="klompenpaden.nl via Jimbo API" xmlns="http://www.topografix.com/GPX/1/1">
<metadata><name>Doddendaelpad</name><desc>Ontdek het mooie buitengebied van Beuningen, Ewijk en Weurt. Ervaar de overgang van het kleinschalige landschap op de oeverwal naar de uiterwaarden langs de Waal.
Wandelen langs boomgaarden, weilanden, bossen en landgoed Doddendael. Cultuur en natuur bepalen hier de sfeer. Klompen aan, rugzak op en gaan!</desc><link href="https://www.klompenpaden.nl/klompenpaden/Doddendaelpad/2a0cf5a2-cf9e-45dd-b073-f706166e8cab"><text>klompenpaden.nl</text></link></metadata>
<wpt lat="51.86426887786404" lon="5.772918462753296"><name>Start Beuningen</name></wpt>
<trk><name>Doddendaelpad - hoofdroute</name><type>mainRoute</type><trkseg>
<trkpt lat="51.8641894" lon="5.7734496"/>
<trkpt lat="51.8642700" lon="5.7736111"/>
<trkpt lat="51.8643914" lon="5.7737393"/>
<trkpt lat="51.8648675" lon="5.7727419"/>
<trkpt lat="51.8649993" lon="5.7724242"/>
<trkpt lat="51.8651216" lon="5.7721294"/>
<trkpt lat="51.8652175" lon="5.7718959"/>
<trkpt lat="51.8652960" lon="5.7718812"/>
<trkpt lat="51.8659705" lon="5.7735081"/>
<trkpt lat="51.8675123" lon="5.7732755"/>
<trkpt lat="51.8678547" lon="5.7732584"/>
<trkpt lat="51.8691509" lon="5.7739380"/>
<trkpt lat="51.8698504" lon="5.7743024"/>
<trkpt lat="51.8706728" lon="5.7752844"/>
<trkpt lat="51.8713117" lon="5.7763389"/>
<trkpt lat="51.8721995" lon="5.7771618"/>
<trkpt lat="51.8717093" lon="5.7794420"/>
<trkpt lat="51.8730099" lon="5.7798664"/>
<trkpt lat="51.8728583" lon="5.7807487"/>
<trkpt lat="51.8723001" lon="5.7805614"/>
<trkpt lat="51.8720625" lon="5.7820296"/>
<trkpt lat="51.8713678" lon="5.7817690"/>
<trkpt lat="51.8711400" lon="5.7837380"/>
<trkpt lat="51.8705849" lon="5.7833555"/>
<trkpt lat="51.8681343" lon="5.7825855"/>
<trkpt lat="51.8676649" lon="5.7824331"/>
<trkpt lat="51.8677522" lon="5.7847388"/>
<trkpt lat="51.8676935" lon="5.7880037"/>
<trkpt lat="51.8676914" lon="5.7887294"/>
<trkpt lat="51.8676537" lon="5.7889104"/>
<trkpt lat="51.8676157" lon="5.7891636"/>
<trkpt lat="51.8676218" lon="5.7896031"/>
<trkpt lat="51.8676348" lon="5.7902007"/>
<trkpt lat="51.8675617" lon="5.7903687"/>
<trkpt lat="51.8674888" lon="5.7905417"/>
<trkpt lat="51.8674227" lon="5.7906855"/>
<trkpt lat="51.8673150" lon="5.7918401"/>
<trkpt lat="51.8672741" lon="5.7926787"/>
<trkpt lat="51.8672423" lon="5.7927937"/>
<trkpt lat="51.8671752" lon="5.7929344"/>
<trkpt lat="51.8670943" lon="5.7932241"/>
<trkpt lat="51.8670193" lon="5.7937336"/>
<trkpt lat="51.8669300" lon="5.7942445"/>
<trkpt lat="51.8668346" lon="5.7946047"/>
<trkpt lat="51.8667305" lon="5.7949848"/>
<trkpt lat="51.8665082" lon="5.7959977"/>
<trkpt lat="51.8664960" lon="5.7961180"/>
<trkpt lat="51.8669947" lon="5.7963415"/>
<trkpt lat="51.8668355" lon="5.7969739"/>
<trkpt lat="51.8664816" lon="5.7982153"/>
<trkpt lat="51.8661711" lon="5.7992727"/>
<trkpt lat="51.8660632" lon="5.7995252"/>
<trkpt lat="51.8659274" lon="5.7995931"/>
<trkpt lat="51.8658229" lon="5.7997264"/>
<trkpt lat="51.8657797" lon="5.7998412"/>
<trkpt lat="51.8656626" lon="5.7999551"/>
<trkpt lat="51.8655270" lon="5.8001076"/>
<trkpt lat="51.8654285" lon="5.8002990"/>
<trkpt lat="51.8651331" lon="5.8011144"/>
<trkpt lat="51.8648734" lon="5.8019072"/>
<trkpt lat="51.8646413" lon="5.8029998"/>
<trkpt lat="51.8645746" lon="5.8036907"/>
<trkpt lat="51.8645863" lon="5.8044053"/>
<trkpt lat="51.8646834" lon="5.8052128"/>
<trkpt lat="51.8648437" lon="5.8062630"/>
<trkpt lat="51.8649126" lon="5.8069551"/>
<trkpt lat="51.8648754" lon="5.8073811"/>
<trkpt lat="51.8647310" lon="5.8078407"/>
<trkpt lat="51.8645298" lon="5.8082422"/>
<trkpt lat="51.8637895" lon="5.8097795"/>
<trkpt lat="51.8630774" lon="5.8111179"/>
<trkpt lat="51.8630986" lon="5.8111832"/>
<trkpt lat="51.8632567" lon="5.8110997"/>
<trkpt lat="51.8636023" lon="5.8112202"/>
<trkpt lat="51.8644494" lon="5.8116366"/>
<trkpt lat="51.8655361" lon="5.8121237"/>
<trkpt lat="51.8656427" lon="5.8122285"/>
<trkpt lat="51.8662159" lon="5.8120235"/>
<trkpt lat="51.8663677" lon="5.8119413"/>
<trkpt lat="51.8666190" lon="5.8114371"/>
<trkpt lat="51.8670490" lon="5.8105661"/>
<trkpt lat="51.8673980" lon="5.8095721"/>
<trkpt lat="51.8673899" lon="5.8093438"/>
<trkpt lat="51.8672534" lon="5.8084861"/>
<trkpt lat="51.8672650" lon="5.8078001"/>
<trkpt lat="51.8673580" lon="5.8070621"/>
<trkpt lat="51.8667621" lon="5.8070558"/>
<trkpt lat="51.8663795" lon="5.8069715"/>
<trkpt lat="51.8660933" lon="5.8068662"/>
<trkpt lat="51.8661018" lon="5.8068226"/>
<trkpt lat="51.8660912" lon="5.8064541"/>
<trkpt lat="51.8661453" lon="5.8053021"/>
<trkpt lat="51.8663334" lon="5.8038902"/>
<trkpt lat="51.8665946" lon="5.8026711"/>
<trkpt lat="51.8667850" lon="5.8018749"/>
<trkpt lat="51.8668360" lon="5.8016645"/>
<trkpt lat="51.8668473" lon="5.8014172"/>
<trkpt lat="51.8669245" lon="5.8009465"/>
<trkpt lat="51.8669379" lon="5.8008295"/>
<trkpt lat="51.8669297" lon="5.8007035"/>
<trkpt lat="51.8669042" lon="5.8006237"/>
<trkpt lat="51.8678160" lon="5.7992061"/>
<trkpt lat="51.8678540" lon="5.7990081"/>
<trkpt lat="51.8677410" lon="5.7983211"/>
<trkpt lat="51.8680410" lon="5.7975261"/>
<trkpt lat="51.8688371" lon="5.7956886"/>
<trkpt lat="51.8692650" lon="5.7947011"/>
<trkpt lat="51.8697392" lon="5.7917721"/>
<trkpt lat="51.8695079" lon="5.7912867"/>
<trkpt lat="51.8697922" lon="5.7915407"/>
<trkpt lat="51.8698059" lon="5.7912331"/>
<trkpt lat="51.8700115" lon="5.7911206"/>
<trkpt lat="51.8702497" lon="5.7909979"/>
<trkpt lat="51.8706077" lon="5.7906314"/>
<trkpt lat="51.8707157" lon="5.7903538"/>
<trkpt lat="51.8707198" lon="5.7900177"/>
<trkpt lat="51.8706828" lon="5.7895275"/>
<trkpt lat="51.8706872" lon="5.7891290"/>
<trkpt lat="51.8708784" lon="5.7882241"/>
<trkpt lat="51.8710154" lon="5.7877874"/>
<trkpt lat="51.8712452" lon="5.7873515"/>
<trkpt lat="51.8714102" lon="5.7870878"/>
<trkpt lat="51.8715905" lon="5.7865016"/>
<trkpt lat="51.8718495" lon="5.7858815"/>
<trkpt lat="51.8719815" lon="5.7851857"/>
<trkpt lat="51.8720732" lon="5.7851343"/>
<trkpt lat="51.8721651" lon="5.7853772"/>
<trkpt lat="51.8722785" lon="5.7856087"/>
<trkpt lat="51.8728058" lon="5.7858093"/>
<trkpt lat="51.8735136" lon="5.7867001"/>
<trkpt lat="51.8737789" lon="5.7869771"/>
<trkpt lat="51.8741343" lon="5.7873491"/>
<trkpt lat="51.8750270" lon="5.7877913"/>
<trkpt lat="51.8750761" lon="5.7873575"/>
<trkpt lat="51.8752503" lon="5.7865330"/>
<trkpt lat="51.8753810" lon="5.7859141"/>
<trkpt lat="51.8754892" lon="5.7851135"/>
<trkpt lat="51.8754801" lon="5.7840349"/>
<trkpt lat="51.8756004" lon="5.7832222"/>
<trkpt lat="51.8757867" lon="5.7825802"/>
<trkpt lat="51.8757663" lon="5.7816859"/>
<trkpt lat="51.8757285" lon="5.7813694"/>
<trkpt lat="51.8758314" lon="5.7806671"/>
<trkpt lat="51.8760091" lon="5.7800693"/>
<trkpt lat="51.8760840" lon="5.7797395"/>
<trkpt lat="51.8761170" lon="5.7792223"/>
<trkpt lat="51.8761753" lon="5.7775994"/>
<trkpt lat="51.8761964" lon="5.7771435"/>
<trkpt lat="51.8762409" lon="5.7769948"/>
<trkpt lat="51.8766737" lon="5.7763069"/>
<trkpt lat="51.8767112" lon="5.7757501"/>
<trkpt lat="51.8769060" lon="5.7743724"/>
<trkpt lat="51.8770043" lon="5.7734050"/>
<trkpt lat="51.8770577" lon="5.7730750"/>
<trkpt lat="51.8771164" lon="5.7727614"/>
<trkpt lat="51.8772864" lon="5.7727032"/>
<trkpt lat="51.8774000" lon="5.7724832"/>
<trkpt lat="51.8775266" lon="5.7719656"/>
<trkpt lat="51.8775589" lon="5.7711685"/>
<trkpt lat="51.8773756" lon="5.7708692"/>
<trkpt lat="51.8774844" lon="5.7703322"/>
<trkpt lat="51.8774236" lon="5.7697381"/>
<trkpt lat="51.8775376" lon="5.7694221"/>
<trkpt lat="51.8775918" lon="5.7692112"/>
<trkpt lat="51.8776864" lon="5.7691245"/>
<trkpt lat="51.8777493" lon="5.7689665"/>
<trkpt lat="51.8779537" lon="5.7682862"/>
<trkpt lat="51.8780298" lon="5.7677810"/>
<trkpt lat="51.8781195" lon="5.7675719"/>
<trkpt lat="51.8781708" lon="5.7673322"/>
<trkpt lat="51.8782638" lon="5.7666202"/>
<trkpt lat="51.8782529" lon="5.7664603"/>
<trkpt lat="51.8782506" lon="5.7662912"/>
<trkpt lat="51.8782516" lon="5.7662820"/>
<trkpt lat="51.8782196" lon="5.7661833"/>
<trkpt lat="51.8780880" lon="5.7659763"/>
<trkpt lat="51.8780668" lon="5.7657717"/>
<trkpt lat="51.8780675" lon="5.7655169"/>
<trkpt lat="51.8782841" lon="5.7644732"/>
<trkpt lat="51.8785784" lon="5.7637825"/>
<trkpt lat="51.8786201" lon="5.7637185"/>
<trkpt lat="51.8786462" lon="5.7635310"/>
<trkpt lat="51.8786194" lon="5.7634293"/>
<trkpt lat="51.8786212" lon="5.7633141"/>
<trkpt lat="51.8786466" lon="5.7629523"/>
<trkpt lat="51.8786615" lon="5.7627634"/>
<trkpt lat="51.8787080" lon="5.7624894"/>
<trkpt lat="51.8787487" lon="5.7622500"/>
<trkpt lat="51.8788052" lon="5.7619923"/>
<trkpt lat="51.8788687" lon="5.7617282"/>
<trkpt lat="51.8788762" lon="5.7612479"/>
<trkpt lat="51.8787581" lon="5.7609876"/>
<trkpt lat="51.8787005" lon="5.7608133"/>
<trkpt lat="51.8786255" lon="5.7607771"/>
<trkpt lat="51.8783979" lon="5.7603850"/>
<trkpt lat="51.8782380" lon="5.7603367"/>
<trkpt lat="51.8779797" lon="5.7602586"/>
<trkpt lat="51.8778957" lon="5.7602282"/>
<trkpt lat="51.8777854" lon="5.7602181"/>
<trkpt lat="51.8777027" lon="5.7601974"/>
<trkpt lat="51.8775538" lon="5.7602003"/>
<trkpt lat="51.8777461" lon="5.7595290"/>
<trkpt lat="51.8777726" lon="5.7559831"/>
<trkpt lat="51.8777958" lon="5.7556505"/>
<trkpt lat="51.8778422" lon="5.7554520"/>
<trkpt lat="51.8781071" lon="5.7547707"/>
<trkpt lat="51.8781501" lon="5.7543309"/>
<trkpt lat="51.8780144" lon="5.7533009"/>
<trkpt lat="51.8780077" lon="5.7528439"/>
<trkpt lat="51.8780199" lon="5.7520877"/>
<trkpt lat="51.8780673" lon="5.7515628"/>
<trkpt lat="51.8783025" lon="5.7509566"/>
<trkpt lat="51.8783588" lon="5.7506723"/>
<trkpt lat="51.8784283" lon="5.7492025"/>
<trkpt lat="51.8783985" lon="5.7486607"/>
<trkpt lat="51.8783356" lon="5.7484300"/>
<trkpt lat="51.8780839" lon="5.7483227"/>
<trkpt lat="51.8779084" lon="5.7485963"/>
<trkpt lat="51.8778360" lon="5.7486661"/>
<trkpt lat="51.8777260" lon="5.7486731"/>
<trkpt lat="51.8770167" lon="5.7485653"/>
<trkpt lat="51.8768900" lon="5.7485461"/>
<trkpt lat="51.8763459" lon="5.7486703"/>
<trkpt lat="51.8759933" lon="5.7487509"/>
<trkpt lat="51.8748080" lon="5.7490055"/>
<trkpt lat="51.8746126" lon="5.7487445"/>
<trkpt lat="51.8740310" lon="5.7487687"/>
<trkpt lat="51.8739171" lon="5.7487044"/>
<trkpt lat="51.8736918" lon="5.7484443"/>
<trkpt lat="51.8725676" lon="5.7467399"/>
<trkpt lat="51.8718089" lon="5.7498285"/>
<trkpt lat="51.8719548" lon="5.7499622"/>
<trkpt lat="51.8719970" lon="5.7501585"/>
<trkpt lat="51.8719569" lon="5.7504232"/>
<trkpt lat="51.8717408" lon="5.7510900"/>
<trkpt lat="51.8716863" lon="5.7514180"/>
<trkpt lat="51.8716927" lon="5.7516486"/>
<trkpt lat="51.8717561" lon="5.7519257"/>
<trkpt lat="51.8719048" lon="5.7522612"/>
<trkpt lat="51.8720821" lon="5.7526257"/>
<trkpt lat="51.8725132" lon="5.7534870"/>
<trkpt lat="51.8727903" lon="5.7539350"/>
<trkpt lat="51.8732646" lon="5.7543538"/>
<trkpt lat="51.8738628" lon="5.7547122"/>
<trkpt lat="51.8742000" lon="5.7548501"/>
<trkpt lat="51.8746469" lon="5.7547352"/>
<trkpt lat="51.8757500" lon="5.7543701"/>
<trkpt lat="51.8759500" lon="5.7543701"/>
<trkpt lat="51.8769200" lon="5.7540401"/>
<trkpt lat="51.8770030" lon="5.7537081"/>
<trkpt lat="51.8773074" lon="5.7566116"/>
<trkpt lat="51.8773360" lon="5.7572531"/>
<trkpt lat="51.8772680" lon="5.7573931"/>
<trkpt lat="51.8771550" lon="5.7588181"/>
<trkpt lat="51.8772100" lon="5.7590261"/>
<trkpt lat="51.8773530" lon="5.7589181"/>
<trkpt lat="51.8774270" lon="5.7589381"/>
<trkpt lat="51.8774350" lon="5.7590041"/>
<trkpt lat="51.8775805" lon="5.7589550"/>
<trkpt lat="51.8775971" lon="5.7592876"/>
<trkpt lat="51.8774249" lon="5.7595397"/>
<trkpt lat="51.8773857" lon="5.7599811"/>
<trkpt lat="51.8768510" lon="5.7610531"/>
<trkpt lat="51.8767523" lon="5.7613945"/>
<trkpt lat="51.8763330" lon="5.7638341"/>
<trkpt lat="51.8762480" lon="5.7645840"/>
<trkpt lat="51.8761888" lon="5.7652313"/>
<trkpt lat="51.8761455" lon="5.7658211"/>
<trkpt lat="51.8761250" lon="5.7664296"/>
<trkpt lat="51.8761515" lon="5.7670569"/>
<trkpt lat="51.8758575" lon="5.7671074"/>
<trkpt lat="51.8758333" lon="5.7683775"/>
<trkpt lat="51.8757655" lon="5.7695435"/>
<trkpt lat="51.8741896" lon="5.7692175"/>
<trkpt lat="51.8740080" lon="5.7692837"/>
<trkpt lat="51.8739270" lon="5.7692731"/>
<trkpt lat="51.8738110" lon="5.7689981"/>
<trkpt lat="51.8737230" lon="5.7689246"/>
<trkpt lat="51.8734530" lon="5.7686991"/>
<trkpt lat="51.8732792" lon="5.7694406"/>
<trkpt lat="51.8730721" lon="5.7703074"/>
<trkpt lat="51.8729964" lon="5.7706124"/>
<trkpt lat="51.8728012" lon="5.7712811"/>
<trkpt lat="51.8724982" lon="5.7723043"/>
<trkpt lat="51.8718789" lon="5.7742977"/>
<trkpt lat="51.8726921" lon="5.7748110"/>
<trkpt lat="51.8727376" lon="5.7748436"/>
<trkpt lat="51.8727374" lon="5.7749059"/>
<trkpt lat="51.8722665" lon="5.7772239"/>
<trkpt lat="51.8721995" lon="5.7771618"/>
</trkseg></trk>
<trk><name>Doddendaelpad - routeverkorter</name><type>shorteningRoute</type><trkseg>
<trkpt lat="51.8695000" lon="5.7912800"/>
<trkpt lat="51.8694500" lon="5.7911600"/>
<trkpt lat="51.8693200" lon="5.7911400"/>
<trkpt lat="51.8692400" lon="5.7911500"/>
<trkpt lat="51.8691600" lon="5.7912000"/>
<trkpt lat="51.8689900" lon="5.7914100"/>
<trkpt lat="51.8688800" lon="5.7914900"/>
<trkpt lat="51.8685700" lon="5.7916200"/>
<trkpt lat="51.8686800" lon="5.7914200"/>
<trkpt lat="51.8686400" lon="5.7913700"/>
<trkpt lat="51.8683800" lon="5.7912300"/>
<trkpt lat="51.8676400" lon="5.7910100"/>
<trkpt lat="51.8676300" lon="5.7902000"/>
</trkseg></trk>
<trk><name>Doddendaelpad - alternatieve route</name><type>alternativeRoute</type><trkseg>
<trkpt lat="51.8719815" lon="5.7851857"/>
<trkpt lat="51.8721366" lon="5.7848293"/>
<trkpt lat="51.8722738" lon="5.7847057"/>
<trkpt lat="51.8723574" lon="5.7845912"/>
<trkpt lat="51.8731796" lon="5.7823316"/>
<trkpt lat="51.8732467" lon="5.7818231"/>
<trkpt lat="51.8733907" lon="5.7814210"/>
<trkpt lat="51.8739880" lon="5.7806098"/>
<trkpt lat="51.8741199" lon="5.7802844"/>
<trkpt lat="51.8747765" lon="5.7795025"/>
<trkpt lat="51.8749440" lon="5.7791965"/>
<trkpt lat="51.8750405" lon="5.7787747"/>
<trkpt lat="51.8751381" lon="5.7780552"/>
<trkpt lat="51.8751396" lon="5.7775845"/>
<trkpt lat="51.8751890" lon="5.7770470"/>
<trkpt lat="51.8758237" lon="5.7731407"/>
<trkpt lat="51.8761931" lon="5.7721526"/>
<trkpt lat="51.8762225" lon="5.7719146"/>
<trkpt lat="51.8762117" lon="5.7708387"/>
<trkpt lat="51.8762412" lon="5.7705392"/>
<trkpt lat="51.8763850" lon="5.7701947"/>
<trkpt lat="51.8764338" lon="5.7698416"/>
<trkpt lat="51.8763545" lon="5.7693645"/>
<trkpt lat="51.8763955" lon="5.7684503"/>
<trkpt lat="51.8763583" lon="5.7681887"/>
<trkpt lat="51.8761981" lon="5.7677109"/>
<trkpt lat="51.8761515" lon="5.7670569"/>
</trkseg></trk>
<trk><name>Doddendaelpad - verbindingsroute </name><type>connectionRoute</type><trkseg>
<trkpt lat="51.8796442" lon="5.7255786"/>
<trkpt lat="51.8795846" lon="5.7257308"/>
<trkpt lat="51.8795062" lon="5.7260441"/>
<trkpt lat="51.8794514" lon="5.7264766"/>
<trkpt lat="51.8794251" lon="5.7269681"/>
<trkpt lat="51.8794175" lon="5.7276051"/>
<trkpt lat="51.8794357" lon="5.7279176"/>
<trkpt lat="51.8795149" lon="5.7283387"/>
<trkpt lat="51.8796097" lon="5.7286301"/>
<trkpt lat="51.8797961" lon="5.7290521"/>
<trkpt lat="51.8798739" lon="5.7292630"/>
<trkpt lat="51.8799152" lon="5.7295354"/>
<trkpt lat="51.8799421" lon="5.7308190"/>
<trkpt lat="51.8799570" lon="5.7316201"/>
<trkpt lat="51.8799521" lon="5.7326312"/>
<trkpt lat="51.8799473" lon="5.7329590"/>
<trkpt lat="51.8799768" lon="5.7333427"/>
<trkpt lat="51.8800452" lon="5.7334978"/>
<trkpt lat="51.8802387" lon="5.7337730"/>
<trkpt lat="51.8804055" lon="5.7340047"/>
<trkpt lat="51.8804797" lon="5.7341413"/>
<trkpt lat="51.8805413" lon="5.7343505"/>
<trkpt lat="51.8806101" lon="5.7347082"/>
<trkpt lat="51.8806161" lon="5.7349371"/>
<trkpt lat="51.8805972" lon="5.7351751"/>
<trkpt lat="51.8805582" lon="5.7354098"/>
<trkpt lat="51.8803926" lon="5.7363950"/>
<trkpt lat="51.8803206" lon="5.7368027"/>
<trkpt lat="51.8802808" lon="5.7373188"/>
<trkpt lat="51.8802696" lon="5.7378506"/>
<trkpt lat="51.8802831" lon="5.7384569"/>
<trkpt lat="51.8803263" lon="5.7393911"/>
<trkpt lat="51.8803458" lon="5.7399046"/>
<trkpt lat="51.8803448" lon="5.7402231"/>
<trkpt lat="51.8803279" lon="5.7407549"/>
<trkpt lat="51.8802793" lon="5.7410205"/>
<trkpt lat="51.8802155" lon="5.7412272"/>
<trkpt lat="51.8801307" lon="5.7414090"/>
<trkpt lat="51.8800442" lon="5.7415552"/>
<trkpt lat="51.8799193" lon="5.7416933"/>
<trkpt lat="51.8797918" lon="5.7417789"/>
<trkpt lat="51.8796635" lon="5.7418181"/>
<trkpt lat="51.8795257" lon="5.7418139"/>
<trkpt lat="51.8794155" lon="5.7418579"/>
<trkpt lat="51.8793253" lon="5.7419422"/>
<trkpt lat="51.8792435" lon="5.7420947"/>
<trkpt lat="51.8792046" lon="5.7422923"/>
<trkpt lat="51.8791674" lon="5.7425579"/>
<trkpt lat="51.8791075" lon="5.7427677"/>
<trkpt lat="51.8790516" lon="5.7428972"/>
<trkpt lat="51.8789515" lon="5.7430634"/>
<trkpt lat="51.8788228" lon="5.7432324"/>
<trkpt lat="51.8786885" lon="5.7433489"/>
<trkpt lat="51.8785964" lon="5.7434223"/>
<trkpt lat="51.8784198" lon="5.7435817"/>
<trkpt lat="51.8783218" lon="5.7437139"/>
<trkpt lat="51.8782870" lon="5.7438497"/>
<trkpt lat="51.8782846" lon="5.7439796"/>
<trkpt lat="51.8782976" lon="5.7441405"/>
<trkpt lat="51.8783178" lon="5.7444066"/>
<trkpt lat="51.8783054" lon="5.7447003"/>
<trkpt lat="51.8782412" lon="5.7450554"/>
<trkpt lat="51.8781692" lon="5.7454259"/>
<trkpt lat="51.8780719" lon="5.7459570"/>
<trkpt lat="51.8780135" lon="5.7462843"/>
<trkpt lat="51.8779777" lon="5.7467355"/>
<trkpt lat="51.8779709" lon="5.7470570"/>
<trkpt lat="51.8779620" lon="5.7474744"/>
<trkpt lat="51.8779533" lon="5.7478207"/>
<trkpt lat="51.8779680" lon="5.7480311"/>
<trkpt lat="51.8780057" lon="5.7481922"/>
<trkpt lat="51.8780839" lon="5.7483227"/>
</trkseg></trk>
</gpx>