<?xml version="1.0" encoding="UTF-8"?>
<gpx version="1.1" creator="klompenpaden.nl via Jimbo API" xmlns="http://www.topografix.com/GPX/1/1">
<metadata><name>Doesburgermolenpad</name><desc>Ontdek het mooie buitengebied van de Doesburgerbuurt ten noorden van Ede. Wandelen over boerenland, langs een oude wildwal, over de eng en voormalige
heide en langs historische plekken van de Doesburgerbuurt. De afwisseling van cultuur en natuur bepaalt hier de sfeer. Klompen aan, rugzak op en gaan!</desc><link href="https://www.klompenpaden.nl/klompenpaden/Doesburgermolenpad/60964327-e925-421e-8796-41f75be6dfd6"><text>klompenpaden.nl</text></link></metadata>
<wpt lat="52.05348206665444" lon="5.65644029372024"><name>Start Ede</name></wpt>
<trk><name>Doesburgermolenpad - Geimporteerde shapefile</name><type>mainRoute</type><trkseg>
<trkpt lat="52.0534821" lon="5.6564404"/>
<trkpt lat="52.0533770" lon="5.6557979"/>
<trkpt lat="52.0526458" lon="5.6560897"/>
<trkpt lat="52.0523009" lon="5.6537917"/>
<trkpt lat="52.0521924" lon="5.6530712"/>
<trkpt lat="52.0525114" lon="5.6528401"/>
<trkpt lat="52.0527149" lon="5.6527892"/>
<trkpt lat="52.0530451" lon="5.6528150"/>
<trkpt lat="52.0535516" lon="5.6527428"/>
<trkpt lat="52.0536864" lon="5.6527784"/>
<trkpt lat="52.0540979" lon="5.6529023"/>
<trkpt lat="52.0545408" lon="5.6536285"/>
<trkpt lat="52.0548605" lon="5.6542530"/>
<trkpt lat="52.0553965" lon="5.6539223"/>
<trkpt lat="52.0559075" lon="5.6535716"/>
<trkpt lat="52.0562441" lon="5.6532474"/>
<trkpt lat="52.0570521" lon="5.6526843"/>
<trkpt lat="52.0584099" lon="5.6512109"/>
<trkpt lat="52.0593711" lon="5.6502043"/>
<trkpt lat="52.0595236" lon="5.6500570"/>
<trkpt lat="52.0600084" lon="5.6510475"/>
<trkpt lat="52.0603261" lon="5.6518889"/>
<trkpt lat="52.0615617" lon="5.6506616"/>
<trkpt lat="52.0615165" lon="5.6504391"/>
<trkpt lat="52.0616385" lon="5.6503411"/>
<trkpt lat="52.0616393" lon="5.6499954"/>
<trkpt lat="52.0616554" lon="5.6496004"/>
<trkpt lat="52.0618387" lon="5.6493052"/>
<trkpt lat="52.0617033" lon="5.6485883"/>
<trkpt lat="52.0619929" lon="5.6483924"/>
<trkpt lat="52.0619635" lon="5.6479231"/>
<trkpt lat="52.0619804" lon="5.6471577"/>
<trkpt lat="52.0622556" lon="5.6466161"/>
<trkpt lat="52.0631565" lon="5.6452632"/>
<trkpt lat="52.0646672" lon="5.6434939"/>
<trkpt lat="52.0665432" lon="5.6416526"/>
<trkpt lat="52.0675349" lon="5.6405469"/>
<trkpt lat="52.0683373" lon="5.6425024"/>
<trkpt lat="52.0684589" lon="5.6425525"/>
<trkpt lat="52.0689009" lon="5.6423081"/>
<trkpt lat="52.0696937" lon="5.6416458"/>
<trkpt lat="52.0697849" lon="5.6417204"/>
<trkpt lat="52.0696923" lon="5.6422879"/>
<trkpt lat="52.0697519" lon="5.6429057"/>
<trkpt lat="52.0703113" lon="5.6445883"/>
<trkpt lat="52.0713838" lon="5.6482744"/>
<trkpt lat="52.0725936" lon="5.6517640"/>
<trkpt lat="52.0721816" lon="5.6522308"/>
<trkpt lat="52.0693144" lon="5.6548316"/>
<trkpt lat="52.0686039" lon="5.6527282"/>
<trkpt lat="52.0678479" lon="5.6505011"/>
<trkpt lat="52.0666230" lon="5.6469378"/>
<trkpt lat="52.0665171" lon="5.6466408"/>
<trkpt lat="52.0652193" lon="5.6484854"/>
<trkpt lat="52.0646554" lon="5.6488525"/>
<trkpt lat="52.0644884" lon="5.6486293"/>
<trkpt lat="52.0641256" lon="5.6475159"/>
<trkpt lat="52.0638984" lon="5.6470454"/>
<trkpt lat="52.0637155" lon="5.6471431"/>
<trkpt lat="52.0639119" lon="5.6478110"/>
<trkpt lat="52.0641222" lon="5.6490469"/>
<trkpt lat="52.0642882" lon="5.6497146"/>
<trkpt lat="52.0645604" lon="5.6504817"/>
<trkpt lat="52.0648178" lon="5.6511006"/>
<trkpt lat="52.0652570" lon="5.6520663"/>
<trkpt lat="52.0654907" lon="5.6525959"/>
<trkpt lat="52.0652480" lon="5.6526681"/>
<trkpt lat="52.0650911" lon="5.6526028"/>
<trkpt lat="52.0648293" lon="5.6527552"/>
<trkpt lat="52.0646161" lon="5.6527786"/>
<trkpt lat="52.0644181" lon="5.6528762"/>
<trkpt lat="52.0642045" lon="5.6530972"/>
<trkpt lat="52.0638863" lon="5.6524779"/>
<trkpt lat="52.0636880" lon="5.6526743"/>
<trkpt lat="52.0634279" lon="5.6532407"/>
<trkpt lat="52.0632441" lon="5.6537582"/>
<trkpt lat="52.0631369" lon="5.6540786"/>
<trkpt lat="52.0629989" lon="5.6544975"/>
<trkpt lat="52.0628311" lon="5.6546694"/>
<trkpt lat="52.0614587" lon="5.6558464"/>
<trkpt lat="52.0615489" lon="5.6563161"/>
<trkpt lat="52.0617603" lon="5.6570334"/>
<trkpt lat="52.0619418" lon="5.6575284"/>
<trkpt lat="52.0622901" lon="5.6582960"/>
<trkpt lat="52.0624566" lon="5.6587168"/>
<trkpt lat="52.0623343" lon="5.6589382"/>
<trkpt lat="52.0621962" lon="5.6594313"/>
<trkpt lat="52.0620732" lon="5.6599491"/>
<trkpt lat="52.0620259" lon="5.6606649"/>
<trkpt lat="52.0619432" lon="5.6609816"/>
<trkpt lat="52.0617942" lon="5.6611447"/>
<trkpt lat="52.0611869" lon="5.6614746"/>
<trkpt lat="52.0611576" lon="5.6609805"/>
<trkpt lat="52.0611434" lon="5.6605607"/>
<trkpt lat="52.0607189" lon="5.6598667"/>
<trkpt lat="52.0605357" lon="5.6600878"/>
<trkpt lat="52.0595774" lon="5.6598598"/>
<trkpt lat="52.0591367" lon="5.6595608"/>
<trkpt lat="52.0587379" lon="5.6602431"/>
<trkpt lat="52.0582631" lon="5.6608990"/>
<trkpt lat="52.0572964" lon="5.6624324"/>
<trkpt lat="52.0567719" lon="5.6632644"/>
<trkpt lat="52.0573899" lon="5.6648827"/>
<trkpt lat="52.0556900" lon="5.6668908"/>
<trkpt lat="52.0554125" lon="5.6668287"/>
<trkpt lat="52.0544262" lon="5.6669982"/>
<trkpt lat="52.0538045" lon="5.6632434"/>
<trkpt lat="52.0536814" lon="5.6623667"/>
<trkpt lat="52.0558942" lon="5.6598373"/>
<trkpt lat="52.0559673" lon="5.6596922"/>
<trkpt lat="52.0559547" lon="5.6589514"/>
<trkpt lat="52.0559485" lon="5.6585811"/>
<trkpt lat="52.0559209" lon="5.6581643"/>
<trkpt lat="52.0556865" lon="5.6576884"/>
<trkpt lat="52.0551822" lon="5.6567248"/>
<trkpt lat="52.0548414" lon="5.6559936"/>
<trkpt lat="52.0546354" lon="5.6556105"/>
<trkpt lat="52.0534958" lon="5.6570823"/>
<trkpt lat="52.0533449" lon="5.6565383"/>
<trkpt lat="52.0534668" lon="5.6564650"/>
</trkseg></trk>
<trk><name>Doesburgermolenpad - Geimporteerde shapefile</name><type>shorteningRoute</type><trkseg>
<trkpt lat="52.0637054" lon="5.6471652"/>
<trkpt lat="52.0620133" lon="5.6483753"/>
</trkseg></trk>
<trk><name>Doesburgermolenpad - Geimporteerde shapefile</name><type>alternativeRoute</type><trkseg>
<trkpt lat="52.0541025" lon="5.6528966"/>
<trkpt lat="52.0537778" lon="5.6522331"/>
<trkpt lat="52.0549588" lon="5.6521727"/>
<trkpt lat="52.0554034" lon="5.6522752"/>
<trkpt lat="52.0556304" lon="5.6512614"/>
<trkpt lat="52.0559886" lon="5.6519366"/>
<trkpt lat="52.0560794" lon="5.6524976"/>
<trkpt lat="52.0563112" lon="5.6531854"/>
</trkseg></trk>
<trk><name>Doesburgermolenpad - Geimporteerde shapefile</name><type>connectionRoute</type><trkseg>
<trkpt lat="52.0522076" lon="5.6531334"/>
<trkpt lat="52.0520566" lon="5.6521662"/>
<trkpt lat="52.0540456" lon="5.6509891"/>
<trkpt lat="52.0546475" lon="5.6506717"/>
<trkpt lat="52.0547008" lon="5.6506226"/>
<trkpt lat="52.0545814" lon="5.6495973"/>
<trkpt lat="52.0545366" lon="5.6492144"/>
<trkpt lat="52.0544228" lon="5.6490533"/>
<trkpt lat="52.0543699" lon="5.6488801"/>
<trkpt lat="52.0544009" lon="5.6486458"/>
<trkpt lat="52.0543683" lon="5.6478957"/>
<trkpt lat="52.0543208" lon="5.6478337"/>
<trkpt lat="52.0542162" lon="5.6478176"/>
<trkpt lat="52.0541594" lon="5.6476939"/>
<trkpt lat="52.0541219" lon="5.6474622"/>
<trkpt lat="52.0540270" lon="5.6473691"/>
<trkpt lat="52.0539511" lon="5.6472606"/>
<trkpt lat="52.0539517" lon="5.6469829"/>
<trkpt lat="52.0538951" lon="5.6467820"/>
<trkpt lat="52.0538099" lon="5.6466117"/>
<trkpt lat="52.0537912" lon="5.6464573"/>
<trkpt lat="52.0536964" lon="5.6463025"/>
<trkpt lat="52.0536317" lon="5.6454380"/>
<trkpt lat="52.0535483" lon="5.6444500"/>
<trkpt lat="52.0535209" lon="5.6438944"/>
<trkpt lat="52.0537492" lon="5.6439266"/>
<trkpt lat="52.0541387" lon="5.6441602"/>
<trkpt lat="52.0540186" lon="5.6425240"/>
<trkpt lat="52.0547134" lon="5.6423428"/>
<trkpt lat="52.0549036" lon="5.6423593"/>
<trkpt lat="52.0557891" lon="5.6419631"/>
<trkpt lat="52.0570069" lon="5.6418775"/>
<trkpt lat="52.0583206" lon="5.6413911"/>
<trkpt lat="52.0581707" lon="5.6403255"/>
<trkpt lat="52.0579365" lon="5.6386422"/>
<trkpt lat="52.0577962" lon="5.6375303"/>
<trkpt lat="52.0576738" lon="5.6369278"/>
<trkpt lat="52.0575604" lon="5.6365723"/>
<trkpt lat="52.0575230" lon="5.6363097"/>
<trkpt lat="52.0577809" lon="5.6357710"/>
<trkpt lat="52.0587074" lon="5.6339707"/>
<trkpt lat="52.0595384" lon="5.6323240"/>
<trkpt lat="52.0601783" lon="5.6310930"/>
<trkpt lat="52.0606457" lon="5.6304937"/>
<trkpt lat="52.0612938" lon="5.6298644"/>
<trkpt lat="52.0625226" lon="5.6290686"/>
<trkpt lat="52.0633894" lon="5.6284868"/>
<trkpt lat="52.0647898" lon="5.6274757"/>
<trkpt lat="52.0646106" lon="5.6267340"/>
<trkpt lat="52.0641763" lon="5.6250957"/>
<trkpt lat="52.0629299" lon="5.6204899"/>
<trkpt lat="52.0626655" lon="5.6194854"/>
<trkpt lat="52.0631133" lon="5.6191173"/>
<trkpt lat="52.0644373" lon="5.6182291"/>
<trkpt lat="52.0651707" lon="5.6177390"/>
<trkpt lat="52.0657994" lon="5.6173100"/>
<trkpt lat="52.0670472" lon="5.6164367"/>
<trkpt lat="52.0684569" lon="5.6154870"/>
<trkpt lat="52.0689237" lon="5.6151498"/>
<trkpt lat="52.0691807" lon="5.6150276"/>
<trkpt lat="52.0688982" lon="5.6135444"/>
<trkpt lat="52.0685029" lon="5.6113660"/>
<trkpt lat="52.0682952" lon="5.6105006"/>
<trkpt lat="52.0680966" lon="5.6099131"/>
<trkpt lat="52.0676510" lon="5.6091083"/>
<trkpt lat="52.0670434" lon="5.6084724"/>
<trkpt lat="52.0665115" lon="5.6080531"/>
<trkpt lat="52.0659132" lon="5.6075253"/>
<trkpt lat="52.0651722" lon="5.6070278"/>
<trkpt lat="52.0646779" lon="5.6068247"/>
<trkpt lat="52.0641075" lon="5.6066676"/>
<trkpt lat="52.0640648" lon="5.6040283"/>
<trkpt lat="52.0640125" lon="5.6014043"/>
</trkseg></trk>
<trk><name>Doesburgermolenpad - Geimporteerde shapefile</name><type>connectionRoute</type><trkseg>
<trkpt lat="52.0702061" lon="5.6442230"/>
<trkpt lat="52.0715390" lon="5.6437290"/>
<trkpt lat="52.0720626" lon="5.6435390"/>
<trkpt lat="52.0735112" lon="5.6444350"/>
<trkpt lat="52.0741769" lon="5.6445546"/>
<trkpt lat="52.0744587" lon="5.6444661"/>
<trkpt lat="52.0749296" lon="5.6442158"/>
<trkpt lat="52.0753392" lon="5.6438775"/>
<trkpt lat="52.0761159" lon="5.6430393"/>
<trkpt lat="52.0766080" lon="5.6422969"/>
<trkpt lat="52.0771511" lon="5.6414833"/>
<trkpt lat="52.0779101" lon="5.6407632"/>
<trkpt lat="52.0789666" lon="5.6400277"/>
<trkpt lat="52.0799666" lon="5.6394930"/>
<trkpt lat="52.0810390" lon="5.6384569"/>
<trkpt lat="52.0818022" lon="5.6373804"/>
<trkpt lat="52.0842310" lon="5.6359272"/>
<trkpt lat="52.0859211" lon="5.6351259"/>
<trkpt lat="52.0867545" lon="5.6346287"/>
<trkpt lat="52.0876364" lon="5.6336685"/>
<trkpt lat="52.0889224" lon="5.6327876"/>
<trkpt lat="52.0902079" lon="5.6321384"/>
<trkpt lat="52.0909866" lon="5.6319408"/>
</trkseg></trk>
<trk><name>Doesburgermolenpad - Geimporteerde shapefile</name><type>connectionRoute</type><trkseg>
<trkpt lat="52.0490443" lon="5.7139722"/>
<trkpt lat="52.0491548" lon="5.7139265"/>
<trkpt lat="52.0490506" lon="5.7134165"/>
<trkpt lat="52.0489163" lon="5.7129874"/>
<trkpt lat="52.0488259" lon="5.7121304"/>
<trkpt lat="52.0488704" lon="5.7115175"/>
<trkpt lat="52.0491433" lon="5.7082679"/>
<trkpt lat="52.0499318" lon="5.6989006"/>
<trkpt lat="52.0501458" lon="5.6962059"/>
<trkpt lat="52.0501254" lon="5.6958355"/>
<trkpt lat="52.0507314" lon="5.6959785"/>
<trkpt lat="52.0526862" lon="5.6960152"/>
<trkpt lat="52.0567240" lon="5.6961009"/>
<trkpt lat="52.0587500" lon="5.6961380"/>
<trkpt lat="52.0586656" lon="5.6956861"/>
<trkpt lat="52.0585700" lon="5.6940304"/>
<trkpt lat="52.0577136" lon="5.6914089"/>
<trkpt lat="52.0572119" lon="5.6895421"/>
<trkpt lat="52.0570224" lon="5.6883025"/>
<trkpt lat="52.0569256" lon="5.6870866"/>
<trkpt lat="52.0565556" lon="5.6838899"/>
<trkpt lat="52.0562377" lon="5.6826495"/>
<trkpt lat="52.0556849" lon="5.6811761"/>
<trkpt lat="52.0554062" lon="5.6801774"/>
<trkpt lat="52.0547108" lon="5.6795793"/>
<trkpt lat="52.0547829" lon="5.6793553"/>
<trkpt lat="52.0548571" lon="5.6792822"/>
<trkpt lat="52.0550375" lon="5.6787105"/>
<trkpt lat="52.0550284" lon="5.6785402"/>
<trkpt lat="52.0551366" lon="5.6782118"/>
<trkpt lat="52.0556436" lon="5.6786059"/>
<trkpt lat="52.0559571" lon="5.6788920"/>
<trkpt lat="52.0562617" lon="5.6791999"/>
<trkpt lat="52.0564945" lon="5.6794563"/>
<trkpt lat="52.0566620" lon="5.6788893"/>
<trkpt lat="52.0565144" lon="5.6786699"/>
<trkpt lat="52.0562636" lon="5.6784206"/>
<trkpt lat="52.0562100" lon="5.6783038"/>
<trkpt lat="52.0559319" lon="5.6765253"/>
<trkpt lat="52.0557140" lon="5.6751814"/>
<trkpt lat="52.0556227" lon="5.6745791"/>
<trkpt lat="52.0555094" lon="5.6742543"/>
<trkpt lat="52.0555673" lon="5.6738959"/>
<trkpt lat="52.0552367" lon="5.6719495"/>
<trkpt lat="52.0545479" lon="5.6677413"/>
<trkpt lat="52.0539592" lon="5.6641851"/>
</trkseg></trk>
<trk><name>Doesburgermolenpad - Geimporteerde shapefile</name><type>approachRoute</type><trkseg>
<trkpt lat="52.0702360" lon="5.6442421"/>
<trkpt lat="52.0711804" lon="5.6438770"/>
<trkpt lat="52.0719877" lon="5.6436100"/>
<trkpt lat="52.0727478" lon="5.6440095"/>
<trkpt lat="52.0734622" lon="5.6444088"/>
<trkpt lat="52.0738576" lon="5.6445840"/>
<trkpt lat="52.0741924" lon="5.6445859"/>
<trkpt lat="52.0744970" lon="5.6444889"/>
<trkpt lat="52.0752835" lon="5.6467411"/>
<trkpt lat="52.0757376" lon="5.6478799"/>
<trkpt lat="52.0751122" lon="5.6484938"/>
</trkseg></trk>
</gpx>