<?xml version="1.0" encoding="UTF-8"?>
<gpx version="1.1" creator="klompenpaden.nl via Jimbo API" xmlns="http://www.topografix.com/GPX/1/1">
<metadata><name>Dorenweertsepad</name><desc>Ontdek het prachtige buitengebied van Doorwerth. Wandel door de uiterwaarden van de Neder-Rijn, over de stuwwal met haar oude landgoederen en hellingbossen en rondom het unieke kasteel Doorwerth. Klompen aan, rugzak op en gaan!</desc><link href="https://www.klompenpaden.nl/klompenpaden/Dorenweertsepad/6024e172-9138-409b-8f10-598cf8465d0d"><text>klompenpaden.nl</text></link></metadata>
<wpt lat="51.96630904233955" lon="5.787681341171265"><name>Start Doorwerth</name></wpt>
<trk><name>Dorenweertsepad - hoofdroute</name><type>mainRoute</type><trkseg>
<trkpt lat="51.9665094" lon="5.7872888"/>
<trkpt lat="51.9663750" lon="5.7876418"/>
<trkpt lat="51.9667860" lon="5.7879448"/>
<trkpt lat="51.9669950" lon="5.7882391"/>
<trkpt lat="51.9671860" lon="5.7882991"/>
<trkpt lat="51.9670262" lon="5.7893766"/>
<trkpt lat="51.9669913" lon="5.7896214"/>
<trkpt lat="51.9669751" lon="5.7899123"/>
<trkpt lat="51.9671418" lon="5.7905145"/>
<trkpt lat="51.9682966" lon="5.7908136"/>
<trkpt lat="51.9688671" lon="5.7907095"/>
<trkpt lat="51.9688667" lon="5.7910112"/>
<trkpt lat="51.9688878" lon="5.7910846"/>
<trkpt lat="51.9689450" lon="5.7910261"/>
<trkpt lat="51.9691503" lon="5.7911415"/>
<trkpt lat="51.9692908" lon="5.7908934"/>
<trkpt lat="51.9694574" lon="5.7908564"/>
<trkpt lat="51.9696802" lon="5.7907862"/>
<trkpt lat="51.9698194" lon="5.7905732"/>
<trkpt lat="51.9699197" lon="5.7904081"/>
<trkpt lat="51.9700090" lon="5.7898611"/>
<trkpt lat="51.9701337" lon="5.7895562"/>
<trkpt lat="51.9698160" lon="5.7894835"/>
<trkpt lat="51.9696146" lon="5.7892776"/>
<trkpt lat="51.9694823" lon="5.7890146"/>
<trkpt lat="51.9694026" lon="5.7886674"/>
<trkpt lat="51.9694016" lon="5.7882747"/>
<trkpt lat="51.9692227" lon="5.7868779"/>
<trkpt lat="51.9692119" lon="5.7861424"/>
<trkpt lat="51.9692636" lon="5.7858060"/>
<trkpt lat="51.9692738" lon="5.7854066"/>
<trkpt lat="51.9694321" lon="5.7852011"/>
<trkpt lat="51.9695018" lon="5.7847926"/>
<trkpt lat="51.9695126" lon="5.7842536"/>
<trkpt lat="51.9693684" lon="5.7838240"/>
<trkpt lat="51.9693223" lon="5.7833664"/>
<trkpt lat="51.9694276" lon="5.7834120"/>
<trkpt lat="51.9700733" lon="5.7837003"/>
<trkpt lat="51.9705302" lon="5.7839691"/>
<trkpt lat="51.9708891" lon="5.7842129"/>
<trkpt lat="51.9711060" lon="5.7842389"/>
<trkpt lat="51.9712757" lon="5.7841634"/>
<trkpt lat="51.9716794" lon="5.7835050"/>
<trkpt lat="51.9717684" lon="5.7831978"/>
<trkpt lat="51.9714272" lon="5.7828193"/>
<trkpt lat="51.9712954" lon="5.7827148"/>
<trkpt lat="51.9708020" lon="5.7821701"/>
<trkpt lat="51.9706811" lon="5.7824062"/>
<trkpt lat="51.9708020" lon="5.7821701"/>
<trkpt lat="51.9707700" lon="5.7820221"/>
<trkpt lat="51.9707880" lon="5.7817131"/>
<trkpt lat="51.9710460" lon="5.7816271"/>
<trkpt lat="51.9712905" lon="5.7815163"/>
<trkpt lat="51.9718092" lon="5.7810973"/>
<trkpt lat="51.9721405" lon="5.7806863"/>
<trkpt lat="51.9722020" lon="5.7804401"/>
<trkpt lat="51.9723110" lon="5.7804231"/>
<trkpt lat="51.9724080" lon="5.7802911"/>
<trkpt lat="51.9726090" lon="5.7797371"/>
<trkpt lat="51.9730531" lon="5.7789829"/>
<trkpt lat="51.9732450" lon="5.7788981"/>
<trkpt lat="51.9733070" lon="5.7786151"/>
<trkpt lat="51.9735730" lon="5.7781382"/>
<trkpt lat="51.9736625" lon="5.7780379"/>
<trkpt lat="51.9737695" lon="5.7780340"/>
<trkpt lat="51.9738345" lon="5.7781405"/>
<trkpt lat="51.9739050" lon="5.7784203"/>
<trkpt lat="51.9740453" lon="5.7791146"/>
<trkpt lat="51.9740776" lon="5.7792680"/>
<trkpt lat="51.9739391" lon="5.7803584"/>
<trkpt lat="51.9739826" lon="5.7810379"/>
<trkpt lat="51.9740325" lon="5.7817576"/>
<trkpt lat="51.9741719" lon="5.7818551"/>
<trkpt lat="51.9741977" lon="5.7821297"/>
<trkpt lat="51.9742428" lon="5.7823538"/>
<trkpt lat="51.9735296" lon="5.7855537"/>
<trkpt lat="51.9733664" lon="5.7853490"/>
<trkpt lat="51.9730354" lon="5.7850872"/>
<trkpt lat="51.9724600" lon="5.7847518"/>
<trkpt lat="51.9721824" lon="5.7859738"/>
<trkpt lat="51.9721296" lon="5.7861197"/>
<trkpt lat="51.9720933" lon="5.7862811"/>
<trkpt lat="51.9720922" lon="5.7864414"/>
<trkpt lat="51.9721851" lon="5.7865822"/>
<trkpt lat="51.9723155" lon="5.7866758"/>
<trkpt lat="51.9731888" lon="5.7870749"/>
<trkpt lat="51.9727912" lon="5.7889309"/>
<trkpt lat="51.9728223" lon="5.7891587"/>
<trkpt lat="51.9730589" lon="5.7897087"/>
<trkpt lat="51.9736871" lon="5.7907609"/>
<trkpt lat="51.9740269" lon="5.7915810"/>
<trkpt lat="51.9742337" lon="5.7919439"/>
<trkpt lat="51.9744794" lon="5.7922686"/>
<trkpt lat="51.9745039" lon="5.7928994"/>
<trkpt lat="51.9743085" lon="5.7934386"/>
<trkpt lat="51.9739908" lon="5.7945216"/>
<trkpt lat="51.9736099" lon="5.7943550"/>
<trkpt lat="51.9732431" lon="5.7943085"/>
<trkpt lat="51.9728730" lon="5.7943561"/>
<trkpt lat="51.9727320" lon="5.7945551"/>
<trkpt lat="51.9726440" lon="5.7946111"/>
<trkpt lat="51.9725436" lon="5.7945037"/>
<trkpt lat="51.9724861" lon="5.7944824"/>
<trkpt lat="51.9723216" lon="5.7944602"/>
<trkpt lat="51.9722185" lon="5.7948573"/>
<trkpt lat="51.9723487" lon="5.7956979"/>
<trkpt lat="51.9723641" lon="5.7960677"/>
<trkpt lat="51.9723113" lon="5.7962020"/>
<trkpt lat="51.9722304" lon="5.7961758"/>
<trkpt lat="51.9721090" lon="5.7960207"/>
<trkpt lat="51.9720151" lon="5.7956829"/>
<trkpt lat="51.9719643" lon="5.7954672"/>
<trkpt lat="51.9719474" lon="5.7953809"/>
<trkpt lat="51.9718030" lon="5.7951034"/>
<trkpt lat="51.9717900" lon="5.7949843"/>
<trkpt lat="51.9717923" lon="5.7948251"/>
<trkpt lat="51.9714938" lon="5.7945220"/>
<trkpt lat="51.9708295" lon="5.7942209"/>
<trkpt lat="51.9704535" lon="5.7941198"/>
<trkpt lat="51.9702283" lon="5.7940691"/>
<trkpt lat="51.9700548" lon="5.7938852"/>
<trkpt lat="51.9697568" lon="5.7934205"/>
<trkpt lat="51.9693165" lon="5.7932503"/>
<trkpt lat="51.9692855" lon="5.7932383"/>
<trkpt lat="51.9692412" lon="5.7932065"/>
<trkpt lat="51.9691179" lon="5.7937829"/>
<trkpt lat="51.9691348" lon="5.7942514"/>
<trkpt lat="51.9690906" lon="5.7950406"/>
<trkpt lat="51.9691334" lon="5.7954926"/>
<trkpt lat="51.9692893" lon="5.7957943"/>
<trkpt lat="51.9695167" lon="5.7960505"/>
<trkpt lat="51.9696158" lon="5.7962709"/>
<trkpt lat="51.9696580" lon="5.7964561"/>
<trkpt lat="51.9695935" lon="5.7965363"/>
<trkpt lat="51.9694080" lon="5.7965462"/>
<trkpt lat="51.9692796" lon="5.7965335"/>
<trkpt lat="51.9691864" lon="5.7966597"/>
<trkpt lat="51.9691783" lon="5.7969368"/>
<trkpt lat="51.9691847" lon="5.7971563"/>
<trkpt lat="51.9692497" lon="5.7976165"/>
<trkpt lat="51.9693310" lon="5.7981626"/>
<trkpt lat="51.9692145" lon="5.7988430"/>
<trkpt lat="51.9694196" lon="5.7993531"/>
<trkpt lat="51.9693690" lon="5.7995375"/>
<trkpt lat="51.9692110" lon="5.7998364"/>
<trkpt lat="51.9691815" lon="5.8001133"/>
<trkpt lat="51.9692659" lon="5.8004375"/>
<trkpt lat="51.9693497" lon="5.8009696"/>
<trkpt lat="51.9694790" lon="5.8013041"/>
<trkpt lat="51.9695646" lon="5.8016056"/>
<trkpt lat="51.9696264" lon="5.8016855"/>
<trkpt lat="51.9697497" lon="5.8019738"/>
<trkpt lat="51.9698668" lon="5.8022028"/>
<trkpt lat="51.9699082" lon="5.8023357"/>
<trkpt lat="51.9698828" lon="5.8025233"/>
<trkpt lat="51.9698078" lon="5.8027901"/>
<trkpt lat="51.9696045" lon="5.8032412"/>
<trkpt lat="51.9694885" lon="5.8036419"/>
<trkpt lat="51.9696131" lon="5.8040117"/>
<trkpt lat="51.9695797" lon="5.8043624"/>
<trkpt lat="51.9695880" lon="5.8046921"/>
<trkpt lat="51.9698289" lon="5.8049599"/>
<trkpt lat="51.9702080" lon="5.8050799"/>
<trkpt lat="51.9703330" lon="5.8050901"/>
<trkpt lat="51.9705716" lon="5.8050048"/>
<trkpt lat="51.9708148" lon="5.8047621"/>
<trkpt lat="51.9713753" lon="5.8044285"/>
<trkpt lat="51.9717045" lon="5.8043474"/>
<trkpt lat="51.9718946" lon="5.8044705"/>
<trkpt lat="51.9720029" lon="5.8045793"/>
<trkpt lat="51.9720678" lon="5.8046444"/>
<trkpt lat="51.9724993" lon="5.8050778"/>
<trkpt lat="51.9724643" lon="5.8061185"/>
<trkpt lat="51.9724341" lon="5.8070987"/>
<trkpt lat="51.9724748" lon="5.8078282"/>
<trkpt lat="51.9725531" lon="5.8078829"/>
<trkpt lat="51.9731454" lon="5.8076830"/>
<trkpt lat="51.9735064" lon="5.8073219"/>
<trkpt lat="51.9738564" lon="5.8083827"/>
<trkpt lat="51.9741402" lon="5.8088244"/>
<trkpt lat="51.9743922" lon="5.8089899"/>
<trkpt lat="51.9746278" lon="5.8089420"/>
<trkpt lat="51.9750110" lon="5.8086940"/>
<trkpt lat="51.9754527" lon="5.8088829"/>
<trkpt lat="51.9757343" lon="5.8090310"/>
<trkpt lat="51.9759703" lon="5.8090017"/>
<trkpt lat="51.9766075" lon="5.8091480"/>
<trkpt lat="51.9765919" lon="5.8095175"/>
<trkpt lat="51.9766299" lon="5.8096315"/>
<trkpt lat="51.9767494" lon="5.8094989"/>
<trkpt lat="51.9768981" lon="5.8094814"/>
<trkpt lat="51.9770226" lon="5.8095678"/>
<trkpt lat="51.9778624" lon="5.8093677"/>
<trkpt lat="51.9778510" lon="5.8098259"/>
<trkpt lat="51.9779372" lon="5.8106595"/>
<trkpt lat="51.9779235" lon="5.8111745"/>
<trkpt lat="51.9780695" lon="5.8118979"/>
<trkpt lat="51.9784274" lon="5.8127357"/>
<trkpt lat="51.9784398" lon="5.8130712"/>
<trkpt lat="51.9784274" lon="5.8132155"/>
<trkpt lat="51.9774097" lon="5.8122517"/>
<trkpt lat="51.9768676" lon="5.8122234"/>
<trkpt lat="51.9767714" lon="5.8122832"/>
<trkpt lat="51.9765353" lon="5.8133525"/>
<trkpt lat="51.9764949" lon="5.8137671"/>
<trkpt lat="51.9766285" lon="5.8149390"/>
<trkpt lat="51.9766172" lon="5.8154472"/>
<trkpt lat="51.9765638" lon="5.8157182"/>
<trkpt lat="51.9764169" lon="5.8159209"/>
<trkpt lat="51.9761943" lon="5.8160752"/>
<trkpt lat="51.9761347" lon="5.8162441"/>
<trkpt lat="51.9762270" lon="5.8165130"/>
<trkpt lat="51.9762060" lon="5.8168801"/>
<trkpt lat="51.9762245" lon="5.8171230"/>
<trkpt lat="51.9762734" lon="5.8177679"/>
<trkpt lat="51.9761218" lon="5.8182459"/>
<trkpt lat="51.9761636" lon="5.8185467"/>
<trkpt lat="51.9762852" lon="5.8193343"/>
<trkpt lat="51.9762255" lon="5.8194859"/>
<trkpt lat="51.9761392" lon="5.8195236"/>
<trkpt lat="51.9758804" lon="5.8195500"/>
<trkpt lat="51.9756630" lon="5.8196682"/>
<trkpt lat="51.9743641" lon="5.8207207"/>
<trkpt lat="51.9743219" lon="5.8204943"/>
<trkpt lat="51.9743101" lon="5.8204480"/>
<trkpt lat="51.9743581" lon="5.8202297"/>
<trkpt lat="51.9742920" lon="5.8200828"/>
<trkpt lat="51.9741636" lon="5.8200815"/>
<trkpt lat="51.9740860" lon="5.8198613"/>
<trkpt lat="51.9739739" lon="5.8192826"/>
<trkpt lat="51.9738972" lon="5.8187967"/>
<trkpt lat="51.9736976" lon="5.8183186"/>
<trkpt lat="51.9739296" lon="5.8178464"/>
<trkpt lat="51.9742230" lon="5.8171931"/>
<trkpt lat="51.9741985" lon="5.8168942"/>
<trkpt lat="51.9746209" lon="5.8159971"/>
<trkpt lat="51.9747646" lon="5.8157337"/>
<trkpt lat="51.9748280" lon="5.8155052"/>
<trkpt lat="51.9747607" lon="5.8153252"/>
<trkpt lat="51.9746951" lon="5.8151880"/>
<trkpt lat="51.9744168" lon="5.8149564"/>
<trkpt lat="51.9743622" lon="5.8145468"/>
<trkpt lat="51.9739335" lon="5.8146909"/>
<trkpt lat="51.9733816" lon="5.8134149"/>
<trkpt lat="51.9731456" lon="5.8126801"/>
<trkpt lat="51.9730044" lon="5.8126201"/>
<trkpt lat="51.9727945" lon="5.8122812"/>
<trkpt lat="51.9726382" lon="5.8119572"/>
<trkpt lat="51.9725416" lon="5.8118872"/>
<trkpt lat="51.9724393" lon="5.8120111"/>
<trkpt lat="51.9723300" lon="5.8119870"/>
<trkpt lat="51.9723008" lon="5.8118946"/>
<trkpt lat="51.9720515" lon="5.8122308"/>
<trkpt lat="51.9721467" lon="5.8124711"/>
<trkpt lat="51.9720384" lon="5.8130584"/>
<trkpt lat="51.9717718" lon="5.8128696"/>
<trkpt lat="51.9715679" lon="5.8125210"/>
<trkpt lat="51.9715075" lon="5.8122193"/>
<trkpt lat="51.9717504" lon="5.8118121"/>
<trkpt lat="51.9718345" lon="5.8112992"/>
<trkpt lat="51.9718446" lon="5.8111026"/>
<trkpt lat="51.9718565" lon="5.8108066"/>
<trkpt lat="51.9719128" lon="5.8102965"/>
<trkpt lat="51.9717290" lon="5.8098250"/>
<trkpt lat="51.9715072" lon="5.8093532"/>
<trkpt lat="51.9711087" lon="5.8090568"/>
<trkpt lat="51.9709763" lon="5.8088476"/>
<trkpt lat="51.9708845" lon="5.8085955"/>
<trkpt lat="51.9707601" lon="5.8084692"/>
<trkpt lat="51.9706837" lon="5.8081990"/>
<trkpt lat="51.9706522" lon="5.8078714"/>
<trkpt lat="51.9704892" lon="5.8074639"/>
<trkpt lat="51.9706969" lon="5.8075861"/>
<trkpt lat="51.9704886" lon="5.8071248"/>
<trkpt lat="51.9701104" lon="5.8067866"/>
<trkpt lat="51.9697560" lon="5.8064461"/>
<trkpt lat="51.9698615" lon="5.8062035"/>
<trkpt lat="51.9699613" lon="5.8061403"/>
<trkpt lat="51.9700226" lon="5.8060238"/>
<trkpt lat="51.9700499" lon="5.8058732"/>
<trkpt lat="51.9699380" lon="5.8057550"/>
<trkpt lat="51.9697804" lon="5.8056704"/>
<trkpt lat="51.9695459" lon="5.8058007"/>
<trkpt lat="51.9694211" lon="5.8054919"/>
<trkpt lat="51.9693585" lon="5.8054311"/>
<trkpt lat="51.9684743" lon="5.8061645"/>
<trkpt lat="51.9680032" lon="5.8062921"/>
<trkpt lat="51.9678097" lon="5.8063721"/>
<trkpt lat="51.9667260" lon="5.8033737"/>
<trkpt lat="51.9671463" lon="5.8015296"/>
<trkpt lat="51.9664824" lon="5.7992034"/>
<trkpt lat="51.9657197" lon="5.7969711"/>
<trkpt lat="51.9649708" lon="5.7952727"/>
<trkpt lat="51.9640871" lon="5.7930410"/>
<trkpt lat="51.9637186" lon="5.7921618"/>
<trkpt lat="51.9635656" lon="5.7916984"/>
<trkpt lat="51.9635982" lon="5.7915467"/>
<trkpt lat="51.9641868" lon="5.7909229"/>
<trkpt lat="51.9648025" lon="5.7902817"/>
<trkpt lat="51.9648488" lon="5.7902663"/>
<trkpt lat="51.9648081" lon="5.7895204"/>
<trkpt lat="51.9649122" lon="5.7891023"/>
<trkpt lat="51.9649612" lon="5.7863068"/>
<trkpt lat="51.9658283" lon="5.7863337"/>
<trkpt lat="51.9659446" lon="5.7862144"/>
<trkpt lat="51.9663900" lon="5.7863868"/>
<trkpt lat="51.9664614" lon="5.7863490"/>
<trkpt lat="51.9667874" lon="5.7866454"/>
<trkpt lat="51.9665094" lon="5.7872888"/>
</trkseg></trk>
<trk><name>Dorenweertsepad - routeverkorter</name><type>shorteningRoute</type><trkseg>
<trkpt lat="51.9703330" lon="5.8050901"/>
<trkpt lat="51.9701123" lon="5.8054939"/>
<trkpt lat="51.9697804" lon="5.8056704"/>
</trkseg></trk>
<trk><name>Dorenweertsepad - overstaproute</name><type>connectionRoute</type><trkseg>
<trkpt lat="51.9775045" lon="5.8320515"/>
<trkpt lat="51.9773108" lon="5.8310814"/>
<trkpt lat="51.9770784" lon="5.8299764"/>
<trkpt lat="51.9766358" lon="5.8278923"/>
<trkpt lat="51.9766026" lon="5.8278205"/>
<trkpt lat="51.9764808" lon="5.8278474"/>
<trkpt lat="51.9764089" lon="5.8278564"/>
<trkpt lat="51.9763314" lon="5.8278295"/>
<trkpt lat="51.9762429" lon="5.8277666"/>
<trkpt lat="51.9761599" lon="5.8276588"/>
<trkpt lat="51.9760049" lon="5.8273084"/>
<trkpt lat="51.9758666" lon="5.8269312"/>
<trkpt lat="51.9757947" lon="5.8265449"/>
<trkpt lat="51.9756951" lon="5.8261586"/>
<trkpt lat="51.9755955" lon="5.8257454"/>
<trkpt lat="51.9754128" lon="5.8251435"/>
<trkpt lat="51.9751030" lon="5.8241194"/>
<trkpt lat="51.9750476" lon="5.8238859"/>
<trkpt lat="51.9749978" lon="5.8237331"/>
<trkpt lat="51.9749369" lon="5.8236433"/>
<trkpt lat="51.9749097" lon="5.8233353"/>
<trkpt lat="51.9749037" lon="5.8230355"/>
<trkpt lat="51.9748861" lon="5.8227510"/>
<trkpt lat="51.9748951" lon="5.8226008"/>
<trkpt lat="51.9749338" lon="5.8224942"/>
<trkpt lat="51.9749753" lon="5.8224954"/>
<trkpt lat="51.9750031" lon="5.8225336"/>
<trkpt lat="51.9750747" lon="5.8225306"/>
<trkpt lat="51.9750805" lon="5.8224430"/>
<trkpt lat="51.9750751" lon="5.8223440"/>
<trkpt lat="51.9751180" lon="5.8222852"/>
<trkpt lat="51.9751690" lon="5.8222804"/>
<trkpt lat="51.9752817" lon="5.8223254"/>
<trkpt lat="51.9753064" lon="5.8223178"/>
<trkpt lat="51.9753543" lon="5.8221406"/>
<trkpt lat="51.9753854" lon="5.8219632"/>
<trkpt lat="51.9753670" lon="5.8219083"/>
<trkpt lat="51.9753099" lon="5.8218258"/>
<trkpt lat="51.9751502" lon="5.8217629"/>
<trkpt lat="51.9750721" lon="5.8217622"/>
<trkpt lat="51.9750172" lon="5.8216586"/>
<trkpt lat="51.9749555" lon="5.8215792"/>
<trkpt lat="51.9748811" lon="5.8214833"/>
<trkpt lat="51.9748355" lon="5.8214776"/>
<trkpt lat="51.9747925" lon="5.8216652"/>
<trkpt lat="51.9747611" lon="5.8216853"/>
<trkpt lat="51.9746744" lon="5.8215990"/>
<trkpt lat="51.9746524" lon="5.8215154"/>
<trkpt lat="51.9746375" lon="5.8213280"/>
<trkpt lat="51.9744688" lon="5.8209913"/>
<trkpt lat="51.9743641" lon="5.8207207"/>
<trkpt lat="51.9743101" lon="5.8204480"/>
<trkpt lat="51.9743581" lon="5.8202297"/>
<trkpt lat="51.9743287" lon="5.8201644"/>
</trkseg></trk>
<trk><name>Dorenweertsepad - overstaproute</name><type>connectionRoute</type><trkseg>
<trkpt lat="51.9710226" lon="5.7579203"/>
<trkpt lat="51.9736384" lon="5.7579903"/>
<trkpt lat="51.9748404" lon="5.7577018"/>
<trkpt lat="51.9748061" lon="5.7595036"/>
<trkpt lat="51.9754267" lon="5.7595319"/>
<trkpt lat="51.9758229" lon="5.7594601"/>
<trkpt lat="51.9761556" lon="5.7591740"/>
<trkpt lat="51.9762293" lon="5.7593490"/>
<trkpt lat="51.9760983" lon="5.7601450"/>
<trkpt lat="51.9761260" lon="5.7603994"/>
<trkpt lat="51.9764401" lon="5.7603558"/>
<trkpt lat="51.9766262" lon="5.7600551"/>
<trkpt lat="51.9766889" lon="5.7599786"/>
<trkpt lat="51.9770245" lon="5.7600680"/>
<trkpt lat="51.9773579" lon="5.7599264"/>
<trkpt lat="51.9774560" lon="5.7599416"/>
<trkpt lat="51.9776455" lon="5.7592549"/>
<trkpt lat="51.9776785" lon="5.7592733"/>
<trkpt lat="51.9779646" lon="5.7590389"/>
<trkpt lat="51.9782517" lon="5.7584867"/>
<trkpt lat="51.9784886" lon="5.7580265"/>
<trkpt lat="51.9785757" lon="5.7575420"/>
<trkpt lat="51.9786199" lon="5.7574679"/>
<trkpt lat="51.9786290" lon="5.7574871"/>
<trkpt lat="51.9787722" lon="5.7577868"/>
<trkpt lat="51.9789782" lon="5.7581005"/>
<trkpt lat="51.9792877" lon="5.7585696"/>
<trkpt lat="51.9792732" lon="5.7587051"/>
<trkpt lat="51.9796343" lon="5.7592280"/>
<trkpt lat="51.9798133" lon="5.7593663"/>
<trkpt lat="51.9803325" lon="5.7602688"/>
<trkpt lat="51.9806193" lon="5.7602919"/>
<trkpt lat="51.9810875" lon="5.7600128"/>
<trkpt lat="51.9814957" lon="5.7600316"/>
<trkpt lat="51.9816119" lon="5.7602030"/>
<trkpt lat="51.9819510" lon="5.7610482"/>
<trkpt lat="51.9819007" lon="5.7616395"/>
<trkpt lat="51.9820025" lon="5.7616992"/>
<trkpt lat="51.9826795" lon="5.7619359"/>
<trkpt lat="51.9829429" lon="5.7620950"/>
</trkseg></trk>
<trk><name>Dorenweertsepad - aanlooproute</name><type>approachRoute</type><trkseg>
<trkpt lat="51.9698338" lon="5.7343319"/>
<trkpt lat="51.9699130" lon="5.7346252"/>
<trkpt lat="51.9698229" lon="5.7347939"/>
<trkpt lat="51.9698236" lon="5.7349441"/>
<trkpt lat="51.9702683" lon="5.7367071"/>
<trkpt lat="51.9704178" lon="5.7374630"/>
<trkpt lat="51.9705235" lon="5.7379066"/>
<trkpt lat="51.9706247" lon="5.7386601"/>
<trkpt lat="51.9707182" lon="5.7389592"/>
<trkpt lat="51.9707712" lon="5.7389924"/>
<trkpt lat="51.9709226" lon="5.7392516"/>
<trkpt lat="51.9709920" lon="5.7394947"/>
<trkpt lat="51.9710304" lon="5.7397838"/>
<trkpt lat="51.9711512" lon="5.7403488"/>
<trkpt lat="51.9712375" lon="5.7408924"/>
<trkpt lat="51.9713047" lon="5.7414840"/>
<trkpt lat="51.9713450" lon="5.7423294"/>
<trkpt lat="51.9713537" lon="5.7429841"/>
<trkpt lat="51.9713851" lon="5.7435927"/>
<trkpt lat="51.9713688" lon="5.7446630"/>
<trkpt lat="51.9713299" lon="5.7451016"/>
<trkpt lat="51.9712724" lon="5.7458539"/>
<trkpt lat="51.9712557" lon="5.7462677"/>
<trkpt lat="51.9712233" lon="5.7466234"/>
<trkpt lat="51.9712060" lon="5.7469720"/>
<trkpt lat="51.9712784" lon="5.7470303"/>
<trkpt lat="51.9713426" lon="5.7470327"/>
<trkpt lat="51.9715070" lon="5.7469089"/>
<trkpt lat="51.9716214" lon="5.7468501"/>
<trkpt lat="51.9717582" lon="5.7468301"/>
<trkpt lat="51.9719886" lon="5.7468993"/>
<trkpt lat="51.9721369" lon="5.7470237"/>
<trkpt lat="51.9722655" lon="5.7471241"/>
<trkpt lat="51.9724477" lon="5.7472495"/>
<trkpt lat="51.9728031" lon="5.7474518"/>
<trkpt lat="51.9730932" lon="5.7476975"/>
<trkpt lat="51.9730409" lon="5.7478580"/>
<trkpt lat="51.9730154" lon="5.7480080"/>
<trkpt lat="51.9729900" lon="5.7481695"/>
<trkpt lat="51.9729394" lon="5.7482142"/>
<trkpt lat="51.9728435" lon="5.7482319"/>
<trkpt lat="51.9728057" lon="5.7484018"/>
<trkpt lat="51.9726355" lon="5.7488259"/>
<trkpt lat="51.9725272" lon="5.7490206"/>
<trkpt lat="51.9724734" lon="5.7491126"/>
<trkpt lat="51.9723354" lon="5.7489968"/>
<trkpt lat="51.9722133" lon="5.7488687"/>
<trkpt lat="51.9721329" lon="5.7487140"/>
<trkpt lat="51.9720053" lon="5.7484396"/>
<trkpt lat="51.9719083" lon="5.7482868"/>
<trkpt lat="51.9718157" lon="5.7482205"/>
<trkpt lat="51.9717087" lon="5.7482235"/>
<trkpt lat="51.9716239" lon="5.7483538"/>
<trkpt lat="51.9715711" lon="5.7484958"/>
<trkpt lat="51.9714019" lon="5.7490066"/>
<trkpt lat="51.9713169" lon="5.7492042"/>
<trkpt lat="51.9714213" lon="5.7496671"/>
<trkpt lat="51.9710226" lon="5.7579203"/>
<trkpt lat="51.9709940" lon="5.7579373"/>
<trkpt lat="51.9709165" lon="5.7587799"/>
<trkpt lat="51.9706779" lon="5.7612692"/>
<trkpt lat="51.9705623" lon="5.7616866"/>
<trkpt lat="51.9702537" lon="5.7652546"/>
<trkpt lat="51.9701412" lon="5.7669747"/>
<trkpt lat="51.9700941" lon="5.7671823"/>
<trkpt lat="51.9699725" lon="5.7672736"/>
<trkpt lat="51.9688145" lon="5.7679626"/>
<trkpt lat="51.9685322" lon="5.7681219"/>
<trkpt lat="51.9684746" lon="5.7682832"/>
<trkpt lat="51.9684757" lon="5.7690282"/>
<trkpt lat="51.9685395" lon="5.7691789"/>
<trkpt lat="51.9687213" lon="5.7691920"/>
<trkpt lat="51.9697748" lon="5.7688371"/>
<trkpt lat="51.9699388" lon="5.7688674"/>
<trkpt lat="51.9699726" lon="5.7689751"/>
<trkpt lat="51.9701092" lon="5.7691403"/>
<trkpt lat="51.9702158" lon="5.7692509"/>
<trkpt lat="51.9703711" lon="5.7693568"/>
<trkpt lat="51.9704778" lon="5.7694540"/>
<trkpt lat="51.9706319" lon="5.7696286"/>
<trkpt lat="51.9707485" lon="5.7699947"/>
<trkpt lat="51.9708926" lon="5.7706544"/>
<trkpt lat="51.9710909" lon="5.7710571"/>
<trkpt lat="51.9711779" lon="5.7715773"/>
<trkpt lat="51.9713093" lon="5.7719459"/>
<trkpt lat="51.9714892" lon="5.7725828"/>
<trkpt lat="51.9716612" lon="5.7734275"/>
<trkpt lat="51.9718999" lon="5.7745584"/>
<trkpt lat="51.9718915" lon="5.7749889"/>
<trkpt lat="51.9719407" lon="5.7751973"/>
<trkpt lat="51.9721079" lon="5.7753431"/>
<trkpt lat="51.9723642" lon="5.7754955"/>
<trkpt lat="51.9729242" lon="5.7758476"/>
<trkpt lat="51.9732588" lon="5.7757574"/>
<trkpt lat="51.9731364" lon="5.7760682"/>
<trkpt lat="51.9730644" lon="5.7762813"/>
<trkpt lat="51.9727596" lon="5.7767696"/>
<trkpt lat="51.9722928" lon="5.7776724"/>
<trkpt lat="51.9716496" lon="5.7790818"/>
<trkpt lat="51.9716277" lon="5.7792203"/>
<trkpt lat="51.9716309" lon="5.7793300"/>
<trkpt lat="51.9723399" lon="5.7801417"/>
<trkpt lat="51.9723139" lon="5.7804686"/>
</trkseg></trk>
</gpx>