<?xml version="1.0" encoding="UTF-8"?>
<gpx version="1.1" creator="klompenpaden.nl via Jimbo API" xmlns="http://www.topografix.com/GPX/1/1">
<metadata><name>Eekterpad</name><desc>Ontdek het mooie agrarisch cultuurlandschap met een eeuwenoud landgoed rondom plattelandsdorp Oosterwolde, gelegen op een oeroude dekzandrug. Wandelend over hoge zandgronden, langs een voormalige zeepolder en laag gelegen broekland met fraaie uitzichten. Klompen aan, rugzak op en gaan!</desc><link href="https://www.klompenpaden.nl/klompenpaden/Eekterpad/0b4b8836-a7b1-4036-aa67-6d1eb2542828"><text>klompenpaden.nl</text></link></metadata>
<wpt lat="52.465285601595255" lon="5.89647173890068"><name>Start Oosterwolde</name></wpt>
<trk><name>Eekterpad - mainRoute</name><type>mainRoute</type><trkseg>
<trkpt lat="52.4659100" lon="5.8949100"/>
<trkpt lat="52.4660000" lon="5.8948400"/>
<trkpt lat="52.4660300" lon="5.8946700"/>
<trkpt lat="52.4665200" lon="5.8946900"/>
<trkpt lat="52.4675600" lon="5.8945600"/>
<trkpt lat="52.4675700" lon="5.8945200"/>
<trkpt lat="52.4677000" lon="5.8916500"/>
<trkpt lat="52.4676600" lon="5.8916000"/>
<trkpt lat="52.4662400" lon="5.8909500"/>
<trkpt lat="52.4662200" lon="5.8911000"/>
<trkpt lat="52.4661200" lon="5.8910100"/>
<trkpt lat="52.4661000" lon="5.8909300"/>
<trkpt lat="52.4661600" lon="5.8900800"/>
<trkpt lat="52.4650700" lon="5.8894900"/>
<trkpt lat="52.4650900" lon="5.8893500"/>
<trkpt lat="52.4640900" lon="5.8888100"/>
<trkpt lat="52.4637800" lon="5.8884000"/>
<trkpt lat="52.4625000" lon="5.8875200"/>
<trkpt lat="52.4631100" lon="5.8827100"/>
<trkpt lat="52.4631700" lon="5.8826600"/>
<trkpt lat="52.4636400" lon="5.8827900"/>
<trkpt lat="52.4637600" lon="5.8826600"/>
<trkpt lat="52.4638500" lon="5.8827000"/>
<trkpt lat="52.4640400" lon="5.8807700"/>
<trkpt lat="52.4634100" lon="5.8805500"/>
<trkpt lat="52.4634300" lon="5.8802900"/>
<trkpt lat="52.4622300" lon="5.8799100"/>
<trkpt lat="52.4633500" lon="5.8731500"/>
<trkpt lat="52.4632000" lon="5.8731600"/>
<trkpt lat="52.4623200" lon="5.8734400"/>
<trkpt lat="52.4615500" lon="5.8735900"/>
<trkpt lat="52.4615800" lon="5.8734200"/>
<trkpt lat="52.4630900" lon="5.8668300"/>
<trkpt lat="52.4631700" lon="5.8668300"/>
<trkpt lat="52.4634400" lon="5.8652000"/>
<trkpt lat="52.4623800" lon="5.8639800"/>
<trkpt lat="52.4624000" lon="5.8639100"/>
<trkpt lat="52.4623200" lon="5.8638100"/>
<trkpt lat="52.4624300" lon="5.8634000"/>
<trkpt lat="52.4614400" lon="5.8623200"/>
<trkpt lat="52.4616000" lon="5.8619700"/>
<trkpt lat="52.4616100" lon="5.8618800"/>
<trkpt lat="52.4615900" lon="5.8617500"/>
<trkpt lat="52.4613200" lon="5.8611600"/>
<trkpt lat="52.4611800" lon="5.8607600"/>
<trkpt lat="52.4610000" lon="5.8601300"/>
<trkpt lat="52.4608900" lon="5.8598600"/>
<trkpt lat="52.4606500" lon="5.8595200"/>
<trkpt lat="52.4604400" lon="5.8593000"/>
<trkpt lat="52.4602900" lon="5.8591400"/>
<trkpt lat="52.4602000" lon="5.8591300"/>
<trkpt lat="52.4601400" lon="5.8591800"/>
<trkpt lat="52.4597000" lon="5.8600300"/>
<trkpt lat="52.4595000" lon="5.8604700"/>
<trkpt lat="52.4595000" lon="5.8605700"/>
<trkpt lat="52.4594100" lon="5.8609000"/>
<trkpt lat="52.4588900" lon="5.8622600"/>
<trkpt lat="52.4587800" lon="5.8626300"/>
<trkpt lat="52.4587300" lon="5.8631200"/>
<trkpt lat="52.4587000" lon="5.8632900"/>
<trkpt lat="52.4585900" lon="5.8635700"/>
<trkpt lat="52.4581200" lon="5.8646200"/>
<trkpt lat="52.4572800" lon="5.8662500"/>
<trkpt lat="52.4568800" lon="5.8671800"/>
<trkpt lat="52.4566000" lon="5.8677500"/>
<trkpt lat="52.4564800" lon="5.8679700"/>
<trkpt lat="52.4560800" lon="5.8684100"/>
<trkpt lat="52.4558100" lon="5.8690000"/>
<trkpt lat="52.4558000" lon="5.8690800"/>
<trkpt lat="52.4559100" lon="5.8693200"/>
<trkpt lat="52.4558300" lon="5.8695200"/>
<trkpt lat="52.4555600" lon="5.8704600"/>
<trkpt lat="52.4554600" lon="5.8706600"/>
<trkpt lat="52.4551100" lon="5.8706500"/>
<trkpt lat="52.4550000" lon="5.8707100"/>
<trkpt lat="52.4549600" lon="5.8708500"/>
<trkpt lat="52.4548900" lon="5.8719100"/>
<trkpt lat="52.4548400" lon="5.8720200"/>
<trkpt lat="52.4547300" lon="5.8721200"/>
<trkpt lat="52.4544600" lon="5.8723000"/>
<trkpt lat="52.4543000" lon="5.8724700"/>
<trkpt lat="52.4542300" lon="5.8726200"/>
<trkpt lat="52.4542000" lon="5.8728400"/>
<trkpt lat="52.4544600" lon="5.8740900"/>
<trkpt lat="52.4544600" lon="5.8742100"/>
<trkpt lat="52.4544400" lon="5.8742900"/>
<trkpt lat="52.4543200" lon="5.8744200"/>
<trkpt lat="52.4545500" lon="5.8759200"/>
<trkpt lat="52.4551100" lon="5.8777900"/>
<trkpt lat="52.4569700" lon="5.8766400"/>
<trkpt lat="52.4571500" lon="5.8765600"/>
<trkpt lat="52.4573100" lon="5.8764600"/>
<trkpt lat="52.4573900" lon="5.8765500"/>
<trkpt lat="52.4576200" lon="5.8774100"/>
<trkpt lat="52.4577800" lon="5.8778700"/>
<trkpt lat="52.4584100" lon="5.8789500"/>
<trkpt lat="52.4586900" lon="5.8793300"/>
<trkpt lat="52.4589100" lon="5.8798300"/>
<trkpt lat="52.4594000" lon="5.8806600"/>
<trkpt lat="52.4599900" lon="5.8821000"/>
<trkpt lat="52.4600100" lon="5.8821400"/>
<trkpt lat="52.4600800" lon="5.8821700"/>
<trkpt lat="52.4601200" lon="5.8820800"/>
<trkpt lat="52.4602400" lon="5.8821200"/>
<trkpt lat="52.4606600" lon="5.8830500"/>
<trkpt lat="52.4603200" lon="5.8832800"/>
<trkpt lat="52.4601400" lon="5.8834900"/>
<trkpt lat="52.4596900" lon="5.8842000"/>
<trkpt lat="52.4595600" lon="5.8843300"/>
<trkpt lat="52.4591700" lon="5.8846000"/>
<trkpt lat="52.4590300" lon="5.8846700"/>
<trkpt lat="52.4574600" lon="5.8857700"/>
<trkpt lat="52.4571000" lon="5.8860800"/>
<trkpt lat="52.4566900" lon="5.8863700"/>
<trkpt lat="52.4566700" lon="5.8865500"/>
<trkpt lat="52.4567600" lon="5.8868200"/>
<trkpt lat="52.4573800" lon="5.8884600"/>
<trkpt lat="52.4576100" lon="5.8892400"/>
<trkpt lat="52.4577200" lon="5.8894900"/>
<trkpt lat="52.4579800" lon="5.8899500"/>
<trkpt lat="52.4586200" lon="5.8908200"/>
<trkpt lat="52.4588500" lon="5.8910900"/>
<trkpt lat="52.4589800" lon="5.8911500"/>
<trkpt lat="52.4594500" lon="5.8910900"/>
<trkpt lat="52.4595600" lon="5.8911600"/>
<trkpt lat="52.4597800" lon="5.8914800"/>
<trkpt lat="52.4600500" lon="5.8919900"/>
<trkpt lat="52.4603600" lon="5.8926000"/>
<trkpt lat="52.4607400" lon="5.8935200"/>
<trkpt lat="52.4611800" lon="5.8944100"/>
<trkpt lat="52.4613700" lon="5.8947600"/>
<trkpt lat="52.4614800" lon="5.8950500"/>
<trkpt lat="52.4620500" lon="5.8961900"/>
<trkpt lat="52.4620600" lon="5.8963500"/>
<trkpt lat="52.4619000" lon="5.8965500"/>
<trkpt lat="52.4626300" lon="5.8980800"/>
<trkpt lat="52.4630500" lon="5.8975700"/>
<trkpt lat="52.4632800" lon="5.8972500"/>
<trkpt lat="52.4634700" lon="5.8969000"/>
<trkpt lat="52.4638400" lon="5.8964800"/>
<trkpt lat="52.4639200" lon="5.8964600"/>
<trkpt lat="52.4640500" lon="5.8967800"/>
<trkpt lat="52.4656000" lon="5.8950500"/>
<trkpt lat="52.4657600" lon="5.8949000"/>
<trkpt lat="52.4659100" lon="5.8949100"/>
</trkseg></trk>
<trk><name>Eekterpad - Geimporteerde shapefile</name><type>mainRoute</type><trkseg>
<trkpt lat="52.4659150" lon="5.8949160"/>
<trkpt lat="52.4659151" lon="5.8949160"/>
</trkseg></trk>
<trk><name>Eekterpad - Geimporteerde shapefile</name><type>mainRoute</type><trkseg>
<trkpt lat="52.4659151" lon="5.8949160"/>
<trkpt lat="52.4659153" lon="5.8949160"/>
</trkseg></trk>
<trk><name>Eekterpad - Geimporteerde shapefile</name><type>mainRoute</type><trkseg>
<trkpt lat="52.4659151" lon="5.8949160"/>
<trkpt lat="52.4660023" lon="5.8948493"/>
<trkpt lat="52.4660319" lon="5.8946760"/>
<trkpt lat="52.4662675" lon="5.8946951"/>
<trkpt lat="52.4665281" lon="5.8946953"/>
<trkpt lat="52.4675604" lon="5.8945615"/>
<trkpt lat="52.4675751" lon="5.8945204"/>
<trkpt lat="52.4677062" lon="5.8916509"/>
<trkpt lat="52.4676648" lon="5.8916017"/>
<trkpt lat="52.4667540" lon="5.8911825"/>
<trkpt lat="52.4662408" lon="5.8909528"/>
<trkpt lat="52.4662223" lon="5.8911035"/>
<trkpt lat="52.4661245" lon="5.8910196"/>
<trkpt lat="52.4661071" lon="5.8909318"/>
<trkpt lat="52.4661642" lon="5.8900808"/>
<trkpt lat="52.4652004" lon="5.8895588"/>
<trkpt lat="52.4650728" lon="5.8894941"/>
<trkpt lat="52.4650912" lon="5.8893580"/>
<trkpt lat="52.4648213" lon="5.8892187"/>
<trkpt lat="52.4640948" lon="5.8888114"/>
<trkpt lat="52.4637844" lon="5.8884039"/>
<trkpt lat="52.4629397" lon="5.8878298"/>
<trkpt lat="52.4625515" lon="5.8875529"/>
<trkpt lat="52.4625061" lon="5.8875237"/>
<trkpt lat="52.4631125" lon="5.8827188"/>
<trkpt lat="52.4631793" lon="5.8826631"/>
<trkpt lat="52.4636424" lon="5.8827967"/>
<trkpt lat="52.4637642" lon="5.8826657"/>
<trkpt lat="52.4638505" lon="5.8827056"/>
<trkpt lat="52.4640429" lon="5.8807709"/>
<trkpt lat="52.4634107" lon="5.8805546"/>
<trkpt lat="52.4634385" lon="5.8802921"/>
<trkpt lat="52.4629131" lon="5.8801208"/>
<trkpt lat="52.4622333" lon="5.8799137"/>
<trkpt lat="52.4628523" lon="5.8761490"/>
<trkpt lat="52.4633580" lon="5.8731520"/>
<trkpt lat="52.4632093" lon="5.8731698"/>
<trkpt lat="52.4626289" lon="5.8733581"/>
<trkpt lat="52.4623254" lon="5.8734423"/>
<trkpt lat="52.4619565" lon="5.8735113"/>
<trkpt lat="52.4616323" lon="5.8735807"/>
<trkpt lat="52.4615579" lon="5.8735994"/>
<trkpt lat="52.4615823" lon="5.8734293"/>
<trkpt lat="52.4625506" lon="5.8692499"/>
<trkpt lat="52.4630954" lon="5.8668372"/>
<trkpt lat="52.4631757" lon="5.8668332"/>
<trkpt lat="52.4634469" lon="5.8652010"/>
<trkpt lat="52.4623876" lon="5.8639876"/>
<trkpt lat="52.4624081" lon="5.8639201"/>
<trkpt lat="52.4623272" lon="5.8638141"/>
<trkpt lat="52.4624330" lon="5.8634041"/>
<trkpt lat="52.4620750" lon="5.8630078"/>
<trkpt lat="52.4614500" lon="5.8623284"/>
<trkpt lat="52.4616026" lon="5.8619726"/>
<trkpt lat="52.4616158" lon="5.8618817"/>
<trkpt lat="52.4615992" lon="5.8617530"/>
<trkpt lat="52.4615482" lon="5.8616614"/>
<trkpt lat="52.4613246" lon="5.8611683"/>
<trkpt lat="52.4611835" lon="5.8607697"/>
<trkpt lat="52.4610006" lon="5.8601332"/>
<trkpt lat="52.4608970" lon="5.8598635"/>
<trkpt lat="52.4606558" lon="5.8595261"/>
<trkpt lat="52.4604451" lon="5.8593019"/>
<trkpt lat="52.4602983" lon="5.8591485"/>
<trkpt lat="52.4602056" lon="5.8591320"/>
<trkpt lat="52.4601459" lon="5.8591859"/>
<trkpt lat="52.4599015" lon="5.8596621"/>
<trkpt lat="52.4597026" lon="5.8600337"/>
<trkpt lat="52.4595995" lon="5.8602506"/>
<trkpt lat="52.4595059" lon="5.8604753"/>
<trkpt lat="52.4595078" lon="5.8605766"/>
<trkpt lat="52.4594162" lon="5.8609026"/>
<trkpt lat="52.4592888" lon="5.8612477"/>
<trkpt lat="52.4588995" lon="5.8622635"/>
<trkpt lat="52.4587886" lon="5.8626360"/>
<trkpt lat="52.4587641" lon="5.8628109"/>
<trkpt lat="52.4587391" lon="5.8631259"/>
<trkpt lat="52.4587027" lon="5.8632968"/>
<trkpt lat="52.4585993" lon="5.8635721"/>
<trkpt lat="52.4581290" lon="5.8646298"/>
<trkpt lat="52.4578893" lon="5.8651060"/>
<trkpt lat="52.4575227" lon="5.8657949"/>
<trkpt lat="52.4572830" lon="5.8662556"/>
<trkpt lat="52.4571222" lon="5.8666353"/>
<trkpt lat="52.4568822" lon="5.8671816"/>
<trkpt lat="52.4566064" lon="5.8677508"/>
<trkpt lat="52.4564866" lon="5.8679753"/>
<trkpt lat="52.4562334" lon="5.8682567"/>
<trkpt lat="52.4560877" lon="5.8684186"/>
<trkpt lat="52.4559702" lon="5.8686586"/>
<trkpt lat="52.4558862" lon="5.8688290"/>
<trkpt lat="52.4558142" lon="5.8690034"/>
<trkpt lat="52.4558091" lon="5.8690812"/>
<trkpt lat="52.4559199" lon="5.8693276"/>
<trkpt lat="52.4558359" lon="5.8695252"/>
<trkpt lat="52.4555633" lon="5.8704681"/>
<trkpt lat="52.4554626" lon="5.8706616"/>
<trkpt lat="52.4553295" lon="5.8706602"/>
<trkpt lat="52.4551155" lon="5.8706579"/>
<trkpt lat="52.4550059" lon="5.8707111"/>
<trkpt lat="52.4549696" lon="5.8708548"/>
<trkpt lat="52.4548916" lon="5.8719166"/>
<trkpt lat="52.4548483" lon="5.8720290"/>
<trkpt lat="52.4547385" lon="5.8721212"/>
<trkpt lat="52.4544643" lon="5.8723011"/>
<trkpt lat="52.4543067" lon="5.8724785"/>
<trkpt lat="52.4542324" lon="5.8726217"/>
<trkpt lat="52.4542005" lon="5.8728432"/>
<trkpt lat="52.4544689" lon="5.8740956"/>
<trkpt lat="52.4544684" lon="5.8742124"/>
<trkpt lat="52.4544443" lon="5.8742938"/>
<trkpt lat="52.4543270" lon="5.8744282"/>
<trkpt lat="52.4545586" lon="5.8759294"/>
<trkpt lat="52.4550637" lon="5.8776239"/>
<trkpt lat="52.4551200" lon="5.8777997"/>
<trkpt lat="52.4561750" lon="5.8771341"/>
<trkpt lat="52.4569724" lon="5.8766466"/>
<trkpt lat="52.4571547" lon="5.8765610"/>
<trkpt lat="52.4573156" lon="5.8764635"/>
<trkpt lat="52.4573937" lon="5.8765578"/>
<trkpt lat="52.4576256" lon="5.8774187"/>
<trkpt lat="52.4577878" lon="5.8778701"/>
<trkpt lat="52.4580321" lon="5.8782991"/>
<trkpt lat="52.4584111" lon="5.8789515"/>
<trkpt lat="52.4584517" lon="5.8790119"/>
<trkpt lat="52.4584957" lon="5.8790809"/>
<trkpt lat="52.4585600" lon="5.8791719"/>
<trkpt lat="52.4585849" lon="5.8792283"/>
<trkpt lat="52.4586851" lon="5.8793913"/>
<trkpt lat="52.4587012" lon="5.8794086"/>
<trkpt lat="52.4587276" lon="5.8794634"/>
<trkpt lat="52.4587697" lon="5.8795293"/>
<trkpt lat="52.4589175" lon="5.8798330"/>
<trkpt lat="52.4594098" lon="5.8806677"/>
<trkpt lat="52.4595829" lon="5.8810842"/>
<trkpt lat="52.4599924" lon="5.8821048"/>
<trkpt lat="52.4600172" lon="5.8821460"/>
<trkpt lat="52.4600820" lon="5.8821766"/>
<trkpt lat="52.4601299" lon="5.8820847"/>
<trkpt lat="52.4602486" lon="5.8821249"/>
<trkpt lat="52.4606678" lon="5.8830542"/>
<trkpt lat="52.4603221" lon="5.8832839"/>
<trkpt lat="52.4601428" lon="5.8834960"/>
<trkpt lat="52.4600351" lon="5.8836700"/>
<trkpt lat="52.4596982" lon="5.8842095"/>
<trkpt lat="52.4595657" lon="5.8843307"/>
<trkpt lat="52.4591794" lon="5.8846008"/>
<trkpt lat="52.4590328" lon="5.8846750"/>
<trkpt lat="52.4580276" lon="5.8853703"/>
<trkpt lat="52.4574694" lon="5.8857727"/>
<trkpt lat="52.4571043" lon="5.8860897"/>
<trkpt lat="52.4568145" lon="5.8862967"/>
<trkpt lat="52.4567000" lon="5.8863771"/>
<trkpt lat="52.4566743" lon="5.8865578"/>
<trkpt lat="52.4567623" lon="5.8868274"/>
<trkpt lat="52.4571187" lon="5.8877540"/>
<trkpt lat="52.4573832" lon="5.8884635"/>
<trkpt lat="52.4576153" lon="5.8892486"/>
<trkpt lat="52.4577284" lon="5.8894951"/>
<trkpt lat="52.4579832" lon="5.8899535"/>
<trkpt lat="52.4586287" lon="5.8908250"/>
<trkpt lat="52.4588559" lon="5.8910904"/>
<trkpt lat="52.4589840" lon="5.8911561"/>
<trkpt lat="52.4594551" lon="5.8910972"/>
<trkpt lat="52.4595618" lon="5.8911685"/>
<trkpt lat="52.4597816" lon="5.8914805"/>
<trkpt lat="52.4600541" lon="5.8919916"/>
<trkpt lat="52.4603654" lon="5.8926025"/>
<trkpt lat="52.4607467" lon="5.8935237"/>
<trkpt lat="52.4611816" lon="5.8944162"/>
<trkpt lat="52.4613799" lon="5.8947689"/>
<trkpt lat="52.4614810" lon="5.8950550"/>
<trkpt lat="52.4620587" lon="5.8961907"/>
<trkpt lat="52.4620610" lon="5.8963513"/>
<trkpt lat="52.4619085" lon="5.8965539"/>
<trkpt lat="52.4626302" lon="5.8980854"/>
<trkpt lat="52.4630515" lon="5.8975745"/>
<trkpt lat="52.4632877" lon="5.8972511"/>
<trkpt lat="52.4634705" lon="5.8969077"/>
<trkpt lat="52.4638439" lon="5.8964838"/>
<trkpt lat="52.4639242" lon="5.8964652"/>
<trkpt lat="52.4640566" lon="5.8967879"/>
<trkpt lat="52.4650203" lon="5.8957249"/>
<trkpt lat="52.4652872" lon="5.8964635"/>
<trkpt lat="52.4650203" lon="5.8957100"/>
<trkpt lat="52.4654635" lon="5.8951981"/>
<trkpt lat="52.4656008" lon="5.8950537"/>
<trkpt lat="52.4657679" lon="5.8949047"/>
<trkpt lat="52.4658422" lon="5.8949105"/>
<trkpt lat="52.4659151" lon="5.8949160"/>
</trkseg></trk>
<trk><name>Eekterpad - overstaproute</name><type>connectionRoute</type><trkseg>
<trkpt lat="52.4571500" lon="5.8878500"/>
<trkpt lat="52.4536300" lon="5.8920600"/>
<trkpt lat="52.4487500" lon="5.8979300"/>
<trkpt lat="52.4486100" lon="5.8979500"/>
<trkpt lat="52.4485100" lon="5.8978700"/>
<trkpt lat="52.4481500" lon="5.8983100"/>
<trkpt lat="52.4480000" lon="5.8979600"/>
<trkpt lat="52.4475700" lon="5.8984300"/>
<trkpt lat="52.4476900" lon="5.8988100"/>
<trkpt lat="52.4478000" lon="5.8990500"/>
<trkpt lat="52.4477900" lon="5.8991900"/>
<trkpt lat="52.4478100" lon="5.8993300"/>
<trkpt lat="52.4484500" lon="5.9008800"/>
<trkpt lat="52.4482200" lon="5.9011600"/>
<trkpt lat="52.4481500" lon="5.9014100"/>
<trkpt lat="52.4471200" lon="5.9026900"/>
<trkpt lat="52.4470500" lon="5.9028000"/>
<trkpt lat="52.4470700" lon="5.9028700"/>
<trkpt lat="52.4477900" lon="5.9043900"/>
<trkpt lat="52.4478400" lon="5.9045400"/>
<trkpt lat="52.4478000" lon="5.9048200"/>
<trkpt lat="52.4483600" lon="5.9060800"/>
<trkpt lat="52.4465900" lon="5.9083600"/>
<trkpt lat="52.4434700" lon="5.9122400"/>
</trkseg></trk>
</gpx>