<?xml version="1.0" encoding="UTF-8"?>
<gpx version="1.1" creator="klompenpaden.nl via Jimbo API" xmlns="http://www.topografix.com/GPX/1/1">
<metadata><name>Eendenkooienpad</name><desc>Ontdek het mooie buitengebied van Montfoort en IJsselstein. Wandelen door het open polderlandschap, langs twee eeuwenoude stadjes, een lint van boerderijen en eendenkooien. Geniet van de weidse uitzichten en de combinatie van cultuur en natuur. Klompen aan, rugzak op en gaan!</desc><link href="https://www.klompenpaden.nl/klompenpaden/Eendenkooienpad/187b1b1b-675a-4ced-9e5d-c1d00988ccc6"><text>klompenpaden.nl</text></link></metadata>
<wpt lat="52.045984785697605" lon="5.019609332084656"><name>Start IJsselstein</name></wpt>
<trk><name>Eendenkooienpad - Hoofdroute</name><type>mainRoute</type><trkseg>
<trkpt lat="52.0457881" lon="5.0194052"/>
<trkpt lat="52.0456544" lon="5.0192427"/>
<trkpt lat="52.0455528" lon="5.0190183"/>
<trkpt lat="52.0453226" lon="5.0183024"/>
<trkpt lat="52.0452377" lon="5.0180416"/>
<trkpt lat="52.0451144" lon="5.0181378"/>
<trkpt lat="52.0451671" lon="5.0184198"/>
<trkpt lat="52.0451294" lon="5.0184863"/>
<trkpt lat="52.0449921" lon="5.0186136"/>
<trkpt lat="52.0447722" lon="5.0188273"/>
<trkpt lat="52.0445978" lon="5.0190293"/>
<trkpt lat="52.0444368" lon="5.0192527"/>
<trkpt lat="52.0442589" lon="5.0195535"/>
<trkpt lat="52.0437638" lon="5.0206189"/>
<trkpt lat="52.0432837" lon="5.0216348"/>
<trkpt lat="52.0430269" lon="5.0222654"/>
<trkpt lat="52.0428795" lon="5.0227407"/>
<trkpt lat="52.0426013" lon="5.0238723"/>
<trkpt lat="52.0423914" lon="5.0247705"/>
<trkpt lat="52.0422809" lon="5.0251550"/>
<trkpt lat="52.0421862" lon="5.0254532"/>
<trkpt lat="52.0420991" lon="5.0256565"/>
<trkpt lat="52.0419953" lon="5.0258227"/>
<trkpt lat="52.0418589" lon="5.0260058"/>
<trkpt lat="52.0417395" lon="5.0261549"/>
<trkpt lat="52.0412493" lon="5.0267883"/>
<trkpt lat="52.0407356" lon="5.0274045"/>
<trkpt lat="52.0402033" lon="5.0280424"/>
<trkpt lat="52.0399701" lon="5.0282684"/>
<trkpt lat="52.0397817" lon="5.0283862"/>
<trkpt lat="52.0396198" lon="5.0284565"/>
<trkpt lat="52.0394260" lon="5.0285227"/>
<trkpt lat="52.0391788" lon="5.0285376"/>
<trkpt lat="52.0389847" lon="5.0285090"/>
<trkpt lat="52.0386282" lon="5.0284084"/>
<trkpt lat="52.0381465" lon="5.0282011"/>
<trkpt lat="52.0381062" lon="5.0280506"/>
<trkpt lat="52.0380614" lon="5.0278350"/>
<trkpt lat="52.0379636" lon="5.0275982"/>
<trkpt lat="52.0378376" lon="5.0274326"/>
<trkpt lat="52.0377403" lon="5.0274502"/>
<trkpt lat="52.0376792" lon="5.0274851"/>
<trkpt lat="52.0372270" lon="5.0273680"/>
<trkpt lat="52.0366834" lon="5.0271941"/>
<trkpt lat="52.0361474" lon="5.0272302"/>
<trkpt lat="52.0357495" lon="5.0274790"/>
<trkpt lat="52.0354342" lon="5.0278134"/>
<trkpt lat="52.0350927" lon="5.0282643"/>
<trkpt lat="52.0346567" lon="5.0290910"/>
<trkpt lat="52.0344455" lon="5.0296719"/>
<trkpt lat="52.0342185" lon="5.0306298"/>
<trkpt lat="52.0343117" lon="5.0307225"/>
<trkpt lat="52.0345086" lon="5.0311854"/>
<trkpt lat="52.0345037" lon="5.0313592"/>
<trkpt lat="52.0344971" lon="5.0317238"/>
<trkpt lat="52.0346253" lon="5.0320083"/>
<trkpt lat="52.0344474" lon="5.0346065"/>
<trkpt lat="52.0343602" lon="5.0352868"/>
<trkpt lat="52.0342424" lon="5.0356444"/>
<trkpt lat="52.0340681" lon="5.0359976"/>
<trkpt lat="52.0336776" lon="5.0366320"/>
<trkpt lat="52.0334319" lon="5.0369858"/>
<trkpt lat="52.0327984" lon="5.0378727"/>
<trkpt lat="52.0326384" lon="5.0380475"/>
<trkpt lat="52.0323479" lon="5.0383534"/>
<trkpt lat="52.0320334" lon="5.0385390"/>
<trkpt lat="52.0318343" lon="5.0385791"/>
<trkpt lat="52.0315667" lon="5.0385474"/>
<trkpt lat="52.0313701" lon="5.0383995"/>
<trkpt lat="52.0312149" lon="5.0381935"/>
<trkpt lat="52.0311191" lon="5.0379822"/>
<trkpt lat="52.0306973" lon="5.0370939"/>
<trkpt lat="52.0304914" lon="5.0368112"/>
<trkpt lat="52.0302262" lon="5.0366060"/>
<trkpt lat="52.0300419" lon="5.0365930"/>
<trkpt lat="52.0298517" lon="5.0366089"/>
<trkpt lat="52.0296879" lon="5.0367072"/>
<trkpt lat="52.0292533" lon="5.0371231"/>
<trkpt lat="52.0289937" lon="5.0374052"/>
<trkpt lat="52.0286739" lon="5.0366236"/>
<trkpt lat="52.0284406" lon="5.0361291"/>
<trkpt lat="52.0280101" lon="5.0353180"/>
<trkpt lat="52.0276573" lon="5.0346365"/>
<trkpt lat="52.0269367" lon="5.0332205"/>
<trkpt lat="52.0265451" lon="5.0324111"/>
<trkpt lat="52.0264102" lon="5.0321613"/>
<trkpt lat="52.0262810" lon="5.0318925"/>
<trkpt lat="52.0258551" lon="5.0310246"/>
<trkpt lat="52.0258165" lon="5.0308630"/>
<trkpt lat="52.0254938" lon="5.0311305"/>
<trkpt lat="52.0251901" lon="5.0313383"/>
<trkpt lat="52.0248386" lon="5.0314799"/>
<trkpt lat="52.0246026" lon="5.0305026"/>
<trkpt lat="52.0248346" lon="5.0296348"/>
<trkpt lat="52.0249022" lon="5.0293941"/>
<trkpt lat="52.0260581" lon="5.0247703"/>
<trkpt lat="52.0266531" lon="5.0224076"/>
<trkpt lat="52.0267135" lon="5.0221396"/>
<trkpt lat="52.0265038" lon="5.0212392"/>
<trkpt lat="52.0262908" lon="5.0204024"/>
<trkpt lat="52.0259795" lon="5.0201043"/>
<trkpt lat="52.0257682" lon="5.0198515"/>
<trkpt lat="52.0257072" lon="5.0197133"/>
<trkpt lat="52.0254084" lon="5.0177323"/>
<trkpt lat="52.0250336" lon="5.0153703"/>
<trkpt lat="52.0246623" lon="5.0130257"/>
<trkpt lat="52.0242731" lon="5.0106639"/>
<trkpt lat="52.0240825" lon="5.0094517"/>
<trkpt lat="52.0239915" lon="5.0089943"/>
<trkpt lat="52.0238817" lon="5.0083204"/>
<trkpt lat="52.0235653" lon="5.0063627"/>
<trkpt lat="52.0234819" lon="5.0062296"/>
<trkpt lat="52.0231111" lon="5.0039049"/>
<trkpt lat="52.0227480" lon="5.0015859"/>
<trkpt lat="52.0224138" lon="4.9994157"/>
<trkpt lat="52.0220844" lon="4.9974300"/>
<trkpt lat="52.0218228" lon="4.9960157"/>
<trkpt lat="52.0214083" lon="4.9936544"/>
<trkpt lat="52.0212153" lon="4.9924766"/>
<trkpt lat="52.0211854" lon="4.9920721"/>
<trkpt lat="52.0212051" lon="4.9915573"/>
<trkpt lat="52.0212434" lon="4.9912736"/>
<trkpt lat="52.0212936" lon="4.9904576"/>
<trkpt lat="52.0212953" lon="4.9901603"/>
<trkpt lat="52.0212670" lon="4.9898106"/>
<trkpt lat="52.0212746" lon="4.9889027"/>
<trkpt lat="52.0212716" lon="4.9880239"/>
<trkpt lat="52.0213201" lon="4.9865374"/>
<trkpt lat="52.0213293" lon="4.9860921"/>
<trkpt lat="52.0213152" lon="4.9857974"/>
<trkpt lat="52.0223479" lon="4.9852773"/>
<trkpt lat="52.0227040" lon="4.9850814"/>
<trkpt lat="52.0231374" lon="4.9849233"/>
<trkpt lat="52.0235827" lon="4.9847459"/>
<trkpt lat="52.0254827" lon="4.9840156"/>
<trkpt lat="52.0270918" lon="4.9833843"/>
<trkpt lat="52.0287302" lon="4.9826563"/>
<trkpt lat="52.0303687" lon="4.9819668"/>
<trkpt lat="52.0315759" lon="4.9814679"/>
<trkpt lat="52.0317399" lon="4.9814111"/>
<trkpt lat="52.0318474" lon="4.9813442"/>
<trkpt lat="52.0320469" lon="4.9812545"/>
<trkpt lat="52.0322435" lon="4.9811694"/>
<trkpt lat="52.0324401" lon="4.9810844"/>
<trkpt lat="52.0326367" lon="4.9809993"/>
<trkpt lat="52.0328334" lon="4.9809142"/>
<trkpt lat="52.0332138" lon="4.9807535"/>
<trkpt lat="52.0336071" lon="4.9805995"/>
<trkpt lat="52.0340017" lon="4.9804340"/>
<trkpt lat="52.0343936" lon="4.9802754"/>
<trkpt lat="52.0347855" lon="4.9801215"/>
<trkpt lat="52.0351745" lon="4.9799838"/>
<trkpt lat="52.0355664" lon="4.9798506"/>
<trkpt lat="52.0359555" lon="4.9797199"/>
<trkpt lat="52.0363517" lon="4.9795797"/>
<trkpt lat="52.0377141" lon="4.9790907"/>
<trkpt lat="52.0392286" lon="4.9785405"/>
<trkpt lat="52.0397354" lon="4.9783550"/>
<trkpt lat="52.0395851" lon="4.9768679"/>
<trkpt lat="52.0394274" lon="4.9752882"/>
<trkpt lat="52.0392839" lon="4.9737008"/>
<trkpt lat="52.0391380" lon="4.9721172"/>
<trkpt lat="52.0389969" lon="4.9705297"/>
<trkpt lat="52.0388677" lon="4.9689691"/>
<trkpt lat="52.0387735" lon="4.9678980"/>
<trkpt lat="52.0387146" lon="4.9673818"/>
<trkpt lat="52.0386637" lon="4.9671278"/>
<trkpt lat="52.0382571" lon="4.9658012"/>
<trkpt lat="52.0380959" lon="4.9652898"/>
<trkpt lat="52.0378393" lon="4.9646753"/>
<trkpt lat="52.0376283" lon="4.9642145"/>
<trkpt lat="52.0369863" lon="4.9629056"/>
<trkpt lat="52.0363324" lon="4.9616239"/>
<trkpt lat="52.0353625" lon="4.9597360"/>
<trkpt lat="52.0353201" lon="4.9596383"/>
<trkpt lat="52.0355743" lon="4.9594486"/>
<trkpt lat="52.0356605" lon="4.9592907"/>
<trkpt lat="52.0359037" lon="4.9592320"/>
<trkpt lat="52.0360343" lon="4.9590622"/>
<trkpt lat="52.0362911" lon="4.9590483"/>
<trkpt lat="52.0366081" lon="4.9587358"/>
<trkpt lat="52.0368721" lon="4.9587600"/>
<trkpt lat="52.0371003" lon="4.9586776"/>
<trkpt lat="52.0375055" lon="4.9599909"/>
<trkpt lat="52.0378442" lon="4.9597747"/>
<trkpt lat="52.0379830" lon="4.9603541"/>
<trkpt lat="52.0380797" lon="4.9603800"/>
<trkpt lat="52.0381420" lon="4.9606659"/>
<trkpt lat="52.0386265" lon="4.9604168"/>
<trkpt lat="52.0385855" lon="4.9601765"/>
<trkpt lat="52.0401968" lon="4.9594122"/>
<trkpt lat="52.0403458" lon="4.9602055"/>
<trkpt lat="52.0406611" lon="4.9600917"/>
<trkpt lat="52.0408588" lon="4.9600134"/>
<trkpt lat="52.0410188" lon="4.9599546"/>
<trkpt lat="52.0412376" lon="4.9598646"/>
<trkpt lat="52.0411677" lon="4.9594373"/>
<trkpt lat="52.0411245" lon="4.9592237"/>
<trkpt lat="52.0410711" lon="4.9589051"/>
<trkpt lat="52.0413135" lon="4.9587984"/>
<trkpt lat="52.0413822" lon="4.9589956"/>
<trkpt lat="52.0415986" lon="4.9588393"/>
<trkpt lat="52.0421296" lon="4.9583824"/>
<trkpt lat="52.0423195" lon="4.9593749"/>
<trkpt lat="52.0431464" lon="4.9589659"/>
<trkpt lat="52.0429888" lon="4.9579999"/>
<trkpt lat="52.0430610" lon="4.9579721"/>
<trkpt lat="52.0431824" lon="4.9581456"/>
<trkpt lat="52.0432906" lon="4.9581723"/>
<trkpt lat="52.0434665" lon="4.9581102"/>
<trkpt lat="52.0437715" lon="4.9579845"/>
<trkpt lat="52.0442821" lon="4.9594307"/>
<trkpt lat="52.0445283" lon="4.9601033"/>
<trkpt lat="52.0447901" lon="4.9609686"/>
<trkpt lat="52.0449105" lon="4.9613917"/>
<trkpt lat="52.0454852" lon="4.9633050"/>
<trkpt lat="52.0455935" lon="4.9636655"/>
<trkpt lat="52.0458668" lon="4.9652732"/>
<trkpt lat="52.0459312" lon="4.9658077"/>
<trkpt lat="52.0461200" lon="4.9670691"/>
<trkpt lat="52.0462479" lon="4.9681758"/>
<trkpt lat="52.0462697" lon="4.9690347"/>
<trkpt lat="52.0463598" lon="4.9709960"/>
<trkpt lat="52.0464009" lon="4.9725288"/>
<trkpt lat="52.0464381" lon="4.9729527"/>
<trkpt lat="52.0465610" lon="4.9740845"/>
<trkpt lat="52.0466560" lon="4.9748984"/>
<trkpt lat="52.0467367" lon="4.9758860"/>
<trkpt lat="52.0467906" lon="4.9768642"/>
<trkpt lat="52.0468311" lon="4.9773797"/>
<trkpt lat="52.0472804" lon="4.9775009"/>
<trkpt lat="52.0476295" lon="4.9787513"/>
<trkpt lat="52.0478253" lon="4.9794872"/>
<trkpt lat="52.0480199" lon="4.9807534"/>
<trkpt lat="52.0482762" lon="4.9826651"/>
<trkpt lat="52.0485980" lon="4.9846245"/>
<trkpt lat="52.0488662" lon="4.9865555"/>
<trkpt lat="52.0490033" lon="4.9875233"/>
<trkpt lat="52.0490223" lon="4.9878655"/>
<trkpt lat="52.0489966" lon="4.9882651"/>
<trkpt lat="52.0492754" lon="4.9884539"/>
<trkpt lat="52.0506193" lon="4.9892212"/>
<trkpt lat="52.0509365" lon="4.9892897"/>
<trkpt lat="52.0513830" lon="4.9895687"/>
<trkpt lat="52.0523237" lon="4.9901096"/>
<trkpt lat="52.0521592" lon="4.9904227"/>
<trkpt lat="52.0518504" lon="4.9908050"/>
<trkpt lat="52.0518946" lon="4.9909466"/>
<trkpt lat="52.0520610" lon="4.9911920"/>
<trkpt lat="52.0522613" lon="4.9913630"/>
<trkpt lat="52.0523206" lon="4.9914589"/>
<trkpt lat="52.0523076" lon="4.9915581"/>
<trkpt lat="52.0525392" lon="4.9917692"/>
<trkpt lat="52.0525106" lon="4.9919441"/>
<trkpt lat="52.0524407" lon="4.9926699"/>
<trkpt lat="52.0523624" lon="4.9937260"/>
<trkpt lat="52.0523981" lon="4.9947317"/>
<trkpt lat="52.0525429" lon="4.9959216"/>
<trkpt lat="52.0527539" lon="4.9970245"/>
<trkpt lat="52.0529916" lon="4.9981303"/>
<trkpt lat="52.0532677" lon="4.9993623"/>
<trkpt lat="52.0534027" lon="4.9999259"/>
<trkpt lat="52.0536142" lon="5.0006060"/>
<trkpt lat="52.0539213" lon="5.0014304"/>
<trkpt lat="52.0540591" lon="5.0016792"/>
<trkpt lat="52.0545187" lon="5.0025795"/>
<trkpt lat="52.0549588" lon="5.0033688"/>
<trkpt lat="52.0552364" lon="5.0038973"/>
<trkpt lat="52.0553267" lon="5.0041619"/>
<trkpt lat="52.0553866" lon="5.0044608"/>
<trkpt lat="52.0554088" lon="5.0048432"/>
<trkpt lat="52.0553950" lon="5.0052878"/>
<trkpt lat="52.0552773" lon="5.0059523"/>
<trkpt lat="52.0550320" lon="5.0065654"/>
<trkpt lat="52.0547468" lon="5.0072221"/>
<trkpt lat="52.0542502" lon="5.0083805"/>
<trkpt lat="52.0538200" lon="5.0094951"/>
<trkpt lat="52.0533732" lon="5.0107765"/>
<trkpt lat="52.0530847" lon="5.0115967"/>
<trkpt lat="52.0529658" lon="5.0118847"/>
<trkpt lat="52.0527295" lon="5.0123465"/>
<trkpt lat="52.0524209" lon="5.0128181"/>
<trkpt lat="52.0519339" lon="5.0134455"/>
<trkpt lat="52.0514258" lon="5.0140083"/>
<trkpt lat="52.0509025" lon="5.0145712"/>
<trkpt lat="52.0503773" lon="5.0151464"/>
<trkpt lat="52.0498408" lon="5.0157218"/>
<trkpt lat="52.0493288" lon="5.0162722"/>
<trkpt lat="52.0488168" lon="5.0167979"/>
<trkpt lat="52.0483326" lon="5.0172241"/>
<trkpt lat="52.0479078" lon="5.0174492"/>
<trkpt lat="52.0473421" lon="5.0176004"/>
<trkpt lat="52.0467791" lon="5.0177430"/>
<trkpt lat="52.0463091" lon="5.0178891"/>
<trkpt lat="52.0457542" lon="5.0180791"/>
<trkpt lat="52.0455026" lon="5.0182128"/>
<trkpt lat="52.0453796" lon="5.0182601"/>
<trkpt lat="52.0453545" lon="5.0182760"/>
<trkpt lat="52.0451672" lon="5.0184198"/>
</trkseg></trk>
<trk><name>Eendenkooienpad - Geimporteerde shapefile</name><type>mainRoute</type><trkseg>
<trkpt lat="52.0452409" lon="5.0180282"/>
<trkpt lat="52.0445978" lon="5.0151646"/>
<trkpt lat="52.0462775" lon="5.0138850"/>
<trkpt lat="52.0472133" lon="5.0134324"/>
<trkpt lat="52.0480350" lon="5.0132193"/>
<trkpt lat="52.0486301" lon="5.0126185"/>
<trkpt lat="52.0500241" lon="5.0111164"/>
<trkpt lat="52.0506359" lon="5.0104883"/>
<trkpt lat="52.0518364" lon="5.0092896"/>
<trkpt lat="52.0520523" lon="5.0083455"/>
<trkpt lat="52.0518795" lon="5.0065040"/>
<trkpt lat="52.0513469" lon="5.0040539"/>
<trkpt lat="52.0506847" lon="5.0002618"/>
<trkpt lat="52.0503009" lon="4.9979990"/>
<trkpt lat="52.0503680" lon="4.9959078"/>
<trkpt lat="52.0506751" lon="4.9946438"/>
<trkpt lat="52.0514765" lon="4.9928023"/>
<trkpt lat="52.0519035" lon="4.9917255"/>
<trkpt lat="52.0518651" lon="4.9908360"/>
</trkseg></trk>
<trk><name>Eendenkooienpad - Alternatieve route</name><type>alternativeRoute</type><trkseg>
<trkpt lat="52.0375300" lon="4.9640200"/>
<trkpt lat="52.0373000" lon="4.9642500"/>
<trkpt lat="52.0371500" lon="4.9644500"/>
<trkpt lat="52.0359900" lon="4.9649400"/>
<trkpt lat="52.0359400" lon="4.9646300"/>
<trkpt lat="52.0290700" lon="4.9675500"/>
<trkpt lat="52.0288100" lon="4.9679000"/>
<trkpt lat="52.0287500" lon="4.9679500"/>
<trkpt lat="52.0287100" lon="4.9680700"/>
<trkpt lat="52.0286600" lon="4.9681100"/>
<trkpt lat="52.0197900" lon="4.9718900"/>
<trkpt lat="52.0197200" lon="4.9716800"/>
<trkpt lat="52.0195200" lon="4.9717800"/>
<trkpt lat="52.0200200" lon="4.9742800"/>
<trkpt lat="52.0205300" lon="4.9760900"/>
<trkpt lat="52.0206600" lon="4.9769000"/>
<trkpt lat="52.0207400" lon="4.9780800"/>
<trkpt lat="52.0210800" lon="4.9810400"/>
<trkpt lat="52.0210800" lon="4.9824900"/>
<trkpt lat="52.0211200" lon="4.9837100"/>
<trkpt lat="52.0212600" lon="4.9846600"/>
<trkpt lat="52.0212400" lon="4.9852000"/>
<trkpt lat="52.0213100" lon="4.9857900"/>
</trkseg></trk>
<trk><name>Eendenkooienpad - Aanlooproute</name><type>approachRoute</type><trkseg>
<trkpt lat="52.0440136" lon="4.9506521"/>
<trkpt lat="52.0438035" lon="4.9507525"/>
<trkpt lat="52.0436412" lon="4.9502739"/>
<trkpt lat="52.0435118" lon="4.9500149"/>
<trkpt lat="52.0434252" lon="4.9498798"/>
<trkpt lat="52.0433235" lon="4.9497651"/>
<trkpt lat="52.0432365" lon="4.9497249"/>
<trkpt lat="52.0431680" lon="4.9497689"/>
<trkpt lat="52.0431069" lon="4.9498459"/>
<trkpt lat="52.0430560" lon="4.9499713"/>
<trkpt lat="52.0429433" lon="4.9503565"/>
<trkpt lat="52.0429070" lon="4.9505698"/>
<trkpt lat="52.0428991" lon="4.9506060"/>
<trkpt lat="52.0429868" lon="4.9507552"/>
<trkpt lat="52.0430610" lon="4.9508636"/>
<trkpt lat="52.0431005" lon="4.9509525"/>
<trkpt lat="52.0432315" lon="4.9510656"/>
<trkpt lat="52.0433753" lon="4.9512713"/>
<trkpt lat="52.0434049" lon="4.9514275"/>
<trkpt lat="52.0433618" lon="4.9518228"/>
<trkpt lat="52.0433374" lon="4.9521148"/>
<trkpt lat="52.0434557" lon="4.9527201"/>
<trkpt lat="52.0435012" lon="4.9527112"/>
<trkpt lat="52.0436124" lon="4.9532900"/>
<trkpt lat="52.0432549" lon="4.9534601"/>
<trkpt lat="52.0434970" lon="4.9546395"/>
<trkpt lat="52.0430142" lon="4.9548856"/>
<trkpt lat="52.0427356" lon="4.9550348"/>
<trkpt lat="52.0428485" lon="4.9553742"/>
<trkpt lat="52.0430364" lon="4.9558810"/>
<trkpt lat="52.0432780" lon="4.9565382"/>
<trkpt lat="52.0433879" lon="4.9567915"/>
<trkpt lat="52.0434619" lon="4.9569941"/>
<trkpt lat="52.0437724" lon="4.9579904"/>
</trkseg></trk>
<trk><name>Eendenkooienpad - Tijdelijke route</name><type>detourRoute</type><trkseg>
<trkpt lat="52.0523237" lon="4.9901096"/>
<trkpt lat="52.0529457" lon="4.9888226"/>
<trkpt lat="52.0533806" lon="4.9872838"/>
<trkpt lat="52.0542930" lon="4.9888273"/>
<trkpt lat="52.0547302" lon="4.9903916"/>
<trkpt lat="52.0569511" lon="4.9900121"/>
<trkpt lat="52.0568948" lon="4.9891229"/>
<trkpt lat="52.0566938" lon="4.9880802"/>
<trkpt lat="52.0566935" lon="4.9868370"/>
<trkpt lat="52.0569277" lon="4.9860083"/>
<trkpt lat="52.0570268" lon="4.9849565"/>
<trkpt lat="52.0570032" lon="4.9838097"/>
<trkpt lat="52.0571420" lon="4.9828087"/>
<trkpt lat="52.0573504" lon="4.9806262"/>
<trkpt lat="52.0567683" lon="4.9787208"/>
<trkpt lat="52.0559137" lon="4.9754502"/>
<trkpt lat="52.0546602" lon="4.9729432"/>
<trkpt lat="52.0547731" lon="4.9725120"/>
<trkpt lat="52.0561414" lon="4.9696333"/>
<trkpt lat="52.0568233" lon="4.9675483"/>
<trkpt lat="52.0570588" lon="4.9655304"/>
<trkpt lat="52.0569446" lon="4.9634843"/>
<trkpt lat="52.0565513" lon="4.9620865"/>
<trkpt lat="52.0558004" lon="4.9607901"/>
<trkpt lat="52.0545599" lon="4.9571019"/>
<trkpt lat="52.0538646" lon="4.9546794"/>
<trkpt lat="52.0533932" lon="4.9537477"/>
<trkpt lat="52.0517166" lon="4.9517144"/>
<trkpt lat="52.0506578" lon="4.9480559"/>
<trkpt lat="52.0494745" lon="4.9445000"/>
<trkpt lat="52.0487518" lon="4.9431409"/>
<trkpt lat="52.0478967" lon="4.9450170"/>
<trkpt lat="52.0465729" lon="4.9478688"/>
<trkpt lat="52.0459858" lon="4.9484367"/>
<trkpt lat="52.0452857" lon="4.9465886"/>
<trkpt lat="52.0451130" lon="4.9467589"/>
<trkpt lat="52.0456396" lon="4.9485525"/>
<trkpt lat="52.0447065" lon="4.9492643"/>
<trkpt lat="52.0447103" lon="4.9503041"/>
<trkpt lat="52.0440136" lon="4.9506521"/>
<trkpt lat="52.0438035" lon="4.9507525"/>
<trkpt lat="52.0432365" lon="4.9497249"/>
<trkpt lat="52.0429070" lon="4.9505698"/>
<trkpt lat="52.0434049" lon="4.9514275"/>
<trkpt lat="52.0433933" lon="4.9524010"/>
<trkpt lat="52.0436124" lon="4.9532900"/>
<trkpt lat="52.0432549" lon="4.9534601"/>
<trkpt lat="52.0434970" lon="4.9546395"/>
<trkpt lat="52.0427356" lon="4.9550348"/>
<trkpt lat="52.0437715" lon="4.9579845"/>
</trkseg></trk>
</gpx>