<?xml version="1.0" encoding="UTF-8"?>
<gpx version="1.1" creator="klompenpaden.nl via Jimbo API" xmlns="http://www.topografix.com/GPX/1/1">
<metadata><name>Eertbeeckse Beekpad</name><desc>Ontdek het mooie buitengebied van Eerbeek. Wandelen langs sprengbeken en industrieel erfgoed,
door bos en weilanden in het prachtige buitengebied van Eerbeek. Klompen aan, rugzak op en gaan!</desc><link href="https://www.klompenpaden.nl/klompenpaden/Eertbeeckse_Beekpad/f48edf04-5c47-4189-819c-6d36f6371f84"><text>klompenpaden.nl</text></link></metadata>
<wpt lat="52.107226746552605" lon="6.073020100593567"><name>Start Eerbeek</name></wpt>
<trk><name>Eertbeeckse Beekpad - Geimporteerde shapefile</name><type>mainRoute</type><trkseg>
<trkpt lat="52.0889414" lon="6.0379511"/>
<trkpt lat="52.0892866" lon="6.0373778"/>
<trkpt lat="52.0893943" lon="6.0372635"/>
<trkpt lat="52.0895190" lon="6.0369555"/>
<trkpt lat="52.0897379" lon="6.0368907"/>
<trkpt lat="52.0899914" lon="6.0366902"/>
<trkpt lat="52.0904282" lon="6.0372076"/>
<trkpt lat="52.0905677" lon="6.0372922"/>
<trkpt lat="52.0906249" lon="6.0372699"/>
<trkpt lat="52.0906861" lon="6.0371781"/>
<trkpt lat="52.0908442" lon="6.0371196"/>
<trkpt lat="52.0910732" lon="6.0371548"/>
<trkpt lat="52.0913647" lon="6.0370258"/>
<trkpt lat="52.0916121" lon="6.0367977"/>
<trkpt lat="52.0918512" lon="6.0364479"/>
<trkpt lat="52.0919611" lon="6.0362468"/>
<trkpt lat="52.0920230" lon="6.0360219"/>
<trkpt lat="52.0921759" lon="6.0357953"/>
<trkpt lat="52.0923523" lon="6.0356546"/>
<trkpt lat="52.0925146" lon="6.0363903"/>
<trkpt lat="52.0931386" lon="6.0372814"/>
<trkpt lat="52.0935925" lon="6.0388440"/>
<trkpt lat="52.0935002" lon="6.0389748"/>
<trkpt lat="52.0936860" lon="6.0396807"/>
<trkpt lat="52.0939986" lon="6.0402859"/>
<trkpt lat="52.0944632" lon="6.0422408"/>
<trkpt lat="52.0946569" lon="6.0431047"/>
<trkpt lat="52.0948335" lon="6.0438410"/>
<trkpt lat="52.0952430" lon="6.0439686"/>
<trkpt lat="52.0956677" lon="6.0439256"/>
<trkpt lat="52.0960932" lon="6.0437494"/>
<trkpt lat="52.0962436" lon="6.0439746"/>
<trkpt lat="52.0962984" lon="6.0442201"/>
<trkpt lat="52.0962961" lon="6.0444648"/>
<trkpt lat="52.0964193" lon="6.0443015"/>
<trkpt lat="52.0967137" lon="6.0441292"/>
<trkpt lat="52.0971729" lon="6.0439911"/>
<trkpt lat="52.0973914" lon="6.0438437"/>
<trkpt lat="52.0973877" lon="6.0432876"/>
<trkpt lat="52.0973478" lon="6.0428699"/>
<trkpt lat="52.0972959" lon="6.0421276"/>
<trkpt lat="52.0973417" lon="6.0419889"/>
<trkpt lat="52.0974328" lon="6.0418041"/>
<trkpt lat="52.0976999" lon="6.0415749"/>
<trkpt lat="52.0987230" lon="6.0404054"/>
<trkpt lat="52.1007063" lon="6.0378451"/>
<trkpt lat="52.1014910" lon="6.0391425"/>
<trkpt lat="52.1020429" lon="6.0399847"/>
<trkpt lat="52.1023822" lon="6.0405458"/>
<trkpt lat="52.1031499" lon="6.0416924"/>
<trkpt lat="52.1041014" lon="6.0399453"/>
<trkpt lat="52.1050571" lon="6.0387137"/>
<trkpt lat="52.1071204" lon="6.0400560"/>
<trkpt lat="52.1074414" lon="6.0386095"/>
<trkpt lat="52.1078477" lon="6.0372221"/>
<trkpt lat="52.1089304" lon="6.0385037"/>
<trkpt lat="52.1102026" lon="6.0397216"/>
<trkpt lat="52.1106336" lon="6.0400610"/>
<trkpt lat="52.1111040" lon="6.0403894"/>
<trkpt lat="52.1120305" lon="6.0410577"/>
<trkpt lat="52.1138977" lon="6.0423829"/>
<trkpt lat="52.1149071" lon="6.0431191"/>
<trkpt lat="52.1159451" lon="6.0438500"/>
<trkpt lat="52.1179677" lon="6.0452936"/>
<trkpt lat="52.1174997" lon="6.0467064"/>
<trkpt lat="52.1169030" lon="6.0479927"/>
<trkpt lat="52.1163689" lon="6.0492451"/>
<trkpt lat="52.1165751" lon="6.0498378"/>
<trkpt lat="52.1166139" lon="6.0500745"/>
<trkpt lat="52.1165323" lon="6.0503253"/>
<trkpt lat="52.1160070" lon="6.0509578"/>
<trkpt lat="52.1155988" lon="6.0513834"/>
<trkpt lat="52.1155504" lon="6.0514319"/>
<trkpt lat="52.1155494" lon="6.0514450"/>
<trkpt lat="52.1155484" lon="6.0514638"/>
<trkpt lat="52.1155733" lon="6.0514786"/>
<trkpt lat="52.1156374" lon="6.0514999"/>
<trkpt lat="52.1187506" lon="6.0535628"/>
<trkpt lat="52.1173759" lon="6.0582012"/>
<trkpt lat="52.1140147" lon="6.0558504"/>
<trkpt lat="52.1124634" lon="6.0551464"/>
<trkpt lat="52.1120437" lon="6.0555601"/>
<trkpt lat="52.1123793" lon="6.0567645"/>
<trkpt lat="52.1124548" lon="6.0572755"/>
<trkpt lat="52.1125550" lon="6.0584822"/>
<trkpt lat="52.1126412" lon="6.0596249"/>
<trkpt lat="52.1122925" lon="6.0607321"/>
<trkpt lat="52.1130539" lon="6.0641795"/>
<trkpt lat="52.1138263" lon="6.0675808"/>
<trkpt lat="52.1143977" lon="6.0700897"/>
<trkpt lat="52.1143722" lon="6.0700966"/>
<trkpt lat="52.1142887" lon="6.0701511"/>
<trkpt lat="52.1131274" lon="6.0698385"/>
<trkpt lat="52.1130755" lon="6.0698696"/>
<trkpt lat="52.1130264" lon="6.0698862"/>
<trkpt lat="52.1133748" lon="6.0725395"/>
<trkpt lat="52.1117879" lon="6.0715244"/>
<trkpt lat="52.1117785" lon="6.0716184"/>
<trkpt lat="52.1115206" lon="6.0714884"/>
<trkpt lat="52.1110882" lon="6.0713123"/>
<trkpt lat="52.1105885" lon="6.0710541"/>
<trkpt lat="52.1103362" lon="6.0708851"/>
<trkpt lat="52.1097138" lon="6.0705656"/>
<trkpt lat="52.1095508" lon="6.0703748"/>
<trkpt lat="52.1094785" lon="6.0705301"/>
<trkpt lat="52.1090313" lon="6.0702253"/>
<trkpt lat="52.1088149" lon="6.0697162"/>
<trkpt lat="52.1086948" lon="6.0696029"/>
<trkpt lat="52.1082814" lon="6.0698199"/>
<trkpt lat="52.1081628" lon="6.0699482"/>
<trkpt lat="52.1081958" lon="6.0701139"/>
<trkpt lat="52.1081020" lon="6.0703252"/>
<trkpt lat="52.1079609" lon="6.0712999"/>
<trkpt lat="52.1073818" lon="6.0723144"/>
<trkpt lat="52.1073921" lon="6.0727486"/>
<trkpt lat="52.1072454" lon="6.0728253"/>
<trkpt lat="52.1069830" lon="6.0733827"/>
<trkpt lat="52.1073027" lon="6.0740352"/>
<trkpt lat="52.1071441" lon="6.0739274"/>
<trkpt lat="52.1068811" lon="6.0738695"/>
<trkpt lat="52.1067470" lon="6.0739379"/>
<trkpt lat="52.1064676" lon="6.0743043"/>
<trkpt lat="52.1062025" lon="6.0747607"/>
<trkpt lat="52.1058494" lon="6.0750350"/>
<trkpt lat="52.1054857" lon="6.0754287"/>
<trkpt lat="52.1053352" lon="6.0758638"/>
<trkpt lat="52.1052424" lon="6.0768866"/>
<trkpt lat="52.1051975" lon="6.0772113"/>
<trkpt lat="52.1050005" lon="6.0776575"/>
<trkpt lat="52.1048002" lon="6.0781662"/>
<trkpt lat="52.1044423" lon="6.0789833"/>
<trkpt lat="52.1042210" lon="6.0792985"/>
<trkpt lat="52.1040766" lon="6.0794411"/>
<trkpt lat="52.1039721" lon="6.0794742"/>
<trkpt lat="52.1037886" lon="6.0797320"/>
<trkpt lat="52.1022868" lon="6.0814104"/>
<trkpt lat="52.1014264" lon="6.0801661"/>
<trkpt lat="52.1011597" lon="6.0805461"/>
<trkpt lat="52.1009769" lon="6.0806484"/>
<trkpt lat="52.1007757" lon="6.0808605"/>
<trkpt lat="52.1007065" lon="6.0810234"/>
<trkpt lat="52.0998592" lon="6.0818751"/>
<trkpt lat="52.0976382" lon="6.0782959"/>
<trkpt lat="52.0969746" lon="6.0792268"/>
<trkpt lat="52.0971084" lon="6.0795300"/>
<trkpt lat="52.0963829" lon="6.0803644"/>
<trkpt lat="52.0950897" lon="6.0782478"/>
<trkpt lat="52.0942861" lon="6.0790230"/>
<trkpt lat="52.0934756" lon="6.0797634"/>
<trkpt lat="52.0931758" lon="6.0791796"/>
<trkpt lat="52.0928664" lon="6.0785565"/>
<trkpt lat="52.0927151" lon="6.0785752"/>
<trkpt lat="52.0927025" lon="6.0787940"/>
<trkpt lat="52.0926118" lon="6.0789305"/>
<trkpt lat="52.0924355" lon="6.0788843"/>
<trkpt lat="52.0921388" lon="6.0783875"/>
<trkpt lat="52.0917689" lon="6.0788103"/>
<trkpt lat="52.0905264" lon="6.0802099"/>
<trkpt lat="52.0892697" lon="6.0815976"/>
<trkpt lat="52.0887424" lon="6.0784566"/>
<trkpt lat="52.0887210" lon="6.0754044"/>
<trkpt lat="52.0883661" lon="6.0677260"/>
<trkpt lat="52.0883099" lon="6.0675768"/>
<trkpt lat="52.0882315" lon="6.0675661"/>
<trkpt lat="52.0881183" lon="6.0673893"/>
<trkpt lat="52.0879887" lon="6.0668212"/>
<trkpt lat="52.0877815" lon="6.0661044"/>
<trkpt lat="52.0874350" lon="6.0648729"/>
<trkpt lat="52.0875307" lon="6.0644813"/>
<trkpt lat="52.0877107" lon="6.0636827"/>
<trkpt lat="52.0878299" lon="6.0632763"/>
<trkpt lat="52.0880019" lon="6.0628214"/>
<trkpt lat="52.0881954" lon="6.0626680"/>
<trkpt lat="52.0882822" lon="6.0624608"/>
<trkpt lat="52.0883920" lon="6.0619876"/>
<trkpt lat="52.0885701" lon="6.0620251"/>
<trkpt lat="52.0887430" lon="6.0623549"/>
<trkpt lat="52.0888677" lon="6.0623770"/>
<trkpt lat="52.0890733" lon="6.0626117"/>
<trkpt lat="52.0903385" lon="6.0607936"/>
<trkpt lat="52.0906002" lon="6.0604081"/>
<trkpt lat="52.0918433" lon="6.0585533"/>
<trkpt lat="52.0910819" lon="6.0556926"/>
<trkpt lat="52.0919659" lon="6.0545476"/>
<trkpt lat="52.0914237" lon="6.0520261"/>
<trkpt lat="52.0911404" lon="6.0510200"/>
<trkpt lat="52.0910950" lon="6.0508398"/>
<trkpt lat="52.0908094" lon="6.0496252"/>
<trkpt lat="52.0907691" lon="6.0491671"/>
<trkpt lat="52.0912779" lon="6.0481437"/>
<trkpt lat="52.0916198" lon="6.0476044"/>
<trkpt lat="52.0914997" lon="6.0473942"/>
<trkpt lat="52.0918120" lon="6.0468747"/>
<trkpt lat="52.0918655" lon="6.0467220"/>
<trkpt lat="52.0917104" lon="6.0463867"/>
<trkpt lat="52.0894616" lon="6.0428152"/>
<trkpt lat="52.0895673" lon="6.0425605"/>
<trkpt lat="52.0888076" lon="6.0410314"/>
<trkpt lat="52.0892604" lon="6.0401867"/>
<trkpt lat="52.0892376" lon="6.0399024"/>
<trkpt lat="52.0894963" lon="6.0395447"/>
<trkpt lat="52.0895045" lon="6.0389729"/>
<trkpt lat="52.0889397" lon="6.0379515"/>
</trkseg></trk>
<trk><name>Eertbeeckse Beekpad - Geimporteerde shapefile</name><type>shorteningRoute</type><trkseg>
<trkpt lat="52.0962961" lon="6.0444648"/>
<trkpt lat="52.0963213" lon="6.0445995"/>
<trkpt lat="52.0963436" lon="6.0454524"/>
<trkpt lat="52.0963741" lon="6.0468856"/>
<trkpt lat="52.0964282" lon="6.0483720"/>
<trkpt lat="52.0962186" lon="6.0493318"/>
<trkpt lat="52.0964539" lon="6.0495967"/>
<trkpt lat="52.0966667" lon="6.0500408"/>
<trkpt lat="52.0974537" lon="6.0515613"/>
<trkpt lat="52.0983056" lon="6.0529438"/>
<trkpt lat="52.0984624" lon="6.0529693"/>
<trkpt lat="52.0984177" lon="6.0532930"/>
<trkpt lat="52.0991227" lon="6.0547863"/>
<trkpt lat="52.0992065" lon="6.0551119"/>
<trkpt lat="52.0980893" lon="6.0558598"/>
<trkpt lat="52.0979876" lon="6.0561826"/>
<trkpt lat="52.0979860" lon="6.0564606"/>
<trkpt lat="52.0980362" lon="6.0567365"/>
<trkpt lat="52.0979840" lon="6.0568052"/>
<trkpt lat="52.0979283" lon="6.0568840"/>
<trkpt lat="52.0980177" lon="6.0571638"/>
<trkpt lat="52.0981124" lon="6.0574407"/>
<trkpt lat="52.0982513" lon="6.0576357"/>
<trkpt lat="52.0983358" lon="6.0577552"/>
<trkpt lat="52.0983669" lon="6.0578958"/>
<trkpt lat="52.0983769" lon="6.0579892"/>
<trkpt lat="52.0984337" lon="6.0580309"/>
<trkpt lat="52.0984564" lon="6.0581183"/>
<trkpt lat="52.0984727" lon="6.0582345"/>
<trkpt lat="52.0985179" lon="6.0583597"/>
<trkpt lat="52.0985240" lon="6.0584641"/>
<trkpt lat="52.0985358" lon="6.0585772"/>
<trkpt lat="52.0985792" lon="6.0587835"/>
<trkpt lat="52.0986548" lon="6.0589743"/>
<trkpt lat="52.0986938" lon="6.0591798"/>
<trkpt lat="52.0987554" lon="6.0593961"/>
<trkpt lat="52.0988497" lon="6.0596385"/>
<trkpt lat="52.0988196" lon="6.0597892"/>
<trkpt lat="52.0988809" lon="6.0599885"/>
<trkpt lat="52.0988987" lon="6.0601516"/>
<trkpt lat="52.0988942" lon="6.0602330"/>
<trkpt lat="52.0989937" lon="6.0604244"/>
<trkpt lat="52.0989791" lon="6.0605409"/>
<trkpt lat="52.0990877" lon="6.0606066"/>
<trkpt lat="52.0991231" lon="6.0607383"/>
<trkpt lat="52.0992082" lon="6.0609026"/>
<trkpt lat="52.0992958" lon="6.0610504"/>
<trkpt lat="52.0994269" lon="6.0613622"/>
<trkpt lat="52.0995615" lon="6.0615945"/>
<trkpt lat="52.0997576" lon="6.0620015"/>
<trkpt lat="52.0998790" lon="6.0621394"/>
<trkpt lat="52.0999789" lon="6.0622177"/>
<trkpt lat="52.1001181" lon="6.0622437"/>
<trkpt lat="52.1001882" lon="6.0621727"/>
<trkpt lat="52.1002592" lon="6.0620740"/>
<trkpt lat="52.1003723" lon="6.0621150"/>
<trkpt lat="52.1004758" lon="6.0621079"/>
<trkpt lat="52.1006237" lon="6.0621406"/>
<trkpt lat="52.1007158" lon="6.0620876"/>
<trkpt lat="52.1008077" lon="6.0620811"/>
<trkpt lat="52.1010751" lon="6.0621141"/>
<trkpt lat="52.1011270" lon="6.0623929"/>
<trkpt lat="52.1011251" lon="6.0627172"/>
<trkpt lat="52.1011925" lon="6.0627849"/>
<trkpt lat="52.1011250" lon="6.0631980"/>
<trkpt lat="52.1010913" lon="6.0634017"/>
<trkpt lat="52.1010658" lon="6.0635838"/>
<trkpt lat="52.1010653" lon="6.0636707"/>
<trkpt lat="52.1015681" lon="6.0640787"/>
<trkpt lat="52.1021783" lon="6.0644362"/>
<trkpt lat="52.1034562" lon="6.0650711"/>
<trkpt lat="52.1037469" lon="6.0652246"/>
<trkpt lat="52.1041949" lon="6.0646999"/>
<trkpt lat="52.1042573" lon="6.0645633"/>
<trkpt lat="52.1044354" lon="6.0642995"/>
<trkpt lat="52.1044996" lon="6.0642947"/>
<trkpt lat="52.1046790" lon="6.0642757"/>
<trkpt lat="52.1048902" lon="6.0642948"/>
<trkpt lat="52.1053354" lon="6.0644232"/>
<trkpt lat="52.1059287" lon="6.0648406"/>
<trkpt lat="52.1060776" lon="6.0649964"/>
<trkpt lat="52.1062871" lon="6.0653284"/>
<trkpt lat="52.1063645" lon="6.0654331"/>
<trkpt lat="52.1064800" lon="6.0657412"/>
<trkpt lat="52.1066491" lon="6.0661145"/>
<trkpt lat="52.1068172" lon="6.0660417"/>
<trkpt lat="52.1069044" lon="6.0663733"/>
<trkpt lat="52.1070569" lon="6.0671548"/>
<trkpt lat="52.1072525" lon="6.0678733"/>
<trkpt lat="52.1073472" lon="6.0681499"/>
<trkpt lat="52.1074992" lon="6.0683984"/>
<trkpt lat="52.1076843" lon="6.0686879"/>
<trkpt lat="52.1080023" lon="6.0699191"/>
<trkpt lat="52.1081652" lon="6.0699552"/>
</trkseg></trk>
<trk><name>Eertbeeckse Beekpad - Geimporteerde shapefile</name><type>alternativeRoute</type><trkseg>
<trkpt lat="52.1102026" lon="6.0397216"/>
<trkpt lat="52.1083290" lon="6.0357524"/>
<trkpt lat="52.1082761" lon="6.0362847"/>
<trkpt lat="52.1081672" lon="6.0366307"/>
<trkpt lat="52.1078477" lon="6.0372221"/>
</trkseg></trk>
<trk><name>Eertbeeckse Beekpad - Geimporteerde shapefile</name><type>connectionRoute</type><trkseg>
<trkpt lat="52.1078477" lon="6.0372221"/>
<trkpt lat="52.1079169" lon="6.0370894"/>
<trkpt lat="52.1080073" lon="6.0369151"/>
<trkpt lat="52.1081672" lon="6.0366307"/>
<trkpt lat="52.1082761" lon="6.0362847"/>
<trkpt lat="52.1083290" lon="6.0357524"/>
<trkpt lat="52.1084674" lon="6.0352215"/>
<trkpt lat="52.1086195" lon="6.0348065"/>
<trkpt lat="52.1086193" lon="6.0348413"/>
</trkseg></trk>
<trk><name>Eertbeeckse Beekpad - Geimporteerde shapefile</name><type>connectionRoute</type><trkseg>
<trkpt lat="52.1089958" lon="6.0941906"/>
<trkpt lat="52.1079212" lon="6.0930232"/>
<trkpt lat="52.1070424" lon="6.0925405"/>
<trkpt lat="52.1069164" lon="6.0926113"/>
<trkpt lat="52.1063084" lon="6.0903758"/>
<trkpt lat="52.1061342" lon="6.0895333"/>
<trkpt lat="52.1058811" lon="6.0886372"/>
<trkpt lat="52.1053607" lon="6.0872585"/>
<trkpt lat="52.1051495" lon="6.0868998"/>
<trkpt lat="52.1049953" lon="6.0863896"/>
<trkpt lat="52.1048850" lon="6.0858038"/>
<trkpt lat="52.1046438" lon="6.0851177"/>
<trkpt lat="52.1044024" lon="6.0845352"/>
<trkpt lat="52.1041860" lon="6.0839614"/>
<trkpt lat="52.1041163" lon="6.0836557"/>
<trkpt lat="52.1039912" lon="6.0833164"/>
<trkpt lat="52.1039674" lon="6.0819777"/>
<trkpt lat="52.1038033" lon="6.0798574"/>
<trkpt lat="52.1037886" lon="6.0797320"/>
</trkseg></trk>
</gpx>