<?xml version="1.0" encoding="UTF-8"?>
<gpx version="1.1" creator="klompenpaden.nl via Jimbo API" xmlns="http://www.topografix.com/GPX/1/1">
<metadata><name>Eeskooterpad</name><desc>Ontdek het mooie buitengebied van Otterlo. Wandelen door boerenland en langs boerenerven afgewisseld met bos, heide en stuifzand. Het Eeskooterpad brengt u via oude tradities naar nieuwe agrarische initiatieven. Rust, kleinschaligheid en de combinatie van natuur en landschap bepalen hier de sfeer. Klompen aan, rugzak op en gaan!</desc><link href="https://www.klompenpaden.nl/klompenpaden/Eeskooterpad/b117aa48-15d6-46d4-86b0-558c15277d56"><text>klompenpaden.nl</text></link></metadata>
<wpt lat="52.10123319597759" lon="5.771470069885253"><name>Start Otterlo</name></wpt>
<trk><name>Eeskooterpad - Geimporteerde shapefile</name><type>mainRoute</type><trkseg>
<trkpt lat="52.0883084" lon="5.7650095"/>
<trkpt lat="52.0895533" lon="5.7601358"/>
<trkpt lat="52.0896812" lon="5.7602133"/>
<trkpt lat="52.0906426" lon="5.7568593"/>
<trkpt lat="52.0917167" lon="5.7586336"/>
<trkpt lat="52.0919822" lon="5.7575912"/>
<trkpt lat="52.0928136" lon="5.7581633"/>
<trkpt lat="52.0938281" lon="5.7541784"/>
<trkpt lat="52.0941485" lon="5.7534083"/>
<trkpt lat="52.0945281" lon="5.7516749"/>
<trkpt lat="52.0954593" lon="5.7523204"/>
<trkpt lat="52.0957639" lon="5.7510969"/>
<trkpt lat="52.0968971" lon="5.7519235"/>
<trkpt lat="52.0967569" lon="5.7476061"/>
<trkpt lat="52.0965972" lon="5.7476148"/>
<trkpt lat="52.0965356" lon="5.7477040"/>
<trkpt lat="52.0936859" lon="5.7460464"/>
<trkpt lat="52.0934894" lon="5.7460249"/>
<trkpt lat="52.0932299" lon="5.7461048"/>
<trkpt lat="52.0923154" lon="5.7455343"/>
<trkpt lat="52.0928207" lon="5.7436227"/>
<trkpt lat="52.0929184" lon="5.7432663"/>
<trkpt lat="52.0969358" lon="5.7447283"/>
<trkpt lat="52.0971270" lon="5.7448350"/>
<trkpt lat="52.0972258" lon="5.7451380"/>
<trkpt lat="52.0992383" lon="5.7456695"/>
<trkpt lat="52.0993576" lon="5.7455496"/>
<trkpt lat="52.0994783" lon="5.7453728"/>
<trkpt lat="52.1003484" lon="5.7471463"/>
<trkpt lat="52.1005415" lon="5.7471841"/>
<trkpt lat="52.1021550" lon="5.7490554"/>
<trkpt lat="52.1030053" lon="5.7500692"/>
<trkpt lat="52.1040511" lon="5.7513638"/>
<trkpt lat="52.1043569" lon="5.7517451"/>
<trkpt lat="52.1041003" lon="5.7533382"/>
<trkpt lat="52.1038749" lon="5.7547421"/>
<trkpt lat="52.1037311" lon="5.7555584"/>
<trkpt lat="52.1037429" lon="5.7557081"/>
<trkpt lat="52.1037548" lon="5.7558477"/>
<trkpt lat="52.1037357" lon="5.7560569"/>
<trkpt lat="52.1039871" lon="5.7561587"/>
<trkpt lat="52.1042756" lon="5.7561611"/>
<trkpt lat="52.1052954" lon="5.7559601"/>
<trkpt lat="52.1057621" lon="5.7559141"/>
<trkpt lat="52.1061487" lon="5.7559672"/>
<trkpt lat="52.1064127" lon="5.7559694"/>
<trkpt lat="52.1066830" lon="5.7559118"/>
<trkpt lat="52.1069347" lon="5.7559139"/>
<trkpt lat="52.1071738" lon="5.7560355"/>
<trkpt lat="52.1071545" lon="5.7562945"/>
<trkpt lat="52.1070734" lon="5.7567226"/>
<trkpt lat="52.1069800" lon="5.7571506"/>
<trkpt lat="52.1068984" lon="5.7577082"/>
<trkpt lat="52.1068660" lon="5.7582563"/>
<trkpt lat="52.1068890" lon="5.7587351"/>
<trkpt lat="52.1069005" lon="5.7589845"/>
<trkpt lat="52.1068567" lon="5.7592433"/>
<trkpt lat="52.1067691" lon="5.7597810"/>
<trkpt lat="52.1069469" lon="5.7598523"/>
<trkpt lat="52.1077938" lon="5.7599491"/>
<trkpt lat="52.1081866" lon="5.7599823"/>
<trkpt lat="52.1084751" lon="5.7600046"/>
<trkpt lat="52.1086041" lon="5.7599758"/>
<trkpt lat="52.1091454" lon="5.7596513"/>
<trkpt lat="52.1092095" lon="5.7626630"/>
<trkpt lat="52.1092358" lon="5.7640392"/>
<trkpt lat="52.1092573" lon="5.7650066"/>
<trkpt lat="52.1093099" lon="5.7658346"/>
<trkpt lat="52.1095167" lon="5.7683192"/>
<trkpt lat="52.1104944" lon="5.7678589"/>
<trkpt lat="52.1113854" lon="5.7675972"/>
<trkpt lat="52.1126516" lon="5.7671393"/>
<trkpt lat="52.1135182" lon="5.7668376"/>
<trkpt lat="52.1135787" lon="5.7671173"/>
<trkpt lat="52.1134739" lon="5.7672461"/>
<trkpt lat="52.1134905" lon="5.7698371"/>
<trkpt lat="52.1134893" lon="5.7710871"/>
<trkpt lat="52.1138379" lon="5.7726388"/>
<trkpt lat="52.1136231" lon="5.7725634"/>
<trkpt lat="52.1131306" lon="5.7726005"/>
<trkpt lat="52.1127369" lon="5.7727304"/>
<trkpt lat="52.1125810" lon="5.7728164"/>
<trkpt lat="52.1123150" lon="5.7728509"/>
<trkpt lat="52.1122790" lon="5.7726070"/>
<trkpt lat="52.1121837" lon="5.7723396"/>
<trkpt lat="52.1117362" lon="5.7716051"/>
<trkpt lat="52.1115479" lon="5.7712083"/>
<trkpt lat="52.1114052" lon="5.7707383"/>
<trkpt lat="52.1113894" lon="5.7703706"/>
<trkpt lat="52.1111519" lon="5.7703042"/>
<trkpt lat="52.1102269" lon="5.7702641"/>
<trkpt lat="52.1099271" lon="5.7702202"/>
<trkpt lat="52.1095680" lon="5.7701435"/>
<trkpt lat="52.1093729" lon="5.7701189"/>
<trkpt lat="52.1092590" lon="5.7701815"/>
<trkpt lat="52.1091462" lon="5.7702364"/>
<trkpt lat="52.1089750" lon="5.7706776"/>
<trkpt lat="52.1088579" lon="5.7710151"/>
<trkpt lat="52.1086678" lon="5.7711743"/>
<trkpt lat="52.1085669" lon="5.7708840"/>
<trkpt lat="52.1084626" lon="5.7707544"/>
<trkpt lat="52.1083721" lon="5.7707628"/>
<trkpt lat="52.1083490" lon="5.7687080"/>
<trkpt lat="52.1074830" lon="5.7688303"/>
<trkpt lat="52.1066603" lon="5.7688232"/>
<trkpt lat="52.1065068" lon="5.7688319"/>
<trkpt lat="52.1063592" lon="5.7689204"/>
<trkpt lat="52.1062307" lon="5.7687896"/>
<trkpt lat="52.1053834" lon="5.7687924"/>
<trkpt lat="52.1049352" lon="5.7688185"/>
<trkpt lat="52.1044862" lon="5.7690738"/>
<trkpt lat="52.1040977" lon="5.7696089"/>
<trkpt lat="52.1040417" lon="5.7698277"/>
<trkpt lat="52.1039365" lon="5.7700960"/>
<trkpt lat="52.1037269" lon="5.7703534"/>
<trkpt lat="52.1034914" lon="5.7710194"/>
<trkpt lat="52.1032245" lon="5.7719144"/>
<trkpt lat="52.1031325" lon="5.7718936"/>
<trkpt lat="52.1030770" lon="5.7719829"/>
<trkpt lat="52.1029908" lon="5.7720420"/>
<trkpt lat="52.1028560" lon="5.7719810"/>
<trkpt lat="52.1026223" lon="5.7720986"/>
<trkpt lat="52.1019717" lon="5.7720531"/>
<trkpt lat="52.1015607" lon="5.7719299"/>
<trkpt lat="52.1014137" lon="5.7718190"/>
<trkpt lat="52.1012487" lon="5.7715883"/>
<trkpt lat="52.1012199" lon="5.7715708"/>
</trkseg></trk>
<trk><name>Eeskooterpad - Geimporteerde shapefile</name><type>mainRoute</type><trkseg>
<trkpt lat="52.1010278" lon="5.7715565"/>
<trkpt lat="52.1010655" lon="5.7715470"/>
</trkseg></trk>
<trk><name>Eeskooterpad - Geimporteerde shapefile</name><type>mainRoute</type><trkseg>
<trkpt lat="52.1010655" lon="5.7715470"/>
<trkpt lat="52.1010217" lon="5.7715664"/>
</trkseg></trk>
<trk><name>Eeskooterpad - Geimporteerde shapefile</name><type>mainRoute</type><trkseg>
<trkpt lat="52.1010655" lon="5.7715470"/>
<trkpt lat="52.1011472" lon="5.7715265"/>
</trkseg></trk>
<trk><name>Eeskooterpad - Geimporteerde shapefile</name><type>mainRoute</type><trkseg>
<trkpt lat="52.1011472" lon="5.7715265"/>
<trkpt lat="52.1011323" lon="5.7715175"/>
<trkpt lat="52.1010655" lon="5.7715470"/>
</trkseg></trk>
<trk><name>Eeskooterpad - Geimporteerde shapefile</name><type>mainRoute</type><trkseg>
<trkpt lat="52.1011472" lon="5.7715265"/>
<trkpt lat="52.1011814" lon="5.7715179"/>
<trkpt lat="52.1012199" lon="5.7715708"/>
</trkseg></trk>
<trk><name>Eeskooterpad - Geimporteerde shapefile</name><type>mainRoute</type><trkseg>
<trkpt lat="52.1012199" lon="5.7715708"/>
<trkpt lat="52.1011472" lon="5.7715265"/>
</trkseg></trk>
<trk><name>Eeskooterpad - Geimporteerde shapefile</name><type>mainRoute</type><trkseg>
<trkpt lat="52.1012199" lon="5.7715708"/>
<trkpt lat="52.1014442" lon="5.7718791"/>
<trkpt lat="52.1014426" lon="5.7723676"/>
<trkpt lat="52.1014701" lon="5.7733448"/>
<trkpt lat="52.1016435" lon="5.7747619"/>
<trkpt lat="52.1018586" lon="5.7765583"/>
<trkpt lat="52.1020508" lon="5.7778659"/>
<trkpt lat="52.1021708" lon="5.7786944"/>
<trkpt lat="52.1022669" lon="5.7793433"/>
<trkpt lat="52.1025249" lon="5.7792957"/>
<trkpt lat="52.1027892" lon="5.7792083"/>
<trkpt lat="52.1030472" lon="5.7791508"/>
<trkpt lat="52.1031211" lon="5.7790816"/>
<trkpt lat="52.1034042" lon="5.7788747"/>
<trkpt lat="52.1036873" lon="5.7786679"/>
<trkpt lat="52.1040506" lon="5.7783520"/>
<trkpt lat="52.1041057" lon="5.7783824"/>
<trkpt lat="52.1042290" lon="5.7782439"/>
<trkpt lat="52.1044252" lon="5.7782955"/>
<trkpt lat="52.1045178" lon="5.7799912"/>
<trkpt lat="52.1043821" lon="5.7801794"/>
<trkpt lat="52.1043050" lon="5.7812056"/>
<trkpt lat="52.1042788" lon="5.7817039"/>
<trkpt lat="52.1043322" lon="5.7822627"/>
<trkpt lat="52.1043127" lon="5.7825815"/>
<trkpt lat="52.1042739" lon="5.7831794"/>
<trkpt lat="52.1041151" lon="5.7834616"/>
<trkpt lat="52.1039334" lon="5.7835517"/>
<trkpt lat="52.1038749" lon="5.7832905"/>
<trkpt lat="52.1032337" lon="5.7835712"/>
<trkpt lat="52.1033461" lon="5.7841923"/>
<trkpt lat="52.1033301" lon="5.7845069"/>
<trkpt lat="52.1032354" lon="5.7852638"/>
<trkpt lat="52.1029090" lon="5.7855799"/>
<trkpt lat="52.1018876" lon="5.7862487"/>
<trkpt lat="52.1015552" lon="5.7864950"/>
<trkpt lat="52.1008844" lon="5.7869675"/>
<trkpt lat="52.0994441" lon="5.7880811"/>
<trkpt lat="52.0991238" lon="5.7883673"/>
<trkpt lat="52.0969324" lon="5.7900921"/>
<trkpt lat="52.0959597" lon="5.7908608"/>
<trkpt lat="52.0931174" lon="5.7931131"/>
<trkpt lat="52.0931280" lon="5.7927098"/>
<trkpt lat="52.0930746" lon="5.7917726"/>
<trkpt lat="52.0930335" lon="5.7910520"/>
<trkpt lat="52.0928399" lon="5.7907342"/>
<trkpt lat="52.0926098" lon="5.7903564"/>
<trkpt lat="52.0924190" lon="5.7900399"/>
<trkpt lat="52.0923097" lon="5.7898560"/>
<trkpt lat="52.0916465" lon="5.7900270"/>
<trkpt lat="52.0918465" lon="5.7894942"/>
<trkpt lat="52.0919237" lon="5.7887991"/>
<trkpt lat="52.0920032" lon="5.7880841"/>
<trkpt lat="52.0912024" lon="5.7882301"/>
<trkpt lat="52.0906464" lon="5.7882965"/>
<trkpt lat="52.0902842" lon="5.7883532"/>
<trkpt lat="52.0901455" lon="5.7883749"/>
<trkpt lat="52.0897056" lon="5.7867695"/>
<trkpt lat="52.0892497" lon="5.7864206"/>
<trkpt lat="52.0888366" lon="5.7860045"/>
<trkpt lat="52.0891471" lon="5.7855942"/>
<trkpt lat="52.0892574" lon="5.7853133"/>
<trkpt lat="52.0892526" lon="5.7846493"/>
<trkpt lat="52.0884516" lon="5.7838160"/>
<trkpt lat="52.0880992" lon="5.7825080"/>
<trkpt lat="52.0879259" lon="5.7823989"/>
<trkpt lat="52.0875275" lon="5.7821480"/>
<trkpt lat="52.0876535" lon="5.7811392"/>
<trkpt lat="52.0870376" lon="5.7786117"/>
<trkpt lat="52.0867951" lon="5.7776828"/>
<trkpt lat="52.0866557" lon="5.7771434"/>
<trkpt lat="52.0874762" lon="5.7767774"/>
<trkpt lat="52.0875103" lon="5.7767622"/>
<trkpt lat="52.0872769" lon="5.7749363"/>
<trkpt lat="52.0869837" lon="5.7726217"/>
<trkpt lat="52.0867800" lon="5.7710951"/>
<trkpt lat="52.0865942" lon="5.7696883"/>
<trkpt lat="52.0864967" lon="5.7694683"/>
<trkpt lat="52.0864238" lon="5.7692285"/>
<trkpt lat="52.0863880" lon="5.7688993"/>
<trkpt lat="52.0864508" lon="5.7684912"/>
<trkpt lat="52.0864822" lon="5.7682623"/>
<trkpt lat="52.0860035" lon="5.7643815"/>
<trkpt lat="52.0882779" lon="5.7650314"/>
</trkseg></trk>
<trk><name>Eeskooterpad - Geimporteerde shapefile</name><type>shorteningRoute</type><trkseg>
<trkpt lat="52.0896920" lon="5.7601995"/>
<trkpt lat="52.0921877" lon="5.7620890"/>
<trkpt lat="52.0940279" lon="5.7634443"/>
<trkpt lat="52.0950672" lon="5.7641635"/>
<trkpt lat="52.0956528" lon="5.7642649"/>
<trkpt lat="52.0965752" lon="5.7643808"/>
<trkpt lat="52.0980488" lon="5.7646249"/>
<trkpt lat="52.0981076" lon="5.7637798"/>
<trkpt lat="52.0984927" lon="5.7638448"/>
<trkpt lat="52.0984283" lon="5.7646552"/>
<trkpt lat="52.0987905" lon="5.7647084"/>
<trkpt lat="52.0991517" lon="5.7647887"/>
<trkpt lat="52.0996373" lon="5.7648953"/>
<trkpt lat="52.0999807" lon="5.7650179"/>
<trkpt lat="52.1002871" lon="5.7651899"/>
<trkpt lat="52.1005874" lon="5.7653819"/>
<trkpt lat="52.1007773" lon="5.7654932"/>
<trkpt lat="52.1008817" lon="5.7654841"/>
<trkpt lat="52.1011466" lon="5.7652072"/>
<trkpt lat="52.1016773" lon="5.7662684"/>
<trkpt lat="52.1019946" lon="5.7668693"/>
<trkpt lat="52.1022808" lon="5.7665698"/>
<trkpt lat="52.1023526" lon="5.7662741"/>
<trkpt lat="52.1023845" lon="5.7654822"/>
<trkpt lat="52.1024241" lon="5.7650485"/>
<trkpt lat="52.1028017" lon="5.7640647"/>
<trkpt lat="52.1028821" lon="5.7638859"/>
<trkpt lat="52.1027312" lon="5.7630672"/>
<trkpt lat="52.1024321" lon="5.7625363"/>
<trkpt lat="52.1020171" lon="5.7617651"/>
<trkpt lat="52.1021834" lon="5.7616070"/>
<trkpt lat="52.1024109" lon="5.7614893"/>
<trkpt lat="52.1027365" lon="5.7614023"/>
<trkpt lat="52.1028721" lon="5.7612539"/>
<trkpt lat="52.1030008" lon="5.7613148"/>
<trkpt lat="52.1033506" lon="5.7613576"/>
<trkpt lat="52.1037437" lon="5.7613210"/>
<trkpt lat="52.1040814" lon="5.7612939"/>
<trkpt lat="52.1044503" lon="5.7611176"/>
<trkpt lat="52.1048378" lon="5.7608915"/>
<trkpt lat="52.1052253" lon="5.7606754"/>
<trkpt lat="52.1053728" lon="5.7606168"/>
<trkpt lat="52.1054407" lon="5.7605077"/>
<trkpt lat="52.1056710" lon="5.7595126"/>
<trkpt lat="52.1067629" lon="5.7597909"/>
</trkseg></trk>
<trk><name>Eeskooterpad - Geimporteerde shapefile</name><type>extensionRoute</type><trkseg>
<trkpt lat="52.0924579" lon="5.7449951"/>
<trkpt lat="52.0923050" lon="5.7448822"/>
<trkpt lat="52.0873401" lon="5.7412155"/>
<trkpt lat="52.0877872" lon="5.7396715"/>
<trkpt lat="52.0877254" lon="5.7396144"/>
<trkpt lat="52.0878076" lon="5.7393007"/>
<trkpt lat="52.0860852" lon="5.7377786"/>
<trkpt lat="52.0851306" lon="5.7413423"/>
<trkpt lat="52.0839680" lon="5.7404356"/>
<trkpt lat="52.0839142" lon="5.7409216"/>
<trkpt lat="52.0838840" lon="5.7414772"/>
<trkpt lat="52.0835599" lon="5.7417062"/>
<trkpt lat="52.0833318" lon="5.7416427"/>
<trkpt lat="52.0824965" lon="5.7410339"/>
<trkpt lat="52.0820348" lon="5.7409187"/>
<trkpt lat="52.0812416" lon="5.7413409"/>
<trkpt lat="52.0817168" lon="5.7422942"/>
<trkpt lat="52.0809331" lon="5.7443028"/>
<trkpt lat="52.0812245" lon="5.7446526"/>
<trkpt lat="52.0813015" lon="5.7451511"/>
<trkpt lat="52.0812433" lon="5.7455212"/>
<trkpt lat="52.0816984" lon="5.7468757"/>
<trkpt lat="52.0822691" lon="5.7483433"/>
<trkpt lat="52.0832168" lon="5.7487331"/>
<trkpt lat="52.0859663" lon="5.7506806"/>
<trkpt lat="52.0877218" lon="5.7518087"/>
<trkpt lat="52.0888099" lon="5.7525381"/>
<trkpt lat="52.0896171" lon="5.7530818"/>
<trkpt lat="52.0900793" lon="5.7535720"/>
<trkpt lat="52.0902600" lon="5.7530634"/>
<trkpt lat="52.0914288" lon="5.7538952"/>
<trkpt lat="52.0935485" lon="5.7552684"/>
</trkseg></trk>
<trk><name>Eeskooterpad - Geimporteerde shapefile</name><type>connectionRoute</type><trkseg>
<trkpt lat="52.0645077" lon="5.7612219"/>
<trkpt lat="52.0656227" lon="5.7604411"/>
<trkpt lat="52.0669679" lon="5.7592021"/>
<trkpt lat="52.0688139" lon="5.7574810"/>
<trkpt lat="52.0702549" lon="5.7575392"/>
<trkpt lat="52.0710686" lon="5.7574302"/>
<trkpt lat="52.0713675" lon="5.7576410"/>
<trkpt lat="52.0718949" lon="5.7578306"/>
<trkpt lat="52.0727935" lon="5.7579307"/>
<trkpt lat="52.0733634" lon="5.7581901"/>
<trkpt lat="52.0738766" lon="5.7583565"/>
<trkpt lat="52.0764246" lon="5.7602765"/>
<trkpt lat="52.0775781" lon="5.7609809"/>
<trkpt lat="52.0785490" lon="5.7607805"/>
<trkpt lat="52.0800057" lon="5.7603759"/>
<trkpt lat="52.0803473" lon="5.7606566"/>
<trkpt lat="52.0808318" lon="5.7608459"/>
<trkpt lat="52.0830813" lon="5.7623933"/>
<trkpt lat="52.0834054" lon="5.7636930"/>
<trkpt lat="52.0883093" lon="5.7650055"/>
</trkseg></trk>
<trk><name>Eeskooterpad - Geimporteerde shapefile</name><type>connectionRoute</type><trkseg>
<trkpt lat="52.1196406" lon="5.7543951"/>
<trkpt lat="52.1165856" lon="5.7557517"/>
<trkpt lat="52.1140795" lon="5.7569821"/>
<trkpt lat="52.1121345" lon="5.7580139"/>
<trkpt lat="52.1091307" lon="5.7596663"/>
</trkseg></trk>
<trk><name>Eeskooterpad - Geimporteerde shapefile</name><type>approachRoute</type><trkseg>
<trkpt lat="52.0885211" lon="5.7347477"/>
<trkpt lat="52.0884101" lon="5.7347227"/>
<trkpt lat="52.0883400" lon="5.7346426"/>
<trkpt lat="52.0882764" lon="5.7345097"/>
<trkpt lat="52.0881906" lon="5.7344382"/>
<trkpt lat="52.0881191" lon="5.7346328"/>
<trkpt lat="52.0880970" lon="5.7348751"/>
<trkpt lat="52.0881506" lon="5.7350365"/>
<trkpt lat="52.0882261" lon="5.7353947"/>
<trkpt lat="52.0883632" lon="5.7355458"/>
<trkpt lat="52.0884214" lon="5.7356667"/>
<trkpt lat="52.0884406" lon="5.7357746"/>
<trkpt lat="52.0884323" lon="5.7359331"/>
<trkpt lat="52.0883932" lon="5.7359455"/>
<trkpt lat="52.0883428" lon="5.7358119"/>
<trkpt lat="52.0883121" lon="5.7356405"/>
<trkpt lat="52.0881874" lon="5.7355444"/>
<trkpt lat="52.0880817" lon="5.7356197"/>
<trkpt lat="52.0880307" lon="5.7357080"/>
<trkpt lat="52.0880029" lon="5.7358663"/>
<trkpt lat="52.0880023" lon="5.7360502"/>
<trkpt lat="52.0879666" lon="5.7362528"/>
<trkpt lat="52.0878685" lon="5.7363789"/>
<trkpt lat="52.0877122" lon="5.7364157"/>
<trkpt lat="52.0876186" lon="5.7363769"/>
<trkpt lat="52.0875519" lon="5.7364715"/>
<trkpt lat="52.0874754" lon="5.7366482"/>
<trkpt lat="52.0867065" lon="5.7359270"/>
<trkpt lat="52.0866351" lon="5.7357943"/>
<trkpt lat="52.0865128" lon="5.7360870"/>
<trkpt lat="52.0863891" lon="5.7363831"/>
<trkpt lat="52.0861715" lon="5.7370810"/>
<trkpt lat="52.0861347" lon="5.7375574"/>
<trkpt lat="52.0860793" lon="5.7377915"/>
</trkseg></trk>
</gpx>