<?xml version="1.0" encoding="UTF-8"?>
<gpx version="1.1" creator="klompenpaden.nl via Jimbo API" xmlns="http://www.topografix.com/GPX/1/1">
<metadata><name>Eldensche Veldpad</name><desc>Ontdek het afwisselende buitengebied van Elden. Wandel langs het Romeinse en recentere verleden, over dijken, door boomgaarden en uiterwaardennatuur met zicht op de Nederrijn en de skyline van Arnhem.
Klompen aan, rugzak op en gaan!
</desc><link href="https://www.klompenpaden.nl/klompenpaden/Eldensche_Veldpad/47a7849c-9e1b-46b8-bfa3-f5691337d5d2"><text>klompenpaden.nl</text></link></metadata>
<wpt lat="51.95838920178848" lon="5.883033871650697"><name>Start Elden</name></wpt>
<trk><name>Eldensche Veldpad - struinroute</name><type>mainRoute</type><trkseg>
<trkpt lat="51.9689082" lon="5.8737707"/>
<trkpt lat="51.9690585" lon="5.8736095"/>
<trkpt lat="51.9691455" lon="5.8735487"/>
<trkpt lat="51.9691862" lon="5.8735603"/>
<trkpt lat="51.9692868" lon="5.8736555"/>
<trkpt lat="51.9694368" lon="5.8736811"/>
<trkpt lat="51.9698459" lon="5.8735604"/>
<trkpt lat="51.9699844" lon="5.8735363"/>
<trkpt lat="51.9700501" lon="5.8735765"/>
<trkpt lat="51.9704093" lon="5.8739466"/>
<trkpt lat="51.9709535" lon="5.8744292"/>
<trkpt lat="51.9712218" lon="5.8746867"/>
<trkpt lat="51.9714121" lon="5.8747430"/>
<trkpt lat="51.9715033" lon="5.8746974"/>
<trkpt lat="51.9715951" lon="5.8743594"/>
<trkpt lat="51.9717174" lon="5.8740590"/>
<trkpt lat="51.9718231" lon="5.8737264"/>
<trkpt lat="51.9719751" lon="5.8734215"/>
<trkpt lat="51.9720432" lon="5.8734466"/>
<trkpt lat="51.9721207" lon="5.8744164"/>
<trkpt lat="51.9721037" lon="5.8743302"/>
<trkpt lat="51.9720854" lon="5.8743562"/>
<trkpt lat="51.9721303" lon="5.8744917"/>
<trkpt lat="51.9721430" lon="5.8745563"/>
<trkpt lat="51.9721605" lon="5.8746509"/>
<trkpt lat="51.9722063" lon="5.8748960"/>
<trkpt lat="51.9722350" lon="5.8749906"/>
<trkpt lat="51.9722458" lon="5.8750204"/>
<trkpt lat="51.9723469" lon="5.8753012"/>
<trkpt lat="51.9724027" lon="5.8754348"/>
<trkpt lat="51.9723858" lon="5.8755578"/>
<trkpt lat="51.9723428" lon="5.8756310"/>
<trkpt lat="51.9723414" lon="5.8756769"/>
</trkseg></trk>
<trk><name>Eldensche Veldpad - struinroute</name><type>mainRoute</type><trkseg>
<trkpt lat="51.9724407" lon="5.8797752"/>
<trkpt lat="51.9724368" lon="5.8798193"/>
<trkpt lat="51.9723855" lon="5.8800048"/>
<trkpt lat="51.9723639" lon="5.8803581"/>
<trkpt lat="51.9724250" lon="5.8808024"/>
<trkpt lat="51.9726661" lon="5.8827639"/>
<trkpt lat="51.9728426" lon="5.8836591"/>
<trkpt lat="51.9729325" lon="5.8838627"/>
<trkpt lat="51.9730554" lon="5.8839697"/>
<trkpt lat="51.9733096" lon="5.8838618"/>
<trkpt lat="51.9735637" lon="5.8838236"/>
<trkpt lat="51.9736434" lon="5.8839141"/>
<trkpt lat="51.9736834" lon="5.8840206"/>
<trkpt lat="51.9737105" lon="5.8843193"/>
<trkpt lat="51.9737059" lon="5.8848200"/>
<trkpt lat="51.9737680" lon="5.8853145"/>
<trkpt lat="51.9738136" lon="5.8858035"/>
<trkpt lat="51.9739653" lon="5.8863980"/>
<trkpt lat="51.9739847" lon="5.8868530"/>
<trkpt lat="51.9740303" lon="5.8873448"/>
<trkpt lat="51.9742993" lon="5.8890495"/>
<trkpt lat="51.9740146" lon="5.8892056"/>
</trkseg></trk>
<trk><name>Eldensche Veldpad - Hoofdroute</name><type>mainRoute</type><trkseg>
<trkpt lat="51.9618917" lon="5.8861378"/>
<trkpt lat="51.9619930" lon="5.8862387"/>
<trkpt lat="51.9620776" lon="5.8863302"/>
<trkpt lat="51.9621290" lon="5.8864351"/>
<trkpt lat="51.9622060" lon="5.8866137"/>
<trkpt lat="51.9622467" lon="5.8867925"/>
<trkpt lat="51.9622938" lon="5.8869922"/>
<trkpt lat="51.9623227" lon="5.8871879"/>
<trkpt lat="51.9623557" lon="5.8873548"/>
<trkpt lat="51.9623946" lon="5.8875111"/>
<trkpt lat="51.9624269" lon="5.8876031"/>
<trkpt lat="51.9625170" lon="5.8876441"/>
<trkpt lat="51.9626059" lon="5.8876758"/>
<trkpt lat="51.9626774" lon="5.8877167"/>
<trkpt lat="51.9627622" lon="5.8877309"/>
<trkpt lat="51.9628453" lon="5.8877209"/>
<trkpt lat="51.9629469" lon="5.8875935"/>
<trkpt lat="51.9630250" lon="5.8874546"/>
<trkpt lat="51.9630913" lon="5.8873276"/>
<trkpt lat="51.9631377" lon="5.8872274"/>
<trkpt lat="51.9632418" lon="5.8870074"/>
<trkpt lat="51.9633228" lon="5.8866239"/>
<trkpt lat="51.9633451" lon="5.8863796"/>
<trkpt lat="51.9633443" lon="5.8861513"/>
<trkpt lat="51.9633426" lon="5.8857057"/>
<trkpt lat="51.9633690" lon="5.8854686"/>
<trkpt lat="51.9634401" lon="5.8852447"/>
<trkpt lat="51.9635186" lon="5.8850555"/>
<trkpt lat="51.9637095" lon="5.8846064"/>
<trkpt lat="51.9639937" lon="5.8839708"/>
<trkpt lat="51.9642846" lon="5.8833339"/>
<trkpt lat="51.9644101" lon="5.8831153"/>
<trkpt lat="51.9644787" lon="5.8828819"/>
<trkpt lat="51.9645597" lon="5.8826647"/>
<trkpt lat="51.9647506" lon="5.8821854"/>
<trkpt lat="51.9648976" lon="5.8819232"/>
<trkpt lat="51.9649980" lon="5.8817341"/>
<trkpt lat="51.9650465" lon="5.8817683"/>
<trkpt lat="51.9651000" lon="5.8818333"/>
<trkpt lat="51.9652739" lon="5.8821149"/>
<trkpt lat="51.9654495" lon="5.8823147"/>
<trkpt lat="51.9657685" lon="5.8825025"/>
<trkpt lat="51.9659978" lon="5.8825722"/>
<trkpt lat="51.9661670" lon="5.8825802"/>
<trkpt lat="51.9663064" lon="5.8824596"/>
<trkpt lat="51.9663891" lon="5.8823147"/>
<trkpt lat="51.9664056" lon="5.8820680"/>
<trkpt lat="51.9662955" lon="5.8816818"/>
<trkpt lat="51.9661161" lon="5.8812957"/>
<trkpt lat="51.9659191" lon="5.8807808"/>
<trkpt lat="51.9656931" lon="5.8805394"/>
<trkpt lat="51.9654465" lon="5.8802283"/>
<trkpt lat="51.9653167" lon="5.8799622"/>
<trkpt lat="51.9652930" lon="5.8797836"/>
<trkpt lat="51.9653024" lon="5.8796211"/>
<trkpt lat="51.9653772" lon="5.8793304"/>
<trkpt lat="51.9655576" lon="5.8790751"/>
<trkpt lat="51.9655820" lon="5.8790547"/>
<trkpt lat="51.9653623" lon="5.8789447"/>
<trkpt lat="51.9650764" lon="5.8789635"/>
<trkpt lat="51.9648385" lon="5.8790557"/>
<trkpt lat="51.9645939" lon="5.8792339"/>
<trkpt lat="51.9642839" lon="5.8794848"/>
<trkpt lat="51.9639733" lon="5.8798389"/>
<trkpt lat="51.9638840" lon="5.8799954"/>
<trkpt lat="51.9638338" lon="5.8803451"/>
<trkpt lat="51.9636011" lon="5.8804009"/>
<trkpt lat="51.9634068" lon="5.8805082"/>
<trkpt lat="51.9633189" lon="5.8806476"/>
<trkpt lat="51.9632918" lon="5.8807485"/>
<trkpt lat="51.9633179" lon="5.8808327"/>
<trkpt lat="51.9633678" lon="5.8809169"/>
<trkpt lat="51.9635231" lon="5.8811154"/>
<trkpt lat="51.9636838" lon="5.8813117"/>
<trkpt lat="51.9638444" lon="5.8815123"/>
<trkpt lat="51.9639039" lon="5.8816496"/>
<trkpt lat="51.9638139" lon="5.8818835"/>
<trkpt lat="51.9637115" lon="5.8819425"/>
<trkpt lat="51.9636064" lon="5.8819134"/>
<trkpt lat="51.9631120" lon="5.8816678"/>
<trkpt lat="51.9626017" lon="5.8816152"/>
<trkpt lat="51.9625990" lon="5.8820615"/>
<trkpt lat="51.9626030" lon="5.8825249"/>
<trkpt lat="51.9626790" lon="5.8830957"/>
<trkpt lat="51.9627302" lon="5.8836556"/>
<trkpt lat="51.9627466" lon="5.8840451"/>
<trkpt lat="51.9627550" lon="5.8844108"/>
<trkpt lat="51.9627312" lon="5.8846887"/>
<trkpt lat="51.9626810" lon="5.8848764"/>
<trkpt lat="51.9625970" lon="5.8850362"/>
<trkpt lat="51.9624576" lon="5.8851403"/>
<trkpt lat="51.9623022" lon="5.8850920"/>
<trkpt lat="51.9621968" lon="5.8850829"/>
<trkpt lat="51.9621059" lon="5.8851746"/>
<trkpt lat="51.9620113" lon="5.8853832"/>
<trkpt lat="51.9619349" lon="5.8856400"/>
<trkpt lat="51.9618948" lon="5.8857975"/>
<trkpt lat="51.9618564" lon="5.8858558"/>
<trkpt lat="51.9618193" lon="5.8859020"/>
<trkpt lat="51.9618939" lon="5.8861332"/>
</trkseg></trk>
<trk><name>Eldensche Veldpad - Hoofdroute</name><type>mainRoute</type><trkseg>
<trkpt lat="51.9632902" lon="5.8505707"/>
<trkpt lat="51.9632712" lon="5.8505888"/>
<trkpt lat="51.9632629" lon="5.8508919"/>
<trkpt lat="51.9632200" lon="5.8515624"/>
<trkpt lat="51.9631670" lon="5.8519914"/>
<trkpt lat="51.9630150" lon="5.8524420"/>
<trkpt lat="51.9628201" lon="5.8531499"/>
<trkpt lat="51.9626449" lon="5.8538097"/>
<trkpt lat="51.9625705" lon="5.8540564"/>
<trkpt lat="51.9625324" lon="5.8542817"/>
<trkpt lat="51.9627208" lon="5.8543354"/>
<trkpt lat="51.9629026" lon="5.8544695"/>
<trkpt lat="51.9633455" lon="5.8547538"/>
<trkpt lat="51.9635735" lon="5.8549200"/>
<trkpt lat="51.9636628" lon="5.8551131"/>
<trkpt lat="51.9637851" lon="5.8554188"/>
<trkpt lat="51.9639800" lon="5.8558855"/>
<trkpt lat="51.9640626" lon="5.8560572"/>
<trkpt lat="51.9641337" lon="5.8560250"/>
<trkpt lat="51.9641618" lon="5.8560947"/>
<trkpt lat="51.9641337" lon="5.8564621"/>
<trkpt lat="51.9641915" lon="5.8565024"/>
<trkpt lat="51.9646104" lon="5.8565834"/>
<trkpt lat="51.9647021" lon="5.8566914"/>
<trkpt lat="51.9648029" lon="5.8569503"/>
<trkpt lat="51.9648690" lon="5.8572857"/>
<trkpt lat="51.9648505" lon="5.8575697"/>
<trkpt lat="51.9648916" lon="5.8578508"/>
<trkpt lat="51.9648922" lon="5.8581362"/>
<trkpt lat="51.9649523" lon="5.8587186"/>
<trkpt lat="51.9650759" lon="5.8591886"/>
<trkpt lat="51.9653747" lon="5.8597828"/>
<trkpt lat="51.9655162" lon="5.8600563"/>
<trkpt lat="51.9655946" lon="5.8603117"/>
<trkpt lat="51.9656613" lon="5.8605927"/>
<trkpt lat="51.9656467" lon="5.8611047"/>
<trkpt lat="51.9657595" lon="5.8614146"/>
<trkpt lat="51.9658393" lon="5.8617190"/>
<trkpt lat="51.9658392" lon="5.8619619"/>
<trkpt lat="51.9658193" lon="5.8621297"/>
<trkpt lat="51.9660418" lon="5.8621531"/>
<trkpt lat="51.9661156" lon="5.8621483"/>
<trkpt lat="51.9662710" lon="5.8620785"/>
<trkpt lat="51.9664362" lon="5.8620222"/>
<trkpt lat="51.9664758" lon="5.8620624"/>
<trkpt lat="51.9665337" lon="5.8621026"/>
<trkpt lat="51.9665122" lon="5.8622716"/>
<trkpt lat="51.9668063" lon="5.8646585"/>
<trkpt lat="51.9666113" lon="5.8649857"/>
<trkpt lat="51.9666311" lon="5.8652807"/>
<trkpt lat="51.9666444" lon="5.8654255"/>
<trkpt lat="51.9666972" lon="5.8656615"/>
<trkpt lat="51.9667190" lon="5.8658696"/>
<trkpt lat="51.9668082" lon="5.8659447"/>
<trkpt lat="51.9670181" lon="5.8659581"/>
<trkpt lat="51.9671156" lon="5.8660252"/>
<trkpt lat="51.9670256" lon="5.8664074"/>
<trkpt lat="51.9668645" lon="5.8669853"/>
<trkpt lat="51.9667810" lon="5.8674170"/>
<trkpt lat="51.9666587" lon="5.8679293"/>
<trkpt lat="51.9667702" lon="5.8680567"/>
<trkpt lat="51.9667653" lon="5.8681278"/>
<trkpt lat="51.9665568" lon="5.8686453"/>
<trkpt lat="51.9663965" lon="5.8691039"/>
<trkpt lat="51.9664898" lon="5.8692019"/>
<trkpt lat="51.9666311" lon="5.8693292"/>
<trkpt lat="51.9667931" lon="5.8695169"/>
<trkpt lat="51.9669166" lon="5.8696263"/>
<trkpt lat="51.9671316" lon="5.8697861"/>
<trkpt lat="51.9673243" lon="5.8699568"/>
<trkpt lat="51.9674519" lon="5.8700802"/>
<trkpt lat="51.9675540" lon="5.8702210"/>
<trkpt lat="51.9675779" lon="5.8703779"/>
<trkpt lat="51.9675789" lon="5.8704841"/>
<trkpt lat="51.9675833" lon="5.8705015"/>
<trkpt lat="51.9676505" lon="5.8708440"/>
<trkpt lat="51.9678474" lon="5.8709864"/>
<trkpt lat="51.9679702" lon="5.8711783"/>
<trkpt lat="51.9680038" lon="5.8714989"/>
<trkpt lat="51.9679941" lon="5.8721484"/>
<trkpt lat="51.9680170" lon="5.8726921"/>
<trkpt lat="51.9680197" lon="5.8732319"/>
<trkpt lat="51.9680697" lon="5.8734606"/>
<trkpt lat="51.9681502" lon="5.8740644"/>
<trkpt lat="51.9681159" lon="5.8741635"/>
<trkpt lat="51.9679892" lon="5.8741233"/>
<trkpt lat="51.9677854" lon="5.8739989"/>
<trkpt lat="51.9674193" lon="5.8738549"/>
<trkpt lat="51.9674540" lon="5.8739180"/>
<trkpt lat="51.9672431" lon="5.8740140"/>
<trkpt lat="51.9670481" lon="5.8740998"/>
<trkpt lat="51.9669424" lon="5.8742660"/>
<trkpt lat="51.9668697" lon="5.8745288"/>
<trkpt lat="51.9668928" lon="5.8748400"/>
<trkpt lat="51.9669688" lon="5.8752047"/>
<trkpt lat="51.9670251" lon="5.8754675"/>
<trkpt lat="51.9671741" lon="5.8758870"/>
<trkpt lat="51.9671909" lon="5.8761240"/>
<trkpt lat="51.9671314" lon="5.8763278"/>
<trkpt lat="51.9670455" lon="5.8765210"/>
<trkpt lat="51.9670038" lon="5.8766859"/>
<trkpt lat="51.9669951" lon="5.8768401"/>
<trkpt lat="51.9669892" lon="5.8772130"/>
</trkseg></trk>
<trk><name>Eldensche Veldpad - Hoofdroute</name><type>mainRoute</type><trkseg>
<trkpt lat="51.9669893" lon="5.8772129"/>
<trkpt lat="51.9671827" lon="5.8768992"/>
<trkpt lat="51.9673033" lon="5.8767785"/>
<trkpt lat="51.9674420" lon="5.8766605"/>
<trkpt lat="51.9676213" lon="5.8765858"/>
<trkpt lat="51.9678502" lon="5.8764791"/>
<trkpt lat="51.9679741" lon="5.8763128"/>
<trkpt lat="51.9680931" lon="5.8761144"/>
<trkpt lat="51.9681856" lon="5.8757873"/>
<trkpt lat="51.9682649" lon="5.8755265"/>
<trkpt lat="51.9683079" lon="5.8751672"/>
<trkpt lat="51.9683121" lon="5.8749212"/>
<trkpt lat="51.9682942" lon="5.8745622"/>
<trkpt lat="51.9683259" lon="5.8744393"/>
<trkpt lat="51.9684191" lon="5.8745904"/>
<trkpt lat="51.9684597" lon="5.8746339"/>
<trkpt lat="51.9685333" lon="5.8745486"/>
<trkpt lat="51.9685834" lon="5.8742580"/>
<trkpt lat="51.9686632" lon="5.8740531"/>
<trkpt lat="51.9688642" lon="5.8738179"/>
<trkpt lat="51.9689082" lon="5.8737707"/>
</trkseg></trk>
<trk><name>Eldensche Veldpad - Hoofdroute</name><type>mainRoute</type><trkseg>
<trkpt lat="51.9669895" lon="5.8772128"/>
<trkpt lat="51.9669570" lon="5.8773398"/>
<trkpt lat="51.9669150" lon="5.8774136"/>
<trkpt lat="51.9667828" lon="5.8777247"/>
<trkpt lat="51.9667293" lon="5.8782601"/>
<trkpt lat="51.9666824" lon="5.8784628"/>
<trkpt lat="51.9664510" lon="5.8787444"/>
<trkpt lat="51.9662974" lon="5.8789335"/>
<trkpt lat="51.9661470" lon="5.8791172"/>
<trkpt lat="51.9660793" lon="5.8792138"/>
<trkpt lat="51.9660537" lon="5.8792781"/>
<trkpt lat="51.9659950" lon="5.8792432"/>
<trkpt lat="51.9658644" lon="5.8791373"/>
<trkpt lat="51.9657454" lon="5.8790502"/>
<trkpt lat="51.9656281" lon="5.8789616"/>
<trkpt lat="51.9655852" lon="5.8790367"/>
</trkseg></trk>
<trk><name>Eldensche Veldpad - Hoofdroute</name><type>mainRoute</type><trkseg>
<trkpt lat="51.9723414" lon="5.8756769"/>
<trkpt lat="51.9723329" lon="5.8759572"/>
<trkpt lat="51.9723427" lon="5.8762620"/>
<trkpt lat="51.9724130" lon="5.8763834"/>
<trkpt lat="51.9725030" lon="5.8764512"/>
<trkpt lat="51.9724823" lon="5.8779567"/>
<trkpt lat="51.9724583" lon="5.8795746"/>
<trkpt lat="51.9724407" lon="5.8797752"/>
</trkseg></trk>
<trk><name>Eldensche Veldpad - Hoofdroute</name><type>mainRoute</type><trkseg>
<trkpt lat="51.9740146" lon="5.8892056"/>
<trkpt lat="51.9733896" lon="5.8895479"/>
<trkpt lat="51.9727167" lon="5.8897704"/>
<trkpt lat="51.9721231" lon="5.8898962"/>
<trkpt lat="51.9714806" lon="5.8900797"/>
<trkpt lat="51.9708513" lon="5.8903276"/>
<trkpt lat="51.9707259" lon="5.8903983"/>
<trkpt lat="51.9707195" lon="5.8905871"/>
<trkpt lat="51.9710459" lon="5.8917146"/>
<trkpt lat="51.9722345" lon="5.8926312"/>
<trkpt lat="51.9727977" lon="5.8930692"/>
<trkpt lat="51.9730165" lon="5.8932544"/>
<trkpt lat="51.9731454" lon="5.8933838"/>
<trkpt lat="51.9731685" lon="5.8934928"/>
<trkpt lat="51.9731750" lon="5.8936098"/>
<trkpt lat="51.9731254" lon="5.8938955"/>
<trkpt lat="51.9729628" lon="5.8942558"/>
<trkpt lat="51.9727794" lon="5.8950378"/>
<trkpt lat="51.9729768" lon="5.8951809"/>
<trkpt lat="51.9730977" lon="5.8952778"/>
<trkpt lat="51.9734014" lon="5.8954644"/>
<trkpt lat="51.9736418" lon="5.8956339"/>
<trkpt lat="51.9739103" lon="5.8958048"/>
<trkpt lat="51.9743551" lon="5.8960731"/>
<trkpt lat="51.9747506" lon="5.8963874"/>
<trkpt lat="51.9750627" lon="5.8967402"/>
<trkpt lat="51.9752057" lon="5.8970015"/>
<trkpt lat="51.9753735" lon="5.8973604"/>
<trkpt lat="51.9756017" lon="5.8974695"/>
<trkpt lat="51.9757930" lon="5.8973922"/>
<trkpt lat="51.9760156" lon="5.8973160"/>
<trkpt lat="51.9763512" lon="5.8977023"/>
<trkpt lat="51.9768523" lon="5.8983452"/>
<trkpt lat="51.9772526" lon="5.8989104"/>
<trkpt lat="51.9774639" lon="5.8991885"/>
<trkpt lat="51.9776030" lon="5.8994445"/>
<trkpt lat="51.9778111" lon="5.8996030"/>
<trkpt lat="51.9780260" lon="5.8998475"/>
<trkpt lat="51.9781682" lon="5.8999019"/>
<trkpt lat="51.9783306" lon="5.8997873"/>
<trkpt lat="51.9786224" lon="5.8992573"/>
<trkpt lat="51.9787040" lon="5.8988841"/>
<trkpt lat="51.9792238" lon="5.8979447"/>
<trkpt lat="51.9791798" lon="5.8976963"/>
<trkpt lat="51.9784442" lon="5.8968778"/>
<trkpt lat="51.9779511" lon="5.8959915"/>
<trkpt lat="51.9782862" lon="5.8953563"/>
<trkpt lat="51.9782827" lon="5.8942145"/>
<trkpt lat="51.9780808" lon="5.8917103"/>
<trkpt lat="51.9777666" lon="5.8890238"/>
<trkpt lat="51.9786151" lon="5.8888482"/>
<trkpt lat="51.9794635" lon="5.8887476"/>
<trkpt lat="51.9794477" lon="5.8877769"/>
<trkpt lat="51.9793923" lon="5.8871496"/>
<trkpt lat="51.9793203" lon="5.8865489"/>
<trkpt lat="51.9790093" lon="5.8851066"/>
<trkpt lat="51.9788735" lon="5.8849516"/>
<trkpt lat="51.9786848" lon="5.8848986"/>
<trkpt lat="51.9783264" lon="5.8837796"/>
<trkpt lat="51.9783628" lon="5.8833333"/>
<trkpt lat="51.9783100" lon="5.8830802"/>
<trkpt lat="51.9782110" lon="5.8828700"/>
<trkpt lat="51.9778016" lon="5.8819217"/>
<trkpt lat="51.9777029" lon="5.8815367"/>
<trkpt lat="51.9776966" lon="5.8811408"/>
<trkpt lat="51.9778464" lon="5.8801816"/>
<trkpt lat="51.9778137" lon="5.8794533"/>
<trkpt lat="51.9777710" lon="5.8791374"/>
<trkpt lat="51.9776753" lon="5.8788000"/>
<trkpt lat="51.9776162" lon="5.8785651"/>
<trkpt lat="51.9774976" lon="5.8783409"/>
<trkpt lat="51.9772984" lon="5.8780912"/>
<trkpt lat="51.9770761" lon="5.8779111"/>
<trkpt lat="51.9773200" lon="5.8759944"/>
<trkpt lat="51.9773256" lon="5.8757737"/>
<trkpt lat="51.9772716" lon="5.8755529"/>
<trkpt lat="51.9770755" lon="5.8752157"/>
<trkpt lat="51.9768132" lon="5.8749107"/>
<trkpt lat="51.9762961" lon="5.8743724"/>
<trkpt lat="51.9762907" lon="5.8742665"/>
<trkpt lat="51.9763143" lon="5.8741384"/>
<trkpt lat="51.9763262" lon="5.8739185"/>
<trkpt lat="51.9763035" lon="5.8738313"/>
<trkpt lat="51.9762746" lon="5.8737603"/>
<trkpt lat="51.9761791" lon="5.8736047"/>
<trkpt lat="51.9760093" lon="5.8733540"/>
<trkpt lat="51.9754504" lon="5.8726670"/>
<trkpt lat="51.9754343" lon="5.8726460"/>
<trkpt lat="51.9753304" lon="5.8725278"/>
<trkpt lat="51.9751653" lon="5.8723345"/>
<trkpt lat="51.9748658" lon="5.8720133"/>
<trkpt lat="51.9741978" lon="5.8713166"/>
<trkpt lat="51.9736515" lon="5.8708026"/>
<trkpt lat="51.9734967" lon="5.8706560"/>
<trkpt lat="51.9734239" lon="5.8706224"/>
<trkpt lat="51.9733852" lon="5.8706109"/>
<trkpt lat="51.9733428" lon="5.8706081"/>
<trkpt lat="51.9732673" lon="5.8706291"/>
<trkpt lat="51.9731964" lon="5.8707005"/>
<trkpt lat="51.9730764" lon="5.8708781"/>
<trkpt lat="51.9726816" lon="5.8715711"/>
<trkpt lat="51.9725912" lon="5.8716802"/>
<trkpt lat="51.9725538" lon="5.8716739"/>
<trkpt lat="51.9722039" lon="5.8713563"/>
<trkpt lat="51.9720815" lon="5.8712925"/>
<trkpt lat="51.9720236" lon="5.8712793"/>
<trkpt lat="51.9719434" lon="5.8712969"/>
<trkpt lat="51.9718715" lon="5.8713267"/>
<trkpt lat="51.9718194" lon="5.8713572"/>
<trkpt lat="51.9713366" lon="5.8716092"/>
<trkpt lat="51.9701396" lon="5.8722407"/>
<trkpt lat="51.9700102" lon="5.8723118"/>
<trkpt lat="51.9699588" lon="5.8723453"/>
<trkpt lat="51.9698863" lon="5.8723727"/>
<trkpt lat="51.9697916" lon="5.8723808"/>
<trkpt lat="51.9696984" lon="5.8723593"/>
<trkpt lat="51.9696848" lon="5.8723593"/>
<trkpt lat="51.9694010" lon="5.8722568"/>
<trkpt lat="51.9691592" lon="5.8721077"/>
<trkpt lat="51.9690402" lon="5.8720004"/>
<trkpt lat="51.9687659" lon="5.8717107"/>
<trkpt lat="51.9685540" lon="5.8714412"/>
<trkpt lat="51.9685325" lon="5.8714042"/>
<trkpt lat="51.9685247" lon="5.8714134"/>
<trkpt lat="51.9684338" lon="5.8712796"/>
<trkpt lat="51.9684028" lon="5.8711657"/>
<trkpt lat="51.9683892" lon="5.8710457"/>
<trkpt lat="51.9684520" lon="5.8708526"/>
<trkpt lat="51.9684487" lon="5.8706488"/>
<trkpt lat="51.9684679" lon="5.8703044"/>
<trkpt lat="51.9685498" lon="5.8699815"/>
<trkpt lat="51.9688030" lon="5.8691029"/>
<trkpt lat="51.9689715" lon="5.8685934"/>
<trkpt lat="51.9691004" lon="5.8679905"/>
<trkpt lat="51.9690839" lon="5.8671430"/>
<trkpt lat="51.9690393" lon="5.8668748"/>
<trkpt lat="51.9690211" lon="5.8666066"/>
<trkpt lat="51.9689549" lon="5.8660059"/>
<trkpt lat="51.9688657" lon="5.8650511"/>
<trkpt lat="51.9687072" lon="5.8641179"/>
<trkpt lat="51.9685750" lon="5.8627833"/>
<trkpt lat="51.9684494" lon="5.8610563"/>
<trkpt lat="51.9684428" lon="5.8603214"/>
<trkpt lat="51.9684759" lon="5.8595651"/>
<trkpt lat="51.9685485" lon="5.8582349"/>
<trkpt lat="51.9685924" lon="5.8578608"/>
<trkpt lat="51.9685701" lon="5.8574866"/>
<trkpt lat="51.9686113" lon="5.8569529"/>
<trkpt lat="51.9688328" lon="5.8558748"/>
<trkpt lat="51.9686378" lon="5.8553116"/>
<trkpt lat="51.9686147" lon="5.8550681"/>
<trkpt lat="51.9686055" lon="5.8547155"/>
<trkpt lat="51.9686890" lon="5.8543200"/>
<trkpt lat="51.9687534" lon="5.8539418"/>
<trkpt lat="51.9687280" lon="5.8535754"/>
<trkpt lat="51.9687847" lon="5.8533520"/>
<trkpt lat="51.9682447" lon="5.8529709"/>
<trkpt lat="51.9677180" lon="5.8526864"/>
<trkpt lat="51.9671537" lon="5.8524392"/>
<trkpt lat="51.9669504" lon="5.8523202"/>
<trkpt lat="51.9668134" lon="5.8521483"/>
<trkpt lat="51.9668109" lon="5.8519069"/>
<trkpt lat="51.9667869" lon="5.8514112"/>
<trkpt lat="51.9667877" lon="5.8508657"/>
<trkpt lat="51.9667883" lon="5.8501904"/>
<trkpt lat="51.9667520" lon="5.8493612"/>
<trkpt lat="51.9666293" lon="5.8503652"/>
<trkpt lat="51.9665479" lon="5.8505880"/>
<trkpt lat="51.9663873" lon="5.8506299"/>
<trkpt lat="51.9657643" lon="5.8504110"/>
<trkpt lat="51.9652774" lon="5.8501602"/>
<trkpt lat="51.9651607" lon="5.8501305"/>
</trkseg></trk>
<trk><name>Eldensche Veldpad - Hoofdroute</name><type>mainRoute</type><trkseg>
<trkpt lat="51.9632902" lon="5.8505707"/>
<trkpt lat="51.9632712" lon="5.8505888"/>
<trkpt lat="51.9632629" lon="5.8508919"/>
<trkpt lat="51.9632200" lon="5.8515624"/>
<trkpt lat="51.9631670" lon="5.8519914"/>
<trkpt lat="51.9630150" lon="5.8524420"/>
<trkpt lat="51.9628201" lon="5.8531499"/>
<trkpt lat="51.9626449" lon="5.8538097"/>
<trkpt lat="51.9625705" lon="5.8540564"/>
<trkpt lat="51.9625324" lon="5.8542817"/>
<trkpt lat="51.9627208" lon="5.8543354"/>
<trkpt lat="51.9629026" lon="5.8544695"/>
<trkpt lat="51.9633455" lon="5.8547538"/>
<trkpt lat="51.9635735" lon="5.8549200"/>
<trkpt lat="51.9636628" lon="5.8551131"/>
<trkpt lat="51.9637851" lon="5.8554188"/>
<trkpt lat="51.9639800" lon="5.8558855"/>
<trkpt lat="51.9640626" lon="5.8560572"/>
<trkpt lat="51.9641337" lon="5.8560250"/>
<trkpt lat="51.9641618" lon="5.8560947"/>
<trkpt lat="51.9641337" lon="5.8564621"/>
<trkpt lat="51.9641915" lon="5.8565024"/>
<trkpt lat="51.9646104" lon="5.8565834"/>
<trkpt lat="51.9647021" lon="5.8566914"/>
<trkpt lat="51.9648029" lon="5.8569503"/>
<trkpt lat="51.9648690" lon="5.8572857"/>
<trkpt lat="51.9648505" lon="5.8575697"/>
<trkpt lat="51.9648916" lon="5.8578508"/>
<trkpt lat="51.9648922" lon="5.8581362"/>
<trkpt lat="51.9649523" lon="5.8587186"/>
<trkpt lat="51.9650759" lon="5.8591886"/>
<trkpt lat="51.9653747" lon="5.8597828"/>
<trkpt lat="51.9655162" lon="5.8600563"/>
<trkpt lat="51.9655946" lon="5.8603117"/>
<trkpt lat="51.9656613" lon="5.8605927"/>
<trkpt lat="51.9656467" lon="5.8611047"/>
<trkpt lat="51.9657595" lon="5.8614146"/>
<trkpt lat="51.9658393" lon="5.8617190"/>
<trkpt lat="51.9658392" lon="5.8619619"/>
<trkpt lat="51.9658193" lon="5.8621297"/>
<trkpt lat="51.9660418" lon="5.8621531"/>
<trkpt lat="51.9661156" lon="5.8621483"/>
<trkpt lat="51.9662710" lon="5.8620785"/>
<trkpt lat="51.9664362" lon="5.8620222"/>
<trkpt lat="51.9664758" lon="5.8620624"/>
<trkpt lat="51.9665337" lon="5.8621026"/>
<trkpt lat="51.9665122" lon="5.8622716"/>
<trkpt lat="51.9668063" lon="5.8646585"/>
<trkpt lat="51.9666113" lon="5.8649857"/>
<trkpt lat="51.9666311" lon="5.8652807"/>
<trkpt lat="51.9666444" lon="5.8654255"/>
<trkpt lat="51.9666972" lon="5.8656615"/>
<trkpt lat="51.9667190" lon="5.8658696"/>
<trkpt lat="51.9668082" lon="5.8659447"/>
<trkpt lat="51.9670181" lon="5.8659581"/>
<trkpt lat="51.9671156" lon="5.8660252"/>
<trkpt lat="51.9670256" lon="5.8664074"/>
<trkpt lat="51.9668645" lon="5.8669853"/>
<trkpt lat="51.9667810" lon="5.8674170"/>
<trkpt lat="51.9666587" lon="5.8679293"/>
<trkpt lat="51.9667702" lon="5.8680567"/>
<trkpt lat="51.9667653" lon="5.8681278"/>
<trkpt lat="51.9665568" lon="5.8686453"/>
<trkpt lat="51.9663965" lon="5.8691039"/>
<trkpt lat="51.9664898" lon="5.8692019"/>
<trkpt lat="51.9666311" lon="5.8693292"/>
<trkpt lat="51.9667931" lon="5.8695169"/>
<trkpt lat="51.9669166" lon="5.8696263"/>
<trkpt lat="51.9671316" lon="5.8697861"/>
<trkpt lat="51.9673243" lon="5.8699568"/>
<trkpt lat="51.9674519" lon="5.8700802"/>
<trkpt lat="51.9675540" lon="5.8702210"/>
<trkpt lat="51.9675779" lon="5.8703779"/>
<trkpt lat="51.9675789" lon="5.8704841"/>
<trkpt lat="51.9675833" lon="5.8705015"/>
<trkpt lat="51.9676505" lon="5.8708440"/>
<trkpt lat="51.9678474" lon="5.8709864"/>
<trkpt lat="51.9679702" lon="5.8711783"/>
<trkpt lat="51.9680038" lon="5.8714989"/>
<trkpt lat="51.9679941" lon="5.8721484"/>
<trkpt lat="51.9680170" lon="5.8726921"/>
<trkpt lat="51.9680197" lon="5.8732319"/>
<trkpt lat="51.9680697" lon="5.8734606"/>
<trkpt lat="51.9681502" lon="5.8740644"/>
<trkpt lat="51.9681159" lon="5.8741635"/>
<trkpt lat="51.9679892" lon="5.8741233"/>
<trkpt lat="51.9677854" lon="5.8739989"/>
<trkpt lat="51.9674193" lon="5.8738549"/>
<trkpt lat="51.9674540" lon="5.8739180"/>
<trkpt lat="51.9672431" lon="5.8740140"/>
<trkpt lat="51.9670481" lon="5.8740998"/>
<trkpt lat="51.9669424" lon="5.8742660"/>
<trkpt lat="51.9668697" lon="5.8745288"/>
<trkpt lat="51.9668928" lon="5.8748400"/>
<trkpt lat="51.9669688" lon="5.8752047"/>
<trkpt lat="51.9670251" lon="5.8754675"/>
<trkpt lat="51.9671741" lon="5.8758870"/>
<trkpt lat="51.9671909" lon="5.8761240"/>
<trkpt lat="51.9671314" lon="5.8763278"/>
<trkpt lat="51.9670455" lon="5.8765210"/>
<trkpt lat="51.9670038" lon="5.8766859"/>
<trkpt lat="51.9669951" lon="5.8768401"/>
<trkpt lat="51.9669892" lon="5.8772130"/>
</trkseg></trk>
<trk><name>Eldensche Veldpad - hoofdroute</name><type>mainRoute</type><trkseg>
<trkpt lat="51.9669893" lon="5.8772129"/>
<trkpt lat="51.9671827" lon="5.8768992"/>
<trkpt lat="51.9673033" lon="5.8767785"/>
<trkpt lat="51.9674420" lon="5.8766605"/>
<trkpt lat="51.9676213" lon="5.8765858"/>
<trkpt lat="51.9678502" lon="5.8764791"/>
<trkpt lat="51.9679741" lon="5.8763128"/>
<trkpt lat="51.9680931" lon="5.8761144"/>
<trkpt lat="51.9681856" lon="5.8757873"/>
<trkpt lat="51.9682649" lon="5.8755265"/>
<trkpt lat="51.9683079" lon="5.8751672"/>
<trkpt lat="51.9683121" lon="5.8749212"/>
<trkpt lat="51.9682942" lon="5.8745622"/>
<trkpt lat="51.9683259" lon="5.8744393"/>
<trkpt lat="51.9684191" lon="5.8745904"/>
<trkpt lat="51.9684597" lon="5.8746339"/>
<trkpt lat="51.9685333" lon="5.8745486"/>
<trkpt lat="51.9685834" lon="5.8742580"/>
<trkpt lat="51.9686632" lon="5.8740531"/>
<trkpt lat="51.9688642" lon="5.8738179"/>
<trkpt lat="51.9689082" lon="5.8737707"/>
</trkseg></trk>
<trk><name>Eldensche Veldpad - Struinroute Achterstraat</name><type>mainRoute</type><trkseg>
<trkpt lat="51.9651133" lon="5.8501226"/>
<trkpt lat="51.9650277" lon="5.8502346"/>
<trkpt lat="51.9648577" lon="5.8501531"/>
<trkpt lat="51.9644933" lon="5.8499770"/>
<trkpt lat="51.9642145" lon="5.8498444"/>
<trkpt lat="51.9638863" lon="5.8497255"/>
<trkpt lat="51.9636767" lon="5.8496105"/>
<trkpt lat="51.9635076" lon="5.8495633"/>
<trkpt lat="51.9634155" lon="5.8496912"/>
<trkpt lat="51.9633842" lon="5.8499079"/>
<trkpt lat="51.9633952" lon="5.8500361"/>
<trkpt lat="51.9633917" lon="5.8502619"/>
<trkpt lat="51.9633698" lon="5.8504461"/>
<trkpt lat="51.9633191" lon="5.8505432"/>
<trkpt lat="51.9632902" lon="5.8505707"/>
</trkseg></trk>
<trk><name>Eldensche Veldpad - routeverkorter</name><type>shorteningRoute</type><trkseg>
<trkpt lat="51.9675837" lon="5.8705035"/>
<trkpt lat="51.9681496" lon="5.8709959"/>
<trkpt lat="51.9683234" lon="5.8709079"/>
<trkpt lat="51.9683451" lon="5.8706724"/>
<trkpt lat="51.9684098" lon="5.8709706"/>
<trkpt lat="51.9684113" lon="5.8709780"/>
</trkseg></trk>
<trk><name>Eldensche Veldpad - Alternatieve route midden</name><type>alternativeRoute</type><trkseg>
<trkpt lat="51.9721585" lon="5.8898830"/>
<trkpt lat="51.9720446" lon="5.8892865"/>
<trkpt lat="51.9719845" lon="5.8890080"/>
<trkpt lat="51.9718751" lon="5.8888084"/>
<trkpt lat="51.9718098" lon="5.8883017"/>
<trkpt lat="51.9716718" lon="5.8876256"/>
<trkpt lat="51.9714981" lon="5.8866812"/>
<trkpt lat="51.9713185" lon="5.8856871"/>
<trkpt lat="51.9712540" lon="5.8849920"/>
<trkpt lat="51.9711959" lon="5.8842572"/>
<trkpt lat="51.9711322" lon="5.8833736"/>
<trkpt lat="51.9710869" lon="5.8828525"/>
<trkpt lat="51.9710770" lon="5.8823952"/>
<trkpt lat="51.9711452" lon="5.8820277"/>
<trkpt lat="51.9712881" lon="5.8816166"/>
<trkpt lat="51.9714737" lon="5.8813139"/>
<trkpt lat="51.9716944" lon="5.8810560"/>
<trkpt lat="51.9718836" lon="5.8808295"/>
<trkpt lat="51.9721280" lon="5.8805147"/>
<trkpt lat="51.9722939" lon="5.8802308"/>
<trkpt lat="51.9723969" lon="5.8799907"/>
<trkpt lat="51.9724408" lon="5.8798134"/>
</trkseg></trk>
<trk><name>Eldensche Veldpad - Geimporteerde shapefile</name><type>alternativeRoute</type><trkseg>
<trkpt lat="51.9651100" lon="5.8501175"/>
<trkpt lat="51.9633361" lon="5.8493553"/>
<trkpt lat="51.9632816" lon="5.8505501"/>
</trkseg></trk>
<trk><name>Eldensche Veldpad - Overstaproute</name><type>connectionRoute</type><trkseg>
<trkpt lat="51.9688357" lon="5.8558778"/>
<trkpt lat="51.9689813" lon="5.8555050"/>
<trkpt lat="51.9691335" lon="5.8550035"/>
<trkpt lat="51.9692264" lon="5.8543652"/>
<trkpt lat="51.9692934" lon="5.8539575"/>
<trkpt lat="51.9694107" lon="5.8537268"/>
<trkpt lat="51.9696122" lon="5.8527615"/>
<trkpt lat="51.9697692" lon="5.8520963"/>
<trkpt lat="51.9697318" lon="5.8519816"/>
<trkpt lat="51.9696482" lon="5.8518992"/>
<trkpt lat="51.9695535" lon="5.8516699"/>
<trkpt lat="51.9695881" lon="5.8512585"/>
<trkpt lat="51.9697417" lon="5.8508472"/>
<trkpt lat="51.9697977" lon="5.8504536"/>
<trkpt lat="51.9699538" lon="5.8498014"/>
<trkpt lat="51.9701693" lon="5.8494388"/>
<trkpt lat="51.9702965" lon="5.8490142"/>
<trkpt lat="51.9704555" lon="5.8484581"/>
<trkpt lat="51.9705217" lon="5.8482578"/>
<trkpt lat="51.9704955" lon="5.8479610"/>
<trkpt lat="51.9705690" lon="5.8472619"/>
<trkpt lat="51.9707603" lon="5.8470364"/>
<trkpt lat="51.9708723" lon="5.8467412"/>
<trkpt lat="51.9708784" lon="5.8464832"/>
<trkpt lat="51.9709355" lon="5.8462521"/>
<trkpt lat="51.9709894" lon="5.8460533"/>
<trkpt lat="51.9709971" lon="5.8458378"/>
<trkpt lat="51.9709103" lon="5.8455201"/>
<trkpt lat="51.9709440" lon="5.8454813"/>
<trkpt lat="51.9710005" lon="5.8455166"/>
<trkpt lat="51.9710580" lon="5.8455698"/>
<trkpt lat="51.9711063" lon="5.8455791"/>
<trkpt lat="51.9713504" lon="5.8443778"/>
<trkpt lat="51.9716222" lon="5.8428197"/>
<trkpt lat="51.9718543" lon="5.8415297"/>
<trkpt lat="51.9723120" lon="5.8389069"/>
<trkpt lat="51.9723484" lon="5.8387567"/>
<trkpt lat="51.9724624" lon="5.8368525"/>
<trkpt lat="51.9725764" lon="5.8351415"/>
<trkpt lat="51.9726425" lon="5.8335941"/>
<trkpt lat="51.9726260" lon="5.8325294"/>
<trkpt lat="51.9725691" lon="5.8310082"/>
<trkpt lat="51.9724865" lon="5.8292328"/>
<trkpt lat="51.9724106" lon="5.8286750"/>
<trkpt lat="51.9719572" lon="5.8267570"/>
<trkpt lat="51.9717857" lon="5.8261680"/>
<trkpt lat="51.9716142" lon="5.8256112"/>
<trkpt lat="51.9714827" lon="5.8254095"/>
</trkseg></trk>
<trk><name>Eldensche Veldpad - Aanlooproute</name><type>approachRoute</type><trkseg>
<trkpt lat="51.9618928" lon="5.8861424"/>
<trkpt lat="51.9615998" lon="5.8858914"/>
<trkpt lat="51.9614027" lon="5.8857249"/>
<trkpt lat="51.9608377" lon="5.8852211"/>
<trkpt lat="51.9603249" lon="5.8845199"/>
<trkpt lat="51.9597831" lon="5.8839776"/>
<trkpt lat="51.9591630" lon="5.8833647"/>
<trkpt lat="51.9588322" lon="5.8830409"/>
<trkpt lat="51.9587223" lon="5.8829474"/>
<trkpt lat="51.9586185" lon="5.8828500"/>
<trkpt lat="51.9585236" lon="5.8827628"/>
<trkpt lat="51.9583734" lon="5.8831770"/>
</trkseg></trk>
</gpx>