<?xml version="1.0" encoding="UTF-8"?>
<gpx version="1.1" creator="klompenpaden.nl via Jimbo API" xmlns="http://www.topografix.com/GPX/1/1">
<metadata><name>Elsvoorderpad</name><desc>Ontdek het landschap rond Veessen en Vorchten met haar rijke cultuurhistorie. Wandelen door weilanden, langs de IJssel, door akkers en over historische kerkenpaden. Weidse uitzichten, een hoogwatergeul en karakteristieke boerderijen bepalen het beeld. Klompen aan, rugzak op en gaan!</desc><link href="https://www.klompenpaden.nl/klompenpaden/Elsvoorderpad/5969b9a6-8af9-496c-8123-ee00c1b5e15d"><text>klompenpaden.nl</text></link></metadata>
<wpt lat="52.37544845959022" lon="6.092959688002608"><name>Start Veessen</name></wpt>
<trk><name>Elsvoorderpad - mainRoute</name><type>mainRoute</type><trkseg>
<trkpt lat="52.3751000" lon="6.0967800"/>
<trkpt lat="52.3750300" lon="6.0966900"/>
<trkpt lat="52.3749100" lon="6.0963200"/>
<trkpt lat="52.3748000" lon="6.0958300"/>
<trkpt lat="52.3747200" lon="6.0952100"/>
<trkpt lat="52.3746900" lon="6.0947800"/>
<trkpt lat="52.3747300" lon="6.0941800"/>
<trkpt lat="52.3748800" lon="6.0941300"/>
<trkpt lat="52.3749300" lon="6.0938500"/>
<trkpt lat="52.3751300" lon="6.0935600"/>
<trkpt lat="52.3752200" lon="6.0935000"/>
<trkpt lat="52.3758300" lon="6.0932200"/>
<trkpt lat="52.3758300" lon="6.0929300"/>
<trkpt lat="52.3760000" lon="6.0928700"/>
<trkpt lat="52.3762800" lon="6.0919000"/>
<trkpt lat="52.3763800" lon="6.0920200"/>
<trkpt lat="52.3769300" lon="6.0903100"/>
<trkpt lat="52.3771600" lon="6.0900700"/>
<trkpt lat="52.3772100" lon="6.0898100"/>
<trkpt lat="52.3772100" lon="6.0895000"/>
<trkpt lat="52.3772600" lon="6.0891400"/>
<trkpt lat="52.3779000" lon="6.0885500"/>
<trkpt lat="52.3782400" lon="6.0879900"/>
<trkpt lat="52.3784700" lon="6.0875100"/>
<trkpt lat="52.3781700" lon="6.0858900"/>
<trkpt lat="52.3780300" lon="6.0850400"/>
<trkpt lat="52.3781200" lon="6.0849800"/>
<trkpt lat="52.3786200" lon="6.0851000"/>
<trkpt lat="52.3807500" lon="6.0858300"/>
<trkpt lat="52.3809800" lon="6.0861300"/>
<trkpt lat="52.3815900" lon="6.0885500"/>
<trkpt lat="52.3820700" lon="6.0890000"/>
<trkpt lat="52.3829900" lon="6.0893000"/>
<trkpt lat="52.3833300" lon="6.0893800"/>
<trkpt lat="52.3834200" lon="6.0892300"/>
<trkpt lat="52.3834300" lon="6.0889600"/>
<trkpt lat="52.3836900" lon="6.0884700"/>
<trkpt lat="52.3842800" lon="6.0889800"/>
<trkpt lat="52.3844100" lon="6.0890700"/>
<trkpt lat="52.3853100" lon="6.0886300"/>
<trkpt lat="52.3869000" lon="6.0879600"/>
<trkpt lat="52.3871200" lon="6.0880600"/>
<trkpt lat="52.3873600" lon="6.0883000"/>
<trkpt lat="52.3875400" lon="6.0887600"/>
<trkpt lat="52.3878400" lon="6.0896400"/>
<trkpt lat="52.3893000" lon="6.0941200"/>
<trkpt lat="52.3893000" lon="6.0942900"/>
<trkpt lat="52.3891900" lon="6.0944900"/>
<trkpt lat="52.3887100" lon="6.0946300"/>
<trkpt lat="52.3887200" lon="6.0946700"/>
<trkpt lat="52.3914400" lon="6.0949100"/>
<trkpt lat="52.3916900" lon="6.0950400"/>
<trkpt lat="52.3921500" lon="6.0954200"/>
<trkpt lat="52.3962300" lon="6.0995400"/>
<trkpt lat="52.3981200" lon="6.1013900"/>
<trkpt lat="52.3972000" lon="6.1036100"/>
<trkpt lat="52.3971800" lon="6.1037500"/>
<trkpt lat="52.3976800" lon="6.1043000"/>
<trkpt lat="52.3978100" lon="6.1045800"/>
<trkpt lat="52.3979400" lon="6.1051400"/>
<trkpt lat="52.3980200" lon="6.1057800"/>
<trkpt lat="52.3982100" lon="6.1061500"/>
<trkpt lat="52.3984300" lon="6.1064100"/>
<trkpt lat="52.3989800" lon="6.1070100"/>
<trkpt lat="52.3993100" lon="6.1066800"/>
<trkpt lat="52.3996100" lon="6.1066600"/>
<trkpt lat="52.3999300" lon="6.1067300"/>
<trkpt lat="52.4001000" lon="6.1059600"/>
<trkpt lat="52.4007400" lon="6.1069400"/>
<trkpt lat="52.4008200" lon="6.1069900"/>
<trkpt lat="52.4015400" lon="6.1079700"/>
<trkpt lat="52.4012700" lon="6.1086300"/>
<trkpt lat="52.4011300" lon="6.1085600"/>
<trkpt lat="52.4009800" lon="6.1086600"/>
<trkpt lat="52.4009200" lon="6.1088200"/>
<trkpt lat="52.3998700" lon="6.1077600"/>
<trkpt lat="52.3992800" lon="6.1073100"/>
<trkpt lat="52.3989700" lon="6.1085900"/>
<trkpt lat="52.3985300" lon="6.1086000"/>
<trkpt lat="52.3986700" lon="6.1097900"/>
<trkpt lat="52.3986600" lon="6.1101100"/>
<trkpt lat="52.3984900" lon="6.1105600"/>
<trkpt lat="52.3977500" lon="6.1120200"/>
<trkpt lat="52.3975500" lon="6.1126600"/>
<trkpt lat="52.3973800" lon="6.1138000"/>
<trkpt lat="52.3972400" lon="6.1148500"/>
<trkpt lat="52.3972300" lon="6.1159100"/>
<trkpt lat="52.3970000" lon="6.1164700"/>
<trkpt lat="52.3966900" lon="6.1171000"/>
<trkpt lat="52.3963700" lon="6.1179000"/>
<trkpt lat="52.3962400" lon="6.1179900"/>
<trkpt lat="52.3960100" lon="6.1180000"/>
<trkpt lat="52.3956700" lon="6.1178600"/>
<trkpt lat="52.3954100" lon="6.1176100"/>
<trkpt lat="52.3952300" lon="6.1173000"/>
<trkpt lat="52.3949700" lon="6.1165100"/>
<trkpt lat="52.3948300" lon="6.1163200"/>
<trkpt lat="52.3938700" lon="6.1159300"/>
<trkpt lat="52.3919800" lon="6.1209000"/>
<trkpt lat="52.3919100" lon="6.1213100"/>
<trkpt lat="52.3933900" lon="6.1224300"/>
<trkpt lat="52.3927400" lon="6.1240000"/>
<trkpt lat="52.3916300" lon="6.1231900"/>
<trkpt lat="52.3914200" lon="6.1239400"/>
<trkpt lat="52.3903500" lon="6.1240900"/>
<trkpt lat="52.3873200" lon="6.1248700"/>
<trkpt lat="52.3863300" lon="6.1250200"/>
<trkpt lat="52.3854000" lon="6.1250300"/>
<trkpt lat="52.3843900" lon="6.1247100"/>
<trkpt lat="52.3835800" lon="6.1242800"/>
<trkpt lat="52.3825200" lon="6.1233500"/>
<trkpt lat="52.3817200" lon="6.1225400"/>
<trkpt lat="52.3809900" lon="6.1216900"/>
<trkpt lat="52.3802900" lon="6.1204900"/>
<trkpt lat="52.3796700" lon="6.1192400"/>
<trkpt lat="52.3790300" lon="6.1174400"/>
<trkpt lat="52.3782600" lon="6.1145700"/>
<trkpt lat="52.3784900" lon="6.1143200"/>
<trkpt lat="52.3786300" lon="6.1141000"/>
<trkpt lat="52.3790500" lon="6.1130700"/>
<trkpt lat="52.3794800" lon="6.1136900"/>
<trkpt lat="52.3796800" lon="6.1139300"/>
<trkpt lat="52.3798500" lon="6.1140200"/>
<trkpt lat="52.3799600" lon="6.1139600"/>
<trkpt lat="52.3802200" lon="6.1132900"/>
<trkpt lat="52.3802800" lon="6.1130400"/>
<trkpt lat="52.3803100" lon="6.1128400"/>
<trkpt lat="52.3800700" lon="6.1127600"/>
<trkpt lat="52.3799200" lon="6.1126600"/>
<trkpt lat="52.3796800" lon="6.1124600"/>
<trkpt lat="52.3791400" lon="6.1117000"/>
<trkpt lat="52.3788000" lon="6.1111800"/>
<trkpt lat="52.3784700" lon="6.1105100"/>
<trkpt lat="52.3783500" lon="6.1102300"/>
<trkpt lat="52.3781800" lon="6.1097100"/>
<trkpt lat="52.3777100" lon="6.1081300"/>
<trkpt lat="52.3774000" lon="6.1067200"/>
<trkpt lat="52.3772200" lon="6.1066400"/>
<trkpt lat="52.3766400" lon="6.1037100"/>
<trkpt lat="52.3764700" lon="6.1038100"/>
<trkpt lat="52.3759600" lon="6.1002100"/>
<trkpt lat="52.3752700" lon="6.0968100"/>
<trkpt lat="52.3751000" lon="6.0967800"/>
</trkseg></trk>
<trk><name>Elsvoorderpad - mainRoute</name><type>mainRoute</type><trkseg>
<trkpt lat="52.3752800" lon="6.0968100"/>
<trkpt lat="52.3754500" lon="6.0967100"/>
<trkpt lat="52.3756000" lon="6.0965700"/>
<trkpt lat="52.3756500" lon="6.0963200"/>
<trkpt lat="52.3757400" lon="6.0961500"/>
</trkseg></trk>
<trk><name>Elsvoorderpad - alternativeRoute</name><type>alternativeRoute</type><trkseg>
<trkpt lat="52.3758300" lon="6.0932200"/>
<trkpt lat="52.3758800" lon="6.0934000"/>
<trkpt lat="52.3760600" lon="6.0947700"/>
<trkpt lat="52.3763300" lon="6.0962000"/>
<trkpt lat="52.3765400" lon="6.0976900"/>
<trkpt lat="52.3766100" lon="6.0989400"/>
<trkpt lat="52.3767200" lon="6.1020600"/>
<trkpt lat="52.3767700" lon="6.1028300"/>
<trkpt lat="52.3769900" lon="6.1046200"/>
<trkpt lat="52.3774000" lon="6.1067300"/>
</trkseg></trk>
<trk><name>Elsvoorderpad - alternativeRoute</name><type>alternativeRoute</type><trkseg>
<trkpt lat="52.3763300" lon="6.0962400"/>
<trkpt lat="52.3762200" lon="6.0959000"/>
<trkpt lat="52.3761400" lon="6.0957700"/>
<trkpt lat="52.3760000" lon="6.0959000"/>
<trkpt lat="52.3758900" lon="6.0960400"/>
<trkpt lat="52.3757300" lon="6.0961500"/>
</trkseg></trk>
<trk><name>Elsvoorderpad - alternativeRoute</name><type>alternativeRoute</type><trkseg>
<trkpt lat="52.3803000" lon="6.1128500"/>
<trkpt lat="52.3810800" lon="6.1130900"/>
<trkpt lat="52.3814700" lon="6.1135100"/>
<trkpt lat="52.3816500" lon="6.1137800"/>
<trkpt lat="52.3822300" lon="6.1141800"/>
<trkpt lat="52.3827000" lon="6.1144700"/>
<trkpt lat="52.3835600" lon="6.1148700"/>
<trkpt lat="52.3849200" lon="6.1158800"/>
<trkpt lat="52.3854400" lon="6.1161700"/>
<trkpt lat="52.3861000" lon="6.1164400"/>
<trkpt lat="52.3868200" lon="6.1166800"/>
<trkpt lat="52.3874700" lon="6.1171900"/>
<trkpt lat="52.3879500" lon="6.1176700"/>
<trkpt lat="52.3888500" lon="6.1181400"/>
<trkpt lat="52.3893000" lon="6.1184800"/>
<trkpt lat="52.3895000" lon="6.1187300"/>
<trkpt lat="52.3898400" lon="6.1192400"/>
<trkpt lat="52.3912700" lon="6.1210500"/>
<trkpt lat="52.3915700" lon="6.1213200"/>
<trkpt lat="52.3918100" lon="6.1213800"/>
<trkpt lat="52.3919100" lon="6.1213100"/>
</trkseg></trk>
<trk><name>Elsvoorderpad - alternativeRoute</name><type>alternativeRoute</type><trkseg>
<trkpt lat="52.3887100" lon="6.0946300"/>
<trkpt lat="52.3880000" lon="6.0945800"/>
<trkpt lat="52.3873500" lon="6.0944000"/>
<trkpt lat="52.3866200" lon="6.0935300"/>
<trkpt lat="52.3861200" lon="6.0926300"/>
<trkpt lat="52.3848500" lon="6.0931200"/>
<trkpt lat="52.3844100" lon="6.0934900"/>
<trkpt lat="52.3839800" lon="6.0936600"/>
<trkpt lat="52.3826500" lon="6.0951900"/>
<trkpt lat="52.3818000" lon="6.0960300"/>
<trkpt lat="52.3806200" lon="6.0969100"/>
<trkpt lat="52.3803600" lon="6.0970800"/>
<trkpt lat="52.3800700" lon="6.0971400"/>
<trkpt lat="52.3797400" lon="6.0980700"/>
<trkpt lat="52.3785300" lon="6.0969800"/>
<trkpt lat="52.3779400" lon="6.0962100"/>
<trkpt lat="52.3775300" lon="6.0948000"/>
<trkpt lat="52.3773300" lon="6.0939300"/>
<trkpt lat="52.3773700" lon="6.0930000"/>
<trkpt lat="52.3772800" lon="6.0930000"/>
<trkpt lat="52.3768900" lon="6.0927100"/>
<trkpt lat="52.3759200" lon="6.0914500"/>
<trkpt lat="52.3757500" lon="6.0917000"/>
<trkpt lat="52.3756000" lon="6.0912600"/>
<trkpt lat="52.3752800" lon="6.0913300"/>
<trkpt lat="52.3755500" lon="6.0922800"/>
<trkpt lat="52.3756800" lon="6.0932900"/>
</trkseg></trk>
<trk><name>Elsvoorderpad - connectionRoute</name><type>connectionRoute</type><trkseg>
<trkpt lat="52.3669900" lon="6.0733800"/>
<trkpt lat="52.3669700" lon="6.0735600"/>
<trkpt lat="52.3670400" lon="6.0736800"/>
<trkpt lat="52.3689700" lon="6.0746400"/>
<trkpt lat="52.3698000" lon="6.0748900"/>
<trkpt lat="52.3714500" lon="6.0753300"/>
<trkpt lat="52.3718100" lon="6.0755100"/>
<trkpt lat="52.3722700" lon="6.0759000"/>
<trkpt lat="52.3732100" lon="6.0770200"/>
<trkpt lat="52.3734900" lon="6.0775300"/>
<trkpt lat="52.3738300" lon="6.0784400"/>
<trkpt lat="52.3740700" lon="6.0791700"/>
<trkpt lat="52.3741900" lon="6.0791600"/>
<trkpt lat="52.3743000" lon="6.0797900"/>
<trkpt lat="52.3744800" lon="6.0804400"/>
<trkpt lat="52.3750700" lon="6.0812300"/>
<trkpt lat="52.3751700" lon="6.0815600"/>
<trkpt lat="52.3752000" lon="6.0818900"/>
<trkpt lat="52.3751800" lon="6.0823100"/>
<trkpt lat="52.3750800" lon="6.0833600"/>
<trkpt lat="52.3750900" lon="6.0837600"/>
<trkpt lat="52.3751400" lon="6.0840200"/>
<trkpt lat="52.3755400" lon="6.0848300"/>
<trkpt lat="52.3755900" lon="6.0852700"/>
<trkpt lat="52.3755600" lon="6.0859100"/>
<trkpt lat="52.3753900" lon="6.0871400"/>
<trkpt lat="52.3750800" lon="6.0887800"/>
<trkpt lat="52.3751100" lon="6.0891800"/>
<trkpt lat="52.3752200" lon="6.0895500"/>
<trkpt lat="52.3754000" lon="6.0902300"/>
<trkpt lat="52.3755600" lon="6.0909900"/>
<trkpt lat="52.3758300" lon="6.0929300"/>
</trkseg></trk>
</gpx>