<?xml version="1.0" encoding="UTF-8"?>
<gpx version="1.1" creator="klompenpaden.nl via Jimbo API" xmlns="http://www.topografix.com/GPX/1/1">
<metadata><name>Engelroderpad</name><desc>Ontdek het mooie buitengebied van Beusichem en Zoelmond. Wandelen door historische kernen, weilanden, langs hoogstamboomgaarden en door waterrijke natuur. De afwisseling van cultuur en natuur bepaalt hier de sfeer. Klompen aan, rugzak op en gaan!</desc><link href="https://www.klompenpaden.nl/klompenpaden/Engelroderpad/8cbc4362-0f2d-4eb6-82ee-5b009947bf18"><text>klompenpaden.nl</text></link></metadata>
<wpt lat="51.948107188193774" lon="5.292835235595703"><name>Start Beusichem</name></wpt>
<trk><name>Engelroderpad - mainRoute</name><type>mainRoute</type><trkseg>
<trkpt lat="51.9430295" lon="5.2847530"/>
<trkpt lat="51.9431790" lon="5.2843038"/>
<trkpt lat="51.9433249" lon="5.2836473"/>
<trkpt lat="51.9434382" lon="5.2836303"/>
<trkpt lat="51.9435247" lon="5.2837865"/>
<trkpt lat="51.9436509" lon="5.2833113"/>
<trkpt lat="51.9438076" lon="5.2826948"/>
<trkpt lat="51.9440060" lon="5.2823514"/>
<trkpt lat="51.9444094" lon="5.2817477"/>
<trkpt lat="51.9444606" lon="5.2815680"/>
<trkpt lat="51.9447449" lon="5.2809940"/>
<trkpt lat="51.9450984" lon="5.2801037"/>
<trkpt lat="51.9451925" lon="5.2797793"/>
<trkpt lat="51.9454075" lon="5.2795779"/>
<trkpt lat="51.9456141" lon="5.2791594"/>
<trkpt lat="51.9458686" lon="5.2785935"/>
<trkpt lat="51.9461893" lon="5.2780971"/>
<trkpt lat="51.9464405" lon="5.2779829"/>
<trkpt lat="51.9464444" lon="5.2777368"/>
<trkpt lat="51.9466651" lon="5.2772687"/>
<trkpt lat="51.9468496" lon="5.2776269"/>
<trkpt lat="51.9469650" lon="5.2774632"/>
<trkpt lat="51.9473199" lon="5.2781279"/>
<trkpt lat="51.9475972" lon="5.2776321"/>
<trkpt lat="51.9480287" lon="5.2769130"/>
<trkpt lat="51.9481100" lon="5.2767461"/>
<trkpt lat="51.9481540" lon="5.2766181"/>
<trkpt lat="51.9481733" lon="5.2763386"/>
<trkpt lat="51.9481490" lon="5.2761781"/>
<trkpt lat="51.9480400" lon="5.2759351"/>
<trkpt lat="51.9479540" lon="5.2758841"/>
<trkpt lat="51.9478750" lon="5.2759611"/>
<trkpt lat="51.9477930" lon="5.2760311"/>
<trkpt lat="51.9476269" lon="5.2759582"/>
<trkpt lat="51.9475868" lon="5.2757582"/>
<trkpt lat="51.9476142" lon="5.2755826"/>
<trkpt lat="51.9476959" lon="5.2754608"/>
<trkpt lat="51.9477634" lon="5.2754224"/>
<trkpt lat="51.9478580" lon="5.2754175"/>
<trkpt lat="51.9479527" lon="5.2754648"/>
<trkpt lat="51.9481318" lon="5.2756093"/>
<trkpt lat="51.9482400" lon="5.2757001"/>
<trkpt lat="51.9483119" lon="5.2756882"/>
<trkpt lat="51.9483922" lon="5.2756009"/>
<trkpt lat="51.9484337" lon="5.2754456"/>
<trkpt lat="51.9485560" lon="5.2750871"/>
<trkpt lat="51.9487430" lon="5.2750281"/>
<trkpt lat="51.9490170" lon="5.2751301"/>
<trkpt lat="51.9490920" lon="5.2750261"/>
<trkpt lat="51.9491100" lon="5.2747561"/>
<trkpt lat="51.9489960" lon="5.2745111"/>
<trkpt lat="51.9488250" lon="5.2744271"/>
<trkpt lat="51.9486569" lon="5.2745111"/>
<trkpt lat="51.9484200" lon="5.2745591"/>
<trkpt lat="51.9482340" lon="5.2745111"/>
<trkpt lat="51.9481360" lon="5.2742641"/>
<trkpt lat="51.9482180" lon="5.2737711"/>
<trkpt lat="51.9495240" lon="5.2743041"/>
<trkpt lat="51.9493237" lon="5.2757450"/>
<trkpt lat="51.9504378" lon="5.2761428"/>
<trkpt lat="51.9506566" lon="5.2762038"/>
<trkpt lat="51.9508564" lon="5.2762680"/>
<trkpt lat="51.9514787" lon="5.2764573"/>
<trkpt lat="51.9520553" lon="5.2765729"/>
<trkpt lat="51.9526832" lon="5.2766329"/>
<trkpt lat="51.9527024" lon="5.2768361"/>
<trkpt lat="51.9528300" lon="5.2769590"/>
<trkpt lat="51.9533730" lon="5.2757722"/>
<trkpt lat="51.9543886" lon="5.2754094"/>
<trkpt lat="51.9545740" lon="5.2763450"/>
<trkpt lat="51.9548927" lon="5.2774096"/>
<trkpt lat="51.9549369" lon="5.2778437"/>
<trkpt lat="51.9554708" lon="5.2778719"/>
<trkpt lat="51.9552604" lon="5.2785995"/>
<trkpt lat="51.9550722" lon="5.2792463"/>
<trkpt lat="51.9550002" lon="5.2815460"/>
<trkpt lat="51.9538432" lon="5.2838277"/>
<trkpt lat="51.9534888" lon="5.2841870"/>
<trkpt lat="51.9539262" lon="5.2850853"/>
<trkpt lat="51.9536106" lon="5.2853818"/>
<trkpt lat="51.9535276" lon="5.2852380"/>
<trkpt lat="51.9531234" lon="5.2855165"/>
<trkpt lat="51.9527359" lon="5.2858489"/>
<trkpt lat="51.9524314" lon="5.2865945"/>
<trkpt lat="51.9515289" lon="5.2874479"/>
<trkpt lat="51.9508369" lon="5.2888313"/>
<trkpt lat="51.9504880" lon="5.2891996"/>
<trkpt lat="51.9502500" lon="5.2893074"/>
<trkpt lat="51.9499344" lon="5.2888672"/>
<trkpt lat="51.9493364" lon="5.2901069"/>
<trkpt lat="51.9491371" lon="5.2910681"/>
<trkpt lat="51.9490429" lon="5.2911579"/>
<trkpt lat="51.9489322" lon="5.2914185"/>
<trkpt lat="51.9482709" lon="5.2924841"/>
<trkpt lat="51.9485467" lon="5.2930183"/>
<trkpt lat="51.9486995" lon="5.2936854"/>
<trkpt lat="51.9488747" lon="5.2936538"/>
<trkpt lat="51.9495754" lon="5.2941591"/>
<trkpt lat="51.9502762" lon="5.2922327"/>
<trkpt lat="51.9509185" lon="5.2926748"/>
<trkpt lat="51.9506619" lon="5.2937346"/>
<trkpt lat="51.9511715" lon="5.2940012"/>
<trkpt lat="51.9519111" lon="5.2945380"/>
<trkpt lat="51.9520813" lon="5.2952195"/>
<trkpt lat="51.9523199" lon="5.2953907"/>
<trkpt lat="51.9525035" lon="5.2959636"/>
<trkpt lat="51.9527286" lon="5.2961487"/>
<trkpt lat="51.9526926" lon="5.2967406"/>
<trkpt lat="51.9540132" lon="5.2980119"/>
<trkpt lat="51.9543440" lon="5.2978224"/>
<trkpt lat="51.9547917" lon="5.2982645"/>
<trkpt lat="51.9544997" lon="5.2995909"/>
<trkpt lat="51.9544803" lon="5.3000646"/>
<trkpt lat="51.9544608" lon="5.3014226"/>
<trkpt lat="51.9540326" lon="5.3033806"/>
<trkpt lat="51.9539548" lon="5.3042648"/>
<trkpt lat="51.9517944" lon="5.3064123"/>
<trkpt lat="51.9488747" lon="5.3074860"/>
<trkpt lat="51.9484270" lon="5.3070123"/>
<trkpt lat="51.9477846" lon="5.3059702"/>
<trkpt lat="51.9476678" lon="5.3051491"/>
<trkpt lat="51.9473953" lon="5.3049280"/>
<trkpt lat="51.9469087" lon="5.3049280"/>
<trkpt lat="51.9461028" lon="5.3054591"/>
<trkpt lat="51.9458425" lon="5.3060071"/>
<trkpt lat="51.9453220" lon="5.3064113"/>
<trkpt lat="51.9448126" lon="5.3068785"/>
<trkpt lat="51.9447738" lon="5.3071210"/>
<trkpt lat="51.9438934" lon="5.3082349"/>
<trkpt lat="51.9433119" lon="5.3089176"/>
<trkpt lat="51.9427692" lon="5.3097171"/>
<trkpt lat="51.9425422" lon="5.3104178"/>
<trkpt lat="51.9421767" lon="5.3106604"/>
<trkpt lat="51.9419053" lon="5.3113341"/>
<trkpt lat="51.9413682" lon="5.3109927"/>
<trkpt lat="51.9410636" lon="5.3109388"/>
<trkpt lat="51.9410581" lon="5.3105705"/>
<trkpt lat="51.9411522" lon="5.3101124"/>
<trkpt lat="51.9409861" lon="5.3100226"/>
<trkpt lat="51.9410470" lon="5.3095195"/>
<trkpt lat="51.9408864" lon="5.3083427"/>
<trkpt lat="51.9407756" lon="5.3066359"/>
<trkpt lat="51.9403935" lon="5.3035906"/>
<trkpt lat="51.9402495" lon="5.3028540"/>
<trkpt lat="51.9400502" lon="5.3018928"/>
<trkpt lat="51.9392084" lon="5.2995841"/>
<trkpt lat="51.9413626" lon="5.2982457"/>
<trkpt lat="51.9414014" lon="5.2979941"/>
<trkpt lat="51.9411577" lon="5.2974192"/>
<trkpt lat="51.9409252" lon="5.2964400"/>
<trkpt lat="51.9408089" lon="5.2956585"/>
<trkpt lat="51.9407313" lon="5.2951195"/>
<trkpt lat="51.9407203" lon="5.2938439"/>
<trkpt lat="51.9407978" lon="5.2928737"/>
<trkpt lat="51.9410691" lon="5.2919754"/>
<trkpt lat="51.9414346" lon="5.2915173"/>
<trkpt lat="51.9427526" lon="5.2902596"/>
<trkpt lat="51.9432842" lon="5.2900440"/>
<trkpt lat="51.9436331" lon="5.2902776"/>
<trkpt lat="51.9436885" lon="5.2901967"/>
<trkpt lat="51.9435113" lon="5.2897566"/>
<trkpt lat="51.9433728" lon="5.2878342"/>
<trkpt lat="51.9431236" lon="5.2862981"/>
<trkpt lat="51.9429520" lon="5.2857950"/>
<trkpt lat="51.9428578" lon="5.2853548"/>
<trkpt lat="51.9429077" lon="5.2850674"/>
<trkpt lat="51.9430295" lon="5.2847619"/>
<trkpt lat="51.9428246" lon="5.2844565"/>
<trkpt lat="51.9427083" lon="5.2842319"/>
<trkpt lat="51.9427083" lon="5.2839714"/>
<trkpt lat="51.9425643" lon="5.2837558"/>
<trkpt lat="51.9423816" lon="5.2837558"/>
<trkpt lat="51.9422653" lon="5.2836301"/>
<trkpt lat="51.9421772" lon="5.2835228"/>
</trkseg></trk>
<trk><name>Engelroderpad - mainRoute</name><type>mainRoute</type><trkseg>
<trkpt lat="51.9421700" lon="5.2835200"/>
<trkpt lat="51.9421500" lon="5.2834900"/>
<trkpt lat="51.9422400" lon="5.2834000"/>
<trkpt lat="51.9424600" lon="5.2833600"/>
<trkpt lat="51.9426300" lon="5.2832600"/>
<trkpt lat="51.9431900" lon="5.2823500"/>
<trkpt lat="51.9433600" lon="5.2820400"/>
<trkpt lat="51.9425800" lon="5.2808600"/>
<trkpt lat="51.9418000" lon="5.2795500"/>
<trkpt lat="51.9415300" lon="5.2801800"/>
<trkpt lat="51.9410100" lon="5.2797400"/>
<trkpt lat="51.9402500" lon="5.2790700"/>
<trkpt lat="51.9399900" lon="5.2795400"/>
<trkpt lat="51.9399000" lon="5.2793900"/>
<trkpt lat="51.9396900" lon="5.2796500"/>
<trkpt lat="51.9390600" lon="5.2785900"/>
<trkpt lat="51.9388700" lon="5.2781500"/>
<trkpt lat="51.9388100" lon="5.2782100"/>
<trkpt lat="51.9382300" lon="5.2765400"/>
<trkpt lat="51.9359100" lon="5.2695000"/>
<trkpt lat="51.9360000" lon="5.2694000"/>
<trkpt lat="51.9339300" lon="5.2631600"/>
<trkpt lat="51.9338900" lon="5.2631800"/>
<trkpt lat="51.9337400" lon="5.2629500"/>
<trkpt lat="51.9314800" lon="5.2602800"/>
<trkpt lat="51.9314100" lon="5.2599200"/>
<trkpt lat="51.9327700" lon="5.2583100"/>
<trkpt lat="51.9309600" lon="5.2564900"/>
<trkpt lat="51.9323900" lon="5.2521900"/>
<trkpt lat="51.9302300" lon="5.2492600"/>
<trkpt lat="51.9305100" lon="5.2488500"/>
<trkpt lat="51.9288800" lon="5.2464600"/>
<trkpt lat="51.9255200" lon="5.2514500"/>
<trkpt lat="51.9246900" lon="5.2554800"/>
<trkpt lat="51.9246700" lon="5.2557000"/>
<trkpt lat="51.9239000" lon="5.2591500"/>
<trkpt lat="51.9267900" lon="5.2649400"/>
<trkpt lat="51.9278900" lon="5.2670400"/>
<trkpt lat="51.9322400" lon="5.2756800"/>
<trkpt lat="51.9324300" lon="5.2759900"/>
<trkpt lat="51.9328100" lon="5.2779300"/>
<trkpt lat="51.9330700" lon="5.2794200"/>
<trkpt lat="51.9330600" lon="5.2807800"/>
<trkpt lat="51.9328900" lon="5.2810100"/>
<trkpt lat="51.9329100" lon="5.2812400"/>
<trkpt lat="51.9329200" lon="5.2822600"/>
<trkpt lat="51.9340200" lon="5.2849300"/>
<trkpt lat="51.9373900" lon="5.2925000"/>
<trkpt lat="51.9375900" lon="5.2927200"/>
<trkpt lat="51.9382200" lon="5.2913100"/>
<trkpt lat="51.9391400" lon="5.2896500"/>
<trkpt lat="51.9417000" lon="5.2851900"/>
<trkpt lat="51.9420700" lon="5.2839800"/>
<trkpt lat="51.9420600" lon="5.2838000"/>
<trkpt lat="51.9420800" lon="5.2836200"/>
<trkpt lat="51.9421700" lon="5.2835200"/>
</trkseg></trk>
<trk><name>Engelroderpad - connectionRoute</name><type>connectionRoute</type><trkseg>
<trkpt lat="51.9554700" lon="5.2778600"/>
<trkpt lat="51.9556700" lon="5.2773100"/>
<trkpt lat="51.9560600" lon="5.2782600"/>
<trkpt lat="51.9564700" lon="5.2761700"/>
<trkpt lat="51.9569100" lon="5.2752200"/>
<trkpt lat="51.9576700" lon="5.2727000"/>
<trkpt lat="51.9581000" lon="5.2714600"/>
<trkpt lat="51.9589000" lon="5.2699900"/>
<trkpt lat="51.9594300" lon="5.2691400"/>
<trkpt lat="51.9624700" lon="5.2655700"/>
<trkpt lat="51.9630900" lon="5.2639100"/>
<trkpt lat="51.9631800" lon="5.2612000"/>
<trkpt lat="51.9642900" lon="5.2586300"/>
<trkpt lat="51.9644700" lon="5.2580600"/>
<trkpt lat="51.9646100" lon="5.2578700"/>
<trkpt lat="51.9651400" lon="5.2566300"/>
<trkpt lat="51.9673100" lon="5.2540700"/>
<trkpt lat="51.9663400" lon="5.2525700"/>
<trkpt lat="51.9664300" lon="5.2505200"/>
</trkseg></trk>
<trk><name>Engelroderpad - connectionRoute</name><type>connectionRoute</type><trkseg>
<trkpt lat="51.9544800" lon="5.2825700"/>
<trkpt lat="51.9552200" lon="5.2831100"/>
<trkpt lat="51.9556300" lon="5.2818900"/>
<trkpt lat="51.9570000" lon="5.2818300"/>
<trkpt lat="51.9572400" lon="5.2816700"/>
<trkpt lat="51.9579300" lon="5.2803600"/>
<trkpt lat="51.9583900" lon="5.2801200"/>
<trkpt lat="51.9595600" lon="5.2809000"/>
<trkpt lat="51.9611600" lon="5.2813200"/>
<trkpt lat="51.9618900" lon="5.2813800"/>
<trkpt lat="51.9623200" lon="5.2809700"/>
<trkpt lat="51.9629300" lon="5.2808900"/>
<trkpt lat="51.9650400" lon="5.2813800"/>
<trkpt lat="51.9652900" lon="5.2891700"/>
<trkpt lat="51.9643700" lon="5.2922000"/>
<trkpt lat="51.9640300" lon="5.2960000"/>
<trkpt lat="51.9661800" lon="5.3057200"/>
<trkpt lat="51.9660500" lon="5.3065900"/>
<trkpt lat="51.9664600" lon="5.3070400"/>
<trkpt lat="51.9673700" lon="5.3108600"/>
<trkpt lat="51.9683600" lon="5.3117500"/>
<trkpt lat="51.9687800" lon="5.3120300"/>
<trkpt lat="51.9687900" lon="5.3125200"/>
<trkpt lat="51.9676900" lon="5.3168300"/>
<trkpt lat="51.9674200" lon="5.3164000"/>
<trkpt lat="51.9692100" lon="5.3177500"/>
<trkpt lat="51.9689600" lon="5.3188200"/>
<trkpt lat="51.9688300" lon="5.3195900"/>
<trkpt lat="51.9682700" lon="5.3217000"/>
<trkpt lat="51.9678300" lon="5.3226700"/>
<trkpt lat="51.9678200" lon="5.3227800"/>
<trkpt lat="51.9679800" lon="5.3231300"/>
<trkpt lat="51.9648300" lon="5.3343400"/>
<trkpt lat="51.9647200" lon="5.3348000"/>
<trkpt lat="51.9646300" lon="5.3353000"/>
<trkpt lat="51.9646500" lon="5.3377700"/>
<trkpt lat="51.9645500" lon="5.3384200"/>
<trkpt lat="51.9644600" lon="5.3388200"/>
<trkpt lat="51.9641700" lon="5.3397800"/>
<trkpt lat="51.9641300" lon="5.3401600"/>
<trkpt lat="51.9642100" lon="5.3405100"/>
<trkpt lat="51.9643000" lon="5.3407700"/>
<trkpt lat="51.9651000" lon="5.3422800"/>
<trkpt lat="51.9654300" lon="5.3430000"/>
<trkpt lat="51.9655500" lon="5.3430300"/>
<trkpt lat="51.9660200" lon="5.3437300"/>
<trkpt lat="51.9662500" lon="5.3438600"/>
<trkpt lat="51.9667800" lon="5.3439900"/>
<trkpt lat="51.9669500" lon="5.3439900"/>
<trkpt lat="51.9671600" lon="5.3441500"/>
<trkpt lat="51.9675200" lon="5.3446100"/>
<trkpt lat="51.9677000" lon="5.3445000"/>
<trkpt lat="51.9677900" lon="5.3444200"/>
<trkpt lat="51.9679000" lon="5.3443500"/>
<trkpt lat="51.9681000" lon="5.3444600"/>
<trkpt lat="51.9681700" lon="5.3445300"/>
<trkpt lat="51.9683200" lon="5.3443900"/>
<trkpt lat="51.9684000" lon="5.3444900"/>
<trkpt lat="51.9684700" lon="5.3442100"/>
<trkpt lat="51.9686800" lon="5.3441800"/>
<trkpt lat="51.9691100" lon="5.3440800"/>
<trkpt lat="51.9691800" lon="5.3441100"/>
<trkpt lat="51.9692100" lon="5.3442700"/>
<trkpt lat="51.9694100" lon="5.3444600"/>
<trkpt lat="51.9695200" lon="5.3444900"/>
<trkpt lat="51.9696600" lon="5.3443800"/>
<trkpt lat="51.9698600" lon="5.3441700"/>
<trkpt lat="51.9700200" lon="5.3439600"/>
<trkpt lat="51.9700300" lon="5.3440200"/>
</trkseg></trk>
<trk><name>Engelroderpad - connectionRoute</name><type>connectionRoute</type><trkseg>
<trkpt lat="51.9220600" lon="5.2446900"/>
<trkpt lat="51.9226600" lon="5.2455900"/>
<trkpt lat="51.9228300" lon="5.2456400"/>
<trkpt lat="51.9239200" lon="5.2449800"/>
<trkpt lat="51.9250800" lon="5.2440400"/>
<trkpt lat="51.9254500" lon="5.2434700"/>
<trkpt lat="51.9264000" lon="5.2417900"/>
<trkpt lat="51.9267700" lon="5.2413500"/>
<trkpt lat="51.9272700" lon="5.2425700"/>
<trkpt lat="51.9275200" lon="5.2431100"/>
<trkpt lat="51.9293000" lon="5.2457800"/>
<trkpt lat="51.9289000" lon="5.2464900"/>
</trkseg></trk>
<trk><name>Engelroderpad - approachRoute</name><type>approachRoute</type><trkseg>
<trkpt lat="51.9475300" lon="5.2273300"/>
<trkpt lat="51.9462100" lon="5.2285800"/>
<trkpt lat="51.9456500" lon="5.2287700"/>
<trkpt lat="51.9454000" lon="5.2289000"/>
<trkpt lat="51.9449200" lon="5.2293400"/>
<trkpt lat="51.9440500" lon="5.2301100"/>
<trkpt lat="51.9437300" lon="5.2303100"/>
<trkpt lat="51.9431900" lon="5.2307700"/>
<trkpt lat="51.9425700" lon="5.2313200"/>
<trkpt lat="51.9416400" lon="5.2322600"/>
<trkpt lat="51.9411600" lon="5.2327300"/>
<trkpt lat="51.9408300" lon="5.2332500"/>
<trkpt lat="51.9405400" lon="5.2335500"/>
<trkpt lat="51.9394100" lon="5.2345400"/>
<trkpt lat="51.9381300" lon="5.2356400"/>
<trkpt lat="51.9277200" lon="5.2434100"/>
<trkpt lat="51.9293000" lon="5.2457800"/>
<trkpt lat="51.9289000" lon="5.2464900"/>
</trkseg></trk>
</gpx>