<?xml version="1.0" encoding="UTF-8"?>
<gpx version="1.1" creator="klompenpaden.nl via Jimbo API" xmlns="http://www.topografix.com/GPX/1/1">
<metadata><name>Engelenburgerpad</name><desc>Ontdek het mooie buitengebied van Herwijnen, een dijkdorp langs de Waal waar ooit vier kastelen stonden. Wandel over de oude en de nieuwe dijk, dwars door een boomgaard en de uiterwaarden. Laat je verrassen door de historische dorpskern en monumentale panden.
Klompen aan, rugzak op en gaan!</desc><link href="https://www.klompenpaden.nl/klompenpaden/Engelenburgerpad/cc984b68-841c-40ea-8d6d-9d79800b9a1c"><text>klompenpaden.nl</text></link></metadata>
<wpt lat="51.82494687086676" lon="5.1302772760391235"><name>Start Herwijnen</name></wpt>
<trk><name>Engelenburgerpad - Hoofdroute</name><type>mainRoute</type><trkseg>
<trkpt lat="51.8249670" lon="5.1302861"/>
<trkpt lat="51.8249410" lon="5.1295781"/>
<trkpt lat="51.8247950" lon="5.1288261"/>
<trkpt lat="51.8247160" lon="5.1282111"/>
<trkpt lat="51.8245500" lon="5.1280481"/>
<trkpt lat="51.8244280" lon="5.1280841"/>
<trkpt lat="51.8242897" lon="5.1281266"/>
<trkpt lat="51.8241610" lon="5.1282451"/>
<trkpt lat="51.8240261" lon="5.1282307"/>
<trkpt lat="51.8239580" lon="5.1281171"/>
<trkpt lat="51.8237740" lon="5.1282321"/>
<trkpt lat="51.8224877" lon="5.1295506"/>
<trkpt lat="51.8223140" lon="5.1289031"/>
<trkpt lat="51.8222081" lon="5.1284845"/>
<trkpt lat="51.8215246" lon="5.1262038"/>
<trkpt lat="51.8223338" lon="5.1256898"/>
<trkpt lat="51.8220870" lon="5.1245231"/>
<trkpt lat="51.8221300" lon="5.1243881"/>
<trkpt lat="51.8229790" lon="5.1237971"/>
<trkpt lat="51.8231150" lon="5.1236971"/>
<trkpt lat="51.8231170" lon="5.1235381"/>
<trkpt lat="51.8227110" lon="5.1223961"/>
<trkpt lat="51.8226710" lon="5.1222081"/>
<trkpt lat="51.8229939" lon="5.1217021"/>
<trkpt lat="51.8238776" lon="5.1208073"/>
<trkpt lat="51.8244258" lon="5.1205380"/>
<trkpt lat="51.8247577" lon="5.1204182"/>
<trkpt lat="51.8256866" lon="5.1197398"/>
<trkpt lat="51.8262573" lon="5.1189609"/>
<trkpt lat="51.8267180" lon="5.1181231"/>
<trkpt lat="51.8269033" lon="5.1172622"/>
<trkpt lat="51.8270197" lon="5.1166568"/>
<trkpt lat="51.8273737" lon="5.1156068"/>
<trkpt lat="51.8275243" lon="5.1148425"/>
<trkpt lat="51.8275838" lon="5.1142048"/>
<trkpt lat="51.8275499" lon="5.1133368"/>
<trkpt lat="51.8274810" lon="5.1115851"/>
<trkpt lat="51.8273927" lon="5.1106946"/>
<trkpt lat="51.8274180" lon="5.1098861"/>
<trkpt lat="51.8274658" lon="5.1090988"/>
<trkpt lat="51.8275477" lon="5.1067866"/>
<trkpt lat="51.8275520" lon="5.1063503"/>
<trkpt lat="51.8273785" lon="5.1058168"/>
<trkpt lat="51.8275139" lon="5.1053754"/>
<trkpt lat="51.8277570" lon="5.1047021"/>
<trkpt lat="51.8279189" lon="5.1040684"/>
<trkpt lat="51.8279116" lon="5.1032815"/>
<trkpt lat="51.8279338" lon="5.1025884"/>
<trkpt lat="51.8279740" lon="5.1022301"/>
<trkpt lat="51.8289188" lon="5.0995305"/>
<trkpt lat="51.8290130" lon="5.0994841"/>
<trkpt lat="51.8291928" lon="5.0994026"/>
<trkpt lat="51.8292440" lon="5.0991291"/>
<trkpt lat="51.8294140" lon="5.0976211"/>
<trkpt lat="51.8295046" lon="5.0974096"/>
<trkpt lat="51.8295950" lon="5.0973191"/>
<trkpt lat="51.8297880" lon="5.0972451"/>
<trkpt lat="51.8299120" lon="5.0968241"/>
<trkpt lat="51.8299576" lon="5.0965556"/>
<trkpt lat="51.8299715" lon="5.0959801"/>
<trkpt lat="51.8301510" lon="5.0951801"/>
<trkpt lat="51.8300520" lon="5.0946701"/>
<trkpt lat="51.8301550" lon="5.0942481"/>
<trkpt lat="51.8300980" lon="5.0941051"/>
<trkpt lat="51.8300050" lon="5.0940861"/>
<trkpt lat="51.8297380" lon="5.0940421"/>
<trkpt lat="51.8293800" lon="5.0937881"/>
<trkpt lat="51.8293200" lon="5.0943861"/>
<trkpt lat="51.8290926" lon="5.0954422"/>
<trkpt lat="51.8283810" lon="5.0982581"/>
<trkpt lat="51.8276840" lon="5.1005441"/>
<trkpt lat="51.8270310" lon="5.1025841"/>
<trkpt lat="51.8268980" lon="5.1044341"/>
<trkpt lat="51.8268020" lon="5.1046911"/>
<trkpt lat="51.8266843" lon="5.1055025"/>
<trkpt lat="51.8265940" lon="5.1069271"/>
<trkpt lat="51.8266830" lon="5.1087791"/>
<trkpt lat="51.8268890" lon="5.1090401"/>
<trkpt lat="51.8268320" lon="5.1096191"/>
<trkpt lat="51.8271080" lon="5.1106301"/>
<trkpt lat="51.8272680" lon="5.1115451"/>
<trkpt lat="51.8272750" lon="5.1129591"/>
<trkpt lat="51.8273820" lon="5.1143561"/>
<trkpt lat="51.8272460" lon="5.1151381"/>
<trkpt lat="51.8269550" lon="5.1161871"/>
<trkpt lat="51.8269280" lon="5.1168581"/>
<trkpt lat="51.8268601" lon="5.1171320"/>
<trkpt lat="51.8268170" lon="5.1171011"/>
<trkpt lat="51.8263035" lon="5.1175271"/>
<trkpt lat="51.8259500" lon="5.1176704"/>
<trkpt lat="51.8255011" lon="5.1178078"/>
<trkpt lat="51.8245570" lon="5.1182551"/>
<trkpt lat="51.8239010" lon="5.1185911"/>
<trkpt lat="51.8230830" lon="5.1190691"/>
<trkpt lat="51.8222100" lon="5.1197031"/>
<trkpt lat="51.8211720" lon="5.1205541"/>
<trkpt lat="51.8204010" lon="5.1211311"/>
<trkpt lat="51.8201437" lon="5.1214453"/>
<trkpt lat="51.8200753" lon="5.1216162"/>
<trkpt lat="51.8200640" lon="5.1216668"/>
<trkpt lat="51.8199983" lon="5.1217233"/>
<trkpt lat="51.8199428" lon="5.1218507"/>
<trkpt lat="51.8199160" lon="5.1221031"/>
<trkpt lat="51.8199850" lon="5.1227641"/>
<trkpt lat="51.8199500" lon="5.1233881"/>
<trkpt lat="51.8197940" lon="5.1239831"/>
<trkpt lat="51.8194960" lon="5.1244191"/>
<trkpt lat="51.8191530" lon="5.1247081"/>
<trkpt lat="51.8188820" lon="5.1248711"/>
<trkpt lat="51.8187990" lon="5.1249591"/>
<trkpt lat="51.8186240" lon="5.1253051"/>
<trkpt lat="51.8185440" lon="5.1255441"/>
<trkpt lat="51.8184840" lon="5.1258521"/>
<trkpt lat="51.8183940" lon="5.1263311"/>
<trkpt lat="51.8183930" lon="5.1267561"/>
<trkpt lat="51.8184410" lon="5.1271961"/>
<trkpt lat="51.8186830" lon="5.1278981"/>
<trkpt lat="51.8188930" lon="5.1286001"/>
<trkpt lat="51.8188816" lon="5.1288012"/>
<trkpt lat="51.8187695" lon="5.1286755"/>
<trkpt lat="51.8186590" lon="5.1282181"/>
<trkpt lat="51.8185250" lon="5.1278071"/>
<trkpt lat="51.8183210" lon="5.1271181"/>
<trkpt lat="51.8182430" lon="5.1265051"/>
<trkpt lat="51.8179443" lon="5.1267026"/>
<trkpt lat="51.8178296" lon="5.1267508"/>
<trkpt lat="51.8176637" lon="5.1271786"/>
<trkpt lat="51.8176720" lon="5.1276321"/>
<trkpt lat="51.8175910" lon="5.1279111"/>
<trkpt lat="51.8174930" lon="5.1283511"/>
<trkpt lat="51.8173190" lon="5.1287171"/>
<trkpt lat="51.8170720" lon="5.1293871"/>
<trkpt lat="51.8171470" lon="5.1298341"/>
<trkpt lat="51.8171150" lon="5.1306291"/>
<trkpt lat="51.8170209" lon="5.1313599"/>
<trkpt lat="51.8168502" lon="5.1321960"/>
<trkpt lat="51.8167510" lon="5.1327151"/>
<trkpt lat="51.8166370" lon="5.1334661"/>
<trkpt lat="51.8165270" lon="5.1338701"/>
<trkpt lat="51.8165390" lon="5.1343771"/>
<trkpt lat="51.8164840" lon="5.1348311"/>
<trkpt lat="51.8166360" lon="5.1348731"/>
<trkpt lat="51.8165771" lon="5.1349739"/>
<trkpt lat="51.8164410" lon="5.1352311"/>
<trkpt lat="51.8163200" lon="5.1355241"/>
<trkpt lat="51.8163340" lon="5.1359871"/>
<trkpt lat="51.8163200" lon="5.1369781"/>
<trkpt lat="51.8163340" lon="5.1378661"/>
<trkpt lat="51.8164050" lon="5.1386201"/>
<trkpt lat="51.8164370" lon="5.1390861"/>
<trkpt lat="51.8164820" lon="5.1393811"/>
<trkpt lat="51.8162990" lon="5.1397861"/>
<trkpt lat="51.8169947" lon="5.1398386"/>
<trkpt lat="51.8173090" lon="5.1391881"/>
<trkpt lat="51.8176840" lon="5.1386261"/>
<trkpt lat="51.8179344" lon="5.1374557"/>
<trkpt lat="51.8178505" lon="5.1370661"/>
<trkpt lat="51.8178157" lon="5.1354475"/>
<trkpt lat="51.8177579" lon="5.1345384"/>
<trkpt lat="51.8180856" lon="5.1343900"/>
<trkpt lat="51.8182406" lon="5.1343383"/>
<trkpt lat="51.8184207" lon="5.1339666"/>
<trkpt lat="51.8188489" lon="5.1345776"/>
<trkpt lat="51.8193887" lon="5.1353723"/>
<trkpt lat="51.8197030" lon="5.1356958"/>
<trkpt lat="51.8199119" lon="5.1358983"/>
<trkpt lat="51.8201447" lon="5.1363162"/>
<trkpt lat="51.8203123" lon="5.1367178"/>
<trkpt lat="51.8204494" lon="5.1373459"/>
<trkpt lat="51.8203282" lon="5.1381281"/>
<trkpt lat="51.8202320" lon="5.1381871"/>
<trkpt lat="51.8200660" lon="5.1380761"/>
<trkpt lat="51.8199572" lon="5.1383241"/>
<trkpt lat="51.8194180" lon="5.1374981"/>
<trkpt lat="51.8192410" lon="5.1376051"/>
<trkpt lat="51.8188200" lon="5.1372461"/>
<trkpt lat="51.8186430" lon="5.1371801"/>
<trkpt lat="51.8186020" lon="5.1376511"/>
<trkpt lat="51.8187770" lon="5.1383451"/>
<trkpt lat="51.8189567" lon="5.1384363"/>
<trkpt lat="51.8192140" lon="5.1387941"/>
<trkpt lat="51.8195810" lon="5.1389731"/>
<trkpt lat="51.8197580" lon="5.1388391"/>
<trkpt lat="51.8199010" lon="5.1384521"/>
<trkpt lat="51.8200660" lon="5.1380761"/>
<trkpt lat="51.8202322" lon="5.1381856"/>
<trkpt lat="51.8203282" lon="5.1381281"/>
<trkpt lat="51.8204494" lon="5.1373459"/>
<trkpt lat="51.8205721" lon="5.1372215"/>
<trkpt lat="51.8208286" lon="5.1369388"/>
<trkpt lat="51.8210569" lon="5.1367530"/>
<trkpt lat="51.8212544" lon="5.1365958"/>
<trkpt lat="51.8215070" lon="5.1364336"/>
<trkpt lat="51.8216310" lon="5.1366431"/>
<trkpt lat="51.8218268" lon="5.1370724"/>
<trkpt lat="51.8219872" lon="5.1372705"/>
<trkpt lat="51.8221629" lon="5.1373671"/>
<trkpt lat="51.8223948" lon="5.1371377"/>
<trkpt lat="51.8223863" lon="5.1367820"/>
<trkpt lat="51.8224600" lon="5.1366661"/>
<trkpt lat="51.8224590" lon="5.1364051"/>
<trkpt lat="51.8222212" lon="5.1358506"/>
<trkpt lat="51.8223600" lon="5.1357081"/>
<trkpt lat="51.8224048" lon="5.1355576"/>
<trkpt lat="51.8220391" lon="5.1344635"/>
<trkpt lat="51.8224127" lon="5.1341557"/>
<trkpt lat="51.8215629" lon="5.1326864"/>
<trkpt lat="51.8215688" lon="5.1325385"/>
<trkpt lat="51.8215380" lon="5.1324301"/>
<trkpt lat="51.8213194" lon="5.1325189"/>
<trkpt lat="51.8212010" lon="5.1322116"/>
<trkpt lat="51.8213460" lon="5.1320421"/>
<trkpt lat="51.8220290" lon="5.1313921"/>
<trkpt lat="51.8221704" lon="5.1316892"/>
<trkpt lat="51.8223707" lon="5.1317337"/>
<trkpt lat="51.8230199" lon="5.1312814"/>
<trkpt lat="51.8231120" lon="5.1308571"/>
<trkpt lat="51.8235700" lon="5.1304671"/>
<trkpt lat="51.8247130" lon="5.1303871"/>
<trkpt lat="51.8249670" lon="5.1302861"/>
</trkseg></trk>
<trk><name>Engelenburgerpad - routeverkorter</name><type>shorteningRoute</type><trkseg>
<trkpt lat="51.8268650" lon="5.1174402"/>
<trkpt lat="51.8263035" lon="5.1175271"/>
</trkseg></trk>
<trk><name>Engelenburgerpad - Alternatieve route</name><type>alternativeRoute</type><trkseg>
<trkpt lat="51.8188816" lon="5.1288012"/>
<trkpt lat="51.8190170" lon="5.1295831"/>
<trkpt lat="51.8192120" lon="5.1309771"/>
<trkpt lat="51.8191860" lon="5.1314351"/>
<trkpt lat="51.8190310" lon="5.1321561"/>
<trkpt lat="51.8187140" lon="5.1331141"/>
<trkpt lat="51.8184770" lon="5.1335962"/>
<trkpt lat="51.8184122" lon="5.1339798"/>
</trkseg></trk>
<trk><name>Engelenburgerpad - overstaproute Jordenpad</name><type>connectionRoute</type><trkseg>
<trkpt lat="51.8293800" lon="5.0937881"/>
<trkpt lat="51.8294399" lon="5.0935488"/>
<trkpt lat="51.8286468" lon="5.0932127"/>
<trkpt lat="51.8283906" lon="5.0929648"/>
<trkpt lat="51.8244454" lon="5.0922727"/>
<trkpt lat="51.8240653" lon="5.0924441"/>
<trkpt lat="51.8215642" lon="5.0927368"/>
<trkpt lat="51.8213742" lon="5.0928454"/>
</trkseg></trk>
<trk><name>Engelenburgerpad - Overstaproute Merckenburgsepad</name><type>connectionRoute</type><trkseg>
<trkpt lat="51.8774116" lon="5.1167941"/>
<trkpt lat="51.8772540" lon="5.1168175"/>
<trkpt lat="51.8770983" lon="5.1169204"/>
<trkpt lat="51.8767644" lon="5.1170184"/>
<trkpt lat="51.8764901" lon="5.1172000"/>
<trkpt lat="51.8760639" lon="5.1174904"/>
<trkpt lat="51.8756115" lon="5.1177151"/>
<trkpt lat="51.8749514" lon="5.1180129"/>
<trkpt lat="51.8743467" lon="5.1182024"/>
<trkpt lat="51.8737496" lon="5.1184759"/>
<trkpt lat="51.8729895" lon="5.1188703"/>
<trkpt lat="51.8725744" lon="5.1191666"/>
<trkpt lat="51.8720742" lon="5.1196014"/>
<trkpt lat="51.8715890" lon="5.1200601"/>
<trkpt lat="51.8710781" lon="5.1206928"/>
<trkpt lat="51.8706343" lon="5.1214390"/>
<trkpt lat="51.8704229" lon="5.1215777"/>
<trkpt lat="51.8700570" lon="5.1216029"/>
<trkpt lat="51.8696107" lon="5.1217514"/>
<trkpt lat="51.8692313" lon="5.1220991"/>
<trkpt lat="51.8690868" lon="5.1222688"/>
<trkpt lat="51.8689616" lon="5.1225958"/>
<trkpt lat="51.8688982" lon="5.1229108"/>
<trkpt lat="51.8688534" lon="5.1230723"/>
<trkpt lat="51.8687349" lon="5.1232073"/>
<trkpt lat="51.8684733" lon="5.1231014"/>
<trkpt lat="51.8678834" lon="5.1228055"/>
<trkpt lat="51.8674441" lon="5.1226254"/>
<trkpt lat="51.8668360" lon="5.1226855"/>
<trkpt lat="51.8665410" lon="5.1226504"/>
<trkpt lat="51.8661119" lon="5.1225129"/>
<trkpt lat="51.8654863" lon="5.1222488"/>
<trkpt lat="51.8647849" lon="5.1219952"/>
<trkpt lat="51.8641530" lon="5.1256799"/>
<trkpt lat="51.8618393" lon="5.1260119"/>
<trkpt lat="51.8598329" lon="5.1262764"/>
<trkpt lat="51.8564238" lon="5.1267358"/>
<trkpt lat="51.8531674" lon="5.1270748"/>
<trkpt lat="51.8519249" lon="5.1272173"/>
<trkpt lat="51.8514184" lon="5.1276886"/>
<trkpt lat="51.8510860" lon="5.1290369"/>
<trkpt lat="51.8506993" lon="5.1304002"/>
<trkpt lat="51.8502571" lon="5.1312808"/>
<trkpt lat="51.8495602" lon="5.1317530"/>
<trkpt lat="51.8489259" lon="5.1317859"/>
<trkpt lat="51.8480192" lon="5.1316447"/>
<trkpt lat="51.8454809" lon="5.1313957"/>
<trkpt lat="51.8439218" lon="5.1312875"/>
<trkpt lat="51.8437324" lon="5.1275719"/>
<trkpt lat="51.8437475" lon="5.1262110"/>
<trkpt lat="51.8433800" lon="5.1239890"/>
<trkpt lat="51.8430405" lon="5.1221473"/>
<trkpt lat="51.8409826" lon="5.1219399"/>
<trkpt lat="51.8390329" lon="5.1214539"/>
<trkpt lat="51.8369471" lon="5.1209249"/>
<trkpt lat="51.8343904" lon="5.1205596"/>
<trkpt lat="51.8319692" lon="5.1199888"/>
<trkpt lat="51.8296296" lon="5.1194468"/>
<trkpt lat="51.8282419" lon="5.1189870"/>
<trkpt lat="51.8266669" lon="5.1182252"/>
</trkseg></trk>
<trk><name>Engelenburgerpad - overstaproute Vurensche Polderpad</name><type>connectionRoute</type><trkseg>
<trkpt lat="51.8321222" lon="5.0488815"/>
<trkpt lat="51.8318771" lon="5.0506323"/>
<trkpt lat="51.8318781" lon="5.0509854"/>
<trkpt lat="51.8327173" lon="5.0585049"/>
<trkpt lat="51.8335445" lon="5.0656043"/>
<trkpt lat="51.8335556" lon="5.0658481"/>
<trkpt lat="51.8334834" lon="5.0661345"/>
<trkpt lat="51.8329857" lon="5.0670125"/>
<trkpt lat="51.8334776" lon="5.0678163"/>
<trkpt lat="51.8338241" lon="5.0687893"/>
<trkpt lat="51.8339726" lon="5.0697720"/>
<trkpt lat="51.8340435" lon="5.0709488"/>
<trkpt lat="51.8304347" lon="5.0714702"/>
<trkpt lat="51.8303256" lon="5.0716139"/>
<trkpt lat="51.8301554" lon="5.0722457"/>
<trkpt lat="51.8300518" lon="5.0724482"/>
<trkpt lat="51.8298488" lon="5.0725085"/>
<trkpt lat="51.8290571" lon="5.0725645"/>
<trkpt lat="51.8286673" lon="5.0729119"/>
<trkpt lat="51.8284580" lon="5.0725855"/>
<trkpt lat="51.8278284" lon="5.0728673"/>
<trkpt lat="51.8281590" lon="5.0737562"/>
<trkpt lat="51.8283750" lon="5.0746460"/>
<trkpt lat="51.8284449" lon="5.0754863"/>
<trkpt lat="51.8287915" lon="5.0765096"/>
<trkpt lat="51.8288448" lon="5.0769717"/>
<trkpt lat="51.8288072" lon="5.0785190"/>
<trkpt lat="51.8290859" lon="5.0795008"/>
<trkpt lat="51.8291972" lon="5.0802400"/>
<trkpt lat="51.8291732" lon="5.0810137"/>
<trkpt lat="51.8291009" lon="5.0812832"/>
<trkpt lat="51.8292744" lon="5.0818790"/>
<trkpt lat="51.8294129" lon="5.0830468"/>
<trkpt lat="51.8293734" lon="5.0839131"/>
<trkpt lat="51.8292245" lon="5.0847380"/>
<trkpt lat="51.8294819" lon="5.0855771"/>
<trkpt lat="51.8296467" lon="5.0868625"/>
<trkpt lat="51.8298794" lon="5.0882146"/>
<trkpt lat="51.8300163" lon="5.0887770"/>
<trkpt lat="51.8301946" lon="5.0892719"/>
<trkpt lat="51.8302338" lon="5.0903227"/>
<trkpt lat="51.8301136" lon="5.0922658"/>
<trkpt lat="51.8296652" lon="5.0939904"/>
</trkseg></trk>
<trk><name>Engelenburgerpad - Overstaproute Crobsepad</name><type>connectionRoute</type><trkseg>
<trkpt lat="51.8195886" lon="5.1702393"/>
<trkpt lat="51.8194948" lon="5.1696545"/>
<trkpt lat="51.8194618" lon="5.1669682"/>
<trkpt lat="51.8190646" lon="5.1646610"/>
<trkpt lat="51.8184787" lon="5.1615247"/>
<trkpt lat="51.8181568" lon="5.1595342"/>
<trkpt lat="51.8180987" lon="5.1585082"/>
<trkpt lat="51.8182926" lon="5.1572093"/>
<trkpt lat="51.8190892" lon="5.1532511"/>
<trkpt lat="51.8193836" lon="5.1508196"/>
<trkpt lat="51.8194476" lon="5.1500798"/>
<trkpt lat="51.8193623" lon="5.1495520"/>
<trkpt lat="51.8193608" lon="5.1493791"/>
<trkpt lat="51.8195548" lon="5.1487228"/>
<trkpt lat="51.8196768" lon="5.1478147"/>
<trkpt lat="51.8189989" lon="5.1467514"/>
<trkpt lat="51.8186765" lon="5.1463287"/>
<trkpt lat="51.8185583" lon="5.1456926"/>
<trkpt lat="51.8189479" lon="5.1432852"/>
<trkpt lat="51.8197912" lon="5.1412290"/>
<trkpt lat="51.8201250" lon="5.1400952"/>
<trkpt lat="51.8202097" lon="5.1387033"/>
<trkpt lat="51.8203163" lon="5.1381352"/>
</trkseg></trk>
</gpx>