<?xml version="1.0" encoding="UTF-8"?>
<gpx version="1.1" creator="klompenpaden.nl via Jimbo API" xmlns="http://www.topografix.com/GPX/1/1">
<metadata><name>Eper Enkenpad</name><desc>Ontdek het agrarisch cultuurlandschap en de natuur rondom de buurtschappen Zuuk en Dijkhuizen in de gemeente Epe. Wandelen over onverharde paden langs weilanden, landbouwgronden en boerenerven op de hoge enken en door de lagere beekdalen.
Klompen aan, rugzak op en gaan!</desc><link href="https://www.klompenpaden.nl/klompenpaden/Eper_Enkenpad/27c2e7ac-4500-4f5b-9db3-4535d56eb806"><text>klompenpaden.nl</text></link></metadata>
<wpt lat="52.334806473080604" lon="5.994249802959056"><name>Start Epe</name></wpt>
<trk><name>Eper Enkenpad - hoofdroute</name><type>mainRoute</type><trkseg>
<trkpt lat="52.3348065" lon="5.9942498"/>
<trkpt lat="52.3348193" lon="5.9939936"/>
<trkpt lat="52.3349393" lon="5.9929946"/>
<trkpt lat="52.3352485" lon="5.9917106"/>
<trkpt lat="52.3354059" lon="5.9905211"/>
<trkpt lat="52.3353808" lon="5.9901636"/>
<trkpt lat="52.3351804" lon="5.9894363"/>
<trkpt lat="52.3339308" lon="5.9882496"/>
<trkpt lat="52.3337395" lon="5.9881396"/>
<trkpt lat="52.3334505" lon="5.9881576"/>
<trkpt lat="52.3332626" lon="5.9882373"/>
<trkpt lat="52.3330785" lon="5.9883622"/>
<trkpt lat="52.3327659" lon="5.9886584"/>
<trkpt lat="52.3326583" lon="5.9887819"/>
<trkpt lat="52.3323323" lon="5.9887027"/>
<trkpt lat="52.3321997" lon="5.9887185"/>
<trkpt lat="52.3321510" lon="5.9887914"/>
<trkpt lat="52.3321338" lon="5.9888776"/>
<trkpt lat="52.3319646" lon="5.9898435"/>
<trkpt lat="52.3327478" lon="5.9899237"/>
<trkpt lat="52.3326920" lon="5.9903619"/>
<trkpt lat="52.3326146" lon="5.9909615"/>
<trkpt lat="52.3324823" lon="5.9920123"/>
<trkpt lat="52.3322268" lon="5.9940785"/>
<trkpt lat="52.3322806" lon="5.9942742"/>
<trkpt lat="52.3310854" lon="5.9964122"/>
<trkpt lat="52.3303222" lon="5.9977618"/>
<trkpt lat="52.3300282" lon="5.9980605"/>
<trkpt lat="52.3299401" lon="5.9980919"/>
<trkpt lat="52.3301317" lon="5.9985231"/>
<trkpt lat="52.3307425" lon="5.9993227"/>
<trkpt lat="52.3312228" lon="5.9999527"/>
<trkpt lat="52.3315168" lon="6.0014127"/>
<trkpt lat="52.3317206" lon="6.0017675"/>
<trkpt lat="52.3318250" lon="6.0020277"/>
<trkpt lat="52.3321337" lon="6.0018907"/>
<trkpt lat="52.3327127" lon="6.0018854"/>
<trkpt lat="52.3337705" lon="6.0019668"/>
<trkpt lat="52.3344811" lon="6.0020388"/>
<trkpt lat="52.3349303" lon="6.0020938"/>
<trkpt lat="52.3358224" lon="6.0022193"/>
<trkpt lat="52.3357875" lon="6.0025596"/>
<trkpt lat="52.3356740" lon="6.0027320"/>
<trkpt lat="52.3355089" lon="6.0028940"/>
<trkpt lat="52.3353864" lon="6.0030793"/>
<trkpt lat="52.3352974" lon="6.0032876"/>
<trkpt lat="52.3352554" lon="6.0034642"/>
<trkpt lat="52.3352312" lon="6.0036468"/>
<trkpt lat="52.3352011" lon="6.0047019"/>
<trkpt lat="52.3351804" lon="6.0064165"/>
<trkpt lat="52.3352173" lon="6.0064466"/>
<trkpt lat="52.3352525" lon="6.0064314"/>
<trkpt lat="52.3359302" lon="6.0059433"/>
<trkpt lat="52.3360764" lon="6.0058469"/>
<trkpt lat="52.3362759" lon="6.0058094"/>
<trkpt lat="52.3366548" lon="6.0057665"/>
<trkpt lat="52.3369936" lon="6.0057197"/>
<trkpt lat="52.3371506" lon="6.0056218"/>
<trkpt lat="52.3372999" lon="6.0054558"/>
<trkpt lat="52.3375437" lon="6.0052086"/>
<trkpt lat="52.3378464" lon="6.0050432"/>
<trkpt lat="52.3381521" lon="6.0048907"/>
<trkpt lat="52.3384615" lon="6.0047884"/>
<trkpt lat="52.3387860" lon="6.0046821"/>
<trkpt lat="52.3390020" lon="6.0045990"/>
<trkpt lat="52.3391048" lon="6.0045401"/>
<trkpt lat="52.3391167" lon="6.0046564"/>
<trkpt lat="52.3391037" lon="6.0050700"/>
<trkpt lat="52.3391290" lon="6.0056588"/>
<trkpt lat="52.3392281" lon="6.0064177"/>
<trkpt lat="52.3403967" lon="6.0054823"/>
<trkpt lat="52.3413037" lon="6.0047529"/>
<trkpt lat="52.3418488" lon="6.0043432"/>
<trkpt lat="52.3423536" lon="6.0058055"/>
<trkpt lat="52.3426445" lon="6.0069427"/>
<trkpt lat="52.3428603" lon="6.0079687"/>
<trkpt lat="52.3429977" lon="6.0088351"/>
<trkpt lat="52.3430584" lon="6.0093807"/>
<trkpt lat="52.3430954" lon="6.0099259"/>
<trkpt lat="52.3432128" lon="6.0110364"/>
<trkpt lat="52.3433655" lon="6.0119141"/>
<trkpt lat="52.3435818" lon="6.0127539"/>
<trkpt lat="52.3439559" lon="6.0136985"/>
<trkpt lat="52.3440724" lon="6.0138952"/>
<trkpt lat="52.3445649" lon="6.0141756"/>
<trkpt lat="52.3450498" lon="6.0144170"/>
<trkpt lat="52.3455595" lon="6.0142696"/>
<trkpt lat="52.3458104" lon="6.0141828"/>
<trkpt lat="52.3460418" lon="6.0140441"/>
<trkpt lat="52.3458726" lon="6.0126231"/>
<trkpt lat="52.3463855" lon="6.0124060"/>
<trkpt lat="52.3466465" lon="6.0122069"/>
<trkpt lat="52.3467807" lon="6.0121495"/>
<trkpt lat="52.3469067" lon="6.0121438"/>
<trkpt lat="52.3471698" lon="6.0122271"/>
<trkpt lat="52.3470316" lon="6.0135955"/>
<trkpt lat="52.3469466" lon="6.0142763"/>
<trkpt lat="52.3468523" lon="6.0148631"/>
<trkpt lat="52.3468874" lon="6.0149289"/>
<trkpt lat="52.3472540" lon="6.0148927"/>
<trkpt lat="52.3476581" lon="6.0148544"/>
<trkpt lat="52.3477373" lon="6.0155802"/>
<trkpt lat="52.3477874" lon="6.0159432"/>
<trkpt lat="52.3478411" lon="6.0161711"/>
<trkpt lat="52.3480394" lon="6.0166053"/>
<trkpt lat="52.3487462" lon="6.0170968"/>
<trkpt lat="52.3497248" lon="6.0177707"/>
<trkpt lat="52.3498043" lon="6.0177037"/>
<trkpt lat="52.3505898" lon="6.0182281"/>
<trkpt lat="52.3516240" lon="6.0176946"/>
<trkpt lat="52.3521469" lon="6.0174311"/>
<trkpt lat="52.3524601" lon="6.0172807"/>
<trkpt lat="52.3526148" lon="6.0171828"/>
<trkpt lat="52.3526504" lon="6.0171156"/>
<trkpt lat="52.3526806" lon="6.0168335"/>
<trkpt lat="52.3526900" lon="6.0159945"/>
<trkpt lat="52.3527059" lon="6.0154403"/>
<trkpt lat="52.3527693" lon="6.0148804"/>
<trkpt lat="52.3528967" lon="6.0145450"/>
<trkpt lat="52.3529820" lon="6.0144212"/>
<trkpt lat="52.3530828" lon="6.0143495"/>
<trkpt lat="52.3533253" lon="6.0142834"/>
<trkpt lat="52.3535520" lon="6.0142138"/>
<trkpt lat="52.3536915" lon="6.0142232"/>
<trkpt lat="52.3537632" lon="6.0142964"/>
<trkpt lat="52.3539913" lon="6.0144907"/>
<trkpt lat="52.3541864" lon="6.0144585"/>
<trkpt lat="52.3543145" lon="6.0143800"/>
<trkpt lat="52.3547387" lon="6.0139070"/>
<trkpt lat="52.3548705" lon="6.0138668"/>
<trkpt lat="52.3553022" lon="6.0140824"/>
<trkpt lat="52.3555799" lon="6.0137365"/>
<trkpt lat="52.3561522" lon="6.0130011"/>
<trkpt lat="52.3563732" lon="6.0125694"/>
<trkpt lat="52.3565874" lon="6.0116971"/>
<trkpt lat="52.3566096" lon="6.0110351"/>
<trkpt lat="52.3564806" lon="6.0102919"/>
<trkpt lat="52.3563944" lon="6.0095376"/>
<trkpt lat="52.3562905" lon="6.0087424"/>
<trkpt lat="52.3561282" lon="6.0082143"/>
<trkpt lat="52.3558594" lon="6.0072965"/>
<trkpt lat="52.3556699" lon="6.0062284"/>
<trkpt lat="52.3554413" lon="6.0050251"/>
<trkpt lat="52.3551853" lon="6.0042817"/>
<trkpt lat="52.3562988" lon="6.0030262"/>
<trkpt lat="52.3572901" lon="6.0019379"/>
<trkpt lat="52.3573643" lon="6.0013830"/>
<trkpt lat="52.3574155" lon="6.0004492"/>
<trkpt lat="52.3574999" lon="5.9992745"/>
<trkpt lat="52.3566564" lon="5.9971164"/>
<trkpt lat="52.3557597" lon="5.9948587"/>
<trkpt lat="52.3537558" lon="5.9965059"/>
<trkpt lat="52.3517589" lon="5.9981765"/>
<trkpt lat="52.3516054" lon="5.9981533"/>
<trkpt lat="52.3514450" lon="5.9980718"/>
<trkpt lat="52.3511527" lon="5.9979209"/>
<trkpt lat="52.3505541" lon="5.9975839"/>
<trkpt lat="52.3500924" lon="5.9981439"/>
<trkpt lat="52.3496872" lon="5.9991184"/>
<trkpt lat="52.3493679" lon="5.9989845"/>
<trkpt lat="52.3489705" lon="5.9987622"/>
<trkpt lat="52.3485261" lon="5.9984946"/>
<trkpt lat="52.3480403" lon="5.9982431"/>
<trkpt lat="52.3475617" lon="5.9979800"/>
<trkpt lat="52.3474540" lon="5.9977395"/>
<trkpt lat="52.3474035" lon="5.9974765"/>
<trkpt lat="52.3473262" lon="5.9972280"/>
<trkpt lat="52.3470777" lon="5.9969713"/>
<trkpt lat="52.3467278" lon="5.9977121"/>
<trkpt lat="52.3465492" lon="5.9980941"/>
<trkpt lat="52.3464274" lon="5.9985352"/>
<trkpt lat="52.3460491" lon="5.9998875"/>
<trkpt lat="52.3459716" lon="6.0002343"/>
<trkpt lat="52.3457498" lon="6.0008878"/>
<trkpt lat="52.3456988" lon="6.0010155"/>
<trkpt lat="52.3455880" lon="6.0010316"/>
<trkpt lat="52.3454989" lon="6.0013246"/>
<trkpt lat="52.3455788" lon="6.0015660"/>
<trkpt lat="52.3456721" lon="6.0017166"/>
<trkpt lat="52.3458187" lon="6.0025784"/>
<trkpt lat="52.3458653" lon="6.0031473"/>
<trkpt lat="52.3458932" lon="6.0034900"/>
<trkpt lat="52.3456999" lon="6.0035514"/>
<trkpt lat="52.3454844" lon="6.0037503"/>
<trkpt lat="52.3451559" lon="6.0041276"/>
<trkpt lat="52.3449152" lon="6.0043766"/>
<trkpt lat="52.3447835" lon="6.0048498"/>
<trkpt lat="52.3445746" lon="6.0045634"/>
<trkpt lat="52.3444229" lon="6.0039349"/>
<trkpt lat="52.3442307" lon="6.0035394"/>
<trkpt lat="52.3438572" lon="6.0029732"/>
<trkpt lat="52.3436859" lon="6.0027728"/>
<trkpt lat="52.3435414" lon="6.0027274"/>
<trkpt lat="52.3433806" lon="6.0027983"/>
<trkpt lat="52.3431500" lon="6.0029219"/>
<trkpt lat="52.3426172" lon="6.0032588"/>
<trkpt lat="52.3425348" lon="6.0035527"/>
<trkpt lat="52.3423553" lon="6.0036894"/>
<trkpt lat="52.3421841" lon="6.0037744"/>
<trkpt lat="52.3417584" lon="6.0040014"/>
<trkpt lat="52.3414146" lon="6.0030049"/>
<trkpt lat="52.3409894" lon="6.0016612"/>
<trkpt lat="52.3395697" lon="6.0005985"/>
<trkpt lat="52.3385451" lon="6.0005557"/>
<trkpt lat="52.3375362" lon="6.0005520"/>
<trkpt lat="52.3376325" lon="6.0003961"/>
<trkpt lat="52.3378408" lon="5.9992970"/>
<trkpt lat="52.3380587" lon="5.9979374"/>
<trkpt lat="52.3381505" lon="5.9973408"/>
<trkpt lat="52.3374259" lon="5.9974375"/>
<trkpt lat="52.3359997" lon="5.9969423"/>
<trkpt lat="52.3361657" lon="5.9952852"/>
<trkpt lat="52.3360785" lon="5.9952506"/>
<trkpt lat="52.3365564" lon="5.9910065"/>
<trkpt lat="52.3354103" lon="5.9905309"/>
<trkpt lat="52.3352485" lon="5.9917106"/>
<trkpt lat="52.3349393" lon="5.9929946"/>
<trkpt lat="52.3348193" lon="5.9939936"/>
<trkpt lat="52.3348065" lon="5.9942498"/>
</trkseg></trk>
<trk><name>Eper Enkenpad - routeverkorter</name><type>shorteningRoute</type><trkseg>
<trkpt lat="52.3548705" lon="6.0138668"/>
<trkpt lat="52.3546644" lon="6.0123705"/>
<trkpt lat="52.3544756" lon="6.0109697"/>
<trkpt lat="52.3537750" lon="6.0097117"/>
<trkpt lat="52.3530748" lon="6.0083956"/>
<trkpt lat="52.3520118" lon="6.0067001"/>
<trkpt lat="52.3510066" lon="6.0048541"/>
<trkpt lat="52.3503148" lon="6.0031057"/>
<trkpt lat="52.3497869" lon="6.0030983"/>
<trkpt lat="52.3497576" lon="6.0018805"/>
<trkpt lat="52.3497065" lon="6.0007206"/>
<trkpt lat="52.3497287" lon="5.9991948"/>
</trkseg></trk>
<trk><name>Eper Enkenpad - routeverlenger</name><type>extensionRoute</type><trkseg>
<trkpt lat="52.3574999" lon="5.9992745"/>
<trkpt lat="52.3584345" lon="6.0014665"/>
<trkpt lat="52.3585548" lon="6.0017972"/>
<trkpt lat="52.3587427" lon="6.0025346"/>
<trkpt lat="52.3610310" lon="6.0014943"/>
<trkpt lat="52.3613993" lon="6.0020121"/>
<trkpt lat="52.3627923" lon="6.0002834"/>
<trkpt lat="52.3636284" lon="5.9986169"/>
<trkpt lat="52.3638372" lon="5.9968717"/>
<trkpt lat="52.3638515" lon="5.9968719"/>
<trkpt lat="52.3635299" lon="5.9964247"/>
<trkpt lat="52.3626906" lon="5.9956487"/>
<trkpt lat="52.3620252" lon="5.9951897"/>
<trkpt lat="52.3612102" lon="5.9952473"/>
<trkpt lat="52.3602819" lon="5.9951518"/>
<trkpt lat="52.3590766" lon="5.9953614"/>
<trkpt lat="52.3576770" lon="5.9956079"/>
<trkpt lat="52.3574855" lon="5.9956775"/>
<trkpt lat="52.3571193" lon="5.9963972"/>
<trkpt lat="52.3566535" lon="5.9970806"/>
</trkseg></trk>
<trk><name>Eper Enkenpad - overstaproute</name><type>connectionRoute</type><trkseg>
<trkpt lat="52.3299228" lon="5.9980716"/>
<trkpt lat="52.3295385" lon="5.9978800"/>
<trkpt lat="52.3292829" lon="5.9976436"/>
<trkpt lat="52.3289367" lon="5.9986555"/>
<trkpt lat="52.3281293" lon="6.0032994"/>
<trkpt lat="52.3273677" lon="6.0035215"/>
<trkpt lat="52.3268712" lon="6.0018813"/>
<trkpt lat="52.3268032" lon="6.0010307"/>
<trkpt lat="52.3267502" lon="5.9986915"/>
<trkpt lat="52.3262973" lon="5.9937802"/>
</trkseg></trk>
<trk><name>Eper Enkenpad - overstaproute</name><type>connectionRoute</type><trkseg>
<trkpt lat="52.3299228" lon="5.9980716"/>
<trkpt lat="52.3295385" lon="5.9978800"/>
<trkpt lat="52.3292829" lon="5.9976436"/>
<trkpt lat="52.3289367" lon="5.9986555"/>
<trkpt lat="52.3281293" lon="6.0032994"/>
<trkpt lat="52.3283675" lon="6.0037033"/>
<trkpt lat="52.3286099" lon="6.0038593"/>
<trkpt lat="52.3286647" lon="6.0041043"/>
<trkpt lat="52.3289407" lon="6.0067797"/>
<trkpt lat="52.3289940" lon="6.0069949"/>
<trkpt lat="52.3291199" lon="6.0071030"/>
<trkpt lat="52.3292691" lon="6.0071363"/>
<trkpt lat="52.3297060" lon="6.0071049"/>
<trkpt lat="52.3297527" lon="6.0069680"/>
<trkpt lat="52.3300126" lon="6.0070547"/>
<trkpt lat="52.3297541" lon="6.0087298"/>
<trkpt lat="52.3294862" lon="6.0088037"/>
<trkpt lat="52.3294161" lon="6.0085601"/>
<trkpt lat="52.3293999" lon="6.0082591"/>
<trkpt lat="52.3293417" lon="6.0080254"/>
<trkpt lat="52.3292408" lon="6.0079852"/>
<trkpt lat="52.3291513" lon="6.0080518"/>
<trkpt lat="52.3291703" lon="6.0089643"/>
<trkpt lat="52.3291829" lon="6.0090525"/>
<trkpt lat="52.3292288" lon="6.0091732"/>
<trkpt lat="52.3294441" lon="6.0106689"/>
<trkpt lat="52.3296260" lon="6.0115039"/>
<trkpt lat="52.3298178" lon="6.0120588"/>
<trkpt lat="52.3300717" lon="6.0125876"/>
<trkpt lat="52.3303035" lon="6.0129473"/>
<trkpt lat="52.3305776" lon="6.0132764"/>
<trkpt lat="52.3307834" lon="6.0134669"/>
<trkpt lat="52.3311688" lon="6.0137662"/>
<trkpt lat="52.3312601" lon="6.0138800"/>
<trkpt lat="52.3313818" lon="6.0140568"/>
<trkpt lat="52.3314813" lon="6.0140708"/>
<trkpt lat="52.3315700" lon="6.0139469"/>
<trkpt lat="52.3316630" lon="6.0137482"/>
<trkpt lat="52.3324849" lon="6.0140787"/>
<trkpt lat="52.3327784" lon="6.0143705"/>
<trkpt lat="52.3328642" lon="6.0147907"/>
<trkpt lat="52.3327860" lon="6.0158214"/>
<trkpt lat="52.3325833" lon="6.0215028"/>
<trkpt lat="52.3319643" lon="6.0233324"/>
<trkpt lat="52.3313999" lon="6.0249877"/>
<trkpt lat="52.3312563" lon="6.0253296"/>
<trkpt lat="52.3313208" lon="6.0254646"/>
<trkpt lat="52.3322828" lon="6.0263320"/>
<trkpt lat="52.3324526" lon="6.0264981"/>
<trkpt lat="52.3332804" lon="6.0274000"/>
<trkpt lat="52.3333318" lon="6.0274035"/>
<trkpt lat="52.3338917" lon="6.0282658"/>
</trkseg></trk>
<trk><name>Eper Enkenpad - aanlooproute</name><type>approachRoute</type><trkseg>
<trkpt lat="52.3497086" lon="5.9832614"/>
<trkpt lat="52.3495297" lon="5.9843870"/>
<trkpt lat="52.3503094" lon="5.9847485"/>
<trkpt lat="52.3501897" lon="5.9857430"/>
<trkpt lat="52.3501491" lon="5.9860045"/>
<trkpt lat="52.3500978" lon="5.9862718"/>
<trkpt lat="52.3504296" lon="5.9863955"/>
<trkpt lat="52.3505187" lon="5.9866149"/>
<trkpt lat="52.3506360" lon="5.9866952"/>
<trkpt lat="52.3505855" lon="5.9871406"/>
<trkpt lat="52.3506315" lon="5.9872257"/>
<trkpt lat="52.3507310" lon="5.9873025"/>
<trkpt lat="52.3513893" lon="5.9890387"/>
<trkpt lat="52.3516703" lon="5.9898988"/>
<trkpt lat="52.3521375" lon="5.9913149"/>
<trkpt lat="52.3522848" lon="5.9917946"/>
<trkpt lat="52.3523605" lon="5.9923432"/>
<trkpt lat="52.3524454" lon="5.9931890"/>
<trkpt lat="52.3525438" lon="5.9941632"/>
<trkpt lat="52.3521012" lon="5.9949144"/>
<trkpt lat="52.3516700" lon="5.9956920"/>
<trkpt lat="52.3520729" lon="5.9965975"/>
<trkpt lat="52.3524694" lon="5.9975292"/>
</trkseg></trk>
</gpx>