<?xml version="1.0" encoding="UTF-8"?>
<gpx version="1.1" creator="klompenpaden.nl via Jimbo API" xmlns="http://www.topografix.com/GPX/1/1">
<metadata><name>Errekomsepad</name><desc>Ontdek het mooie buitengebied van Erichem. Wandelen door weilanden, langs sloten, door wijngaard, over boerencamping en door het Betuwse stadje Buren. Rust, kleinschaligheid en  de combinatie van cultuur en natuur bepalen hier de sfeer. Klompen aan, rugzak op en gaan!</desc><link href="https://www.klompenpaden.nl/klompenpaden/Errekomsepad/f598de11-dabb-4d17-9f1a-e0d5306183fe"><text>klompenpaden.nl</text></link></metadata>
<wpt lat="51.900091072238446" lon="5.349032878875732"><name>Start Erichem</name></wpt>
<trk><name>Errekomsepad - track 4</name><type>mainRoute</type><trkseg>
<trkpt lat="51.9013551" lon="5.3514207"/>
<trkpt lat="51.9007324" lon="5.3524571"/>
<trkpt lat="51.9005566" lon="5.3528277"/>
<trkpt lat="51.9004771" lon="5.3531453"/>
<trkpt lat="51.9004921" lon="5.3534442"/>
<trkpt lat="51.9006426" lon="5.3539630"/>
<trkpt lat="51.9014700" lon="5.3566564"/>
<trkpt lat="51.9021790" lon="5.3587809"/>
<trkpt lat="51.9020754" lon="5.3589302"/>
<trkpt lat="51.9005253" lon="5.3610071"/>
<trkpt lat="51.9010488" lon="5.3623293"/>
<trkpt lat="51.9005542" lon="5.3628524"/>
<trkpt lat="51.9001262" lon="5.3632678"/>
<trkpt lat="51.8998220" lon="5.3640829"/>
<trkpt lat="51.8995748" lon="5.3648980"/>
<trkpt lat="51.8992516" lon="5.3656978"/>
<trkpt lat="51.8984433" lon="5.3675587"/>
<trkpt lat="51.8971786" lon="5.3705730"/>
<trkpt lat="51.8969209" lon="5.3704027"/>
<trkpt lat="51.8966403" lon="5.3700492"/>
<trkpt lat="51.8964785" lon="5.3696725"/>
<trkpt lat="51.8956932" lon="5.3668821"/>
<trkpt lat="51.8948461" lon="5.3640996"/>
<trkpt lat="51.8944562" lon="5.3628042"/>
<trkpt lat="51.8942910" lon="5.3622006"/>
<trkpt lat="51.8941798" lon="5.3618859"/>
<trkpt lat="51.8935753" lon="5.3598644"/>
<trkpt lat="51.8933611" lon="5.3591342"/>
<trkpt lat="51.8927666" lon="5.3593729"/>
<trkpt lat="51.8920152" lon="5.3596270"/>
<trkpt lat="51.8910069" lon="5.3601581"/>
<trkpt lat="51.8906693" lon="5.3603428"/>
<trkpt lat="51.8887258" lon="5.3610743"/>
<trkpt lat="51.8875901" lon="5.3614347"/>
<trkpt lat="51.8875729" lon="5.3611487"/>
<trkpt lat="51.8877952" lon="5.3598204"/>
<trkpt lat="51.8878978" lon="5.3591378"/>
<trkpt lat="51.8879034" lon="5.3588149"/>
<trkpt lat="51.8876862" lon="5.3573485"/>
<trkpt lat="51.8875490" lon="5.3567398"/>
<trkpt lat="51.8873034" lon="5.3558453"/>
<trkpt lat="51.8870292" lon="5.3549139"/>
<trkpt lat="51.8869204" lon="5.3538532"/>
<trkpt lat="51.8868973" lon="5.3528848"/>
<trkpt lat="51.8869085" lon="5.3522852"/>
<trkpt lat="51.8869254" lon="5.3514274"/>
<trkpt lat="51.8869994" lon="5.3505788"/>
<trkpt lat="51.8872956" lon="5.3489275"/>
<trkpt lat="51.8875182" lon="5.3487613"/>
<trkpt lat="51.8877859" lon="5.3472853"/>
<trkpt lat="51.8881218" lon="5.3448499"/>
<trkpt lat="51.8883780" lon="5.3430879"/>
<trkpt lat="51.8885487" lon="5.3416303"/>
<trkpt lat="51.8886793" lon="5.3398684"/>
<trkpt lat="51.8887166" lon="5.3385298"/>
<trkpt lat="51.8861627" lon="5.3390091"/>
<trkpt lat="51.8862096" lon="5.3373719"/>
<trkpt lat="51.8863037" lon="5.3351197"/>
<trkpt lat="51.8864033" lon="5.3344509"/>
<trkpt lat="51.8867549" lon="5.3336050"/>
<trkpt lat="51.8874771" lon="5.3320207"/>
<trkpt lat="51.8879599" lon="5.3310051"/>
<trkpt lat="51.8884535" lon="5.3300859"/>
<trkpt lat="51.8885362" lon="5.3301813"/>
<trkpt lat="51.8893433" lon="5.3288549"/>
<trkpt lat="51.8917880" lon="5.3327261"/>
<trkpt lat="51.8918717" lon="5.3328121"/>
<trkpt lat="51.8920498" lon="5.3329070"/>
<trkpt lat="51.8920426" lon="5.3329031"/>
<trkpt lat="51.8920446" lon="5.3325767"/>
<trkpt lat="51.8921226" lon="5.3315619"/>
<trkpt lat="51.8920796" lon="5.3310142"/>
<trkpt lat="51.8921396" lon="5.3296766"/>
<trkpt lat="51.8922356" lon="5.3291575"/>
<trkpt lat="51.8926611" lon="5.3287726"/>
<trkpt lat="51.8920943" lon="5.3270476"/>
<trkpt lat="51.8916595" lon="5.3258977"/>
<trkpt lat="51.8914771" lon="5.3253914"/>
<trkpt lat="51.8918003" lon="5.3250227"/>
<trkpt lat="51.8919563" lon="5.3249980"/>
<trkpt lat="51.8931882" lon="5.3233204"/>
<trkpt lat="51.8940048" lon="5.3222560"/>
<trkpt lat="51.8942633" lon="5.3217637"/>
<trkpt lat="51.8947372" lon="5.3207571"/>
<trkpt lat="51.8948658" lon="5.3210786"/>
<trkpt lat="51.8950708" lon="5.3215211"/>
<trkpt lat="51.8954656" lon="5.3220406"/>
<trkpt lat="51.8959376" lon="5.3228753"/>
<trkpt lat="51.8960221" lon="5.3233110"/>
<trkpt lat="51.8960830" lon="5.3234708"/>
<trkpt lat="51.8961231" lon="5.3234244"/>
<trkpt lat="51.8962654" lon="5.3237854"/>
<trkpt lat="51.8963678" lon="5.3239448"/>
<trkpt lat="51.8965171" lon="5.3240606"/>
<trkpt lat="51.8970041" lon="5.3240354"/>
<trkpt lat="51.8971792" lon="5.3241089"/>
<trkpt lat="51.8972552" lon="5.3239735"/>
<trkpt lat="51.8974227" lon="5.3239610"/>
<trkpt lat="51.8975522" lon="5.3243175"/>
<trkpt lat="51.8975599" lon="5.3244405"/>
<trkpt lat="51.8976816" lon="5.3244157"/>
<trkpt lat="51.8982539" lon="5.3232025"/>
<trkpt lat="51.8993484" lon="5.3242189"/>
<trkpt lat="51.9003381" lon="5.3251033"/>
<trkpt lat="51.9008100" lon="5.3254940"/>
<trkpt lat="51.9011449" lon="5.3257518"/>
<trkpt lat="51.9013047" lon="5.3256778"/>
<trkpt lat="51.9017858" lon="5.3252355"/>
<trkpt lat="51.9031030" lon="5.3242781"/>
<trkpt lat="51.9033654" lon="5.3243035"/>
<trkpt lat="51.9037802" lon="5.3245031"/>
<trkpt lat="51.9045098" lon="5.3249718"/>
<trkpt lat="51.9056479" lon="5.3255278"/>
<trkpt lat="51.9055512" lon="5.3272257"/>
<trkpt lat="51.9055605" lon="5.3291046"/>
<trkpt lat="51.9055232" lon="5.3306549"/>
<trkpt lat="51.9055082" lon="5.3312208"/>
<trkpt lat="51.9055389" lon="5.3316760"/>
<trkpt lat="51.9057754" lon="5.3329922"/>
<trkpt lat="51.9059434" lon="5.3342838"/>
<trkpt lat="51.9059590" lon="5.3349851"/>
<trkpt lat="51.9060966" lon="5.3364737"/>
<trkpt lat="51.9064770" lon="5.3363010"/>
<trkpt lat="51.9070172" lon="5.3359313"/>
<trkpt lat="51.9074509" lon="5.3357093"/>
<trkpt lat="51.9077475" lon="5.3354137"/>
<trkpt lat="51.9081124" lon="5.3345889"/>
<trkpt lat="51.9082796" lon="5.3339366"/>
<trkpt lat="51.9083252" lon="5.3337889"/>
<trkpt lat="51.9083474" lon="5.3324477"/>
<trkpt lat="51.9092758" lon="5.3324958"/>
<trkpt lat="51.9094357" lon="5.3325448"/>
<trkpt lat="51.9095343" lon="5.3318803"/>
<trkpt lat="51.9096480" lon="5.3309081"/>
<trkpt lat="51.9100207" lon="5.3305385"/>
<trkpt lat="51.9105915" lon="5.3305501"/>
<trkpt lat="51.9106107" lon="5.3306573"/>
<trkpt lat="51.9113819" lon="5.3310858"/>
<trkpt lat="51.9117261" lon="5.3312982"/>
<trkpt lat="51.9116741" lon="5.3321822"/>
<trkpt lat="51.9115794" lon="5.3329360"/>
<trkpt lat="51.9112088" lon="5.3339054"/>
<trkpt lat="51.9106672" lon="5.3353672"/>
<trkpt lat="51.9102869" lon="5.3357214"/>
<trkpt lat="51.9103537" lon="5.3363058"/>
<trkpt lat="51.9104395" lon="5.3366133"/>
<trkpt lat="51.9111532" lon="5.3373201"/>
<trkpt lat="51.9114578" lon="5.3377196"/>
<trkpt lat="51.9117053" lon="5.3382116"/>
<trkpt lat="51.9118673" lon="5.3389497"/>
<trkpt lat="51.9118677" lon="5.3398726"/>
<trkpt lat="51.9117258" lon="5.3418723"/>
<trkpt lat="51.9116215" lon="5.3428260"/>
<trkpt lat="51.9116317" lon="5.3446717"/>
<trkpt lat="51.9113088" lon="5.3460256"/>
<trkpt lat="51.9111284" lon="5.3471024"/>
<trkpt lat="51.9110622" lon="5.3481791"/>
<trkpt lat="51.9105016" lon="5.3501637"/>
<trkpt lat="51.9103686" lon="5.3506868"/>
<trkpt lat="51.9102260" lon="5.3510406"/>
<trkpt lat="51.9091132" lon="5.3516875"/>
<trkpt lat="51.9084094" lon="5.3520726"/>
<trkpt lat="51.9070588" lon="5.3527196"/>
<trkpt lat="51.9069161" lon="5.3525813"/>
<trkpt lat="51.9068304" lon="5.3522737"/>
<trkpt lat="51.9068397" lon="5.3516739"/>
<trkpt lat="51.9062683" lon="5.3497058"/>
<trkpt lat="51.9057066" lon="5.3481222"/>
<trkpt lat="51.9055733" lon="5.3477533"/>
<trkpt lat="51.9050214" lon="5.3474000"/>
<trkpt lat="51.9046980" lon="5.3472927"/>
<trkpt lat="51.9037185" lon="5.3482931"/>
<trkpt lat="51.9031004" lon="5.3491087"/>
<trkpt lat="51.9027201" lon="5.3495857"/>
<trkpt lat="51.9017788" lon="5.3508783"/>
<trkpt lat="51.9013551" lon="5.3514207"/>
<trkpt lat="51.9005942" lon="5.3504181"/>
<trkpt lat="51.9002731" lon="5.3503953"/>
<trkpt lat="51.8996094" lon="5.3490242"/>
</trkseg></trk>
<trk><name>Errekomsepad - shorteningRoute</name><type>shorteningRoute</type><trkseg>
<trkpt lat="51.9012600" lon="5.3513500"/>
<trkpt lat="51.9008400" lon="5.3507400"/>
<trkpt lat="51.9005400" lon="5.3503500"/>
<trkpt lat="51.9003000" lon="5.3503700"/>
<trkpt lat="51.8997400" lon="5.3494600"/>
<trkpt lat="51.8995200" lon="5.3493700"/>
<trkpt lat="51.8994100" lon="5.3494300"/>
<trkpt lat="51.8992500" lon="5.3492800"/>
<trkpt lat="51.8986400" lon="5.3483400"/>
<trkpt lat="51.8989400" lon="5.3477800"/>
<trkpt lat="51.8996500" lon="5.3469100"/>
<trkpt lat="51.8973700" lon="5.3419800"/>
<trkpt lat="51.8950300" lon="5.3439200"/>
<trkpt lat="51.8947100" lon="5.3430700"/>
<trkpt lat="51.8944800" lon="5.3425900"/>
<trkpt lat="51.8944300" lon="5.3422400"/>
<trkpt lat="51.8944200" lon="5.3418600"/>
<trkpt lat="51.8942500" lon="5.3412300"/>
<trkpt lat="51.8933100" lon="5.3386900"/>
<trkpt lat="51.8929300" lon="5.3377400"/>
<trkpt lat="51.8925900" lon="5.3365000"/>
<trkpt lat="51.8920400" lon="5.3329000"/>
</trkseg></trk>
<trk><name>Errekomsepad - Geimporteerde shapefile</name><type>extensionRoute</type><trkseg>
<trkpt lat="51.9117261" lon="5.3312982"/>
<trkpt lat="51.9119392" lon="5.3300964"/>
<trkpt lat="51.9121413" lon="5.3298808"/>
<trkpt lat="51.9122458" lon="5.3297076"/>
<trkpt lat="51.9124551" lon="5.3297804"/>
<trkpt lat="51.9125978" lon="5.3297418"/>
<trkpt lat="51.9127950" lon="5.3293954"/>
<trkpt lat="51.9130162" lon="5.3294028"/>
<trkpt lat="51.9131183" lon="5.3291797"/>
<trkpt lat="51.9132395" lon="5.3288450"/>
<trkpt lat="51.9133438" lon="5.3282872"/>
<trkpt lat="51.9135573" lon="5.3271141"/>
<trkpt lat="51.9133050" lon="5.3268068"/>
<trkpt lat="51.9130029" lon="5.3266188"/>
<trkpt lat="51.9124391" lon="5.3263042"/>
<trkpt lat="51.9121391" lon="5.3255855"/>
<trkpt lat="51.9119251" lon="5.3257166"/>
<trkpt lat="51.9117989" lon="5.3254168"/>
<trkpt lat="51.9121412" lon="5.3250510"/>
<trkpt lat="51.9124169" lon="5.3248238"/>
<trkpt lat="51.9125927" lon="5.3243929"/>
<trkpt lat="51.9127258" lon="5.3242081"/>
<trkpt lat="51.9128780" lon="5.3242694"/>
<trkpt lat="51.9131897" lon="5.3246112"/>
<trkpt lat="51.9133229" lon="5.3246649"/>
<trkpt lat="51.9144763" lon="5.3203255"/>
<trkpt lat="51.9143027" lon="5.3202758"/>
<trkpt lat="51.9137986" lon="5.3204534"/>
<trkpt lat="51.9120080" lon="5.3165915"/>
<trkpt lat="51.9122169" lon="5.3159875"/>
<trkpt lat="51.9115147" lon="5.3149234"/>
<trkpt lat="51.9115075" lon="5.3146927"/>
<trkpt lat="51.9112719" lon="5.3144855"/>
<trkpt lat="51.9109506" lon="5.3140822"/>
<trkpt lat="51.9105673" lon="5.3134946"/>
<trkpt lat="51.9104485" lon="5.3136447"/>
<trkpt lat="51.9094725" lon="5.3120852"/>
<trkpt lat="51.9085036" lon="5.3142362"/>
<trkpt lat="51.9091438" lon="5.3151426"/>
<trkpt lat="51.9097961" lon="5.3162105"/>
<trkpt lat="51.9093566" lon="5.3169610"/>
<trkpt lat="51.9090098" lon="5.3176805"/>
<trkpt lat="51.9088863" lon="5.3179537"/>
<trkpt lat="51.9088721" lon="5.3180691"/>
<trkpt lat="51.9090127" lon="5.3185995"/>
<trkpt lat="51.9091701" lon="5.3192222"/>
<trkpt lat="51.9092226" lon="5.3195566"/>
<trkpt lat="51.9091777" lon="5.3201181"/>
<trkpt lat="51.9090924" lon="5.3206450"/>
<trkpt lat="51.9092067" lon="5.3209409"/>
<trkpt lat="51.9093756" lon="5.3209521"/>
<trkpt lat="51.9095445" lon="5.3211903"/>
<trkpt lat="51.9096042" lon="5.3215824"/>
<trkpt lat="51.9095782" lon="5.3218631"/>
<trkpt lat="51.9091503" lon="5.3220599"/>
<trkpt lat="51.9098027" lon="5.3235470"/>
<trkpt lat="51.9105551" lon="5.3253570"/>
<trkpt lat="51.9105697" lon="5.3258953"/>
<trkpt lat="51.9111571" lon="5.3259176"/>
<trkpt lat="51.9114899" lon="5.3257326"/>
<trkpt lat="51.9117799" lon="5.3254399"/>
<trkpt lat="51.9119133" lon="5.3257627"/>
<trkpt lat="51.9116565" lon="5.3259707"/>
<trkpt lat="51.9115972" lon="5.3262477"/>
<trkpt lat="51.9116664" lon="5.3266783"/>
<trkpt lat="51.9118426" lon="5.3270972"/>
<trkpt lat="51.9117619" lon="5.3274241"/>
<trkpt lat="51.9118263" lon="5.3277624"/>
<trkpt lat="51.9116269" lon="5.3284356"/>
<trkpt lat="51.9114156" lon="5.3290934"/>
<trkpt lat="51.9114537" lon="5.3293433"/>
<trkpt lat="51.9118724" lon="5.3296312"/>
<trkpt lat="51.9119012" lon="5.3300387"/>
<trkpt lat="51.9117261" lon="5.3312982"/>
</trkseg></trk>
<trk><name>Errekomsepad - connectionRoute</name><type>connectionRoute</type><trkseg>
<trkpt lat="51.8950100" lon="5.3792200"/>
<trkpt lat="51.8949100" lon="5.3788500"/>
<trkpt lat="51.8949200" lon="5.3785600"/>
<trkpt lat="51.8946900" lon="5.3781300"/>
<trkpt lat="51.8947200" lon="5.3780400"/>
<trkpt lat="51.8950300" lon="5.3778100"/>
<trkpt lat="51.8956700" lon="5.3768400"/>
<trkpt lat="51.8956900" lon="5.3765800"/>
<trkpt lat="51.8952000" lon="5.3748900"/>
<trkpt lat="51.8951400" lon="5.3746100"/>
<trkpt lat="51.8952400" lon="5.3743900"/>
<trkpt lat="51.8956200" lon="5.3738400"/>
<trkpt lat="51.8961200" lon="5.3726400"/>
<trkpt lat="51.8968900" lon="5.3710300"/>
<trkpt lat="51.8971700" lon="5.3705700"/>
</trkseg></trk>
</gpx>