<?xml version="1.0" encoding="UTF-8"?>
<gpx version="1.1" creator="klompenpaden.nl via Jimbo API" xmlns="http://www.topografix.com/GPX/1/1">
<metadata><name>Fliertpad</name><desc>Ontdek het prachtige buitengebied van Twello. Wandel over statige landgoederen, langs karakteristieke boerderijen en door het beekdal van de Fliert in het buitengebied van de gemeente Voorst. Klompen aan, rugzak op en gaan!</desc><link href="https://www.klompenpaden.nl/klompenpaden/Fliertpad/e89287fc-e1cc-4609-a612-4a1155ef8d71"><text>klompenpaden.nl</text></link></metadata>
<wpt lat="52.24747390985773" lon="6.124008893966674"><name>Start Twello</name></wpt>
<trk><name>Fliertpad - hoofdroute</name><type>mainRoute</type><trkseg>
<trkpt lat="52.2363471" lon="6.1126350"/>
<trkpt lat="52.2354895" lon="6.1132293"/>
<trkpt lat="52.2353296" lon="6.1133358"/>
<trkpt lat="52.2351534" lon="6.1138891"/>
<trkpt lat="52.2350120" lon="6.1143291"/>
<trkpt lat="52.2350087" lon="6.1144801"/>
<trkpt lat="52.2349363" lon="6.1146649"/>
<trkpt lat="52.2348194" lon="6.1147133"/>
<trkpt lat="52.2344436" lon="6.1147343"/>
<trkpt lat="52.2340988" lon="6.1147248"/>
<trkpt lat="52.2331158" lon="6.1148598"/>
<trkpt lat="52.2329968" lon="6.1148811"/>
<trkpt lat="52.2329951" lon="6.1151444"/>
<trkpt lat="52.2330494" lon="6.1159819"/>
<trkpt lat="52.2330944" lon="6.1160214"/>
<trkpt lat="52.2331918" lon="6.1160346"/>
<trkpt lat="52.2332462" lon="6.1160858"/>
<trkpt lat="52.2332790" lon="6.1161677"/>
<trkpt lat="52.2333105" lon="6.1164432"/>
<trkpt lat="52.2334685" lon="6.1181965"/>
<trkpt lat="52.2334848" lon="6.1182587"/>
<trkpt lat="52.2339036" lon="6.1182191"/>
<trkpt lat="52.2338790" lon="6.1195046"/>
<trkpt lat="52.2339765" lon="6.1195101"/>
<trkpt lat="52.2339641" lon="6.1199631"/>
<trkpt lat="52.2339307" lon="6.1203769"/>
<trkpt lat="52.2340414" lon="6.1205492"/>
<trkpt lat="52.2339903" lon="6.1207343"/>
<trkpt lat="52.2335334" lon="6.1230623"/>
<trkpt lat="52.2332854" lon="6.1243208"/>
<trkpt lat="52.2333172" lon="6.1257041"/>
<trkpt lat="52.2333499" lon="6.1265567"/>
<trkpt lat="52.2332237" lon="6.1273370"/>
<trkpt lat="52.2331430" lon="6.1276920"/>
<trkpt lat="52.2331164" lon="6.1281408"/>
<trkpt lat="52.2334882" lon="6.1287706"/>
<trkpt lat="52.2339801" lon="6.1295902"/>
<trkpt lat="52.2338889" lon="6.1297204"/>
<trkpt lat="52.2340393" lon="6.1300095"/>
<trkpt lat="52.2341755" lon="6.1302907"/>
<trkpt lat="52.2342835" lon="6.1305016"/>
<trkpt lat="52.2344625" lon="6.1306598"/>
<trkpt lat="52.2347467" lon="6.1308038"/>
<trkpt lat="52.2347361" lon="6.1315042"/>
<trkpt lat="52.2347302" lon="6.1318918"/>
<trkpt lat="52.2346721" lon="6.1319153"/>
<trkpt lat="52.2346307" lon="6.1320124"/>
<trkpt lat="52.2346319" lon="6.1321032"/>
<trkpt lat="52.2346579" lon="6.1321738"/>
<trkpt lat="52.2347050" lon="6.1322161"/>
<trkpt lat="52.2347526" lon="6.1322054"/>
<trkpt lat="52.2348002" lon="6.1326365"/>
<trkpt lat="52.2348521" lon="6.1331063"/>
<trkpt lat="52.2349239" lon="6.1337814"/>
<trkpt lat="52.2350263" lon="6.1348987"/>
<trkpt lat="52.2350893" lon="6.1348500"/>
<trkpt lat="52.2350932" lon="6.1348761"/>
</trkseg></trk>
<trk><name>Fliertpad - hoofdroute</name><type>mainRoute</type><trkseg>
<trkpt lat="52.2424183" lon="6.1395709"/>
<trkpt lat="52.2425180" lon="6.1395909"/>
<trkpt lat="52.2426452" lon="6.1396413"/>
<trkpt lat="52.2426919" lon="6.1398127"/>
<trkpt lat="52.2427273" lon="6.1399765"/>
<trkpt lat="52.2427972" lon="6.1400916"/>
<trkpt lat="52.2431955" lon="6.1397359"/>
<trkpt lat="52.2432912" lon="6.1397264"/>
<trkpt lat="52.2436073" lon="6.1397688"/>
<trkpt lat="52.2438610" lon="6.1397658"/>
<trkpt lat="52.2440815" lon="6.1402344"/>
<trkpt lat="52.2442401" lon="6.1407252"/>
<trkpt lat="52.2445535" lon="6.1420043"/>
<trkpt lat="52.2446132" lon="6.1423443"/>
<trkpt lat="52.2446974" lon="6.1429268"/>
<trkpt lat="52.2447474" lon="6.1430370"/>
<trkpt lat="52.2454364" lon="6.1429868"/>
<trkpt lat="52.2456078" lon="6.1429306"/>
<trkpt lat="52.2457325" lon="6.1427810"/>
<trkpt lat="52.2458250" lon="6.1425904"/>
<trkpt lat="52.2458543" lon="6.1424700"/>
<trkpt lat="52.2459166" lon="6.1422479"/>
<trkpt lat="52.2461186" lon="6.1415086"/>
<trkpt lat="52.2461805" lon="6.1407533"/>
<trkpt lat="52.2462582" lon="6.1397443"/>
<trkpt lat="52.2462209" lon="6.1396274"/>
<trkpt lat="52.2462206" lon="6.1389301"/>
<trkpt lat="52.2463108" lon="6.1382110"/>
<trkpt lat="52.2463835" lon="6.1380030"/>
<trkpt lat="52.2464567" lon="6.1369581"/>
<trkpt lat="52.2465240" lon="6.1360992"/>
<trkpt lat="52.2466644" lon="6.1341954"/>
<trkpt lat="52.2466660" lon="6.1339474"/>
<trkpt lat="52.2466452" lon="6.1337426"/>
<trkpt lat="52.2466726" lon="6.1336701"/>
<trkpt lat="52.2467150" lon="6.1335747"/>
<trkpt lat="52.2467212" lon="6.1334989"/>
<trkpt lat="52.2469053" lon="6.1337190"/>
<trkpt lat="52.2470968" lon="6.1339411"/>
</trkseg></trk>
<trk><name>Fliertpad - hoofdroute</name><type>mainRoute</type><trkseg>
<trkpt lat="52.2470968" lon="6.1339411"/>
<trkpt lat="52.2471697" lon="6.1340256"/>
<trkpt lat="52.2472687" lon="6.1341668"/>
<trkpt lat="52.2472494" lon="6.1342052"/>
<trkpt lat="52.2472798" lon="6.1344730"/>
<trkpt lat="52.2472537" lon="6.1346469"/>
<trkpt lat="52.2472072" lon="6.1346752"/>
<trkpt lat="52.2471647" lon="6.1346280"/>
<trkpt lat="52.2471089" lon="6.1344237"/>
<trkpt lat="52.2470737" lon="6.1343417"/>
<trkpt lat="52.2470968" lon="6.1339411"/>
</trkseg></trk>
<trk><name>Fliertpad - hoofdroute</name><type>mainRoute</type><trkseg>
<trkpt lat="52.2470968" lon="6.1339411"/>
<trkpt lat="52.2471258" lon="6.1334360"/>
<trkpt lat="52.2473034" lon="6.1329915"/>
<trkpt lat="52.2475318" lon="6.1324151"/>
<trkpt lat="52.2475885" lon="6.1323822"/>
<trkpt lat="52.2477549" lon="6.1319152"/>
<trkpt lat="52.2477565" lon="6.1316730"/>
<trkpt lat="52.2476969" lon="6.1312265"/>
<trkpt lat="52.2476486" lon="6.1308576"/>
<trkpt lat="52.2476665" lon="6.1303881"/>
<trkpt lat="52.2478018" lon="6.1296591"/>
<trkpt lat="52.2478851" lon="6.1291762"/>
<trkpt lat="52.2478905" lon="6.1288034"/>
<trkpt lat="52.2478303" lon="6.1284440"/>
<trkpt lat="52.2477268" lon="6.1278853"/>
<trkpt lat="52.2477110" lon="6.1275605"/>
<trkpt lat="52.2477038" lon="6.1272795"/>
<trkpt lat="52.2477126" lon="6.1268293"/>
<trkpt lat="52.2477417" lon="6.1264568"/>
<trkpt lat="52.2478618" lon="6.1257856"/>
<trkpt lat="52.2480221" lon="6.1253427"/>
<trkpt lat="52.2482269" lon="6.1249151"/>
<trkpt lat="52.2483401" lon="6.1244133"/>
<trkpt lat="52.2482451" lon="6.1236434"/>
<trkpt lat="52.2478412" lon="6.1235500"/>
<trkpt lat="52.2477458" lon="6.1235969"/>
<trkpt lat="52.2476233" lon="6.1241760"/>
<trkpt lat="52.2476172" lon="6.1241687"/>
</trkseg></trk>
<trk><name>Fliertpad - hoofdroute</name><type>mainRoute</type><trkseg>
<trkpt lat="52.2476172" lon="6.1241687"/>
<trkpt lat="52.2474835" lon="6.1240078"/>
<trkpt lat="52.2476112" lon="6.1241952"/>
<trkpt lat="52.2476172" lon="6.1241687"/>
</trkseg></trk>
<trk><name>Fliertpad - Hoofdroute</name><type>mainRoute</type><trkseg>
<trkpt lat="52.2350932" lon="6.1348761"/>
<trkpt lat="52.2362709" lon="6.1335676"/>
<trkpt lat="52.2367918" lon="6.1335587"/>
<trkpt lat="52.2368690" lon="6.1357694"/>
<trkpt lat="52.2368419" lon="6.1361852"/>
<trkpt lat="52.2367377" lon="6.1371165"/>
<trkpt lat="52.2367712" lon="6.1378046"/>
<trkpt lat="52.2367753" lon="6.1378635"/>
<trkpt lat="52.2367965" lon="6.1379670"/>
<trkpt lat="52.2368225" lon="6.1380110"/>
<trkpt lat="52.2375650" lon="6.1380001"/>
<trkpt lat="52.2378735" lon="6.1382771"/>
<trkpt lat="52.2379580" lon="6.1383364"/>
<trkpt lat="52.2379915" lon="6.1383829"/>
<trkpt lat="52.2380227" lon="6.1384241"/>
<trkpt lat="52.2380782" lon="6.1384685"/>
<trkpt lat="52.2382739" lon="6.1386842"/>
<trkpt lat="52.2384508" lon="6.1389816"/>
<trkpt lat="52.2387682" lon="6.1396253"/>
<trkpt lat="52.2389950" lon="6.1401622"/>
<trkpt lat="52.2391638" lon="6.1408499"/>
<trkpt lat="52.2392479" lon="6.1413720"/>
<trkpt lat="52.2393429" lon="6.1419965"/>
<trkpt lat="52.2394489" lon="6.1424802"/>
<trkpt lat="52.2397127" lon="6.1428721"/>
<trkpt lat="52.2399725" lon="6.1431476"/>
<trkpt lat="52.2401908" lon="6.1432288"/>
<trkpt lat="52.2404953" lon="6.1432185"/>
<trkpt lat="52.2409712" lon="6.1431724"/>
<trkpt lat="52.2413376" lon="6.1431398"/>
<trkpt lat="52.2414683" lon="6.1427857"/>
<trkpt lat="52.2415495" lon="6.1427328"/>
<trkpt lat="52.2415457" lon="6.1425778"/>
<trkpt lat="52.2415420" lon="6.1424228"/>
<trkpt lat="52.2416478" lon="6.1422309"/>
<trkpt lat="52.2415768" lon="6.1421909"/>
<trkpt lat="52.2415255" lon="6.1420196"/>
<trkpt lat="52.2414279" lon="6.1416616"/>
<trkpt lat="52.2414344" lon="6.1413905"/>
<trkpt lat="52.2415082" lon="6.1410044"/>
<trkpt lat="52.2416721" lon="6.1406740"/>
<trkpt lat="52.2417774" lon="6.1405595"/>
<trkpt lat="52.2419396" lon="6.1404848"/>
<trkpt lat="52.2421936" lon="6.1401792"/>
<trkpt lat="52.2422806" lon="6.1399637"/>
<trkpt lat="52.2423847" lon="6.1395737"/>
<trkpt lat="52.2424188" lon="6.1395709"/>
</trkseg></trk>
<trk><name>Fliertpad - Geimporteerde shapefile</name><type>mainRoute</type><trkseg>
<trkpt lat="52.2476172" lon="6.1241687"/>
<trkpt lat="52.2477642" lon="6.1235100"/>
<trkpt lat="52.2482113" lon="6.1236072"/>
<trkpt lat="52.2482759" lon="6.1234435"/>
<trkpt lat="52.2482921" lon="6.1232857"/>
<trkpt lat="52.2482517" lon="6.1230526"/>
<trkpt lat="52.2482249" lon="6.1227701"/>
<trkpt lat="52.2482483" lon="6.1223706"/>
<trkpt lat="52.2483593" lon="6.1219602"/>
<trkpt lat="52.2485352" lon="6.1215168"/>
<trkpt lat="52.2485681" lon="6.1212158"/>
<trkpt lat="52.2486088" lon="6.1203931"/>
<trkpt lat="52.2486688" lon="6.1199293"/>
<trkpt lat="52.2487885" lon="6.1197035"/>
<trkpt lat="52.2490789" lon="6.1193789"/>
<trkpt lat="52.2497589" lon="6.1186964"/>
<trkpt lat="52.2500600" lon="6.1186034"/>
<trkpt lat="52.2505566" lon="6.1185992"/>
<trkpt lat="52.2508747" lon="6.1187016"/>
<trkpt lat="52.2508891" lon="6.1185613"/>
<trkpt lat="52.2510009" lon="6.1183245"/>
<trkpt lat="52.2510187" lon="6.1182163"/>
<trkpt lat="52.2509877" lon="6.1180110"/>
<trkpt lat="52.2505533" lon="6.1165565"/>
<trkpt lat="52.2499474" lon="6.1145472"/>
<trkpt lat="52.2498164" lon="6.1140296"/>
<trkpt lat="52.2493346" lon="6.1126269"/>
<trkpt lat="52.2490571" lon="6.1117985"/>
<trkpt lat="52.2491857" lon="6.1116800"/>
<trkpt lat="52.2492549" lon="6.1115695"/>
<trkpt lat="52.2493118" lon="6.1114469"/>
<trkpt lat="52.2496068" lon="6.1113672"/>
<trkpt lat="52.2497950" lon="6.1112298"/>
<trkpt lat="52.2498962" lon="6.1112235"/>
<trkpt lat="52.2500147" lon="6.1112361"/>
<trkpt lat="52.2501218" lon="6.1112393"/>
<trkpt lat="52.2502430" lon="6.1112101"/>
<trkpt lat="52.2503410" lon="6.1111831"/>
<trkpt lat="52.2504330" lon="6.1111451"/>
<trkpt lat="52.2505100" lon="6.1110821"/>
<trkpt lat="52.2505860" lon="6.1110120"/>
<trkpt lat="52.2506670" lon="6.1109761"/>
<trkpt lat="52.2507550" lon="6.1109241"/>
<trkpt lat="52.2508430" lon="6.1109191"/>
<trkpt lat="52.2509210" lon="6.1109561"/>
<trkpt lat="52.2511175" lon="6.1109334"/>
<trkpt lat="52.2511660" lon="6.1108600"/>
<trkpt lat="52.2512020" lon="6.1107390"/>
<trkpt lat="52.2512180" lon="6.1106081"/>
<trkpt lat="52.2511980" lon="6.1104531"/>
<trkpt lat="52.2511830" lon="6.1103171"/>
<trkpt lat="52.2511620" lon="6.1101771"/>
<trkpt lat="52.2511180" lon="6.1099141"/>
<trkpt lat="52.2511120" lon="6.1097561"/>
<trkpt lat="52.2510990" lon="6.1096221"/>
<trkpt lat="52.2510720" lon="6.1094771"/>
<trkpt lat="52.2510250" lon="6.1093631"/>
<trkpt lat="52.2509640" lon="6.1092671"/>
<trkpt lat="52.2508850" lon="6.1092171"/>
<trkpt lat="52.2508417" lon="6.1092229"/>
<trkpt lat="52.2507960" lon="6.1092291"/>
<trkpt lat="52.2507040" lon="6.1092301"/>
<trkpt lat="52.2506200" lon="6.1092431"/>
<trkpt lat="52.2505360" lon="6.1092331"/>
<trkpt lat="52.2504410" lon="6.1092111"/>
<trkpt lat="52.2503460" lon="6.1091841"/>
<trkpt lat="52.2502630" lon="6.1091330"/>
<trkpt lat="52.2501750" lon="6.1091170"/>
<trkpt lat="52.2501328" lon="6.1090638"/>
<trkpt lat="52.2500748" lon="6.1089835"/>
<trkpt lat="52.2500340" lon="6.1089211"/>
<trkpt lat="52.2499840" lon="6.1088161"/>
<trkpt lat="52.2499729" lon="6.1087475"/>
<trkpt lat="52.2499615" lon="6.1086930"/>
<trkpt lat="52.2499170" lon="6.1085651"/>
<trkpt lat="52.2498770" lon="6.1084291"/>
<trkpt lat="52.2498360" lon="6.1082961"/>
<trkpt lat="52.2498055" lon="6.1081623"/>
<trkpt lat="52.2497560" lon="6.1080381"/>
<trkpt lat="52.2497230" lon="6.1079130"/>
<trkpt lat="52.2497090" lon="6.1077701"/>
<trkpt lat="52.2497080" lon="6.1076240"/>
<trkpt lat="52.2496861" lon="6.1074935"/>
<trkpt lat="52.2496480" lon="6.1073711"/>
<trkpt lat="52.2495870" lon="6.1072741"/>
<trkpt lat="52.2496260" lon="6.1071481"/>
<trkpt lat="52.2496850" lon="6.1070311"/>
<trkpt lat="52.2497630" lon="6.1069481"/>
<trkpt lat="52.2498380" lon="6.1068810"/>
<trkpt lat="52.2498910" lon="6.1067481"/>
<trkpt lat="52.2499040" lon="6.1066080"/>
<trkpt lat="52.2498500" lon="6.1065091"/>
<trkpt lat="52.2497680" lon="6.1064720"/>
<trkpt lat="52.2500482" lon="6.1059750"/>
<trkpt lat="52.2503888" lon="6.1053358"/>
<trkpt lat="52.2504179" lon="6.1053684"/>
<trkpt lat="52.2504912" lon="6.1053181"/>
<trkpt lat="52.2505569" lon="6.1052649"/>
<trkpt lat="52.2505644" lon="6.1052089"/>
<trkpt lat="52.2505700" lon="6.1050714"/>
<trkpt lat="52.2504709" lon="6.1041763"/>
<trkpt lat="52.2503323" lon="6.1029258"/>
<trkpt lat="52.2502712" lon="6.1023892"/>
<trkpt lat="52.2502821" lon="6.1023448"/>
<trkpt lat="52.2503293" lon="6.1022770"/>
<trkpt lat="52.2506008" lon="6.1018687"/>
<trkpt lat="52.2507308" lon="6.1016581"/>
<trkpt lat="52.2510343" lon="6.1011665"/>
<trkpt lat="52.2511086" lon="6.1010189"/>
<trkpt lat="52.2514359" lon="6.1003574"/>
<trkpt lat="52.2515390" lon="6.1001311"/>
<trkpt lat="52.2518675" lon="6.0994105"/>
<trkpt lat="52.2520608" lon="6.0990024"/>
<trkpt lat="52.2522709" lon="6.0985586"/>
<trkpt lat="52.2525138" lon="6.0980422"/>
<trkpt lat="52.2525596" lon="6.0979428"/>
<trkpt lat="52.2526094" lon="6.0977615"/>
<trkpt lat="52.2526285" lon="6.0975180"/>
<trkpt lat="52.2526519" lon="6.0972177"/>
<trkpt lat="52.2528193" lon="6.0964668"/>
<trkpt lat="52.2528138" lon="6.0962710"/>
<trkpt lat="52.2527665" lon="6.0960198"/>
<trkpt lat="52.2526985" lon="6.0956616"/>
<trkpt lat="52.2525996" lon="6.0951307"/>
<trkpt lat="52.2525368" lon="6.0947676"/>
<trkpt lat="52.2525377" lon="6.0946084"/>
<trkpt lat="52.2525667" lon="6.0943233"/>
<trkpt lat="52.2526065" lon="6.0941335"/>
<trkpt lat="52.2526773" lon="6.0937964"/>
<trkpt lat="52.2527485" lon="6.0934569"/>
<trkpt lat="52.2528200" lon="6.0931161"/>
<trkpt lat="52.2529550" lon="6.0924723"/>
<trkpt lat="52.2530028" lon="6.0921904"/>
<trkpt lat="52.2530485" lon="6.0917990"/>
<trkpt lat="52.2530667" lon="6.0917103"/>
<trkpt lat="52.2530370" lon="6.0916838"/>
<trkpt lat="52.2529636" lon="6.0915970"/>
<trkpt lat="52.2529542" lon="6.0915331"/>
<trkpt lat="52.2530827" lon="6.0913104"/>
<trkpt lat="52.2532062" lon="6.0911457"/>
<trkpt lat="52.2532822" lon="6.0910063"/>
<trkpt lat="52.2534773" lon="6.0906994"/>
<trkpt lat="52.2544202" lon="6.0891013"/>
<trkpt lat="52.2546093" lon="6.0887895"/>
<trkpt lat="52.2547417" lon="6.0885203"/>
<trkpt lat="52.2547910" lon="6.0882256"/>
<trkpt lat="52.2548226" lon="6.0880519"/>
<trkpt lat="52.2548678" lon="6.0878569"/>
<trkpt lat="52.2549473" lon="6.0874385"/>
<trkpt lat="52.2544926" lon="6.0869228"/>
<trkpt lat="52.2534622" lon="6.0862770"/>
<trkpt lat="52.2520743" lon="6.0856787"/>
<trkpt lat="52.2519646" lon="6.0853700"/>
<trkpt lat="52.2521786" lon="6.0841625"/>
<trkpt lat="52.2520231" lon="6.0841272"/>
<trkpt lat="52.2517723" lon="6.0841077"/>
<trkpt lat="52.2516319" lon="6.0841249"/>
<trkpt lat="52.2515590" lon="6.0838398"/>
<trkpt lat="52.2513104" lon="6.0826444"/>
<trkpt lat="52.2507431" lon="6.0800250"/>
<trkpt lat="52.2505289" lon="6.0790385"/>
<trkpt lat="52.2505642" lon="6.0780405"/>
<trkpt lat="52.2505916" lon="6.0779885"/>
<trkpt lat="52.2513687" lon="6.0777632"/>
<trkpt lat="52.2516576" lon="6.0776805"/>
<trkpt lat="52.2516879" lon="6.0775841"/>
<trkpt lat="52.2514008" lon="6.0743689"/>
<trkpt lat="52.2514381" lon="6.0743406"/>
<trkpt lat="52.2514470" lon="6.0741981"/>
<trkpt lat="52.2505790" lon="6.0726291"/>
<trkpt lat="52.2505703" lon="6.0727071"/>
<trkpt lat="52.2500181" lon="6.0738067"/>
<trkpt lat="52.2498343" lon="6.0742861"/>
<trkpt lat="52.2497136" lon="6.0745991"/>
<trkpt lat="52.2497010" lon="6.0747248"/>
<trkpt lat="52.2497194" lon="6.0751368"/>
<trkpt lat="52.2497973" lon="6.0760582"/>
<trkpt lat="52.2498931" lon="6.0771118"/>
<trkpt lat="52.2496079" lon="6.0774404"/>
<trkpt lat="52.2495761" lon="6.0777886"/>
<trkpt lat="52.2493573" lon="6.0781001"/>
<trkpt lat="52.2486625" lon="6.0789756"/>
<trkpt lat="52.2482989" lon="6.0796383"/>
<trkpt lat="52.2490432" lon="6.0809672"/>
<trkpt lat="52.2490427" lon="6.0810592"/>
<trkpt lat="52.2488228" lon="6.0815498"/>
<trkpt lat="52.2486715" lon="6.0822536"/>
<trkpt lat="52.2482375" lon="6.0840154"/>
<trkpt lat="52.2482696" lon="6.0841128"/>
<trkpt lat="52.2480653" lon="6.0856192"/>
<trkpt lat="52.2478248" lon="6.0876766"/>
<trkpt lat="52.2476256" lon="6.0894542"/>
<trkpt lat="52.2473669" lon="6.0914794"/>
<trkpt lat="52.2471546" lon="6.0931759"/>
<trkpt lat="52.2471091" lon="6.0933253"/>
<trkpt lat="52.2470050" lon="6.0933285"/>
<trkpt lat="52.2464828" lon="6.0931749"/>
<trkpt lat="52.2460847" lon="6.0931250"/>
<trkpt lat="52.2459863" lon="6.0931767"/>
<trkpt lat="52.2459233" lon="6.0932871"/>
<trkpt lat="52.2459140" lon="6.0933354"/>
<trkpt lat="52.2458849" lon="6.0937369"/>
<trkpt lat="52.2458408" lon="6.0956394"/>
<trkpt lat="52.2457246" lon="6.0956811"/>
<trkpt lat="52.2457028" lon="6.0958503"/>
<trkpt lat="52.2455289" lon="6.0958805"/>
<trkpt lat="52.2452357" lon="6.0959921"/>
<trkpt lat="52.2448781" lon="6.0961491"/>
<trkpt lat="52.2445776" lon="6.0962954"/>
<trkpt lat="52.2443338" lon="6.0965007"/>
<trkpt lat="52.2441315" lon="6.0967201"/>
<trkpt lat="52.2441589" lon="6.0967671"/>
<trkpt lat="52.2441362" lon="6.0968121"/>
<trkpt lat="52.2441504" lon="6.0968855"/>
<trkpt lat="52.2443935" lon="6.0970595"/>
<trkpt lat="52.2446099" lon="6.0973969"/>
<trkpt lat="52.2449244" lon="6.0979539"/>
<trkpt lat="52.2450847" lon="6.0981392"/>
<trkpt lat="52.2451328" lon="6.0982975"/>
<trkpt lat="52.2450942" lon="6.0985548"/>
<trkpt lat="52.2450020" lon="6.0987629"/>
<trkpt lat="52.2450024" lon="6.0989620"/>
<trkpt lat="52.2455215" lon="6.0995112"/>
<trkpt lat="52.2455996" lon="6.0996648"/>
<trkpt lat="52.2456360" lon="6.0998060"/>
<trkpt lat="52.2462212" lon="6.1005997"/>
<trkpt lat="52.2464296" lon="6.1010341"/>
<trkpt lat="52.2471510" lon="6.1026680"/>
<trkpt lat="52.2475603" lon="6.1042922"/>
<trkpt lat="52.2479597" lon="6.1060712"/>
<trkpt lat="52.2483326" lon="6.1078062"/>
<trkpt lat="52.2484325" lon="6.1099388"/>
<trkpt lat="52.2484963" lon="6.1102013"/>
<trkpt lat="52.2486899" lon="6.1106162"/>
<trkpt lat="52.2483650" lon="6.1107610"/>
<trkpt lat="52.2479152" lon="6.1109135"/>
<trkpt lat="52.2473203" lon="6.1109813"/>
<trkpt lat="52.2470253" lon="6.1110879"/>
<trkpt lat="52.2459228" lon="6.1115155"/>
<trkpt lat="52.2453966" lon="6.1117516"/>
<trkpt lat="52.2450367" lon="6.1118813"/>
<trkpt lat="52.2443524" lon="6.1121534"/>
<trkpt lat="52.2441784" lon="6.1119133"/>
<trkpt lat="52.2440262" lon="6.1120222"/>
<trkpt lat="52.2432505" lon="6.1124696"/>
<trkpt lat="52.2423354" lon="6.1128856"/>
<trkpt lat="52.2423208" lon="6.1130574"/>
<trkpt lat="52.2424869" lon="6.1138969"/>
<trkpt lat="52.2425560" lon="6.1142505"/>
<trkpt lat="52.2427532" lon="6.1145486"/>
<trkpt lat="52.2427315" lon="6.1147032"/>
<trkpt lat="52.2424431" lon="6.1146985"/>
<trkpt lat="52.2421941" lon="6.1145879"/>
<trkpt lat="52.2416627" lon="6.1139933"/>
<trkpt lat="52.2415621" lon="6.1139141"/>
<trkpt lat="52.2410907" lon="6.1136024"/>
<trkpt lat="52.2409765" lon="6.1136122"/>
<trkpt lat="52.2408741" lon="6.1140173"/>
<trkpt lat="52.2407921" lon="6.1144197"/>
<trkpt lat="52.2406884" lon="6.1143551"/>
<trkpt lat="52.2405035" lon="6.1144586"/>
<trkpt lat="52.2400344" lon="6.1148383"/>
<trkpt lat="52.2397538" lon="6.1150371"/>
<trkpt lat="52.2395496" lon="6.1143994"/>
<trkpt lat="52.2393522" lon="6.1141202"/>
<trkpt lat="52.2392885" lon="6.1139993"/>
<trkpt lat="52.2391707" lon="6.1139722"/>
<trkpt lat="52.2390098" lon="6.1140863"/>
<trkpt lat="52.2389621" lon="6.1140810"/>
<trkpt lat="52.2388674" lon="6.1139558"/>
<trkpt lat="52.2387862" lon="6.1140080"/>
<trkpt lat="52.2386824" lon="6.1140747"/>
<trkpt lat="52.2386038" lon="6.1140947"/>
<trkpt lat="52.2384190" lon="6.1141499"/>
<trkpt lat="52.2378983" lon="6.1143203"/>
<trkpt lat="52.2378329" lon="6.1138170"/>
<trkpt lat="52.2378002" lon="6.1135598"/>
<trkpt lat="52.2377739" lon="6.1133920"/>
<trkpt lat="52.2377478" lon="6.1131796"/>
<trkpt lat="52.2376431" lon="6.1131239"/>
<trkpt lat="52.2375716" lon="6.1130845"/>
<trkpt lat="52.2374916" lon="6.1131020"/>
<trkpt lat="52.2371937" lon="6.1132134"/>
<trkpt lat="52.2368539" lon="6.1133676"/>
<trkpt lat="52.2367173" lon="6.1133412"/>
<trkpt lat="52.2366525" lon="6.1132384"/>
<trkpt lat="52.2365855" lon="6.1130195"/>
<trkpt lat="52.2365153" lon="6.1127496"/>
<trkpt lat="52.2364301" lon="6.1126732"/>
<trkpt lat="52.2363470" lon="6.1126379"/>
</trkseg></trk>
<trk><name>Fliertpad - Route verkorter</name><type>shorteningRoute</type><trkseg>
<trkpt lat="52.2497881" lon="6.1064412"/>
<trkpt lat="52.2494824" lon="6.1070446"/>
<trkpt lat="52.2493057" lon="6.1071696"/>
<trkpt lat="52.2490652" lon="6.1072083"/>
<trkpt lat="52.2489363" lon="6.1072954"/>
<trkpt lat="52.2488280" lon="6.1075067"/>
<trkpt lat="52.2487456" lon="6.1077650"/>
<trkpt lat="52.2486802" lon="6.1079576"/>
<trkpt lat="52.2485503" lon="6.1081996"/>
<trkpt lat="52.2483842" lon="6.1085185"/>
<trkpt lat="52.2483686" lon="6.1085843"/>
</trkseg></trk>
<trk><name>Fliertpad - Alternatieve route</name><type>alternativeRoute</type><trkseg>
<trkpt lat="52.2391536" lon="6.1406457"/>
<trkpt lat="52.2396185" lon="6.1397967"/>
<trkpt lat="52.2401746" lon="6.1392171"/>
<trkpt lat="52.2401018" lon="6.1385600"/>
<trkpt lat="52.2402689" lon="6.1381435"/>
<trkpt lat="52.2404418" lon="6.1379368"/>
<trkpt lat="52.2406415" lon="6.1379984"/>
<trkpt lat="52.2407550" lon="6.1381517"/>
<trkpt lat="52.2408613" lon="6.1382933"/>
<trkpt lat="52.2409964" lon="6.1384004"/>
<trkpt lat="52.2413338" lon="6.1381964"/>
<trkpt lat="52.2416627" lon="6.1381903"/>
<trkpt lat="52.2419832" lon="6.1383704"/>
<trkpt lat="52.2422455" lon="6.1387243"/>
<trkpt lat="52.2423627" lon="6.1394134"/>
<trkpt lat="52.2423762" lon="6.1395300"/>
</trkseg></trk>
<trk><name>Fliertpad - overstaproute</name><type>connectionRoute</type><trkseg>
<trkpt lat="52.2571730" lon="6.1247587"/>
<trkpt lat="52.2568335" lon="6.1244479"/>
<trkpt lat="52.2566105" lon="6.1236072"/>
<trkpt lat="52.2565006" lon="6.1229233"/>
<trkpt lat="52.2563311" lon="6.1226415"/>
<trkpt lat="52.2559518" lon="6.1224492"/>
<trkpt lat="52.2555713" lon="6.1224429"/>
<trkpt lat="52.2552685" lon="6.1221899"/>
<trkpt lat="52.2550994" lon="6.1218461"/>
<trkpt lat="52.2550839" lon="6.1212879"/>
<trkpt lat="52.2550312" lon="6.1205740"/>
<trkpt lat="52.2549951" lon="6.1202634"/>
<trkpt lat="52.2527702" lon="6.1201027"/>
<trkpt lat="52.2521444" lon="6.1197824"/>
<trkpt lat="52.2514071" lon="6.1190263"/>
<trkpt lat="52.2510858" lon="6.1186801"/>
<trkpt lat="52.2508447" lon="6.1187047"/>
</trkseg></trk>
<trk><name>Fliertpad - overstaproute</name><type>connectionRoute</type><trkseg>
<trkpt lat="52.2334848" lon="6.1182588"/>
<trkpt lat="52.2334764" lon="6.1183089"/>
<trkpt lat="52.2330632" lon="6.1182913"/>
<trkpt lat="52.2314441" lon="6.1176892"/>
<trkpt lat="52.2311476" lon="6.1176864"/>
<trkpt lat="52.2303808" lon="6.1179692"/>
<trkpt lat="52.2293351" lon="6.1187119"/>
<trkpt lat="52.2283757" lon="6.1192688"/>
<trkpt lat="52.2284045" lon="6.1196000"/>
<trkpt lat="52.2253792" lon="6.1219018"/>
<trkpt lat="52.2252861" lon="6.1213327"/>
<trkpt lat="52.2252444" lon="6.1211441"/>
<trkpt lat="52.2251672" lon="6.1210992"/>
<trkpt lat="52.2251247" lon="6.1209470"/>
<trkpt lat="52.2245591" lon="6.1209869"/>
<trkpt lat="52.2238060" lon="6.1211334"/>
<trkpt lat="52.2236850" lon="6.1209519"/>
<trkpt lat="52.2232684" lon="6.1205868"/>
<trkpt lat="52.2219889" lon="6.1195163"/>
<trkpt lat="52.2212264" lon="6.1186512"/>
</trkseg></trk>
<trk><name>Fliertpad - verbindingsroute</name><type>connectionRoute</type><trkseg>
<trkpt lat="52.2571730" lon="6.1247587"/>
<trkpt lat="52.2568335" lon="6.1244479"/>
<trkpt lat="52.2566105" lon="6.1236072"/>
<trkpt lat="52.2565006" lon="6.1229233"/>
<trkpt lat="52.2563311" lon="6.1226415"/>
<trkpt lat="52.2559518" lon="6.1224492"/>
<trkpt lat="52.2555713" lon="6.1224429"/>
<trkpt lat="52.2552685" lon="6.1221899"/>
<trkpt lat="52.2550994" lon="6.1218461"/>
<trkpt lat="52.2550839" lon="6.1212879"/>
<trkpt lat="52.2550312" lon="6.1205740"/>
<trkpt lat="52.2549951" lon="6.1202634"/>
<trkpt lat="52.2527702" lon="6.1201027"/>
<trkpt lat="52.2521444" lon="6.1197824"/>
<trkpt lat="52.2514071" lon="6.1190263"/>
<trkpt lat="52.2510858" lon="6.1186801"/>
<trkpt lat="52.2508447" lon="6.1187047"/>
</trkseg></trk>
<trk><name>Fliertpad - verbindingsroute</name><type>connectionRoute</type><trkseg>
<trkpt lat="52.2334848" lon="6.1182588"/>
<trkpt lat="52.2334764" lon="6.1183089"/>
<trkpt lat="52.2330632" lon="6.1182913"/>
<trkpt lat="52.2314441" lon="6.1176892"/>
<trkpt lat="52.2311476" lon="6.1176864"/>
<trkpt lat="52.2303808" lon="6.1179692"/>
<trkpt lat="52.2293351" lon="6.1187119"/>
<trkpt lat="52.2283757" lon="6.1192688"/>
<trkpt lat="52.2284045" lon="6.1196000"/>
<trkpt lat="52.2253792" lon="6.1219018"/>
<trkpt lat="52.2252861" lon="6.1213327"/>
<trkpt lat="52.2252444" lon="6.1211441"/>
<trkpt lat="52.2251672" lon="6.1210992"/>
<trkpt lat="52.2251247" lon="6.1209470"/>
<trkpt lat="52.2245591" lon="6.1209869"/>
<trkpt lat="52.2238060" lon="6.1211334"/>
<trkpt lat="52.2236850" lon="6.1209519"/>
<trkpt lat="52.2232684" lon="6.1205868"/>
<trkpt lat="52.2219889" lon="6.1195163"/>
<trkpt lat="52.2212264" lon="6.1186512"/>
</trkseg></trk>
<trk><name>Fliertpad - aanlooproute</name><type>approachRoute</type><trkseg>
<trkpt lat="52.2382921" lon="6.1011977"/>
<trkpt lat="52.2381925" lon="6.1013820"/>
<trkpt lat="52.2383243" lon="6.1017583"/>
<trkpt lat="52.2375603" lon="6.1024438"/>
<trkpt lat="52.2372080" lon="6.1029552"/>
<trkpt lat="52.2371055" lon="6.1032038"/>
<trkpt lat="52.2370435" lon="6.1032459"/>
<trkpt lat="52.2370349" lon="6.1034991"/>
<trkpt lat="52.2370434" lon="6.1035966"/>
<trkpt lat="52.2372235" lon="6.1046464"/>
<trkpt lat="52.2375177" lon="6.1052154"/>
<trkpt lat="52.2378501" lon="6.1056175"/>
<trkpt lat="52.2382250" lon="6.1061808"/>
<trkpt lat="52.2381734" lon="6.1065181"/>
<trkpt lat="52.2381477" lon="6.1065340"/>
<trkpt lat="52.2381467" lon="6.1065891"/>
<trkpt lat="52.2381657" lon="6.1066179"/>
<trkpt lat="52.2380958" lon="6.1071430"/>
<trkpt lat="52.2380034" lon="6.1073181"/>
<trkpt lat="52.2380162" lon="6.1074620"/>
<trkpt lat="52.2379183" lon="6.1074970"/>
<trkpt lat="52.2380518" lon="6.1090481"/>
<trkpt lat="52.2374833" lon="6.1093084"/>
<trkpt lat="52.2373903" lon="6.1092604"/>
<trkpt lat="52.2371571" lon="6.1096085"/>
<trkpt lat="52.2370144" lon="6.1099161"/>
<trkpt lat="52.2369483" lon="6.1103178"/>
<trkpt lat="52.2367026" lon="6.1104448"/>
<trkpt lat="52.2366639" lon="6.1110158"/>
<trkpt lat="52.2364765" lon="6.1114580"/>
<trkpt lat="52.2362020" lon="6.1117451"/>
<trkpt lat="52.2363471" lon="6.1126350"/>
</trkseg></trk>
</gpx>