<?xml version="1.0" encoding="UTF-8"?>
<gpx version="1.1" creator="klompenpaden.nl via Jimbo API" xmlns="http://www.topografix.com/GPX/1/1">
<metadata><name>Ganderpad</name><desc>Ontdek het afwisselende landschap van Gaanderen. Wandelen langs de Oude IJssel en beken, over rivierduinen en langs oude sporen van de ijzerindustrie. Klompen aan, rugzak op en gaan!
</desc><link href="https://www.klompenpaden.nl/klompenpaden/Ganderpad/65837b44-08b0-4bef-9595-3fa1d49fcb42"><text>klompenpaden.nl</text></link></metadata>
<wpt lat="51.944734438767284" lon="6.340586543083191"><name>Start Gaanderen</name></wpt>
<trk><name>Ganderpad - mainRoute</name><type>mainRoute</type><trkseg>
<trkpt lat="51.9368800" lon="6.3279600"/>
<trkpt lat="51.9390800" lon="6.3318900"/>
<trkpt lat="51.9381000" lon="6.3331300"/>
<trkpt lat="51.9379700" lon="6.3342000"/>
<trkpt lat="51.9376300" lon="6.3350000"/>
<trkpt lat="51.9377200" lon="6.3352900"/>
<trkpt lat="51.9377600" lon="6.3358300"/>
<trkpt lat="51.9377600" lon="6.3383600"/>
<trkpt lat="51.9380900" lon="6.3387300"/>
<trkpt lat="51.9383100" lon="6.3389400"/>
<trkpt lat="51.9384900" lon="6.3390200"/>
<trkpt lat="51.9393800" lon="6.3390700"/>
<trkpt lat="51.9405100" lon="6.3392500"/>
<trkpt lat="51.9409600" lon="6.3394600"/>
<trkpt lat="51.9416400" lon="6.3400300"/>
<trkpt lat="51.9419300" lon="6.3401900"/>
<trkpt lat="51.9423800" lon="6.3402300"/>
<trkpt lat="51.9427000" lon="6.3401300"/>
<trkpt lat="51.9430300" lon="6.3399900"/>
<trkpt lat="51.9433500" lon="6.3399700"/>
<trkpt lat="51.9435600" lon="6.3401200"/>
<trkpt lat="51.9437200" lon="6.3403300"/>
<trkpt lat="51.9438800" lon="6.3406600"/>
<trkpt lat="51.9440300" lon="6.3411900"/>
<trkpt lat="51.9441400" lon="6.3417000"/>
<trkpt lat="51.9445500" lon="6.3413900"/>
<trkpt lat="51.9446300" lon="6.3411700"/>
<trkpt lat="51.9446900" lon="6.3407800"/>
<trkpt lat="51.9446400" lon="6.3396100"/>
<trkpt lat="51.9447300" lon="6.3413900"/>
<trkpt lat="51.9455700" lon="6.3419300"/>
<trkpt lat="51.9465100" lon="6.3422600"/>
<trkpt lat="51.9473200" lon="6.3427200"/>
<trkpt lat="51.9475500" lon="6.3432900"/>
<trkpt lat="51.9477400" lon="6.3440700"/>
<trkpt lat="51.9478700" lon="6.3447900"/>
<trkpt lat="51.9484900" lon="6.3467300"/>
<trkpt lat="51.9485200" lon="6.3470500"/>
<trkpt lat="51.9485200" lon="6.3474900"/>
<trkpt lat="51.9482900" lon="6.3519900"/>
<trkpt lat="51.9481300" lon="6.3530100"/>
<trkpt lat="51.9480800" lon="6.3537100"/>
<trkpt lat="51.9478900" lon="6.3550200"/>
<trkpt lat="51.9476500" lon="6.3561600"/>
<trkpt lat="51.9473700" lon="6.3568900"/>
<trkpt lat="51.9472900" lon="6.3568800"/>
<trkpt lat="51.9471600" lon="6.3569900"/>
<trkpt lat="51.9470400" lon="6.3572100"/>
<trkpt lat="51.9468500" lon="6.3570000"/>
<trkpt lat="51.9468400" lon="6.3570000"/>
<trkpt lat="51.9467600" lon="6.3570800"/>
<trkpt lat="51.9464000" lon="6.3572900"/>
<trkpt lat="51.9461100" lon="6.3574000"/>
<trkpt lat="51.9459100" lon="6.3574500"/>
<trkpt lat="51.9457800" lon="6.3574400"/>
<trkpt lat="51.9454600" lon="6.3572700"/>
<trkpt lat="51.9453400" lon="6.3571500"/>
<trkpt lat="51.9451500" lon="6.3569100"/>
<trkpt lat="51.9450700" lon="6.3568800"/>
<trkpt lat="51.9447100" lon="6.3569500"/>
<trkpt lat="51.9446500" lon="6.3569500"/>
<trkpt lat="51.9446100" lon="6.3569200"/>
<trkpt lat="51.9442900" lon="6.3572300"/>
<trkpt lat="51.9444700" lon="6.3577300"/>
<trkpt lat="51.9454500" lon="6.3616500"/>
<trkpt lat="51.9444600" lon="6.3626500"/>
<trkpt lat="51.9448900" lon="6.3635700"/>
<trkpt lat="51.9454400" lon="6.3648600"/>
<trkpt lat="51.9454800" lon="6.3653200"/>
<trkpt lat="51.9453800" lon="6.3656800"/>
<trkpt lat="51.9446100" lon="6.3670100"/>
<trkpt lat="51.9435900" lon="6.3705800"/>
<trkpt lat="51.9433800" lon="6.3705900"/>
<trkpt lat="51.9424800" lon="6.3700800"/>
<trkpt lat="51.9423800" lon="6.3701300"/>
<trkpt lat="51.9423700" lon="6.3702500"/>
<trkpt lat="51.9422400" lon="6.3701400"/>
<trkpt lat="51.9418800" lon="6.3697700"/>
<trkpt lat="51.9416700" lon="6.3695100"/>
<trkpt lat="51.9413900" lon="6.3689500"/>
<trkpt lat="51.9412800" lon="6.3691200"/>
<trkpt lat="51.9411300" lon="6.3691700"/>
<trkpt lat="51.9398600" lon="6.3683800"/>
<trkpt lat="51.9393600" lon="6.3677700"/>
<trkpt lat="51.9376600" lon="6.3666300"/>
<trkpt lat="51.9375700" lon="6.3666300"/>
<trkpt lat="51.9375300" lon="6.3666700"/>
<trkpt lat="51.9374600" lon="6.3668300"/>
<trkpt lat="51.9372600" lon="6.3677600"/>
<trkpt lat="51.9372000" lon="6.3679000"/>
<trkpt lat="51.9371200" lon="6.3679400"/>
<trkpt lat="51.9370300" lon="6.3679100"/>
<trkpt lat="51.9363300" lon="6.3667500"/>
<trkpt lat="51.9356300" lon="6.3657000"/>
<trkpt lat="51.9339800" lon="6.3635100"/>
<trkpt lat="51.9334500" lon="6.3616900"/>
<trkpt lat="51.9332400" lon="6.3616100"/>
<trkpt lat="51.9331900" lon="6.3594400"/>
<trkpt lat="51.9330800" lon="6.3587000"/>
<trkpt lat="51.9324400" lon="6.3573400"/>
<trkpt lat="51.9324400" lon="6.3566900"/>
<trkpt lat="51.9319600" lon="6.3567900"/>
<trkpt lat="51.9316500" lon="6.3569000"/>
<trkpt lat="51.9312000" lon="6.3577000"/>
<trkpt lat="51.9312300" lon="6.3585500"/>
<trkpt lat="51.9310800" lon="6.3589400"/>
<trkpt lat="51.9310000" lon="6.3594100"/>
<trkpt lat="51.9310100" lon="6.3596000"/>
<trkpt lat="51.9312800" lon="6.3599300"/>
<trkpt lat="51.9313800" lon="6.3601300"/>
<trkpt lat="51.9314000" lon="6.3604000"/>
<trkpt lat="51.9313600" lon="6.3611000"/>
<trkpt lat="51.9313600" lon="6.3613200"/>
<trkpt lat="51.9311800" lon="6.3624800"/>
<trkpt lat="51.9311900" lon="6.3626500"/>
<trkpt lat="51.9312500" lon="6.3628000"/>
<trkpt lat="51.9312600" lon="6.3629300"/>
<trkpt lat="51.9312200" lon="6.3630600"/>
<trkpt lat="51.9310600" lon="6.3633200"/>
<trkpt lat="51.9309500" lon="6.3636300"/>
<trkpt lat="51.9302800" lon="6.3630600"/>
<trkpt lat="51.9300900" lon="6.3629600"/>
<trkpt lat="51.9297900" lon="6.3630600"/>
<trkpt lat="51.9296700" lon="6.3630300"/>
<trkpt lat="51.9296700" lon="6.3611300"/>
<trkpt lat="51.9294300" lon="6.3603400"/>
<trkpt lat="51.9294300" lon="6.3598600"/>
<trkpt lat="51.9295000" lon="6.3586600"/>
<trkpt lat="51.9291200" lon="6.3585300"/>
<trkpt lat="51.9289400" lon="6.3583100"/>
<trkpt lat="51.9285000" lon="6.3582300"/>
<trkpt lat="51.9280300" lon="6.3582900"/>
<trkpt lat="51.9273200" lon="6.3588600"/>
<trkpt lat="51.9262800" lon="6.3589800"/>
<trkpt lat="51.9261500" lon="6.3591200"/>
<trkpt lat="51.9259400" lon="6.3591300"/>
<trkpt lat="51.9256600" lon="6.3589200"/>
<trkpt lat="51.9254300" lon="6.3587000"/>
<trkpt lat="51.9255800" lon="6.3582300"/>
<trkpt lat="51.9247800" lon="6.3566600"/>
<trkpt lat="51.9250600" lon="6.3562400"/>
<trkpt lat="51.9245400" lon="6.3555900"/>
<trkpt lat="51.9242700" lon="6.3557900"/>
<trkpt lat="51.9239100" lon="6.3552400"/>
<trkpt lat="51.9238700" lon="6.3550400"/>
<trkpt lat="51.9238900" lon="6.3549600"/>
<trkpt lat="51.9239000" lon="6.3546800"/>
<trkpt lat="51.9239400" lon="6.3542100"/>
<trkpt lat="51.9240900" lon="6.3534000"/>
<trkpt lat="51.9240000" lon="6.3524100"/>
<trkpt lat="51.9239400" lon="6.3519100"/>
<trkpt lat="51.9239700" lon="6.3515800"/>
<trkpt lat="51.9239400" lon="6.3510800"/>
<trkpt lat="51.9239000" lon="6.3507300"/>
<trkpt lat="51.9238100" lon="6.3503700"/>
<trkpt lat="51.9237700" lon="6.3499700"/>
<trkpt lat="51.9238800" lon="6.3495500"/>
<trkpt lat="51.9237900" lon="6.3495700"/>
<trkpt lat="51.9238500" lon="6.3493500"/>
<trkpt lat="51.9241000" lon="6.3492000"/>
<trkpt lat="51.9244100" lon="6.3490500"/>
<trkpt lat="51.9246800" lon="6.3487500"/>
<trkpt lat="51.9248500" lon="6.3482500"/>
<trkpt lat="51.9250300" lon="6.3475800"/>
<trkpt lat="51.9251100" lon="6.3467700"/>
<trkpt lat="51.9251200" lon="6.3464000"/>
<trkpt lat="51.9253200" lon="6.3446400"/>
<trkpt lat="51.9253300" lon="6.3443800"/>
<trkpt lat="51.9252100" lon="6.3435000"/>
<trkpt lat="51.9251900" lon="6.3429900"/>
<trkpt lat="51.9252000" lon="6.3424400"/>
<trkpt lat="51.9252300" lon="6.3421200"/>
<trkpt lat="51.9253100" lon="6.3417100"/>
<trkpt lat="51.9256100" lon="6.3407300"/>
<trkpt lat="51.9256500" lon="6.3404100"/>
<trkpt lat="51.9256600" lon="6.3401000"/>
<trkpt lat="51.9250900" lon="6.3397900"/>
<trkpt lat="51.9244900" lon="6.3393600"/>
<trkpt lat="51.9246300" lon="6.3387900"/>
<trkpt lat="51.9246800" lon="6.3381800"/>
<trkpt lat="51.9252300" lon="6.3337800"/>
<trkpt lat="51.9256000" lon="6.3329300"/>
<trkpt lat="51.9267500" lon="6.3315000"/>
<trkpt lat="51.9280100" lon="6.3298700"/>
<trkpt lat="51.9291600" lon="6.3277700"/>
<trkpt lat="51.9298200" lon="6.3269800"/>
<trkpt lat="51.9308600" lon="6.3261900"/>
<trkpt lat="51.9322500" lon="6.3249200"/>
<trkpt lat="51.9328500" lon="6.3242700"/>
<trkpt lat="51.9334700" lon="6.3234400"/>
<trkpt lat="51.9340500" lon="6.3223400"/>
<trkpt lat="51.9346200" lon="6.3211000"/>
<trkpt lat="51.9348800" lon="6.3208200"/>
<trkpt lat="51.9352800" lon="6.3208000"/>
<trkpt lat="51.9357400" lon="6.3209400"/>
<trkpt lat="51.9361600" lon="6.3212900"/>
<trkpt lat="51.9367000" lon="6.3219200"/>
<trkpt lat="51.9369500" lon="6.3223100"/>
<trkpt lat="51.9370400" lon="6.3226300"/>
<trkpt lat="51.9371000" lon="6.3229200"/>
<trkpt lat="51.9371700" lon="6.3231400"/>
<trkpt lat="51.9367100" lon="6.3245300"/>
<trkpt lat="51.9361100" lon="6.3265700"/>
<trkpt lat="51.9368800" lon="6.3279700"/>
</trkseg></trk>
<trk><name>Ganderpad - shorteningRoute</name><type>shorteningRoute</type><trkseg>
<trkpt lat="51.9375900" lon="6.3351000"/>
<trkpt lat="51.9374500" lon="6.3354700"/>
<trkpt lat="51.9371100" lon="6.3366700"/>
<trkpt lat="51.9370400" lon="6.3371000"/>
<trkpt lat="51.9369800" lon="6.3379100"/>
<trkpt lat="51.9369500" lon="6.3389200"/>
<trkpt lat="51.9367300" lon="6.3390000"/>
<trkpt lat="51.9367300" lon="6.3400400"/>
<trkpt lat="51.9367600" lon="6.3401600"/>
<trkpt lat="51.9363800" lon="6.3422100"/>
<trkpt lat="51.9361200" lon="6.3431300"/>
<trkpt lat="51.9357800" lon="6.3441000"/>
<trkpt lat="51.9356000" lon="6.3448700"/>
<trkpt lat="51.9354100" lon="6.3458000"/>
<trkpt lat="51.9351900" lon="6.3466500"/>
<trkpt lat="51.9349000" lon="6.3474900"/>
<trkpt lat="51.9346100" lon="6.3480500"/>
<trkpt lat="51.9343500" lon="6.3486500"/>
<trkpt lat="51.9340500" lon="6.3498300"/>
<trkpt lat="51.9340600" lon="6.3500200"/>
<trkpt lat="51.9340400" lon="6.3502800"/>
<trkpt lat="51.9341400" lon="6.3505300"/>
<trkpt lat="51.9342400" lon="6.3507000"/>
<trkpt lat="51.9342300" lon="6.3508700"/>
<trkpt lat="51.9340900" lon="6.3510500"/>
<trkpt lat="51.9339600" lon="6.3512500"/>
<trkpt lat="51.9338500" lon="6.3514900"/>
<trkpt lat="51.9337400" lon="6.3519000"/>
<trkpt lat="51.9336100" lon="6.3521200"/>
<trkpt lat="51.9334200" lon="6.3524700"/>
<trkpt lat="51.9333900" lon="6.3526300"/>
<trkpt lat="51.9331400" lon="6.3531400"/>
<trkpt lat="51.9330800" lon="6.3533600"/>
<trkpt lat="51.9331100" lon="6.3535000"/>
<trkpt lat="51.9332200" lon="6.3535800"/>
<trkpt lat="51.9332900" lon="6.3536100"/>
<trkpt lat="51.9333400" lon="6.3536600"/>
<trkpt lat="51.9331400" lon="6.3541800"/>
<trkpt lat="51.9328100" lon="6.3548900"/>
<trkpt lat="51.9326800" lon="6.3553700"/>
<trkpt lat="51.9326100" lon="6.3561600"/>
<trkpt lat="51.9324400" lon="6.3566900"/>
</trkseg></trk>
<trk><name>Ganderpad - extensionRoute</name><type>extensionRoute</type><trkseg>
<trkpt lat="51.9368900" lon="6.3279600"/>
<trkpt lat="51.9373900" lon="6.3284600"/>
<trkpt lat="51.9377100" lon="6.3287500"/>
<trkpt lat="51.9378100" lon="6.3287700"/>
<trkpt lat="51.9379100" lon="6.3284700"/>
<trkpt lat="51.9383200" lon="6.3280200"/>
<trkpt lat="51.9384800" lon="6.3276700"/>
<trkpt lat="51.9388400" lon="6.3265500"/>
<trkpt lat="51.9390100" lon="6.3262800"/>
<trkpt lat="51.9399000" lon="6.3252000"/>
<trkpt lat="51.9395900" lon="6.3242200"/>
<trkpt lat="51.9395800" lon="6.3241200"/>
<trkpt lat="51.9399500" lon="6.3236100"/>
<trkpt lat="51.9407900" lon="6.3231300"/>
<trkpt lat="51.9412700" lon="6.3227400"/>
<trkpt lat="51.9418000" lon="6.3220300"/>
<trkpt lat="51.9420600" lon="6.3217100"/>
<trkpt lat="51.9421600" lon="6.3216900"/>
<trkpt lat="51.9423500" lon="6.3217700"/>
<trkpt lat="51.9426600" lon="6.3219600"/>
<trkpt lat="51.9429600" lon="6.3220300"/>
<trkpt lat="51.9434000" lon="6.3219800"/>
<trkpt lat="51.9438100" lon="6.3220100"/>
<trkpt lat="51.9438600" lon="6.3220900"/>
<trkpt lat="51.9438900" lon="6.3224200"/>
<trkpt lat="51.9439400" lon="6.3226800"/>
<trkpt lat="51.9439400" lon="6.3228700"/>
<trkpt lat="51.9439200" lon="6.3230700"/>
<trkpt lat="51.9439600" lon="6.3235300"/>
<trkpt lat="51.9448900" lon="6.3269000"/>
<trkpt lat="51.9450100" lon="6.3272400"/>
<trkpt lat="51.9453000" lon="6.3274900"/>
<trkpt lat="51.9454400" lon="6.3275400"/>
<trkpt lat="51.9455700" lon="6.3277100"/>
<trkpt lat="51.9460200" lon="6.3284400"/>
<trkpt lat="51.9461100" lon="6.3285200"/>
<trkpt lat="51.9462400" lon="6.3285300"/>
<trkpt lat="51.9464000" lon="6.3286300"/>
<trkpt lat="51.9466300" lon="6.3288700"/>
<trkpt lat="51.9468000" lon="6.3290000"/>
<trkpt lat="51.9471200" lon="6.3291400"/>
<trkpt lat="51.9473500" lon="6.3293100"/>
<trkpt lat="51.9475200" lon="6.3295300"/>
<trkpt lat="51.9477100" lon="6.3300100"/>
<trkpt lat="51.9479500" lon="6.3308400"/>
<trkpt lat="51.9484800" lon="6.3325700"/>
<trkpt lat="51.9484700" lon="6.3327100"/>
<trkpt lat="51.9483800" lon="6.3329400"/>
<trkpt lat="51.9482500" lon="6.3331200"/>
<trkpt lat="51.9479400" lon="6.3335300"/>
<trkpt lat="51.9477500" lon="6.3337300"/>
<trkpt lat="51.9473200" lon="6.3340500"/>
<trkpt lat="51.9468000" lon="6.3348700"/>
<trkpt lat="51.9466600" lon="6.3349500"/>
<trkpt lat="51.9465000" lon="6.3350000"/>
<trkpt lat="51.9460100" lon="6.3350900"/>
<trkpt lat="51.9456900" lon="6.3351700"/>
<trkpt lat="51.9453700" lon="6.3352900"/>
<trkpt lat="51.9448100" lon="6.3353500"/>
<trkpt lat="51.9446300" lon="6.3354300"/>
<trkpt lat="51.9443600" lon="6.3356900"/>
<trkpt lat="51.9442800" lon="6.3358900"/>
<trkpt lat="51.9441700" lon="6.3360000"/>
<trkpt lat="51.9438600" lon="6.3361000"/>
<trkpt lat="51.9438700" lon="6.3363100"/>
<trkpt lat="51.9440600" lon="6.3373900"/>
<trkpt lat="51.9442900" lon="6.3384200"/>
<trkpt lat="51.9443700" lon="6.3385700"/>
<trkpt lat="51.9445300" lon="6.3386200"/>
<trkpt lat="51.9445200" lon="6.3389000"/>
<trkpt lat="51.9446400" lon="6.3396000"/>
</trkseg></trk>
<trk><name>Ganderpad - Track 4</name><type>approachRoute</type><trkseg>
<trkpt lat="51.9252568" lon="6.3452390"/>
<trkpt lat="51.9253548" lon="6.3453054"/>
<trkpt lat="51.9254310" lon="6.3455489"/>
<trkpt lat="51.9255887" lon="6.3456751"/>
<trkpt lat="51.9256733" lon="6.3458000"/>
<trkpt lat="51.9260377" lon="6.3448431"/>
<trkpt lat="51.9261887" lon="6.3445449"/>
<trkpt lat="51.9263057" lon="6.3445502"/>
<trkpt lat="51.9264100" lon="6.3446203"/>
<trkpt lat="51.9265096" lon="6.3446918"/>
<trkpt lat="51.9270059" lon="6.3451525"/>
<trkpt lat="51.9277035" lon="6.3456171"/>
<trkpt lat="51.9280452" lon="6.3459212"/>
<trkpt lat="51.9285154" lon="6.3463612"/>
<trkpt lat="51.9284797" lon="6.3466228"/>
<trkpt lat="51.9285894" lon="6.3466760"/>
<trkpt lat="51.9286351" lon="6.3465711"/>
<trkpt lat="51.9288340" lon="6.3466700"/>
<trkpt lat="51.9290311" lon="6.3468404"/>
<trkpt lat="51.9290666" lon="6.3467342"/>
<trkpt lat="51.9295575" lon="6.3472397"/>
<trkpt lat="51.9299396" lon="6.3475838"/>
<trkpt lat="51.9302113" lon="6.3476777"/>
<trkpt lat="51.9304665" lon="6.3477182"/>
<trkpt lat="51.9309465" lon="6.3477669"/>
<trkpt lat="51.9309055" lon="6.3479005"/>
<trkpt lat="51.9309465" lon="6.3477669"/>
<trkpt lat="51.9310605" lon="6.3477417"/>
<trkpt lat="51.9311694" lon="6.3474437"/>
<trkpt lat="51.9312347" lon="6.3471404"/>
<trkpt lat="51.9312889" lon="6.3461877"/>
<trkpt lat="51.9313082" lon="6.3454948"/>
<trkpt lat="51.9310654" lon="6.3454676"/>
<trkpt lat="51.9310954" lon="6.3451370"/>
<trkpt lat="51.9310519" lon="6.3444428"/>
<trkpt lat="51.9309178" lon="6.3434817"/>
<trkpt lat="51.9306809" lon="6.3417367"/>
<trkpt lat="51.9305426" lon="6.3409478"/>
<trkpt lat="51.9308620" lon="6.3404409"/>
<trkpt lat="51.9310752" lon="6.3402067"/>
<trkpt lat="51.9312139" lon="6.3403085"/>
<trkpt lat="51.9314825" lon="6.3405040"/>
<trkpt lat="51.9318709" lon="6.3395261"/>
<trkpt lat="51.9339629" lon="6.3408678"/>
<trkpt lat="51.9340863" lon="6.3409049"/>
<trkpt lat="51.9351769" lon="6.3384438"/>
<trkpt lat="51.9351580" lon="6.3381398"/>
<trkpt lat="51.9351007" lon="6.3378419"/>
<trkpt lat="51.9351723" lon="6.3374363"/>
<trkpt lat="51.9352476" lon="6.3370928"/>
<trkpt lat="51.9356491" lon="6.3364872"/>
<trkpt lat="51.9357613" lon="6.3363308"/>
<trkpt lat="51.9358556" lon="6.3362776"/>
<trkpt lat="51.9359896" lon="6.3360596"/>
<trkpt lat="51.9361367" lon="6.3358005"/>
<trkpt lat="51.9362322" lon="6.3355886"/>
<trkpt lat="51.9363312" lon="6.3354803"/>
<trkpt lat="51.9364878" lon="6.3351040"/>
<trkpt lat="51.9365755" lon="6.3348023"/>
<trkpt lat="51.9368217" lon="6.3344210"/>
<trkpt lat="51.9369457" lon="6.3343891"/>
<trkpt lat="51.9371156" lon="6.3344755"/>
<trkpt lat="51.9371969" lon="6.3344427"/>
<trkpt lat="51.9372536" lon="6.3345571"/>
<trkpt lat="51.9372404" lon="6.3346008"/>
<trkpt lat="51.9375627" lon="6.3351938"/>
</trkseg></trk>
</gpx>