<?xml version="1.0" encoding="UTF-8"?>
<gpx version="1.1" creator="klompenpaden.nl via Jimbo API" xmlns="http://www.topografix.com/GPX/1/1">
<metadata><name>Gerrit Achterbergpad</name><desc>Ontdek het mooie buitengebied van Doorn, Langbroek en Wijk bij Duurstede. Wandelen langs de voet van de Heuvelrug, door bossen en het rivieren- en slagenlandschap. Laat u inspireren door de geboortestreek van Gerrit Achterberg (1905-1962). En wandel in de voetsporen van deze dichter. Klompen aan, rugzak op en gaan!</desc><link href="https://www.klompenpaden.nl/klompenpaden/Gerrit_Achterbergpad/46c98db0-9bae-4e98-ad5b-b455308b506f"><text>klompenpaden.nl</text></link></metadata>
<wpt lat="51.97061706516821" lon="5.34859299659729"><name>Start Wijk bij Duurstede</name></wpt>
<trk><name>Gerrit Achterbergpad - Gerrit Achterbergpad hoofdroute</name><type>mainRoute</type><trkseg>
<trkpt lat="51.9706386" lon="5.3486681"/>
<trkpt lat="51.9707212" lon="5.3485340"/>
<trkpt lat="51.9706617" lon="5.3484696"/>
<trkpt lat="51.9704469" lon="5.3483140"/>
<trkpt lat="51.9702387" lon="5.3482014"/>
<trkpt lat="51.9701594" lon="5.3481263"/>
<trkpt lat="51.9701660" lon="5.3480136"/>
<trkpt lat="51.9700635" lon="5.3476596"/>
<trkpt lat="51.9699908" lon="5.3473163"/>
<trkpt lat="51.9699545" lon="5.3468603"/>
<trkpt lat="51.9699611" lon="5.3464150"/>
<trkpt lat="51.9700206" lon="5.3458464"/>
<trkpt lat="51.9699479" lon="5.3458357"/>
<trkpt lat="51.9698884" lon="5.3458518"/>
<trkpt lat="51.9697628" lon="5.3458196"/>
<trkpt lat="51.9697165" lon="5.3457284"/>
<trkpt lat="51.9697991" lon="5.3455406"/>
<trkpt lat="51.9698322" lon="5.3452402"/>
<trkpt lat="51.9699446" lon="5.3446662"/>
<trkpt lat="51.9699214" lon="5.3445697"/>
<trkpt lat="51.9699380" lon="5.3444088"/>
<trkpt lat="51.9700107" lon="5.3441781"/>
<trkpt lat="51.9700206" lon="5.3440601"/>
<trkpt lat="51.9700900" lon="5.3440922"/>
<trkpt lat="51.9702519" lon="5.3444088"/>
<trkpt lat="51.9705460" lon="5.3441620"/>
<trkpt lat="51.9706617" lon="5.3437918"/>
<trkpt lat="51.9724793" lon="5.3450364"/>
<trkpt lat="51.9732427" lon="5.3455192"/>
<trkpt lat="51.9731931" lon="5.3457016"/>
<trkpt lat="51.9736723" lon="5.3464741"/>
<trkpt lat="51.9736789" lon="5.3465760"/>
<trkpt lat="51.9738706" lon="5.3467959"/>
<trkpt lat="51.9739268" lon="5.3467208"/>
<trkpt lat="51.9748124" lon="5.3475416"/>
<trkpt lat="51.9749280" lon="5.3470266"/>
<trkpt lat="51.9750867" lon="5.3470963"/>
<trkpt lat="51.9751032" lon="5.3471929"/>
<trkpt lat="51.9754237" lon="5.3476435"/>
<trkpt lat="51.9754832" lon="5.3476006"/>
<trkpt lat="51.9757211" lon="5.3477347"/>
<trkpt lat="51.9758830" lon="5.3475201"/>
<trkpt lat="51.9763589" lon="5.3483301"/>
<trkpt lat="51.9769239" lon="5.3490490"/>
<trkpt lat="51.9772577" lon="5.3493494"/>
<trkpt lat="51.9783382" lon="5.3502774"/>
<trkpt lat="51.9786356" lon="5.3504330"/>
<trkpt lat="51.9800266" lon="5.3507817"/>
<trkpt lat="51.9802579" lon="5.3508085"/>
<trkpt lat="51.9802414" lon="5.3508729"/>
<trkpt lat="51.9804000" lon="5.3511357"/>
<trkpt lat="51.9807436" lon="5.3510070"/>
<trkpt lat="51.9810608" lon="5.3509265"/>
<trkpt lat="51.9816126" lon="5.3508514"/>
<trkpt lat="51.9817480" lon="5.3508997"/>
<trkpt lat="51.9819364" lon="5.3510875"/>
<trkpt lat="51.9820388" lon="5.3510177"/>
<trkpt lat="51.9821511" lon="5.3513664"/>
<trkpt lat="51.9823163" lon="5.3522140"/>
<trkpt lat="51.9825939" lon="5.3534532"/>
<trkpt lat="51.9831754" lon="5.3554058"/>
<trkpt lat="51.9835553" lon="5.3565323"/>
<trkpt lat="51.9836643" lon="5.3568542"/>
<trkpt lat="51.9837734" lon="5.3569186"/>
<trkpt lat="51.9838857" lon="5.3573799"/>
<trkpt lat="51.9839782" lon="5.3585172"/>
<trkpt lat="51.9840674" lon="5.3585064"/>
<trkpt lat="51.9842623" lon="5.3587532"/>
<trkpt lat="51.9845564" lon="5.3591931"/>
<trkpt lat="51.9846191" lon="5.3593433"/>
<trkpt lat="51.9848867" lon="5.3596491"/>
<trkpt lat="51.9850387" lon="5.3597403"/>
<trkpt lat="51.9855079" lon="5.3604269"/>
<trkpt lat="51.9856995" lon="5.3606308"/>
<trkpt lat="51.9858481" lon="5.3608453"/>
<trkpt lat="51.9859043" lon="5.3610063"/>
<trkpt lat="51.9861653" lon="5.3612906"/>
<trkpt lat="51.9862809" lon="5.3613710"/>
<trkpt lat="51.9864329" lon="5.3616285"/>
<trkpt lat="51.9868359" lon="5.3621167"/>
<trkpt lat="51.9870573" lon="5.3623259"/>
<trkpt lat="51.9871564" lon="5.3624922"/>
<trkpt lat="51.9872489" lon="5.3624922"/>
<trkpt lat="51.9873579" lon="5.3627872"/>
<trkpt lat="51.9875991" lon="5.3630018"/>
<trkpt lat="51.9876949" lon="5.3631949"/>
<trkpt lat="51.9878634" lon="5.3632700"/>
<trkpt lat="51.9880219" lon="5.3635114"/>
<trkpt lat="51.9880186" lon="5.3636456"/>
<trkpt lat="51.9880913" lon="5.3637904"/>
<trkpt lat="51.9882895" lon="5.3638387"/>
<trkpt lat="51.9885075" lon="5.3642356"/>
<trkpt lat="51.9886166" lon="5.3643107"/>
<trkpt lat="51.9886991" lon="5.3646058"/>
<trkpt lat="51.9888742" lon="5.3646702"/>
<trkpt lat="51.9889403" lon="5.3647882"/>
<trkpt lat="51.9890394" lon="5.3648365"/>
<trkpt lat="51.9892872" lon="5.3651690"/>
<trkpt lat="51.9893698" lon="5.3651959"/>
<trkpt lat="51.9894457" lon="5.3650993"/>
<trkpt lat="51.9895977" lon="5.3650832"/>
<trkpt lat="51.9903905" lon="5.3661078"/>
<trkpt lat="51.9905359" lon="5.3661561"/>
<trkpt lat="51.9908266" lon="5.3666228"/>
<trkpt lat="51.9910479" lon="5.3667998"/>
<trkpt lat="51.9912494" lon="5.3671592"/>
<trkpt lat="51.9916887" lon="5.3677118"/>
<trkpt lat="51.9922767" lon="5.3684735"/>
<trkpt lat="51.9924286" lon="5.3686237"/>
<trkpt lat="51.9925872" lon="5.3688008"/>
<trkpt lat="51.9928349" lon="5.3691494"/>
<trkpt lat="51.9932214" lon="5.3696322"/>
<trkpt lat="51.9954378" lon="5.3645682"/>
<trkpt lat="51.9984038" lon="5.3575945"/>
<trkpt lat="52.0011054" lon="5.3518438"/>
<trkpt lat="52.0041701" lon="5.3464365"/>
<trkpt lat="52.0052400" lon="5.3449345"/>
<trkpt lat="52.0051145" lon="5.3445160"/>
<trkpt lat="52.0047777" lon="5.3442371"/>
<trkpt lat="52.0040710" lon="5.3431427"/>
<trkpt lat="52.0040578" lon="5.3428853"/>
<trkpt lat="52.0047381" lon="5.3412867"/>
<trkpt lat="52.0054580" lon="5.3397417"/>
<trkpt lat="52.0056165" lon="5.3396666"/>
<trkpt lat="52.0061845" lon="5.3402674"/>
<trkpt lat="52.0066303" lon="5.3409916"/>
<trkpt lat="52.0069803" lon="5.3402942"/>
<trkpt lat="52.0070793" lon="5.3400260"/>
<trkpt lat="52.0073204" lon="5.3402406"/>
<trkpt lat="52.0072973" lon="5.3404552"/>
<trkpt lat="52.0075912" lon="5.3408307"/>
<trkpt lat="52.0079511" lon="5.3408897"/>
<trkpt lat="52.0080271" lon="5.3409487"/>
<trkpt lat="52.0081129" lon="5.3414530"/>
<trkpt lat="52.0083077" lon="5.3416997"/>
<trkpt lat="52.0085092" lon="5.3416783"/>
<trkpt lat="52.0087799" lon="5.3420430"/>
<trkpt lat="52.0090012" lon="5.3421181"/>
<trkpt lat="52.0091696" lon="5.3419840"/>
<trkpt lat="52.0092323" lon="5.3419948"/>
<trkpt lat="52.0104342" lon="5.3435290"/>
<trkpt lat="52.0102823" lon="5.3442532"/>
<trkpt lat="52.0101073" lon="5.3445804"/>
<trkpt lat="52.0106257" lon="5.3451276"/>
<trkpt lat="52.0109130" lon="5.3452832"/>
<trkpt lat="52.0111474" lon="5.3455997"/>
<trkpt lat="52.0113554" lon="5.3459805"/>
<trkpt lat="52.0115700" lon="5.3461361"/>
<trkpt lat="52.0116658" lon="5.3463399"/>
<trkpt lat="52.0121677" lon="5.3466457"/>
<trkpt lat="52.0126563" lon="5.3470212"/>
<trkpt lat="52.0128247" lon="5.3470749"/>
<trkpt lat="52.0128181" lon="5.3477669"/>
<trkpt lat="52.0130261" lon="5.3479868"/>
<trkpt lat="52.0130855" lon="5.3483355"/>
<trkpt lat="52.0128709" lon="5.3488076"/>
<trkpt lat="52.0126068" lon="5.3494191"/>
<trkpt lat="52.0127917" lon="5.3497571"/>
<trkpt lat="52.0130228" lon="5.3502989"/>
<trkpt lat="52.0132836" lon="5.3509855"/>
<trkpt lat="52.0137888" lon="5.3517044"/>
<trkpt lat="52.0148717" lon="5.3529972"/>
<trkpt lat="52.0144458" lon="5.3539306"/>
<trkpt lat="52.0141454" lon="5.3546548"/>
<trkpt lat="52.0139308" lon="5.3550518"/>
<trkpt lat="52.0136468" lon="5.3554916"/>
<trkpt lat="52.0131417" lon="5.3565913"/>
<trkpt lat="52.0129006" lon="5.3571010"/>
<trkpt lat="52.0122205" lon="5.3586674"/>
<trkpt lat="52.0123955" lon="5.3588283"/>
<trkpt lat="52.0129139" lon="5.3597081"/>
<trkpt lat="52.0145416" lon="5.3624761"/>
<trkpt lat="52.0157334" lon="5.3645092"/>
<trkpt lat="52.0179751" lon="5.3684306"/>
<trkpt lat="52.0191867" lon="5.3667408"/>
<trkpt lat="52.0193154" lon="5.3667998"/>
<trkpt lat="52.0210881" lon="5.3689241"/>
<trkpt lat="52.0215338" lon="5.3673899"/>
<trkpt lat="52.0233196" lon="5.3646809"/>
<trkpt lat="52.0247885" lon="5.3652978"/>
<trkpt lat="52.0260230" lon="5.3658450"/>
<trkpt lat="52.0262640" lon="5.3659147"/>
<trkpt lat="52.0269538" lon="5.3656626"/>
<trkpt lat="52.0272608" lon="5.3659737"/>
<trkpt lat="52.0274720" lon="5.3662473"/>
<trkpt lat="52.0293633" lon="5.3677976"/>
<trkpt lat="52.0296207" lon="5.3680176"/>
<trkpt lat="52.0299243" lon="5.3682697"/>
<trkpt lat="52.0301158" lon="5.3684467"/>
<trkpt lat="52.0305316" lon="5.3689510"/>
<trkpt lat="52.0315547" lon="5.3695840"/>
</trkseg></trk>
<trk><name>Gerrit Achterbergpad - shorteningRoute</name><type>shorteningRoute</type><trkseg>
<trkpt lat="52.0072800" lon="5.3399600"/>
<trkpt lat="52.0080100" lon="5.3372800"/>
<trkpt lat="52.0078300" lon="5.3371000"/>
<trkpt lat="52.0076200" lon="5.3368400"/>
<trkpt lat="52.0075300" lon="5.3365700"/>
<trkpt lat="52.0074700" lon="5.3359800"/>
<trkpt lat="52.0073900" lon="5.3350900"/>
<trkpt lat="52.0073300" lon="5.3346600"/>
<trkpt lat="52.0068100" lon="5.3339300"/>
<trkpt lat="52.0025800" lon="5.3286400"/>
<trkpt lat="52.0026500" lon="5.3284600"/>
<trkpt lat="52.0022300" lon="5.3279300"/>
<trkpt lat="52.0011000" lon="5.3263600"/>
<trkpt lat="52.0002900" lon="5.3253900"/>
<trkpt lat="51.9985900" lon="5.3296300"/>
<trkpt lat="51.9970100" lon="5.3336600"/>
<trkpt lat="51.9957200" lon="5.3328700"/>
<trkpt lat="51.9940300" lon="5.3320100"/>
<trkpt lat="51.9939900" lon="5.3321400"/>
<trkpt lat="51.9936900" lon="5.3338200"/>
<trkpt lat="51.9934500" lon="5.3350000"/>
<trkpt lat="51.9932500" lon="5.3349200"/>
<trkpt lat="51.9929300" lon="5.3346200"/>
<trkpt lat="51.9918000" lon="5.3331600"/>
<trkpt lat="51.9915300" lon="5.3327400"/>
<trkpt lat="51.9914000" lon="5.3322800"/>
<trkpt lat="51.9908600" lon="5.3290200"/>
<trkpt lat="51.9900000" lon="5.3306300"/>
<trkpt lat="51.9898600" lon="5.3310600"/>
<trkpt lat="51.9897100" lon="5.3316100"/>
<trkpt lat="51.9892300" lon="5.3328700"/>
<trkpt lat="51.9885900" lon="5.3346900"/>
<trkpt lat="51.9884600" lon="5.3350100"/>
<trkpt lat="51.9883100" lon="5.3353000"/>
<trkpt lat="51.9878400" lon="5.3364900"/>
<trkpt lat="51.9871500" lon="5.3359700"/>
<trkpt lat="51.9870000" lon="5.3359700"/>
<trkpt lat="51.9867900" lon="5.3366000"/>
<trkpt lat="51.9865000" lon="5.3379700"/>
<trkpt lat="51.9865500" lon="5.3381800"/>
<trkpt lat="51.9865600" lon="5.3385300"/>
<trkpt lat="51.9864900" lon="5.3394900"/>
<trkpt lat="51.9865000" lon="5.3397400"/>
<trkpt lat="51.9865400" lon="5.3401100"/>
<trkpt lat="51.9864600" lon="5.3406100"/>
<trkpt lat="51.9863800" lon="5.3415100"/>
<trkpt lat="51.9864000" lon="5.3418100"/>
<trkpt lat="51.9864700" lon="5.3422300"/>
<trkpt lat="51.9866000" lon="5.3423400"/>
<trkpt lat="51.9865700" lon="5.3425900"/>
<trkpt lat="51.9861500" lon="5.3427600"/>
<trkpt lat="51.9860900" lon="5.3429900"/>
<trkpt lat="51.9859800" lon="5.3437400"/>
<trkpt lat="51.9856500" lon="5.3450200"/>
<trkpt lat="51.9855500" lon="5.3452500"/>
<trkpt lat="51.9854000" lon="5.3454900"/>
<trkpt lat="51.9852400" lon="5.3456400"/>
<trkpt lat="51.9851600" lon="5.3459500"/>
<trkpt lat="51.9845600" lon="5.3477800"/>
<trkpt lat="51.9843500" lon="5.3482500"/>
<trkpt lat="51.9841200" lon="5.3486100"/>
<trkpt lat="51.9838700" lon="5.3491300"/>
<trkpt lat="51.9837400" lon="5.3493200"/>
<trkpt lat="51.9836400" lon="5.3494000"/>
<trkpt lat="51.9834500" lon="5.3494100"/>
<trkpt lat="51.9831400" lon="5.3494700"/>
<trkpt lat="51.9829500" lon="5.3495600"/>
<trkpt lat="51.9826900" lon="5.3500200"/>
<trkpt lat="51.9824500" lon="5.3503200"/>
<trkpt lat="51.9821700" lon="5.3506000"/>
<trkpt lat="51.9821100" lon="5.3508000"/>
<trkpt lat="51.9820200" lon="5.3508900"/>
</trkseg></trk>
<trk><name>Gerrit Achterbergpad - shorteningRoute</name><type>shorteningRoute</type><trkseg>
<trkpt lat="52.0018500" lon="5.3503700"/>
<trkpt lat="52.0060600" lon="5.3556900"/>
<trkpt lat="52.0058400" lon="5.3562200"/>
<trkpt lat="52.0062400" lon="5.3567600"/>
<trkpt lat="52.0059800" lon="5.3574900"/>
<trkpt lat="52.0070600" lon="5.3588000"/>
<trkpt lat="52.0097700" lon="5.3621700"/>
<trkpt lat="52.0103000" lon="5.3628900"/>
<trkpt lat="52.0106000" lon="5.3622800"/>
<trkpt lat="52.0144900" lon="5.3689400"/>
<trkpt lat="52.0156900" lon="5.3709100"/>
<trkpt lat="52.0159400" lon="5.3713500"/>
<trkpt lat="52.0164000" lon="5.3720700"/>
<trkpt lat="52.0169600" lon="5.3708500"/>
<trkpt lat="52.0172900" lon="5.3700200"/>
<trkpt lat="52.0179800" lon="5.3683800"/>
</trkseg></trk>
<trk><name>Gerrit Achterbergpad - shorteningRoute</name><type>shorteningRoute</type><trkseg>
<trkpt lat="52.0209100" lon="5.3687300"/>
<trkpt lat="52.0214800" lon="5.3694700"/>
<trkpt lat="52.0218300" lon="5.3698600"/>
<trkpt lat="52.0241100" lon="5.3720600"/>
<trkpt lat="52.0244100" lon="5.3722900"/>
<trkpt lat="52.0245800" lon="5.3724600"/>
<trkpt lat="52.0251700" lon="5.3724400"/>
<trkpt lat="52.0253900" lon="5.3724700"/>
<trkpt lat="52.0259600" lon="5.3727700"/>
<trkpt lat="52.0285000" lon="5.3743100"/>
<trkpt lat="52.0290500" lon="5.3722700"/>
<trkpt lat="52.0291300" lon="5.3717400"/>
<trkpt lat="52.0292900" lon="5.3702700"/>
<trkpt lat="52.0294900" lon="5.3692900"/>
<trkpt lat="52.0297600" lon="5.3681400"/>
</trkseg></trk>
<trk><name>Gerrit Achterbergpad - Overstaproute Overlangbroeksepad</name><type>connectionRoute</type><trkseg>
<trkpt lat="52.0297566" lon="5.3681568"/>
<trkpt lat="52.0296425" lon="5.3686079"/>
<trkpt lat="52.0294928" lon="5.3692557"/>
<trkpt lat="52.0293360" lon="5.3699728"/>
<trkpt lat="52.0292789" lon="5.3702736"/>
<trkpt lat="52.0291792" lon="5.3713608"/>
<trkpt lat="52.0290794" lon="5.3721474"/>
<trkpt lat="52.0287585" lon="5.3733156"/>
<trkpt lat="52.0285018" lon="5.3742757"/>
<trkpt lat="52.0273174" lon="5.3735936"/>
<trkpt lat="52.0262400" lon="5.3729347"/>
<trkpt lat="52.0253981" lon="5.3724724"/>
<trkpt lat="52.0250557" lon="5.3724378"/>
<trkpt lat="52.0245991" lon="5.3724611"/>
<trkpt lat="52.0241353" lon="5.3720912"/>
<trkpt lat="52.0240783" lon="5.3723803"/>
<trkpt lat="52.0237859" lon="5.3730396"/>
<trkpt lat="52.0233936" lon="5.3739649"/>
<trkpt lat="52.0231225" lon="5.3745895"/>
<trkpt lat="52.0229799" lon="5.3750289"/>
<trkpt lat="52.0229228" lon="5.3752487"/>
<trkpt lat="52.0228801" lon="5.3755956"/>
<trkpt lat="52.0228730" lon="5.3761045"/>
<trkpt lat="52.0229230" lon="5.3764283"/>
<trkpt lat="52.0230443" lon="5.3768330"/>
<trkpt lat="52.0232369" lon="5.3772724"/>
<trkpt lat="52.0233796" lon="5.3775615"/>
<trkpt lat="52.0234082" lon="5.3777581"/>
<trkpt lat="52.0233868" lon="5.3780703"/>
<trkpt lat="52.0232584" lon="5.3784636"/>
<trkpt lat="52.0231015" lon="5.3788452"/>
<trkpt lat="52.0227591" lon="5.3795738"/>
<trkpt lat="52.0224096" lon="5.3802678"/>
<trkpt lat="52.0220386" lon="5.3811236"/>
<trkpt lat="52.0218104" lon="5.3817712"/>
<trkpt lat="52.0216606" lon="5.3822569"/>
<trkpt lat="52.0215607" lon="5.3826270"/>
<trkpt lat="52.0213966" lon="5.3829739"/>
<trkpt lat="52.0206903" lon="5.3840379"/>
<trkpt lat="52.0203122" lon="5.3837488"/>
<trkpt lat="52.0198556" lon="5.3834829"/>
<trkpt lat="52.0194846" lon="5.3832169"/>
<trkpt lat="52.0192920" lon="5.3829394"/>
<trkpt lat="52.0191065" lon="5.3827891"/>
<trkpt lat="52.0186784" lon="5.3826041"/>
<trkpt lat="52.0183716" lon="5.3825001"/>
<trkpt lat="52.0180649" lon="5.3825117"/>
<trkpt lat="52.0177510" lon="5.3826505"/>
<trkpt lat="52.0174085" lon="5.3829396"/>
<trkpt lat="52.0170661" lon="5.3832403"/>
<trkpt lat="52.0166594" lon="5.3835409"/>
<trkpt lat="52.0162599" lon="5.3838416"/>
<trkpt lat="52.0159603" lon="5.3840035"/>
<trkpt lat="52.0155893" lon="5.3841191"/>
<trkpt lat="52.0151969" lon="5.3841307"/>
<trkpt lat="52.0150186" lon="5.3842117"/>
<trkpt lat="52.0147831" lon="5.3845817"/>
<trkpt lat="52.0141696" lon="5.3858767"/>
<trkpt lat="52.0139128" lon="5.3863854"/>
<trkpt lat="52.0138057" lon="5.3865011"/>
<trkpt lat="52.0135988" lon="5.3863276"/>
<trkpt lat="52.0131993" lon="5.3856108"/>
<trkpt lat="52.0130638" lon="5.3854374"/>
<trkpt lat="52.0129639" lon="5.3854721"/>
<trkpt lat="52.0126785" lon="5.3860502"/>
<trkpt lat="52.0121434" lon="5.3872526"/>
<trkpt lat="52.0120578" lon="5.3875416"/>
<trkpt lat="52.0120578" lon="5.3878422"/>
<trkpt lat="52.0123432" lon="5.3886863"/>
<trkpt lat="52.0126214" lon="5.3894840"/>
<trkpt lat="52.0127926" lon="5.3900621"/>
<trkpt lat="52.0129781" lon="5.3907096"/>
<trkpt lat="52.0133419" lon="5.3916115"/>
<trkpt lat="52.0136344" lon="5.3922359"/>
<trkpt lat="52.0141195" lon="5.3931378"/>
<trkpt lat="52.0139982" lon="5.3933112"/>
<trkpt lat="52.0137984" lon="5.3935193"/>
<trkpt lat="52.0138127" lon="5.3937390"/>
<trkpt lat="52.0139625" lon="5.3942362"/>
<trkpt lat="52.0143263" lon="5.3950687"/>
<trkpt lat="52.0147186" lon="5.3959706"/>
<trkpt lat="52.0148755" lon="5.3963754"/>
<trkpt lat="52.0149326" lon="5.3965835"/>
<trkpt lat="52.0149825" lon="5.3971963"/>
<trkpt lat="52.0150110" lon="5.3976588"/>
<trkpt lat="52.0149895" lon="5.3983410"/>
<trkpt lat="52.0149251" lon="5.3998788"/>
<trkpt lat="52.0148965" lon="5.4009888"/>
<trkpt lat="52.0149892" lon="5.4013935"/>
<trkpt lat="52.0150676" lon="5.4016595"/>
<trkpt lat="52.0150890" lon="5.4020410"/>
<trkpt lat="52.0141897" lon="5.4042029"/>
<trkpt lat="52.0133975" lon="5.4061334"/>
<trkpt lat="52.0132477" lon="5.4064571"/>
<trkpt lat="52.0131121" lon="5.4067230"/>
<trkpt lat="52.0129479" lon="5.4069194"/>
<trkpt lat="52.0126483" lon="5.4071968"/>
<trkpt lat="52.0124627" lon="5.4073933"/>
</trkseg></trk>
<trk><name>Gerrit Achterbergpad - Overstaproute Engelroderpad</name><type>connectionRoute</type><trkseg>
<trkpt lat="51.9700305" lon="5.3440493"/>
<trkpt lat="51.9699644" lon="5.3440869"/>
<trkpt lat="51.9698454" lon="5.3442425"/>
<trkpt lat="51.9695281" lon="5.3444302"/>
<trkpt lat="51.9694323" lon="5.3444356"/>
<trkpt lat="51.9693067" lon="5.3443980"/>
<trkpt lat="51.9691613" lon="5.3441888"/>
<trkpt lat="51.9691018" lon="5.3440386"/>
<trkpt lat="51.9688639" lon="5.3440332"/>
<trkpt lat="51.9685135" lon="5.3441888"/>
<trkpt lat="51.9683417" lon="5.3444678"/>
<trkpt lat="51.9682623" lon="5.3446394"/>
<trkpt lat="51.9681401" lon="5.3446126"/>
<trkpt lat="51.9680673" lon="5.3444839"/>
<trkpt lat="51.9678327" lon="5.3443873"/>
<trkpt lat="51.9676509" lon="5.3446072"/>
<trkpt lat="51.9675848" lon="5.3446180"/>
<trkpt lat="51.9673964" lon="5.3444356"/>
<trkpt lat="51.9671419" lon="5.3441459"/>
<trkpt lat="51.9668577" lon="5.3439957"/>
<trkpt lat="51.9661603" lon="5.3438348"/>
<trkpt lat="51.9655918" lon="5.3430516"/>
<trkpt lat="51.9655224" lon="5.3430033"/>
<trkpt lat="51.9653869" lon="5.3426546"/>
<trkpt lat="51.9648217" lon="5.3416246"/>
<trkpt lat="51.9642631" lon="5.3405088"/>
<trkpt lat="51.9642301" lon="5.3399348"/>
<trkpt lat="51.9641540" lon="5.3398168"/>
<trkpt lat="51.9641706" lon="5.3395164"/>
<trkpt lat="51.9644085" lon="5.3387386"/>
<trkpt lat="51.9645969" lon="5.3376335"/>
<trkpt lat="51.9646002" lon="5.3360671"/>
<trkpt lat="51.9646102" lon="5.3352034"/>
<trkpt lat="51.9646961" lon="5.3350747"/>
<trkpt lat="51.9648217" lon="5.3344309"/>
<trkpt lat="51.9654299" lon="5.3322423"/>
<trkpt lat="51.9662000" lon="5.3295064"/>
<trkpt lat="51.9672708" lon="5.3258210"/>
<trkpt lat="51.9679814" lon="5.3231764"/>
<trkpt lat="51.9679186" lon="5.3230476"/>
<trkpt lat="51.9678129" lon="5.3228652"/>
<trkpt lat="51.9679385" lon="5.3224415"/>
<trkpt lat="51.9683053" lon="5.3215349"/>
<trkpt lat="51.9687283" lon="5.3200918"/>
<trkpt lat="51.9692340" lon="5.3178281"/>
<trkpt lat="51.9687416" lon="5.3174365"/>
<trkpt lat="51.9676410" lon="5.3166050"/>
<trkpt lat="51.9674526" lon="5.3164923"/>
<trkpt lat="51.9673931" lon="5.3167605"/>
<trkpt lat="51.9675319" lon="5.3166479"/>
<trkpt lat="51.9676939" lon="5.3167498"/>
<trkpt lat="51.9678757" lon="5.3159720"/>
<trkpt lat="51.9686523" lon="5.3131717"/>
<trkpt lat="51.9687184" lon="5.3127319"/>
<trkpt lat="51.9687383" lon="5.3123081"/>
<trkpt lat="51.9686160" lon="5.3120399"/>
<trkpt lat="51.9682855" lon="5.3117931"/>
<trkpt lat="51.9677633" lon="5.3113693"/>
<trkpt lat="51.9674394" lon="5.3110421"/>
<trkpt lat="51.9669932" lon="5.3095347"/>
<trkpt lat="51.9664710" lon="5.3070295"/>
<trkpt lat="51.9660512" lon="5.3066272"/>
<trkpt lat="51.9661901" lon="5.3058869"/>
<trkpt lat="51.9659124" lon="5.3044707"/>
<trkpt lat="51.9649969" lon="5.3004152"/>
<trkpt lat="51.9643689" lon="5.2975345"/>
<trkpt lat="51.9640780" lon="5.2964133"/>
<trkpt lat="51.9640483" lon="5.2956247"/>
<trkpt lat="51.9643358" lon="5.2928889"/>
<trkpt lat="51.9643689" lon="5.2921486"/>
<trkpt lat="51.9648581" lon="5.2908343"/>
<trkpt lat="51.9652382" lon="5.2895576"/>
<trkpt lat="51.9652778" lon="5.2889138"/>
<trkpt lat="51.9652481" lon="5.2874225"/>
<trkpt lat="51.9651225" lon="5.2850461"/>
<trkpt lat="51.9650597" lon="5.2813661"/>
<trkpt lat="51.9646102" lon="5.2814090"/>
<trkpt lat="51.9640978" lon="5.2812159"/>
<trkpt lat="51.9637409" lon="5.2809101"/>
<trkpt lat="51.9634136" lon="5.2808028"/>
<trkpt lat="51.9626831" lon="5.2809048"/>
<trkpt lat="51.9624352" lon="5.2809048"/>
<trkpt lat="51.9619262" lon="5.2813822"/>
<trkpt lat="51.9612221" lon="5.2813554"/>
<trkpt lat="51.9600685" lon="5.2811247"/>
<trkpt lat="51.9594140" lon="5.2808458"/>
<trkpt lat="51.9585049" lon="5.2802128"/>
<trkpt lat="51.9582867" lon="5.2801484"/>
<trkpt lat="51.9579429" lon="5.2803200"/>
<trkpt lat="51.9571495" lon="5.2817738"/>
<trkpt lat="51.9570239" lon="5.2818543"/>
<trkpt lat="51.9561115" lon="5.2818382"/>
<trkpt lat="51.9557445" lon="5.2818865"/>
<trkpt lat="51.9555925" lon="5.2819455"/>
<trkpt lat="51.9554106" lon="5.2825624"/>
<trkpt lat="51.9552090" lon="5.2831364"/>
<trkpt lat="51.9545015" lon="5.2825731"/>
</trkseg></trk>
</gpx>