<?xml version="1.0" encoding="UTF-8"?>
<gpx version="1.1" creator="klompenpaden.nl via Jimbo API" xmlns="http://www.topografix.com/GPX/1/1">
<metadata><name>Giesepad</name><desc>Ontdek het mooie afwisselende buitengebied van Giesbeek en wandel langs plassen en uiterwaarden. Geniet van de vergezichten op de IJssel en de oude agrarische landbouwgronden met karakteristieke landschapselementen. Klompen aan, rugzak op en gaan!</desc><link href="https://www.klompenpaden.nl/klompenpaden/Giesepad/2f515044-08f2-497e-a2c1-721273c3329c"><text>klompenpaden.nl</text></link></metadata>
<wpt lat="51.99779604779103" lon="6.077885614120403"><name>Start Giesbeek</name></wpt>
<trk><name>Giesepad - Hoofdroute</name><type>mainRoute</type><trkseg>
<trkpt lat="51.9864236" lon="6.0599408"/>
<trkpt lat="51.9864205" lon="6.0599965"/>
<trkpt lat="51.9861568" lon="6.0600901"/>
<trkpt lat="51.9857406" lon="6.0602242"/>
<trkpt lat="51.9854037" lon="6.0603154"/>
<trkpt lat="51.9851890" lon="6.0603904"/>
<trkpt lat="51.9843169" lon="6.0606597"/>
<trkpt lat="51.9838280" lon="6.0608207"/>
<trkpt lat="51.9834702" lon="6.0609470"/>
<trkpt lat="51.9821684" lon="6.0613916"/>
<trkpt lat="51.9819714" lon="6.0614323"/>
<trkpt lat="51.9818484" lon="6.0615089"/>
<trkpt lat="51.9820158" lon="6.0630380"/>
<trkpt lat="51.9822148" lon="6.0648660"/>
<trkpt lat="51.9823882" lon="6.0662197"/>
<trkpt lat="51.9825622" lon="6.0677913"/>
<trkpt lat="51.9827072" lon="6.0688916"/>
<trkpt lat="51.9828313" lon="6.0700455"/>
<trkpt lat="51.9828487" lon="6.0703992"/>
<trkpt lat="51.9829870" lon="6.0709831"/>
<trkpt lat="51.9834283" lon="6.0718177"/>
<trkpt lat="51.9836293" lon="6.0719301"/>
<trkpt lat="51.9844145" lon="6.0720495"/>
<trkpt lat="51.9852774" lon="6.0722502"/>
<trkpt lat="51.9868701" lon="6.0720945"/>
<trkpt lat="51.9870766" lon="6.0720612"/>
<trkpt lat="51.9877135" lon="6.0720101"/>
<trkpt lat="51.9884395" lon="6.0719396"/>
<trkpt lat="51.9882538" lon="6.0722520"/>
<trkpt lat="51.9879976" lon="6.0727286"/>
<trkpt lat="51.9880208" lon="6.0728528"/>
<trkpt lat="51.9883172" lon="6.0741265"/>
<trkpt lat="51.9885158" lon="6.0751394"/>
<trkpt lat="51.9886124" lon="6.0751612"/>
<trkpt lat="51.9884727" lon="6.0772990"/>
<trkpt lat="51.9883842" lon="6.0791273"/>
<trkpt lat="51.9890734" lon="6.0792141"/>
<trkpt lat="51.9897539" lon="6.0792600"/>
<trkpt lat="51.9899375" lon="6.0793931"/>
<trkpt lat="51.9900494" lon="6.0798237"/>
<trkpt lat="51.9902493" lon="6.0805657"/>
<trkpt lat="51.9899061" lon="6.0817216"/>
<trkpt lat="51.9907743" lon="6.0821895"/>
<trkpt lat="51.9916563" lon="6.0827077"/>
<trkpt lat="51.9920957" lon="6.0829275"/>
<trkpt lat="51.9919016" lon="6.0836691"/>
<trkpt lat="51.9918556" lon="6.0840242"/>
<trkpt lat="51.9919176" lon="6.0841574"/>
<trkpt lat="51.9924680" lon="6.0844924"/>
<trkpt lat="51.9927775" lon="6.0846420"/>
<trkpt lat="51.9929612" lon="6.0846670"/>
<trkpt lat="51.9932045" lon="6.0844479"/>
<trkpt lat="51.9938419" lon="6.0837941"/>
<trkpt lat="51.9946501" lon="6.0830140"/>
<trkpt lat="51.9956031" lon="6.0818743"/>
<trkpt lat="51.9961731" lon="6.0811413"/>
<trkpt lat="51.9967291" lon="6.0802834"/>
<trkpt lat="51.9970441" lon="6.0797626"/>
<trkpt lat="51.9971114" lon="6.0796166"/>
<trkpt lat="51.9971508" lon="6.0794978"/>
<trkpt lat="51.9972717" lon="6.0792945"/>
<trkpt lat="51.9974071" lon="6.0791095"/>
<trkpt lat="51.9976515" lon="6.0787915"/>
<trkpt lat="51.9977499" lon="6.0786619"/>
<trkpt lat="51.9981426" lon="6.0778845"/>
<trkpt lat="51.9981594" lon="6.0777546"/>
<trkpt lat="51.9981170" lon="6.0776283"/>
<trkpt lat="51.9981594" lon="6.0777546"/>
<trkpt lat="51.9981426" lon="6.0778845"/>
<trkpt lat="51.9977499" lon="6.0786619"/>
<trkpt lat="51.9978355" lon="6.0788079"/>
<trkpt lat="51.9983415" lon="6.0779997"/>
<trkpt lat="51.9985117" lon="6.0776645"/>
<trkpt lat="51.9992047" lon="6.0765324"/>
<trkpt lat="51.9994037" lon="6.0760553"/>
<trkpt lat="51.9995164" lon="6.0761629"/>
<trkpt lat="51.9996594" lon="6.0755578"/>
<trkpt lat="51.9996996" lon="6.0748186"/>
<trkpt lat="51.9999090" lon="6.0746087"/>
<trkpt lat="51.9999815" lon="6.0745914"/>
<trkpt lat="52.0000761" lon="6.0746504"/>
<trkpt lat="52.0003590" lon="6.0750178"/>
<trkpt lat="52.0005255" lon="6.0751562"/>
<trkpt lat="52.0005423" lon="6.0751968"/>
<trkpt lat="52.0005594" lon="6.0753783"/>
<trkpt lat="52.0005189" lon="6.0755064"/>
<trkpt lat="52.0003429" lon="6.0757036"/>
<trkpt lat="52.0002814" lon="6.0758730"/>
<trkpt lat="52.0004734" lon="6.0768385"/>
<trkpt lat="52.0006423" lon="6.0772169"/>
<trkpt lat="52.0011391" lon="6.0768159"/>
<trkpt lat="52.0017058" lon="6.0766113"/>
<trkpt lat="52.0022070" lon="6.0764436"/>
<trkpt lat="52.0022989" lon="6.0764812"/>
<trkpt lat="52.0023350" lon="6.0763906"/>
<trkpt lat="52.0023233" lon="6.0760104"/>
<trkpt lat="52.0023043" lon="6.0756082"/>
<trkpt lat="52.0021686" lon="6.0753934"/>
<trkpt lat="52.0021016" lon="6.0753528"/>
<trkpt lat="52.0020779" lon="6.0753451"/>
<trkpt lat="52.0015105" lon="6.0752072"/>
<trkpt lat="52.0013535" lon="6.0749780"/>
<trkpt lat="52.0012086" lon="6.0747170"/>
<trkpt lat="52.0010211" lon="6.0744997"/>
<trkpt lat="52.0009227" lon="6.0744365"/>
<trkpt lat="52.0008036" lon="6.0743766"/>
<trkpt lat="52.0007193" lon="6.0743353"/>
<trkpt lat="52.0005653" lon="6.0741003"/>
<trkpt lat="52.0004593" lon="6.0739105"/>
<trkpt lat="52.0002716" lon="6.0734384"/>
<trkpt lat="52.0001795" lon="6.0732873"/>
<trkpt lat="52.0001200" lon="6.0725863"/>
<trkpt lat="52.0000951" lon="6.0719756"/>
<trkpt lat="52.0000466" lon="6.0712265"/>
<trkpt lat="52.0000186" lon="6.0703173"/>
<trkpt lat="52.0002242" lon="6.0702857"/>
<trkpt lat="52.0003927" lon="6.0702745"/>
<trkpt lat="52.0012474" lon="6.0702893"/>
<trkpt lat="52.0014634" lon="6.0702970"/>
<trkpt lat="52.0019786" lon="6.0703153"/>
<trkpt lat="52.0020544" lon="6.0702574"/>
<trkpt lat="52.0021290" lon="6.0701357"/>
<trkpt lat="52.0021560" lon="6.0699053"/>
<trkpt lat="52.0021653" lon="6.0696712"/>
<trkpt lat="52.0021447" lon="6.0691842"/>
<trkpt lat="52.0022014" lon="6.0686062"/>
<trkpt lat="52.0022641" lon="6.0682745"/>
<trkpt lat="52.0024267" lon="6.0679356"/>
<trkpt lat="52.0025457" lon="6.0677407"/>
<trkpt lat="52.0023424" lon="6.0671309"/>
<trkpt lat="52.0024467" lon="6.0669914"/>
<trkpt lat="52.0025001" lon="6.0667945"/>
<trkpt lat="52.0024966" lon="6.0666390"/>
<trkpt lat="52.0024799" lon="6.0665258"/>
<trkpt lat="52.0024440" lon="6.0664420"/>
<trkpt lat="52.0019089" lon="6.0666337"/>
<trkpt lat="52.0014242" lon="6.0667058"/>
<trkpt lat="52.0006477" lon="6.0665701"/>
<trkpt lat="52.0003248" lon="6.0664539"/>
<trkpt lat="51.9998714" lon="6.0662805"/>
<trkpt lat="51.9994421" lon="6.0660043"/>
<trkpt lat="51.9991981" lon="6.0658501"/>
<trkpt lat="51.9988860" lon="6.0655189"/>
<trkpt lat="51.9987753" lon="6.0654103"/>
<trkpt lat="51.9986305" lon="6.0653377"/>
<trkpt lat="51.9983038" lon="6.0652584"/>
<trkpt lat="51.9980101" lon="6.0652392"/>
<trkpt lat="51.9976860" lon="6.0652739"/>
<trkpt lat="51.9975726" lon="6.0653372"/>
<trkpt lat="51.9974149" lon="6.0654874"/>
<trkpt lat="51.9972353" lon="6.0657043"/>
<trkpt lat="51.9970943" lon="6.0657876"/>
<trkpt lat="51.9969421" lon="6.0657523"/>
<trkpt lat="51.9966822" lon="6.0655523"/>
<trkpt lat="51.9964292" lon="6.0653906"/>
<trkpt lat="51.9963943" lon="6.0652094"/>
<trkpt lat="51.9963292" lon="6.0648875"/>
<trkpt lat="51.9960173" lon="6.0646532"/>
<trkpt lat="51.9948724" lon="6.0636707"/>
<trkpt lat="51.9937182" lon="6.0627636"/>
<trkpt lat="51.9934490" lon="6.0624746"/>
<trkpt lat="51.9931668" lon="6.0617195"/>
<trkpt lat="51.9931354" lon="6.0612446"/>
<trkpt lat="51.9930591" lon="6.0605947"/>
<trkpt lat="51.9928551" lon="6.0600754"/>
<trkpt lat="51.9919173" lon="6.0586888"/>
<trkpt lat="51.9907781" lon="6.0547407"/>
<trkpt lat="51.9898667" lon="6.0538067"/>
<trkpt lat="51.9897906" lon="6.0536823"/>
<trkpt lat="51.9896710" lon="6.0537922"/>
<trkpt lat="51.9895431" lon="6.0531779"/>
<trkpt lat="51.9892823" lon="6.0520917"/>
<trkpt lat="51.9891584" lon="6.0514990"/>
<trkpt lat="51.9889726" lon="6.0509398"/>
<trkpt lat="51.9887458" lon="6.0503677"/>
<trkpt lat="51.9884406" lon="6.0499095"/>
<trkpt lat="51.9880467" lon="6.0493911"/>
<trkpt lat="51.9876479" lon="6.0490956"/>
<trkpt lat="51.9871558" lon="6.0485199"/>
<trkpt lat="51.9865959" lon="6.0477788"/>
<trkpt lat="51.9863512" lon="6.0474962"/>
<trkpt lat="51.9861312" lon="6.0471198"/>
<trkpt lat="51.9859823" lon="6.0465945"/>
<trkpt lat="51.9859306" lon="6.0462915"/>
<trkpt lat="51.9859119" lon="6.0459886"/>
<trkpt lat="51.9858993" lon="6.0454775"/>
<trkpt lat="51.9858968" lon="6.0453750"/>
<trkpt lat="51.9859023" lon="6.0451552"/>
<trkpt lat="51.9858464" lon="6.0447155"/>
<trkpt lat="51.9857199" lon="6.0447626"/>
<trkpt lat="51.9854718" lon="6.0449366"/>
<trkpt lat="51.9852325" lon="6.0449424"/>
<trkpt lat="51.9850942" lon="6.0449872"/>
<trkpt lat="51.9845248" lon="6.0453649"/>
<trkpt lat="51.9845569" lon="6.0455877"/>
<trkpt lat="51.9835313" lon="6.0463183"/>
<trkpt lat="51.9841785" lon="6.0493975"/>
<trkpt lat="51.9848507" lon="6.0525674"/>
<trkpt lat="51.9847920" lon="6.0526540"/>
<trkpt lat="51.9848610" lon="6.0529449"/>
<trkpt lat="51.9848894" lon="6.0530150"/>
<trkpt lat="51.9849809" lon="6.0531771"/>
<trkpt lat="51.9855549" lon="6.0558672"/>
<trkpt lat="51.9859908" lon="6.0578990"/>
<trkpt lat="51.9862055" lon="6.0589496"/>
<trkpt lat="51.9863190" lon="6.0594726"/>
<trkpt lat="51.9864236" lon="6.0599408"/>
</trkseg></trk>
<trk><name>Giesepad - Routeverkorter</name><type>shorteningRoute</type><trkseg>
<trkpt lat="51.9971508" lon="6.0794978"/>
<trkpt lat="51.9970322" lon="6.0794336"/>
<trkpt lat="51.9969219" lon="6.0793738"/>
<trkpt lat="51.9967737" lon="6.0791123"/>
<trkpt lat="51.9967425" lon="6.0789897"/>
<trkpt lat="51.9966055" lon="6.0789653"/>
<trkpt lat="51.9964683" lon="6.0790208"/>
<trkpt lat="51.9963112" lon="6.0789132"/>
<trkpt lat="51.9962745" lon="6.0785123"/>
<trkpt lat="51.9965961" lon="6.0778750"/>
<trkpt lat="51.9955399" lon="6.0766559"/>
<trkpt lat="51.9951996" lon="6.0763156"/>
<trkpt lat="51.9950009" lon="6.0758060"/>
<trkpt lat="51.9952103" lon="6.0749825"/>
<trkpt lat="51.9951447" lon="6.0745397"/>
<trkpt lat="51.9945136" lon="6.0739591"/>
<trkpt lat="51.9929753" lon="6.0723726"/>
<trkpt lat="51.9929033" lon="6.0720409"/>
<trkpt lat="51.9929878" lon="6.0719955"/>
<trkpt lat="51.9928957" lon="6.0716541"/>
<trkpt lat="51.9925803" lon="6.0705626"/>
<trkpt lat="51.9918727" lon="6.0684701"/>
<trkpt lat="51.9914518" lon="6.0674181"/>
<trkpt lat="51.9913861" lon="6.0674496"/>
<trkpt lat="51.9914089" lon="6.0675771"/>
<trkpt lat="51.9912472" lon="6.0677367"/>
<trkpt lat="51.9911910" lon="6.0676548"/>
<trkpt lat="51.9910267" lon="6.0675588"/>
<trkpt lat="51.9909297" lon="6.0672436"/>
<trkpt lat="51.9902977" lon="6.0657515"/>
<trkpt lat="51.9894866" lon="6.0652063"/>
<trkpt lat="51.9891926" lon="6.0648238"/>
<trkpt lat="51.9882671" lon="6.0634023"/>
<trkpt lat="51.9876955" lon="6.0625104"/>
<trkpt lat="51.9873649" lon="6.0620098"/>
<trkpt lat="51.9870772" lon="6.0615512"/>
<trkpt lat="51.9867659" lon="6.0610279"/>
<trkpt lat="51.9864721" lon="6.0601485"/>
<trkpt lat="51.9864438" lon="6.0600565"/>
<trkpt lat="51.9864236" lon="6.0599408"/>
</trkseg></trk>
</gpx>