<?xml version="1.0" encoding="UTF-8"?>
<gpx version="1.1" creator="klompenpaden.nl via Jimbo API" xmlns="http://www.topografix.com/GPX/1/1">
<metadata><name>Glindhorsterpad</name><desc>Ontdek het mooie buitengebied van De Glind. Wandelen door het agrarisch gebied, langs boerenerven, door weilanden, over het Melissenpad en langs de Moorsterbeek. Deze wandeling is een uitgelezen kans om de prachtige omgeving van jeugddorp De Glind en omgeving te verkennen.
Klompen aan, rugzak op en gaan!</desc><link href="https://www.klompenpaden.nl/klompenpaden/Glindhorsterpad/db5700e5-f4c5-4631-8d37-5148160b1b1a"><text>klompenpaden.nl</text></link></metadata>
<wpt lat="52.12389835204472" lon="5.526498556137085"><name>Start De Glind</name></wpt>
<trk><name>Glindhorsterpad - Hoofdroute</name><type>mainRoute</type><trkseg>
<trkpt lat="52.1183239" lon="5.5227781"/>
<trkpt lat="52.1173794" lon="5.5220992"/>
<trkpt lat="52.1172784" lon="5.5220506"/>
<trkpt lat="52.1168860" lon="5.5220977"/>
<trkpt lat="52.1166897" lon="5.5221068"/>
<trkpt lat="52.1155901" lon="5.5219586"/>
<trkpt lat="52.1151264" lon="5.5218993"/>
<trkpt lat="52.1150546" lon="5.5222950"/>
<trkpt lat="52.1142694" lon="5.5226789"/>
<trkpt lat="52.1141862" lon="5.5226497"/>
<trkpt lat="52.1140081" lon="5.5224463"/>
<trkpt lat="52.1126582" lon="5.5227609"/>
<trkpt lat="52.1122597" lon="5.5228852"/>
<trkpt lat="52.1121525" lon="5.5230394"/>
<trkpt lat="52.1118056" lon="5.5238034"/>
<trkpt lat="52.1108288" lon="5.5201794"/>
<trkpt lat="52.1109775" lon="5.5201219"/>
<trkpt lat="52.1113433" lon="5.5201722"/>
<trkpt lat="52.1113940" lon="5.5200806"/>
<trkpt lat="52.1111139" lon="5.5193759"/>
<trkpt lat="52.1110266" lon="5.5187606"/>
<trkpt lat="52.1113913" lon="5.5183422"/>
<trkpt lat="52.1118242" lon="5.5178456"/>
<trkpt lat="52.1112375" lon="5.5164398"/>
<trkpt lat="52.1110298" lon="5.5158155"/>
<trkpt lat="52.1111191" lon="5.5157481"/>
<trkpt lat="52.1110717" lon="5.5155935"/>
<trkpt lat="52.1111848" lon="5.5154586"/>
<trkpt lat="52.1113039" lon="5.5153045"/>
<trkpt lat="52.1114112" lon="5.5150151"/>
<trkpt lat="52.1114710" lon="5.5146870"/>
<trkpt lat="52.1114178" lon="5.5144164"/>
<trkpt lat="52.1113822" lon="5.5142908"/>
<trkpt lat="52.1114718" lon="5.5139145"/>
<trkpt lat="52.1115257" lon="5.5135863"/>
<trkpt lat="52.1115558" lon="5.5132098"/>
<trkpt lat="52.1117046" lon="5.5130364"/>
<trkpt lat="52.1117583" lon="5.5128628"/>
<trkpt lat="52.1118002" lon="5.5126022"/>
<trkpt lat="52.1118005" lon="5.5123704"/>
<trkpt lat="52.1117947" lon="5.5122062"/>
<trkpt lat="52.1117771" lon="5.5119841"/>
<trkpt lat="52.1116999" lon="5.5118583"/>
<trkpt lat="52.1115834" lon="5.5117920"/>
<trkpt lat="52.1115835" lon="5.5117132"/>
<trkpt lat="52.1116121" lon="5.5115817"/>
<trkpt lat="52.1117021" lon="5.5115282"/>
<trkpt lat="52.1117307" lon="5.5114425"/>
<trkpt lat="52.1117381" lon="5.5112224"/>
<trkpt lat="52.1117355" lon="5.5109674"/>
<trkpt lat="52.1117086" lon="5.5108260"/>
<trkpt lat="52.1116737" lon="5.5107299"/>
<trkpt lat="52.1116722" lon="5.5106434"/>
<trkpt lat="52.1117322" lon="5.5105570"/>
<trkpt lat="52.1117568" lon="5.5103625"/>
<trkpt lat="52.1117813" lon="5.5102207"/>
<trkpt lat="52.1117936" lon="5.5101152"/>
<trkpt lat="52.1118039" lon="5.5099833"/>
<trkpt lat="52.1118223" lon="5.5098679"/>
<trkpt lat="52.1118489" lon="5.5096734"/>
<trkpt lat="52.1118694" lon="5.5095151"/>
<trkpt lat="52.1118958" lon="5.5094591"/>
<trkpt lat="52.1119486" lon="5.5094593"/>
<trkpt lat="52.1120095" lon="5.5095023"/>
<trkpt lat="52.1121109" lon="5.5096873"/>
<trkpt lat="52.1121575" lon="5.5097006"/>
<trkpt lat="52.1122042" lon="5.5096685"/>
<trkpt lat="52.1122117" lon="5.5096518"/>
<trkpt lat="52.1118337" lon="5.5090005"/>
<trkpt lat="52.1118645" lon="5.5079577"/>
<trkpt lat="52.1132210" lon="5.5070343"/>
<trkpt lat="52.1138386" lon="5.5077506"/>
<trkpt lat="52.1139378" lon="5.5077162"/>
<trkpt lat="52.1148407" lon="5.5076561"/>
<trkpt lat="52.1156321" lon="5.5075794"/>
<trkpt lat="52.1156141" lon="5.5075310"/>
<trkpt lat="52.1155860" lon="5.5071370"/>
<trkpt lat="52.1158144" lon="5.5070603"/>
<trkpt lat="52.1158196" lon="5.5066277"/>
<trkpt lat="52.1159725" lon="5.5058633"/>
<trkpt lat="52.1165643" lon="5.5038175"/>
<trkpt lat="52.1166071" lon="5.5038562"/>
<trkpt lat="52.1171251" lon="5.5042748"/>
<trkpt lat="52.1185895" lon="5.5048195"/>
<trkpt lat="52.1197773" lon="5.5052893"/>
<trkpt lat="52.1196436" lon="5.5064421"/>
<trkpt lat="52.1200304" lon="5.5065378"/>
<trkpt lat="52.1202381" lon="5.5065516"/>
<trkpt lat="52.1204007" lon="5.5065367"/>
<trkpt lat="52.1205209" lon="5.5066183"/>
<trkpt lat="52.1205482" lon="5.5066276"/>
<trkpt lat="52.1205720" lon="5.5066283"/>
<trkpt lat="52.1209976" lon="5.5068124"/>
<trkpt lat="52.1216159" lon="5.5071400"/>
<trkpt lat="52.1216395" lon="5.5068844"/>
<trkpt lat="52.1216851" lon="5.5068876"/>
<trkpt lat="52.1217853" lon="5.5069371"/>
<trkpt lat="52.1218537" lon="5.5069103"/>
<trkpt lat="52.1219457" lon="5.5067941"/>
<trkpt lat="52.1219989" lon="5.5065608"/>
<trkpt lat="52.1220662" lon="5.5061337"/>
<trkpt lat="52.1220011" lon="5.5058316"/>
<trkpt lat="52.1217953" lon="5.5055610"/>
<trkpt lat="52.1215578" lon="5.5053239"/>
<trkpt lat="52.1214429" lon="5.5052753"/>
<trkpt lat="52.1212545" lon="5.5054382"/>
<trkpt lat="52.1211346" lon="5.5058640"/>
<trkpt lat="52.1211117" lon="5.5063283"/>
<trkpt lat="52.1211552" lon="5.5065331"/>
<trkpt lat="52.1213253" lon="5.5067403"/>
<trkpt lat="52.1216011" lon="5.5068775"/>
<trkpt lat="52.1215859" lon="5.5071417"/>
<trkpt lat="52.1215139" lon="5.5071094"/>
<trkpt lat="52.1205821" lon="5.5066394"/>
<trkpt lat="52.1204852" lon="5.5072174"/>
<trkpt lat="52.1203837" lon="5.5076131"/>
<trkpt lat="52.1202321" lon="5.5075982"/>
<trkpt lat="52.1197875" lon="5.5074941"/>
<trkpt lat="52.1197383" lon="5.5079839"/>
<trkpt lat="52.1196925" lon="5.5080822"/>
<trkpt lat="52.1194179" lon="5.5079849"/>
<trkpt lat="52.1191125" lon="5.5094881"/>
<trkpt lat="52.1190281" lon="5.5095007"/>
<trkpt lat="52.1183451" lon="5.5088615"/>
<trkpt lat="52.1180719" lon="5.5085806"/>
<trkpt lat="52.1179296" lon="5.5081457"/>
<trkpt lat="52.1166443" lon="5.5092817"/>
<trkpt lat="52.1167834" lon="5.5104329"/>
<trkpt lat="52.1161592" lon="5.5103559"/>
<trkpt lat="52.1145273" lon="5.5119679"/>
<trkpt lat="52.1144024" lon="5.5120719"/>
<trkpt lat="52.1124795" lon="5.5122635"/>
<trkpt lat="52.1130771" lon="5.5138353"/>
<trkpt lat="52.1127842" lon="5.5141705"/>
<trkpt lat="52.1126622" lon="5.5143266"/>
<trkpt lat="52.1126336" lon="5.5143791"/>
<trkpt lat="52.1126392" lon="5.5144749"/>
<trkpt lat="52.1126275" lon="5.5147561"/>
<trkpt lat="52.1126520" lon="5.5149539"/>
<trkpt lat="52.1127543" lon="5.5152941"/>
<trkpt lat="52.1130946" lon="5.5149591"/>
<trkpt lat="52.1131435" lon="5.5150464"/>
<trkpt lat="52.1134815" lon="5.5159049"/>
<trkpt lat="52.1145779" lon="5.5146797"/>
<trkpt lat="52.1147340" lon="5.5154682"/>
<trkpt lat="52.1156726" lon="5.5150595"/>
<trkpt lat="52.1155310" lon="5.5140857"/>
<trkpt lat="52.1158414" lon="5.5139996"/>
<trkpt lat="52.1157634" lon="5.5135417"/>
<trkpt lat="52.1168717" lon="5.5123820"/>
<trkpt lat="52.1165883" lon="5.5104961"/>
<trkpt lat="52.1170448" lon="5.5105901"/>
<trkpt lat="52.1178038" lon="5.5124619"/>
<trkpt lat="52.1178225" lon="5.5127556"/>
<trkpt lat="52.1179839" lon="5.5130960"/>
<trkpt lat="52.1180122" lon="5.5132660"/>
<trkpt lat="52.1182591" lon="5.5136376"/>
<trkpt lat="52.1188740" lon="5.5167762"/>
<trkpt lat="52.1188731" lon="5.5175797"/>
<trkpt lat="52.1188918" lon="5.5178733"/>
<trkpt lat="52.1190247" lon="5.5181364"/>
<trkpt lat="52.1191574" lon="5.5185540"/>
<trkpt lat="52.1191474" lon="5.5189867"/>
<trkpt lat="52.1183239" lon="5.5227781"/>
</trkseg></trk>
<trk><name>Glindhorsterpad - Hoofdroute</name><type>mainRoute</type><trkseg>
<trkpt lat="52.1228488" lon="5.5272486"/>
<trkpt lat="52.1228011" lon="5.5274472"/>
<trkpt lat="52.1225876" lon="5.5270119"/>
<trkpt lat="52.1221829" lon="5.5273486"/>
<trkpt lat="52.1218745" lon="5.5267102"/>
<trkpt lat="52.1217798" lon="5.5264009"/>
<trkpt lat="52.1210184" lon="5.5266979"/>
<trkpt lat="52.1203945" lon="5.5264641"/>
<trkpt lat="52.1202356" lon="5.5251019"/>
<trkpt lat="52.1187274" lon="5.5234457"/>
<trkpt lat="52.1185549" lon="5.5235611"/>
<trkpt lat="52.1183416" lon="5.5228941"/>
<trkpt lat="52.1183239" lon="5.5227781"/>
</trkseg></trk>
<trk><name>Glindhorsterpad - Hoofdroute</name><type>mainRoute</type><trkseg>
<trkpt lat="52.1228488" lon="5.5272486"/>
<trkpt lat="52.1231417" lon="5.5260284"/>
<trkpt lat="52.1238935" lon="5.5265087"/>
<trkpt lat="52.1236653" lon="5.5276949"/>
<trkpt lat="52.1228488" lon="5.5272486"/>
</trkseg></trk>
<trk><name>Glindhorsterpad - Tijdelijke omleiding</name><type>alternativeRoute</type><trkseg>
<trkpt lat="52.1166443" lon="5.5092817"/>
<trkpt lat="52.1166041" lon="5.5090273"/>
<trkpt lat="52.1158755" lon="5.5093585"/>
<trkpt lat="52.1156321" lon="5.5075794"/>
</trkseg></trk>
<trk><name>Glindhorsterpad - alternatieve route</name><type>alternativeRoute</type><trkseg>
<trkpt lat="52.1139217" lon="5.5078280"/>
<trkpt lat="52.1137432" lon="5.5077365"/>
<trkpt lat="52.1134122" lon="5.5076615"/>
<trkpt lat="52.1125696" lon="5.5074777"/>
</trkseg></trk>
<trk><name>Glindhorsterpad - aanlooproute</name><type>approachRoute</type><trkseg>
<trkpt lat="52.1022767" lon="5.5336666"/>
<trkpt lat="52.1038947" lon="5.5328996"/>
<trkpt lat="52.1033920" lon="5.5317548"/>
<trkpt lat="52.1038770" lon="5.5318491"/>
<trkpt lat="52.1040577" lon="5.5318497"/>
<trkpt lat="52.1047144" lon="5.5316046"/>
<trkpt lat="52.1052663" lon="5.5314056"/>
<trkpt lat="52.1058944" lon="5.5311914"/>
<trkpt lat="52.1071886" lon="5.5307784"/>
<trkpt lat="52.1089135" lon="5.5281731"/>
<trkpt lat="52.1094263" lon="5.5288390"/>
<trkpt lat="52.1113810" lon="5.5248901"/>
<trkpt lat="52.1118056" lon="5.5238034"/>
</trkseg></trk>
</gpx>