<?xml version="1.0" encoding="UTF-8"?>
<gpx version="1.1" creator="klompenpaden.nl via Jimbo API" xmlns="http://www.topografix.com/GPX/1/1">
<metadata><name>Goilberdingerpad</name><desc>Ontdek het mooie buitengebied van Culemborg. Wandelen door weilanden en de uiterwaarden van de Lek, over fort Everdingen, historische dijken en door boerenland. De weidsheid van het rivierenlandschap en de cultuurhistorie van de Nieuw Hollandse waterlinie bepalen hier de sfeer. 
Klompen aan, rugzak op en gaan!</desc><link href="https://www.klompenpaden.nl/klompenpaden/Goilberdingerpad/8f44ece4-78d4-4d6e-a19a-3fb4bde6893d"><text>klompenpaden.nl</text></link></metadata>
<wpt lat="51.958812333826295" lon="5.192456245422363"><name>Start Culemborg</name></wpt>
<trk><name>Goilberdingerpad - hoofdroute</name><type>mainRoute</type><trkseg>
<trkpt lat="51.9589593" lon="5.1903340"/>
<trkpt lat="51.9590905" lon="5.1891632"/>
<trkpt lat="51.9593798" lon="5.1893409"/>
<trkpt lat="51.9596713" lon="5.1894359"/>
<trkpt lat="51.9600936" lon="5.1895880"/>
<trkpt lat="51.9600641" lon="5.1896940"/>
<trkpt lat="51.9600880" lon="5.1897997"/>
<trkpt lat="51.9602012" lon="5.1899340"/>
<trkpt lat="51.9603678" lon="5.1899814"/>
<trkpt lat="51.9605526" lon="5.1902885"/>
<trkpt lat="51.9606186" lon="5.1906443"/>
<trkpt lat="51.9606247" lon="5.1907694"/>
<trkpt lat="51.9609744" lon="5.1901230"/>
<trkpt lat="51.9618334" lon="5.1882811"/>
<trkpt lat="51.9627577" lon="5.1863907"/>
<trkpt lat="51.9634624" lon="5.1847802"/>
<trkpt lat="51.9641914" lon="5.1834295"/>
<trkpt lat="51.9648967" lon="5.1821751"/>
<trkpt lat="51.9654114" lon="5.1807387"/>
<trkpt lat="51.9657486" lon="5.1797554"/>
<trkpt lat="51.9659382" lon="5.1794177"/>
<trkpt lat="51.9660349" lon="5.1790199"/>
<trkpt lat="51.9657170" lon="5.1787161"/>
<trkpt lat="51.9652587" lon="5.1784487"/>
<trkpt lat="51.9645696" lon="5.1780615"/>
<trkpt lat="51.9641696" lon="5.1778089"/>
<trkpt lat="51.9638569" lon="5.1778236"/>
<trkpt lat="51.9636110" lon="5.1779270"/>
<trkpt lat="51.9635162" lon="5.1781488"/>
<trkpt lat="51.9633983" lon="5.1786787"/>
<trkpt lat="51.9632918" lon="5.1790064"/>
<trkpt lat="51.9631079" lon="5.1791998"/>
<trkpt lat="51.9628853" lon="5.1792095"/>
<trkpt lat="51.9627748" lon="5.1791051"/>
<trkpt lat="51.9625611" lon="5.1789644"/>
<trkpt lat="51.9622309" lon="5.1783981"/>
<trkpt lat="51.9620384" lon="5.1781279"/>
<trkpt lat="51.9619227" lon="5.1780407"/>
<trkpt lat="51.9616810" lon="5.1782706"/>
<trkpt lat="51.9612510" lon="5.1780920"/>
<trkpt lat="51.9614225" lon="5.1776100"/>
<trkpt lat="51.9618839" lon="5.1762990"/>
<trkpt lat="51.9619368" lon="5.1762632"/>
<trkpt lat="51.9622712" lon="5.1765573"/>
<trkpt lat="51.9622929" lon="5.1766889"/>
<trkpt lat="51.9622565" lon="5.1770863"/>
<trkpt lat="51.9622567" lon="5.1772041"/>
<trkpt lat="51.9625310" lon="5.1776760"/>
<trkpt lat="51.9626201" lon="5.1777522"/>
<trkpt lat="51.9627600" lon="5.1777815"/>
<trkpt lat="51.9628522" lon="5.1777257"/>
<trkpt lat="51.9628548" lon="5.1773223"/>
<trkpt lat="51.9628650" lon="5.1770277"/>
<trkpt lat="51.9626544" lon="5.1769479"/>
<trkpt lat="51.9622461" lon="5.1760548"/>
<trkpt lat="51.9620999" lon="5.1760612"/>
<trkpt lat="51.9619606" lon="5.1759522"/>
<trkpt lat="51.9618496" lon="5.1757564"/>
<trkpt lat="51.9617814" lon="5.1755084"/>
<trkpt lat="51.9617826" lon="5.1751648"/>
<trkpt lat="51.9620498" lon="5.1749951"/>
<trkpt lat="51.9621835" lon="5.1749415"/>
<trkpt lat="51.9623975" lon="5.1749068"/>
<trkpt lat="51.9624834" lon="5.1747717"/>
<trkpt lat="51.9625574" lon="5.1746077"/>
<trkpt lat="51.9627497" lon="5.1740823"/>
<trkpt lat="51.9627947" lon="5.1742794"/>
<trkpt lat="51.9628633" lon="5.1744282"/>
<trkpt lat="51.9629496" lon="5.1745000"/>
<trkpt lat="51.9631934" lon="5.1744796"/>
<trkpt lat="51.9634699" lon="5.1745264"/>
<trkpt lat="51.9636813" lon="5.1747083"/>
<trkpt lat="51.9638184" lon="5.1749290"/>
<trkpt lat="51.9638755" lon="5.1752608"/>
<trkpt lat="51.9638941" lon="5.1756986"/>
<trkpt lat="51.9638856" lon="5.1759056"/>
<trkpt lat="51.9638293" lon="5.1760261"/>
<trkpt lat="51.9637436" lon="5.1762672"/>
<trkpt lat="51.9637053" lon="5.1764598"/>
<trkpt lat="51.9637205" lon="5.1766811"/>
<trkpt lat="51.9637981" lon="5.1768299"/>
<trkpt lat="51.9639263" lon="5.1770411"/>
<trkpt lat="51.9640809" lon="5.1770788"/>
<trkpt lat="51.9644917" lon="5.1767748"/>
<trkpt lat="51.9650514" lon="5.1773684"/>
<trkpt lat="51.9657290" lon="5.1778780"/>
<trkpt lat="51.9662406" lon="5.1782530"/>
<trkpt lat="51.9663121" lon="5.1780453"/>
<trkpt lat="51.9664035" lon="5.1776070"/>
<trkpt lat="51.9665217" lon="5.1771974"/>
<trkpt lat="51.9666106" lon="5.1770285"/>
<trkpt lat="51.9667144" lon="5.1769221"/>
<trkpt lat="51.9667559" lon="5.1768161"/>
<trkpt lat="51.9667794" lon="5.1767101"/>
<trkpt lat="51.9667554" lon="5.1765610"/>
<trkpt lat="51.9666956" lon="5.1763640"/>
<trkpt lat="51.9667309" lon="5.1761617"/>
<trkpt lat="51.9668315" lon="5.1759013"/>
<trkpt lat="51.9670267" lon="5.1753470"/>
<trkpt lat="51.9671421" lon="5.1750577"/>
<trkpt lat="51.9672186" lon="5.1746001"/>
<trkpt lat="51.9672652" lon="5.1740946"/>
<trkpt lat="51.9673209" lon="5.1736708"/>
<trkpt lat="51.9673832" lon="5.1735935"/>
<trkpt lat="51.9676001" lon="5.1735347"/>
<trkpt lat="51.9677152" lon="5.1730433"/>
<trkpt lat="51.9679626" lon="5.1717860"/>
<trkpt lat="51.9680823" lon="5.1706063"/>
<trkpt lat="51.9681205" lon="5.1703559"/>
<trkpt lat="51.9679955" lon="5.1702939"/>
<trkpt lat="51.9679002" lon="5.1702029"/>
<trkpt lat="51.9678405" lon="5.1700348"/>
<trkpt lat="51.9678013" lon="5.1697414"/>
<trkpt lat="51.9677558" lon="5.1692652"/>
<trkpt lat="51.9677338" lon="5.1686300"/>
<trkpt lat="51.9677480" lon="5.1682882"/>
<trkpt lat="51.9677504" lon="5.1679369"/>
<trkpt lat="51.9678118" lon="5.1674169"/>
<trkpt lat="51.9678969" lon="5.1668389"/>
<trkpt lat="51.9679944" lon="5.1665016"/>
<trkpt lat="51.9679970" lon="5.1663090"/>
<trkpt lat="51.9679223" lon="5.1661169"/>
<trkpt lat="51.9678507" lon="5.1659488"/>
<trkpt lat="51.9677696" lon="5.1655064"/>
<trkpt lat="51.9677601" lon="5.1652081"/>
<trkpt lat="51.9677618" lon="5.1645391"/>
<trkpt lat="51.9678495" lon="5.1637350"/>
<trkpt lat="51.9678878" lon="5.1635471"/>
<trkpt lat="51.9679707" lon="5.1634168"/>
<trkpt lat="51.9679821" lon="5.1631520"/>
<trkpt lat="51.9679221" lon="5.1628299"/>
<trkpt lat="51.9678741" lon="5.1626280"/>
<trkpt lat="51.9678645" lon="5.1622719"/>
<trkpt lat="51.9678635" lon="5.1617184"/>
<trkpt lat="51.9678803" lon="5.1611938"/>
<trkpt lat="51.9678587" lon="5.1607992"/>
<trkpt lat="51.9677868" lon="5.1604820"/>
<trkpt lat="51.9677032" lon="5.1602899"/>
<trkpt lat="51.9675542" lon="5.1601463"/>
<trkpt lat="51.9672835" lon="5.1600129"/>
<trkpt lat="51.9670752" lon="5.1599080"/>
<trkpt lat="51.9669295" lon="5.1599136"/>
<trkpt lat="51.9667840" lon="5.1599625"/>
<trkpt lat="51.9665642" lon="5.1600743"/>
<trkpt lat="51.9663564" lon="5.1602245"/>
<trkpt lat="51.9662138" lon="5.1602878"/>
<trkpt lat="51.9660028" lon="5.1602744"/>
<trkpt lat="51.9657975" lon="5.1601984"/>
<trkpt lat="51.9657301" lon="5.1607185"/>
<trkpt lat="51.9657157" lon="5.1609496"/>
<trkpt lat="51.9656367" lon="5.1615997"/>
<trkpt lat="51.9655515" lon="5.1621150"/>
<trkpt lat="51.9653538" lon="5.1629004"/>
<trkpt lat="51.9652089" lon="5.1633150"/>
<trkpt lat="51.9650936" lon="5.1636332"/>
<trkpt lat="51.9649696" lon="5.1640718"/>
<trkpt lat="51.9648871" lon="5.1644764"/>
<trkpt lat="51.9647400" lon="5.1652663"/>
<trkpt lat="51.9646901" lon="5.1655986"/>
<trkpt lat="51.9645697" lon="5.1663885"/>
<trkpt lat="51.9644901" lon="5.1667401"/>
<trkpt lat="51.9644131" lon="5.1668945"/>
<trkpt lat="51.9643271" lon="5.1670008"/>
<trkpt lat="51.9640124" lon="5.1672430"/>
<trkpt lat="51.9639528" lon="5.1671807"/>
<trkpt lat="51.9635660" lon="5.1669708"/>
<trkpt lat="51.9634481" lon="5.1669162"/>
<trkpt lat="51.9634468" lon="5.1668271"/>
<trkpt lat="51.9634453" lon="5.1667083"/>
<trkpt lat="51.9634354" lon="5.1666482"/>
<trkpt lat="51.9628937" lon="5.1666999"/>
<trkpt lat="51.9617939" lon="5.1667630"/>
<trkpt lat="51.9612737" lon="5.1667607"/>
<trkpt lat="51.9610745" lon="5.1667425"/>
<trkpt lat="51.9598852" lon="5.1666328"/>
<trkpt lat="51.9597187" lon="5.1666433"/>
<trkpt lat="51.9581935" lon="5.1665064"/>
<trkpt lat="51.9578427" lon="5.1664648"/>
<trkpt lat="51.9567277" lon="5.1663500"/>
<trkpt lat="51.9559548" lon="5.1663538"/>
<trkpt lat="51.9558330" lon="5.1663785"/>
<trkpt lat="51.9558427" lon="5.1668307"/>
<trkpt lat="51.9557691" lon="5.1671775"/>
<trkpt lat="51.9555207" lon="5.1679148"/>
<trkpt lat="51.9552041" lon="5.1686862"/>
<trkpt lat="51.9551301" lon="5.1689150"/>
<trkpt lat="51.9550541" lon="5.1689533"/>
<trkpt lat="51.9549866" lon="5.1689776"/>
<trkpt lat="51.9549011" lon="5.1689327"/>
<trkpt lat="51.9547640" lon="5.1688336"/>
<trkpt lat="51.9545295" lon="5.1686641"/>
<trkpt lat="51.9537402" lon="5.1680935"/>
<trkpt lat="51.9531884" lon="5.1676978"/>
<trkpt lat="51.9527722" lon="5.1674019"/>
<trkpt lat="51.9516828" lon="5.1666504"/>
<trkpt lat="51.9500016" lon="5.1654964"/>
<trkpt lat="51.9492301" lon="5.1649614"/>
<trkpt lat="51.9485085" lon="5.1644185"/>
<trkpt lat="51.9476678" lon="5.1637607"/>
<trkpt lat="51.9470939" lon="5.1633557"/>
<trkpt lat="51.9468532" lon="5.1631067"/>
<trkpt lat="51.9463192" lon="5.1624129"/>
<trkpt lat="51.9466390" lon="5.1630347"/>
<trkpt lat="51.9464321" lon="5.1638444"/>
<trkpt lat="51.9461939" lon="5.1661315"/>
<trkpt lat="51.9461396" lon="5.1664883"/>
<trkpt lat="51.9459969" lon="5.1663237"/>
<trkpt lat="51.9448938" lon="5.1652502"/>
<trkpt lat="51.9437954" lon="5.1641518"/>
<trkpt lat="51.9431280" lon="5.1634718"/>
<trkpt lat="51.9418927" lon="5.1632515"/>
<trkpt lat="51.9406694" lon="5.1629870"/>
<trkpt lat="51.9394625" lon="5.1628751"/>
<trkpt lat="51.9393477" lon="5.1628897"/>
<trkpt lat="51.9393460" lon="5.1630454"/>
<trkpt lat="51.9392969" lon="5.1630868"/>
<trkpt lat="51.9391118" lon="5.1629901"/>
<trkpt lat="51.9377722" lon="5.1620252"/>
<trkpt lat="51.9376825" lon="5.1617564"/>
<trkpt lat="51.9372479" lon="5.1614604"/>
<trkpt lat="51.9367777" lon="5.1611549"/>
<trkpt lat="51.9350730" lon="5.1670734"/>
<trkpt lat="51.9347356" lon="5.1667536"/>
<trkpt lat="51.9342354" lon="5.1663620"/>
<trkpt lat="51.9341320" lon="5.1664019"/>
<trkpt lat="51.9339059" lon="5.1671785"/>
<trkpt lat="51.9338845" lon="5.1673189"/>
<trkpt lat="51.9338381" lon="5.1676699"/>
<trkpt lat="51.9338206" lon="5.1679331"/>
<trkpt lat="51.9338173" lon="5.1681494"/>
<trkpt lat="51.9338143" lon="5.1684710"/>
<trkpt lat="51.9338220" lon="5.1687106"/>
<trkpt lat="51.9338801" lon="5.1688390"/>
<trkpt lat="51.9339164" lon="5.1689440"/>
<trkpt lat="51.9340216" lon="5.1691774"/>
<trkpt lat="51.9342356" lon="5.1695680"/>
<trkpt lat="51.9342327" lon="5.1699773"/>
<trkpt lat="51.9343522" lon="5.1700761"/>
<trkpt lat="51.9343384" lon="5.1704562"/>
<trkpt lat="51.9344547" lon="5.1708356"/>
<trkpt lat="51.9342425" lon="5.1713628"/>
<trkpt lat="51.9340599" lon="5.1715157"/>
<trkpt lat="51.9339674" lon="5.1716777"/>
<trkpt lat="51.9338254" lon="5.1720246"/>
<trkpt lat="51.9336480" lon="5.1725910"/>
<trkpt lat="51.9337069" lon="5.1729556"/>
<trkpt lat="51.9337634" lon="5.1732830"/>
<trkpt lat="51.9339018" lon="5.1737044"/>
<trkpt lat="51.9340549" lon="5.1741767"/>
<trkpt lat="51.9346837" lon="5.1749225"/>
<trkpt lat="51.9349214" lon="5.1750594"/>
<trkpt lat="51.9351577" lon="5.1749730"/>
<trkpt lat="51.9353491" lon="5.1743027"/>
<trkpt lat="51.9366965" lon="5.1698063"/>
<trkpt lat="51.9367604" lon="5.1696675"/>
<trkpt lat="51.9380169" lon="5.1701116"/>
<trkpt lat="51.9391930" lon="5.1695287"/>
<trkpt lat="51.9391402" lon="5.1718722"/>
<trkpt lat="51.9391975" lon="5.1719874"/>
<trkpt lat="51.9406730" lon="5.1712300"/>
<trkpt lat="51.9421981" lon="5.1703338"/>
<trkpt lat="51.9424907" lon="5.1703901"/>
<trkpt lat="51.9429192" lon="5.1706420"/>
<trkpt lat="51.9450910" lon="5.1722362"/>
<trkpt lat="51.9453768" lon="5.1724311"/>
<trkpt lat="51.9455150" lon="5.1726478"/>
<trkpt lat="51.9453649" lon="5.1738183"/>
<trkpt lat="51.9444977" lon="5.1807516"/>
<trkpt lat="51.9449229" lon="5.1810854"/>
<trkpt lat="51.9449804" lon="5.1811304"/>
<trkpt lat="51.9451721" lon="5.1812024"/>
<trkpt lat="51.9465257" lon="5.1822118"/>
<trkpt lat="51.9474387" lon="5.1828954"/>
<trkpt lat="51.9499075" lon="5.1847013"/>
<trkpt lat="51.9511832" lon="5.1856468"/>
<trkpt lat="51.9511569" lon="5.1862412"/>
<trkpt lat="51.9513143" lon="5.1863322"/>
<trkpt lat="51.9514011" lon="5.1862946"/>
<trkpt lat="51.9537786" lon="5.1872169"/>
<trkpt lat="51.9551494" lon="5.1877651"/>
<trkpt lat="51.9552064" lon="5.1877186"/>
<trkpt lat="51.9578407" lon="5.1887347"/>
<trkpt lat="51.9578413" lon="5.1890696"/>
<trkpt lat="51.9577203" lon="5.1892780"/>
<trkpt lat="51.9576571" lon="5.1898903"/>
<trkpt lat="51.9578439" lon="5.1906516"/>
<trkpt lat="51.9580086" lon="5.1910320"/>
<trkpt lat="51.9579810" lon="5.1915864"/>
<trkpt lat="51.9579387" lon="5.1918868"/>
<trkpt lat="51.9579390" lon="5.1920831"/>
<trkpt lat="51.9586530" lon="5.1924034"/>
<trkpt lat="51.9588242" lon="5.1923911"/>
<trkpt lat="51.9589600" lon="5.1925175"/>
<trkpt lat="51.9589595" lon="5.1903339"/>
</trkseg></trk>
<trk><name>Goilberdingerpad - shorteningRoute</name><type>shorteningRoute</type><trkseg>
<trkpt lat="51.9461300" lon="5.1664800"/>
<trkpt lat="51.9454500" lon="5.1721900"/>
<trkpt lat="51.9453500" lon="5.1724100"/>
</trkseg></trk>
<trk><name>Goilberdingerpad - extensionRoute</name><type>extensionRoute</type><trkseg>
<trkpt lat="51.9378000" lon="5.1620400"/>
<trkpt lat="51.9379300" lon="5.1619900"/>
<trkpt lat="51.9382000" lon="5.1621900"/>
<trkpt lat="51.9383200" lon="5.1567200"/>
<trkpt lat="51.9383800" lon="5.1552600"/>
<trkpt lat="51.9381700" lon="5.1549500"/>
<trkpt lat="51.9381100" lon="5.1547300"/>
<trkpt lat="51.9377500" lon="5.1544000"/>
<trkpt lat="51.9373300" lon="5.1539900"/>
<trkpt lat="51.9368600" lon="5.1534500"/>
<trkpt lat="51.9363100" lon="5.1530500"/>
<trkpt lat="51.9360400" lon="5.1529500"/>
<trkpt lat="51.9359500" lon="5.1534200"/>
<trkpt lat="51.9351300" lon="5.1528800"/>
<trkpt lat="51.9350800" lon="5.1529600"/>
<trkpt lat="51.9347500" lon="5.1527500"/>
<trkpt lat="51.9343600" lon="5.1524800"/>
<trkpt lat="51.9340100" lon="5.1522800"/>
<trkpt lat="51.9338200" lon="5.1522200"/>
<trkpt lat="51.9337500" lon="5.1522500"/>
<trkpt lat="51.9335600" lon="5.1521300"/>
<trkpt lat="51.9333500" lon="5.1521100"/>
<trkpt lat="51.9331900" lon="5.1521400"/>
<trkpt lat="51.9322300" lon="5.1554400"/>
<trkpt lat="51.9326800" lon="5.1557300"/>
<trkpt lat="51.9327400" lon="5.1555600"/>
<trkpt lat="51.9328300" lon="5.1554700"/>
<trkpt lat="51.9329200" lon="5.1551900"/>
<trkpt lat="51.9330400" lon="5.1550500"/>
<trkpt lat="51.9331500" lon="5.1549700"/>
<trkpt lat="51.9331900" lon="5.1548600"/>
<trkpt lat="51.9332700" lon="5.1547900"/>
<trkpt lat="51.9333300" lon="5.1546600"/>
<trkpt lat="51.9334600" lon="5.1546600"/>
<trkpt lat="51.9335200" lon="5.1545800"/>
<trkpt lat="51.9336400" lon="5.1545400"/>
<trkpt lat="51.9337200" lon="5.1542900"/>
<trkpt lat="51.9337500" lon="5.1542600"/>
<trkpt lat="51.9338000" lon="5.1542700"/>
<trkpt lat="51.9340700" lon="5.1544200"/>
<trkpt lat="51.9341100" lon="5.1543900"/>
<trkpt lat="51.9342100" lon="5.1541000"/>
<trkpt lat="51.9342400" lon="5.1540900"/>
<trkpt lat="51.9344600" lon="5.1541800"/>
<trkpt lat="51.9346000" lon="5.1536600"/>
<trkpt lat="51.9346300" lon="5.1536400"/>
<trkpt lat="51.9348400" lon="5.1536700"/>
<trkpt lat="51.9350500" lon="5.1529500"/>
<trkpt lat="51.9350800" lon="5.1529600"/>
<trkpt lat="51.9351300" lon="5.1528800"/>
<trkpt lat="51.9354200" lon="5.1530600"/>
<trkpt lat="51.9359500" lon="5.1534200"/>
<trkpt lat="51.9360400" lon="5.1529500"/>
<trkpt lat="51.9363200" lon="5.1530500"/>
<trkpt lat="51.9368600" lon="5.1534500"/>
<trkpt lat="51.9373300" lon="5.1539900"/>
<trkpt lat="51.9377500" lon="5.1544100"/>
<trkpt lat="51.9381100" lon="5.1547300"/>
<trkpt lat="51.9381700" lon="5.1549500"/>
<trkpt lat="51.9383800" lon="5.1552600"/>
<trkpt lat="51.9382000" lon="5.1621900"/>
<trkpt lat="51.9379300" lon="5.1619900"/>
<trkpt lat="51.9378000" lon="5.1620400"/>
</trkseg></trk>
<trk><name>Goilberdingerpad - connectionRoute</name><type>connectionRoute</type><trkseg>
<trkpt lat="51.9598400" lon="5.2264100"/>
<trkpt lat="51.9594400" lon="5.2259900"/>
<trkpt lat="51.9592400" lon="5.2257400"/>
<trkpt lat="51.9591300" lon="5.2255400"/>
<trkpt lat="51.9586800" lon="5.2246100"/>
<trkpt lat="51.9587100" lon="5.2245200"/>
<trkpt lat="51.9588200" lon="5.2243100"/>
<trkpt lat="51.9592800" lon="5.2229400"/>
<trkpt lat="51.9595900" lon="5.2227000"/>
<trkpt lat="51.9596800" lon="5.2225800"/>
<trkpt lat="51.9600500" lon="5.2218900"/>
<trkpt lat="51.9603200" lon="5.2209200"/>
<trkpt lat="51.9610700" lon="5.2186100"/>
<trkpt lat="51.9612900" lon="5.2179400"/>
<trkpt lat="51.9613700" lon="5.2177500"/>
<trkpt lat="51.9613700" lon="5.2176100"/>
<trkpt lat="51.9612900" lon="5.2173400"/>
<trkpt lat="51.9612900" lon="5.2170500"/>
<trkpt lat="51.9613000" lon="5.2169400"/>
<trkpt lat="51.9615100" lon="5.2163600"/>
<trkpt lat="51.9618300" lon="5.2157700"/>
<trkpt lat="51.9622900" lon="5.2152700"/>
<trkpt lat="51.9625200" lon="5.2151000"/>
<trkpt lat="51.9626700" lon="5.2151000"/>
<trkpt lat="51.9627300" lon="5.2151200"/>
<trkpt lat="51.9630000" lon="5.2154900"/>
<trkpt lat="51.9631100" lon="5.2155700"/>
<trkpt lat="51.9631800" lon="5.2155700"/>
<trkpt lat="51.9635800" lon="5.2153300"/>
<trkpt lat="51.9638600" lon="5.2152200"/>
<trkpt lat="51.9641500" lon="5.2151300"/>
<trkpt lat="51.9643800" lon="5.2151200"/>
<trkpt lat="51.9645400" lon="5.2151800"/>
<trkpt lat="51.9650100" lon="5.2156700"/>
<trkpt lat="51.9653100" lon="5.2158800"/>
<trkpt lat="51.9655700" lon="5.2159800"/>
<trkpt lat="51.9660600" lon="5.2157500"/>
<trkpt lat="51.9662100" lon="5.2157400"/>
<trkpt lat="51.9664700" lon="5.2158400"/>
<trkpt lat="51.9671200" lon="5.2156700"/>
<trkpt lat="51.9676900" lon="5.2153400"/>
<trkpt lat="51.9677300" lon="5.2152400"/>
<trkpt lat="51.9673900" lon="5.2131400"/>
<trkpt lat="51.9671000" lon="5.2116100"/>
<trkpt lat="51.9671200" lon="5.2111400"/>
<trkpt lat="51.9672600" lon="5.2103200"/>
<trkpt lat="51.9672300" lon="5.2095800"/>
<trkpt lat="51.9674300" lon="5.2084900"/>
<trkpt lat="51.9676200" lon="5.2077100"/>
<trkpt lat="51.9676400" lon="5.2074200"/>
<trkpt lat="51.9675900" lon="5.2071700"/>
<trkpt lat="51.9668400" lon="5.2051000"/>
<trkpt lat="51.9666800" lon="5.2044400"/>
<trkpt lat="51.9656700" lon="5.2011300"/>
<trkpt lat="51.9653900" lon="5.1998800"/>
<trkpt lat="51.9653300" lon="5.1992100"/>
<trkpt lat="51.9653600" lon="5.1987500"/>
<trkpt lat="51.9655300" lon="5.1978200"/>
<trkpt lat="51.9657700" lon="5.1971300"/>
<trkpt lat="51.9662400" lon="5.1955100"/>
<trkpt lat="51.9668800" lon="5.1943900"/>
<trkpt lat="51.9671600" lon="5.1938300"/>
<trkpt lat="51.9672900" lon="5.1932900"/>
<trkpt lat="51.9676200" lon="5.1928000"/>
<trkpt lat="51.9680100" lon="5.1912400"/>
<trkpt lat="51.9681300" lon="5.1905700"/>
<trkpt lat="51.9681600" lon="5.1900500"/>
<trkpt lat="51.9682100" lon="5.1895300"/>
<trkpt lat="51.9688500" lon="5.1858000"/>
<trkpt lat="51.9691400" lon="5.1836900"/>
<trkpt lat="51.9692700" lon="5.1832300"/>
<trkpt lat="51.9694000" lon="5.1828100"/>
</trkseg></trk>
<trk><name>Goilberdingerpad - connectionRoute</name><type>connectionRoute</type><trkseg>
<trkpt lat="51.9627300" lon="5.2151200"/>
<trkpt lat="51.9627500" lon="5.2149500"/>
<trkpt lat="51.9624300" lon="5.2138300"/>
<trkpt lat="51.9621200" lon="5.2123200"/>
<trkpt lat="51.9619800" lon="5.2117600"/>
<trkpt lat="51.9613300" lon="5.2078200"/>
<trkpt lat="51.9612100" lon="5.2054900"/>
<trkpt lat="51.9612200" lon="5.2039500"/>
<trkpt lat="51.9617800" lon="5.1988200"/>
<trkpt lat="51.9637200" lon="5.1920700"/>
<trkpt lat="51.9640900" lon="5.1911700"/>
<trkpt lat="51.9647800" lon="5.1896800"/>
<trkpt lat="51.9649000" lon="5.1893600"/>
<trkpt lat="51.9648200" lon="5.1892400"/>
<trkpt lat="51.9649100" lon="5.1890100"/>
<trkpt lat="51.9651300" lon="5.1886100"/>
<trkpt lat="51.9658900" lon="5.1877900"/>
<trkpt lat="51.9665800" lon="5.1869800"/>
<trkpt lat="51.9669600" lon="5.1864300"/>
<trkpt lat="51.9671800" lon="5.1860200"/>
<trkpt lat="51.9674000" lon="5.1855200"/>
<trkpt lat="51.9678400" lon="5.1846800"/>
<trkpt lat="51.9682200" lon="5.1852000"/>
<trkpt lat="51.9683800" lon="5.1854800"/>
<trkpt lat="51.9687500" lon="5.1857500"/>
<trkpt lat="51.9688500" lon="5.1858000"/>
</trkseg></trk>
<trk><name>Goilberdingerpad - connectionRoute</name><type>connectionRoute</type><trkseg>
<trkpt lat="51.9613000" lon="5.2169400"/>
<trkpt lat="51.9611100" lon="5.2167000"/>
<trkpt lat="51.9608900" lon="5.2161800"/>
<trkpt lat="51.9607800" lon="5.2161600"/>
<trkpt lat="51.9605500" lon="5.2157000"/>
<trkpt lat="51.9601700" lon="5.2147100"/>
<trkpt lat="51.9600800" lon="5.2143500"/>
<trkpt lat="51.9600600" lon="5.2141000"/>
<trkpt lat="51.9600300" lon="5.2139300"/>
<trkpt lat="51.9591200" lon="5.2128700"/>
<trkpt lat="51.9589500" lon="5.2125700"/>
<trkpt lat="51.9585900" lon="5.2112400"/>
<trkpt lat="51.9583400" lon="5.2101200"/>
<trkpt lat="51.9580200" lon="5.2081800"/>
<trkpt lat="51.9578100" lon="5.2063800"/>
<trkpt lat="51.9578200" lon="5.2058200"/>
<trkpt lat="51.9581300" lon="5.2042000"/>
<trkpt lat="51.9581500" lon="5.2028100"/>
<trkpt lat="51.9581200" lon="5.2027300"/>
<trkpt lat="51.9580400" lon="5.2026500"/>
<trkpt lat="51.9579800" lon="5.2026300"/>
<trkpt lat="51.9565800" lon="5.2023400"/>
<trkpt lat="51.9564700" lon="5.2022900"/>
<trkpt lat="51.9564500" lon="5.2022300"/>
<trkpt lat="51.9565500" lon="5.2016400"/>
<trkpt lat="51.9568700" lon="5.2008700"/>
<trkpt lat="51.9571500" lon="5.2004000"/>
<trkpt lat="51.9573800" lon="5.2001300"/>
<trkpt lat="51.9577800" lon="5.1998300"/>
<trkpt lat="51.9579500" lon="5.1996500"/>
<trkpt lat="51.9581300" lon="5.1993500"/>
<trkpt lat="51.9583000" lon="5.1989600"/>
<trkpt lat="51.9584200" lon="5.1981900"/>
<trkpt lat="51.9585500" lon="5.1967100"/>
<trkpt lat="51.9589100" lon="5.1943000"/>
<trkpt lat="51.9589200" lon="5.1924800"/>
</trkseg></trk>
<trk><name>Goilberdingerpad - connectionRoute</name><type>connectionRoute</type><trkseg>
<trkpt lat="51.9627300" lon="5.2151200"/>
<trkpt lat="51.9627500" lon="5.2149500"/>
<trkpt lat="51.9624300" lon="5.2138300"/>
<trkpt lat="51.9621200" lon="5.2123200"/>
<trkpt lat="51.9619800" lon="5.2117600"/>
<trkpt lat="51.9613300" lon="5.2078200"/>
<trkpt lat="51.9612100" lon="5.2054900"/>
<trkpt lat="51.9612200" lon="5.2039500"/>
<trkpt lat="51.9617800" lon="5.1988200"/>
<trkpt lat="51.9637200" lon="5.1920700"/>
<trkpt lat="51.9640900" lon="5.1911700"/>
<trkpt lat="51.9647800" lon="5.1896800"/>
<trkpt lat="51.9649000" lon="5.1893600"/>
<trkpt lat="51.9648200" lon="5.1892400"/>
<trkpt lat="51.9649100" lon="5.1890100"/>
<trkpt lat="51.9651300" lon="5.1886100"/>
<trkpt lat="51.9658900" lon="5.1877900"/>
<trkpt lat="51.9665800" lon="5.1869800"/>
<trkpt lat="51.9669600" lon="5.1864300"/>
<trkpt lat="51.9671800" lon="5.1860200"/>
<trkpt lat="51.9674000" lon="5.1855200"/>
<trkpt lat="51.9678400" lon="5.1846800"/>
<trkpt lat="51.9682200" lon="5.1852000"/>
<trkpt lat="51.9683800" lon="5.1854800"/>
<trkpt lat="51.9687500" lon="5.1857500"/>
<trkpt lat="51.9688500" lon="5.1858000"/>
</trkseg></trk>
<trk><name>Goilberdingerpad - approachRoute</name><type>approachRoute</type><trkseg>
<trkpt lat="51.9589200" lon="5.1924800"/>
<trkpt lat="51.9589100" lon="5.1943000"/>
<trkpt lat="51.9585500" lon="5.1967100"/>
<trkpt lat="51.9584200" lon="5.1981900"/>
<trkpt lat="51.9583000" lon="5.1989600"/>
<trkpt lat="51.9581300" lon="5.1993500"/>
<trkpt lat="51.9579500" lon="5.1996500"/>
<trkpt lat="51.9573800" lon="5.2001300"/>
<trkpt lat="51.9571500" lon="5.2004000"/>
<trkpt lat="51.9568700" lon="5.2008700"/>
<trkpt lat="51.9565500" lon="5.2016400"/>
<trkpt lat="51.9564500" lon="5.2022300"/>
<trkpt lat="51.9564700" lon="5.2022900"/>
<trkpt lat="51.9565800" lon="5.2023400"/>
<trkpt lat="51.9579800" lon="5.2026300"/>
<trkpt lat="51.9580400" lon="5.2026500"/>
<trkpt lat="51.9581200" lon="5.2027300"/>
<trkpt lat="51.9581500" lon="5.2028100"/>
<trkpt lat="51.9581300" lon="5.2042000"/>
<trkpt lat="51.9578200" lon="5.2058200"/>
<trkpt lat="51.9578100" lon="5.2063800"/>
<trkpt lat="51.9580200" lon="5.2081800"/>
<trkpt lat="51.9583400" lon="5.2101200"/>
<trkpt lat="51.9585900" lon="5.2112400"/>
<trkpt lat="51.9589500" lon="5.2125700"/>
<trkpt lat="51.9591200" lon="5.2128700"/>
<trkpt lat="51.9600300" lon="5.2139300"/>
<trkpt lat="51.9600600" lon="5.2141000"/>
<trkpt lat="51.9600800" lon="5.2143500"/>
<trkpt lat="51.9601700" lon="5.2147100"/>
<trkpt lat="51.9605500" lon="5.2157000"/>
<trkpt lat="51.9607800" lon="5.2161600"/>
<trkpt lat="51.9608900" lon="5.2161800"/>
<trkpt lat="51.9611100" lon="5.2167000"/>
<trkpt lat="51.9613000" lon="5.2169400"/>
<trkpt lat="51.9612900" lon="5.2170500"/>
<trkpt lat="51.9612900" lon="5.2173400"/>
<trkpt lat="51.9613700" lon="5.2176100"/>
<trkpt lat="51.9613700" lon="5.2177500"/>
<trkpt lat="51.9612900" lon="5.2179400"/>
<trkpt lat="51.9603200" lon="5.2209200"/>
<trkpt lat="51.9600500" lon="5.2218900"/>
<trkpt lat="51.9597300" lon="5.2224900"/>
<trkpt lat="51.9595900" lon="5.2227000"/>
<trkpt lat="51.9592800" lon="5.2229400"/>
<trkpt lat="51.9588200" lon="5.2243100"/>
<trkpt lat="51.9587100" lon="5.2245200"/>
<trkpt lat="51.9581100" lon="5.2249100"/>
<trkpt lat="51.9565200" lon="5.2258700"/>
<trkpt lat="51.9561800" lon="5.2261400"/>
<trkpt lat="51.9554200" lon="5.2262000"/>
<trkpt lat="51.9551800" lon="5.2263200"/>
<trkpt lat="51.9548500" lon="5.2271700"/>
<trkpt lat="51.9544700" lon="5.2277600"/>
<trkpt lat="51.9530500" lon="5.2288400"/>
<trkpt lat="51.9523900" lon="5.2292300"/>
<trkpt lat="51.9523300" lon="5.2291800"/>
<trkpt lat="51.9522300" lon="5.2292100"/>
<trkpt lat="51.9521900" lon="5.2292700"/>
<trkpt lat="51.9506500" lon="5.2268200"/>
<trkpt lat="51.9504600" lon="5.2263800"/>
<trkpt lat="51.9498600" lon="5.2254800"/>
<trkpt lat="51.9496700" lon="5.2254700"/>
<trkpt lat="51.9495100" lon="5.2255400"/>
<trkpt lat="51.9492100" lon="5.2257500"/>
<trkpt lat="51.9485100" lon="5.2263800"/>
<trkpt lat="51.9475600" lon="5.2272800"/>
</trkseg></trk>
<trk><name>Goilberdingerpad - tijdelijke omleiding</name><type>detourRoute</type><trkseg>
<trkpt lat="51.9393406" lon="5.1630432"/>
<trkpt lat="51.9393633" lon="5.1631959"/>
<trkpt lat="51.9391843" lon="5.1695225"/>
</trkseg></trk>
</gpx>