<?xml version="1.0" encoding="UTF-8"?>
<gpx version="1.1" creator="klompenpaden.nl via Jimbo API" xmlns="http://www.topografix.com/GPX/1/1">
<metadata><name>Gooijschepad</name><desc>Ontdek de afwisseling van oud boerenland met essen en kampen en broekland langs de Grote Beek. Een landschap waarin van oudsher tientallen klompenmakers hun beroep uitoefenden. Klompen aan, rugzak op en gaan!</desc><link href="https://www.klompenpaden.nl/klompenpaden/Gooijschepad/2bc96649-092b-4a19-ab32-6395ddccf64e"><text>klompenpaden.nl</text></link></metadata>
<wpt lat="52.03131134082833" lon="6.293977797031403"><name>Start Keijenborg</name></wpt>
<trk><name>Gooijschepad - Hoofdroute</name><type>mainRoute</type><trkseg>
<trkpt lat="52.0313168" lon="6.2939767"/>
<trkpt lat="52.0316664" lon="6.2942992"/>
<trkpt lat="52.0318549" lon="6.2938724"/>
<trkpt lat="52.0318748" lon="6.2938295"/>
<trkpt lat="52.0319168" lon="6.2937185"/>
<trkpt lat="52.0319333" lon="6.2936599"/>
<trkpt lat="52.0319963" lon="6.2934247"/>
<trkpt lat="52.0320905" lon="6.2934464"/>
<trkpt lat="52.0322078" lon="6.2933900"/>
<trkpt lat="52.0324415" lon="6.2932532"/>
<trkpt lat="52.0326481" lon="6.2931325"/>
<trkpt lat="52.0327690" lon="6.2930615"/>
<trkpt lat="52.0328856" lon="6.2930222"/>
<trkpt lat="52.0329404" lon="6.2929999"/>
<trkpt lat="52.0330321" lon="6.2929851"/>
<trkpt lat="52.0333074" lon="6.2929423"/>
<trkpt lat="52.0334426" lon="6.2929237"/>
<trkpt lat="52.0336812" lon="6.2929093"/>
<trkpt lat="52.0336964" lon="6.2929075"/>
<trkpt lat="52.0338257" lon="6.2928812"/>
<trkpt lat="52.0339538" lon="6.2928326"/>
<trkpt lat="52.0340797" lon="6.2927401"/>
<trkpt lat="52.0343686" lon="6.2925184"/>
<trkpt lat="52.0344913" lon="6.2924130"/>
<trkpt lat="52.0345594" lon="6.2926429"/>
<trkpt lat="52.0346087" lon="6.2927465"/>
<trkpt lat="52.0346792" lon="6.2928269"/>
<trkpt lat="52.0348875" lon="6.2930619"/>
<trkpt lat="52.0351625" lon="6.2933686"/>
<trkpt lat="52.0353782" lon="6.2935834"/>
<trkpt lat="52.0356325" lon="6.2938460"/>
<trkpt lat="52.0358814" lon="6.2941181"/>
<trkpt lat="52.0360445" lon="6.2943169"/>
<trkpt lat="52.0362873" lon="6.2946198"/>
<trkpt lat="52.0364079" lon="6.2947835"/>
<trkpt lat="52.0364261" lon="6.2948117"/>
<trkpt lat="52.0365034" lon="6.2944436"/>
<trkpt lat="52.0365689" lon="6.2941405"/>
<trkpt lat="52.0366770" lon="6.2936236"/>
<trkpt lat="52.0367112" lon="6.2934662"/>
<trkpt lat="52.0367707" lon="6.2932623"/>
<trkpt lat="52.0368564" lon="6.2929928"/>
<trkpt lat="52.0370068" lon="6.2925482"/>
<trkpt lat="52.0370846" lon="6.2922742"/>
<trkpt lat="52.0372241" lon="6.2917825"/>
<trkpt lat="52.0373162" lon="6.2914521"/>
<trkpt lat="52.0373516" lon="6.2913076"/>
<trkpt lat="52.0373971" lon="6.2911301"/>
<trkpt lat="52.0374297" lon="6.2908327"/>
<trkpt lat="52.0374533" lon="6.2905053"/>
<trkpt lat="52.0374819" lon="6.2901256"/>
<trkpt lat="52.0375054" lon="6.2898078"/>
<trkpt lat="52.0375246" lon="6.2895379"/>
<trkpt lat="52.0383605" lon="6.2887367"/>
<trkpt lat="52.0383144" lon="6.2884594"/>
<trkpt lat="52.0382200" lon="6.2881889"/>
<trkpt lat="52.0381809" lon="6.2880472"/>
<trkpt lat="52.0381977" lon="6.2879485"/>
<trkpt lat="52.0382335" lon="6.2878892"/>
<trkpt lat="52.0384100" lon="6.2877363"/>
<trkpt lat="52.0385267" lon="6.2876135"/>
<trkpt lat="52.0385998" lon="6.2875237"/>
<trkpt lat="52.0386798" lon="6.2873662"/>
<trkpt lat="52.0387307" lon="6.2872342"/>
<trkpt lat="52.0388273" lon="6.2867882"/>
<trkpt lat="52.0389366" lon="6.2866285"/>
<trkpt lat="52.0390087" lon="6.2866299"/>
<trkpt lat="52.0390689" lon="6.2865627"/>
<trkpt lat="52.0392986" lon="6.2862686"/>
<trkpt lat="52.0396781" lon="6.2857755"/>
<trkpt lat="52.0408032" lon="6.2843633"/>
<trkpt lat="52.0409935" lon="6.2840454"/>
<trkpt lat="52.0410088" lon="6.2839367"/>
<trkpt lat="52.0399659" lon="6.2817793"/>
<trkpt lat="52.0391911" lon="6.2802124"/>
<trkpt lat="52.0391835" lon="6.2801924"/>
<trkpt lat="52.0391904" lon="6.2800579"/>
<trkpt lat="52.0392093" lon="6.2794793"/>
<trkpt lat="52.0392147" lon="6.2791205"/>
<trkpt lat="52.0392358" lon="6.2776350"/>
<trkpt lat="52.0392536" lon="6.2766740"/>
<trkpt lat="52.0392602" lon="6.2764103"/>
<trkpt lat="52.0392603" lon="6.2764006"/>
<trkpt lat="52.0390853" lon="6.2763726"/>
<trkpt lat="52.0388379" lon="6.2763260"/>
<trkpt lat="52.0386676" lon="6.2762863"/>
<trkpt lat="52.0385768" lon="6.2762653"/>
<trkpt lat="52.0384455" lon="6.2762103"/>
<trkpt lat="52.0383595" lon="6.2761745"/>
<trkpt lat="52.0381928" lon="6.2760857"/>
<trkpt lat="52.0380662" lon="6.2760137"/>
<trkpt lat="52.0378655" lon="6.2759051"/>
<trkpt lat="52.0376495" lon="6.2760728"/>
<trkpt lat="52.0381056" lon="6.2773319"/>
<trkpt lat="52.0379353" lon="6.2776606"/>
<trkpt lat="52.0377714" lon="6.2779728"/>
<trkpt lat="52.0376438" lon="6.2782323"/>
<trkpt lat="52.0376045" lon="6.2783934"/>
<trkpt lat="52.0373989" lon="6.2791755"/>
<trkpt lat="52.0372134" lon="6.2798878"/>
<trkpt lat="52.0371668" lon="6.2800554"/>
<trkpt lat="52.0370718" lon="6.2802304"/>
<trkpt lat="52.0370063" lon="6.2803159"/>
<trkpt lat="52.0369461" lon="6.2803915"/>
<trkpt lat="52.0367254" lon="6.2805757"/>
<trkpt lat="52.0364426" lon="6.2808154"/>
<trkpt lat="52.0359544" lon="6.2812265"/>
<trkpt lat="52.0353196" lon="6.2817557"/>
<trkpt lat="52.0347127" lon="6.2822529"/>
<trkpt lat="52.0342816" lon="6.2827658"/>
<trkpt lat="52.0339416" lon="6.2831909"/>
<trkpt lat="52.0336498" lon="6.2835681"/>
<trkpt lat="52.0329693" lon="6.2844916"/>
<trkpt lat="52.0326617" lon="6.2849539"/>
<trkpt lat="52.0322709" lon="6.2854432"/>
<trkpt lat="52.0320422" lon="6.2857808"/>
<trkpt lat="52.0319338" lon="6.2858194"/>
<trkpt lat="52.0315165" lon="6.2858436"/>
<trkpt lat="52.0314109" lon="6.2858496"/>
<trkpt lat="52.0312621" lon="6.2859200"/>
<trkpt lat="52.0310913" lon="6.2857482"/>
<trkpt lat="52.0307612" lon="6.2853844"/>
<trkpt lat="52.0307232" lon="6.2853080"/>
<trkpt lat="52.0307185" lon="6.2852870"/>
<trkpt lat="52.0301244" lon="6.2853664"/>
<trkpt lat="52.0296979" lon="6.2854152"/>
<trkpt lat="52.0296414" lon="6.2854401"/>
<trkpt lat="52.0295364" lon="6.2854980"/>
<trkpt lat="52.0294424" lon="6.2855978"/>
<trkpt lat="52.0293836" lon="6.2857114"/>
<trkpt lat="52.0293133" lon="6.2858664"/>
<trkpt lat="52.0292119" lon="6.2860808"/>
<trkpt lat="52.0291455" lon="6.2861420"/>
<trkpt lat="52.0290662" lon="6.2862082"/>
<trkpt lat="52.0289726" lon="6.2862507"/>
<trkpt lat="52.0286480" lon="6.2864162"/>
<trkpt lat="52.0284026" lon="6.2865443"/>
<trkpt lat="52.0283059" lon="6.2865762"/>
<trkpt lat="52.0280672" lon="6.2866575"/>
<trkpt lat="52.0277899" lon="6.2867405"/>
<trkpt lat="52.0275565" lon="6.2867724"/>
<trkpt lat="52.0272523" lon="6.2868001"/>
<trkpt lat="52.0270558" lon="6.2868353"/>
<trkpt lat="52.0270059" lon="6.2868499"/>
<trkpt lat="52.0268959" lon="6.2869260"/>
<trkpt lat="52.0266724" lon="6.2871274"/>
<trkpt lat="52.0263237" lon="6.2875167"/>
<trkpt lat="52.0258712" lon="6.2880056"/>
<trkpt lat="52.0257625" lon="6.2881259"/>
<trkpt lat="52.0256925" lon="6.2882419"/>
<trkpt lat="52.0256514" lon="6.2883584"/>
<trkpt lat="52.0256317" lon="6.2885154"/>
<trkpt lat="52.0255983" lon="6.2888401"/>
<trkpt lat="52.0255903" lon="6.2889451"/>
<trkpt lat="52.0255712" lon="6.2892884"/>
<trkpt lat="52.0255622" lon="6.2893884"/>
<trkpt lat="52.0255482" lon="6.2894054"/>
<trkpt lat="52.0255205" lon="6.2894011"/>
<trkpt lat="52.0254866" lon="6.2893657"/>
<trkpt lat="52.0254413" lon="6.2893038"/>
<trkpt lat="52.0252634" lon="6.2890769"/>
<trkpt lat="52.0251232" lon="6.2889228"/>
<trkpt lat="52.0248865" lon="6.2886339"/>
<trkpt lat="52.0247045" lon="6.2884103"/>
<trkpt lat="52.0245028" lon="6.2881656"/>
<trkpt lat="52.0242997" lon="6.2879141"/>
<trkpt lat="52.0238937" lon="6.2873995"/>
<trkpt lat="52.0235828" lon="6.2870289"/>
<trkpt lat="52.0232144" lon="6.2865839"/>
<trkpt lat="52.0231585" lon="6.2865026"/>
<trkpt lat="52.0231400" lon="6.2864756"/>
<trkpt lat="52.0231357" lon="6.2864417"/>
<trkpt lat="52.0231361" lon="6.2863798"/>
<trkpt lat="52.0231436" lon="6.2863143"/>
<trkpt lat="52.0231767" lon="6.2860784"/>
<trkpt lat="52.0232766" lon="6.2853446"/>
<trkpt lat="52.0234127" lon="6.2843591"/>
<trkpt lat="52.0237064" lon="6.2822653"/>
<trkpt lat="52.0237466" lon="6.2819714"/>
<trkpt lat="52.0237443" lon="6.2819185"/>
<trkpt lat="52.0237330" lon="6.2818640"/>
<trkpt lat="52.0237215" lon="6.2818301"/>
<trkpt lat="52.0236927" lon="6.2818002"/>
<trkpt lat="52.0236350" lon="6.2817770"/>
<trkpt lat="52.0232996" lon="6.2816281"/>
<trkpt lat="52.0230029" lon="6.2815034"/>
<trkpt lat="52.0228659" lon="6.2814390"/>
<trkpt lat="52.0225404" lon="6.2812918"/>
<trkpt lat="52.0222384" lon="6.2811611"/>
<trkpt lat="52.0221149" lon="6.2810956"/>
<trkpt lat="52.0220800" lon="6.2810509"/>
<trkpt lat="52.0220541" lon="6.2810005"/>
<trkpt lat="52.0220473" lon="6.2809461"/>
<trkpt lat="52.0220452" lon="6.2808669"/>
<trkpt lat="52.0220841" lon="6.2806257"/>
<trkpt lat="52.0221276" lon="6.2803625"/>
<trkpt lat="52.0221234" lon="6.2802644"/>
<trkpt lat="52.0220730" lon="6.2801578"/>
<trkpt lat="52.0219463" lon="6.2799855"/>
<trkpt lat="52.0218979" lon="6.2798475"/>
<trkpt lat="52.0218133" lon="6.2797529"/>
<trkpt lat="52.0217202" lon="6.2797286"/>
<trkpt lat="52.0216607" lon="6.2795986"/>
<trkpt lat="52.0215580" lon="6.2797369"/>
<trkpt lat="52.0215447" lon="6.2798251"/>
<trkpt lat="52.0215358" lon="6.2799051"/>
<trkpt lat="52.0215105" lon="6.2800411"/>
<trkpt lat="52.0214156" lon="6.2800377"/>
<trkpt lat="52.0212303" lon="6.2800462"/>
<trkpt lat="52.0210337" lon="6.2800579"/>
<trkpt lat="52.0199745" lon="6.2801410"/>
<trkpt lat="52.0196386" lon="6.2801701"/>
<trkpt lat="52.0190348" lon="6.2802762"/>
<trkpt lat="52.0185352" lon="6.2803760"/>
<trkpt lat="52.0185136" lon="6.2803536"/>
<trkpt lat="52.0184927" lon="6.2802491"/>
<trkpt lat="52.0183118" lon="6.2794141"/>
<trkpt lat="52.0182650" lon="6.2793780"/>
<trkpt lat="52.0182066" lon="6.2794428"/>
<trkpt lat="52.0181693" lon="6.2794772"/>
<trkpt lat="52.0181183" lon="6.2795231"/>
<trkpt lat="52.0179782" lon="6.2796245"/>
<trkpt lat="52.0175987" lon="6.2799131"/>
<trkpt lat="52.0175068" lon="6.2799831"/>
<trkpt lat="52.0173966" lon="6.2800791"/>
<trkpt lat="52.0173009" lon="6.2801828"/>
<trkpt lat="52.0172470" lon="6.2802404"/>
<trkpt lat="52.0171984" lon="6.2803289"/>
<trkpt lat="52.0171352" lon="6.2804346"/>
<trkpt lat="52.0170179" lon="6.2806346"/>
<trkpt lat="52.0167853" lon="6.2809995"/>
<trkpt lat="52.0167093" lon="6.2811211"/>
<trkpt lat="52.0166699" lon="6.2811834"/>
<trkpt lat="52.0166213" lon="6.2812792"/>
<trkpt lat="52.0165165" lon="6.2814970"/>
<trkpt lat="52.0164227" lon="6.2816931"/>
<trkpt lat="52.0163058" lon="6.2819591"/>
<trkpt lat="52.0162864" lon="6.2820100"/>
<trkpt lat="52.0162297" lon="6.2822127"/>
<trkpt lat="52.0161692" lon="6.2825473"/>
<trkpt lat="52.0160951" lon="6.2828962"/>
<trkpt lat="52.0160500" lon="6.2831167"/>
<trkpt lat="52.0159837" lon="6.2832679"/>
<trkpt lat="52.0159505" lon="6.2833493"/>
<trkpt lat="52.0158463" lon="6.2834938"/>
<trkpt lat="52.0157997" lon="6.2835589"/>
<trkpt lat="52.0156109" lon="6.2837560"/>
<trkpt lat="52.0155095" lon="6.2838844"/>
<trkpt lat="52.0153716" lon="6.2840535"/>
<trkpt lat="52.0153264" lon="6.2841030"/>
<trkpt lat="52.0152398" lon="6.2841914"/>
<trkpt lat="52.0151128" lon="6.2843234"/>
<trkpt lat="52.0150034" lon="6.2844341"/>
<trkpt lat="52.0148805" lon="6.2845607"/>
<trkpt lat="52.0148140" lon="6.2846297"/>
<trkpt lat="52.0147167" lon="6.2847502"/>
<trkpt lat="52.0146723" lon="6.2848448"/>
<trkpt lat="52.0146240" lon="6.2849531"/>
<trkpt lat="52.0146238" lon="6.2849399"/>
<trkpt lat="52.0146124" lon="6.2846845"/>
<trkpt lat="52.0146529" lon="6.2842271"/>
<trkpt lat="52.0146869" lon="6.2838573"/>
<trkpt lat="52.0147067" lon="6.2836574"/>
<trkpt lat="52.0147175" lon="6.2835141"/>
<trkpt lat="52.0147282" lon="6.2833329"/>
<trkpt lat="52.0147314" lon="6.2831183"/>
<trkpt lat="52.0147294" lon="6.2830326"/>
<trkpt lat="52.0147238" lon="6.2828448"/>
<trkpt lat="52.0147182" lon="6.2825588"/>
<trkpt lat="52.0147077" lon="6.2822028"/>
<trkpt lat="52.0146963" lon="6.2817624"/>
<trkpt lat="52.0146933" lon="6.2815873"/>
<trkpt lat="52.0146933" lon="6.2814891"/>
<trkpt lat="52.0146954" lon="6.2813619"/>
<trkpt lat="52.0146989" lon="6.2812637"/>
<trkpt lat="52.0147060" lon="6.2811493"/>
<trkpt lat="52.0147116" lon="6.2810713"/>
<trkpt lat="52.0147257" lon="6.2809582"/>
<trkpt lat="52.0147503" lon="6.2807906"/>
<trkpt lat="52.0150982" lon="6.2787778"/>
<trkpt lat="52.0151167" lon="6.2785798"/>
<trkpt lat="52.0151184" lon="6.2784860"/>
<trkpt lat="52.0151036" lon="6.2780522"/>
<trkpt lat="52.0150881" lon="6.2769788"/>
<trkpt lat="52.0150643" lon="6.2753456"/>
<trkpt lat="52.0150468" lon="6.2741476"/>
<trkpt lat="52.0150336" lon="6.2735124"/>
<trkpt lat="52.0149654" lon="6.2693247"/>
<trkpt lat="52.0150148" lon="6.2692714"/>
<trkpt lat="52.0150222" lon="6.2692601"/>
<trkpt lat="52.0150159" lon="6.2690201"/>
<trkpt lat="52.0150159" lon="6.2689716"/>
<trkpt lat="52.0150065" lon="6.2687668"/>
<trkpt lat="52.0150844" lon="6.2686952"/>
<trkpt lat="52.0151719" lon="6.2685723"/>
<trkpt lat="52.0151687" lon="6.2685326"/>
<trkpt lat="52.0151381" lon="6.2684683"/>
<trkpt lat="52.0151152" lon="6.2684137"/>
<trkpt lat="52.0151019" lon="6.2683782"/>
<trkpt lat="52.0149989" lon="6.2684902"/>
<trkpt lat="52.0148012" lon="6.2687142"/>
<trkpt lat="52.0138886" lon="6.2697089"/>
<trkpt lat="52.0137228" lon="6.2698690"/>
<trkpt lat="52.0132569" lon="6.2703282"/>
<trkpt lat="52.0130313" lon="6.2705640"/>
<trkpt lat="52.0124372" lon="6.2711287"/>
<trkpt lat="52.0120665" lon="6.2715346"/>
<trkpt lat="52.0118991" lon="6.2717258"/>
<trkpt lat="52.0114081" lon="6.2723647"/>
<trkpt lat="52.0108755" lon="6.2730291"/>
<trkpt lat="52.0104715" lon="6.2735303"/>
<trkpt lat="52.0101812" lon="6.2738921"/>
<trkpt lat="52.0100007" lon="6.2740494"/>
<trkpt lat="52.0093564" lon="6.2745310"/>
<trkpt lat="52.0091871" lon="6.2746588"/>
<trkpt lat="52.0090307" lon="6.2747771"/>
<trkpt lat="52.0087190" lon="6.2749971"/>
<trkpt lat="52.0081656" lon="6.2753979"/>
<trkpt lat="52.0079996" lon="6.2755176"/>
<trkpt lat="52.0076781" lon="6.2757602"/>
<trkpt lat="52.0072928" lon="6.2760385"/>
<trkpt lat="52.0063011" lon="6.2768443"/>
<trkpt lat="52.0059869" lon="6.2771116"/>
<trkpt lat="52.0058252" lon="6.2772960"/>
<trkpt lat="52.0056246" lon="6.2776132"/>
<trkpt lat="52.0047482" lon="6.2796596"/>
<trkpt lat="52.0038725" lon="6.2796872"/>
<trkpt lat="52.0037430" lon="6.2796696"/>
<trkpt lat="52.0036672" lon="6.2798820"/>
<trkpt lat="52.0036054" lon="6.2800947"/>
<trkpt lat="52.0032928" lon="6.2800847"/>
<trkpt lat="52.0031362" lon="6.2802729"/>
<trkpt lat="52.0030105" lon="6.2803567"/>
<trkpt lat="52.0027933" lon="6.2802961"/>
<trkpt lat="52.0025628" lon="6.2801527"/>
<trkpt lat="52.0023826" lon="6.2800966"/>
<trkpt lat="52.0022139" lon="6.2800482"/>
<trkpt lat="52.0018523" lon="6.2800897"/>
<trkpt lat="52.0017851" lon="6.2800731"/>
<trkpt lat="52.0017553" lon="6.2806849"/>
<trkpt lat="52.0017554" lon="6.2810619"/>
<trkpt lat="52.0017958" lon="6.2814037"/>
<trkpt lat="52.0018543" lon="6.2816955"/>
<trkpt lat="52.0019121" lon="6.2818960"/>
<trkpt lat="52.0018047" lon="6.2819899"/>
<trkpt lat="52.0017449" lon="6.2820559"/>
<trkpt lat="52.0017145" lon="6.2821514"/>
<trkpt lat="52.0016792" lon="6.2822458"/>
<trkpt lat="52.0016766" lon="6.2823540"/>
<trkpt lat="52.0017214" lon="6.2829293"/>
<trkpt lat="52.0018365" lon="6.2842920"/>
<trkpt lat="52.0018778" lon="6.2846994"/>
<trkpt lat="52.0019103" lon="6.2851596"/>
<trkpt lat="52.0019403" lon="6.2855040"/>
<trkpt lat="52.0019941" lon="6.2857795"/>
<trkpt lat="52.0021115" lon="6.2862688"/>
<trkpt lat="52.0021219" lon="6.2863904"/>
<trkpt lat="52.0021144" lon="6.2865086"/>
<trkpt lat="52.0020872" lon="6.2865910"/>
<trkpt lat="52.0020571" lon="6.2866734"/>
<trkpt lat="52.0019841" lon="6.2868026"/>
<trkpt lat="52.0018948" lon="6.2869376"/>
<trkpt lat="52.0018152" lon="6.2870574"/>
<trkpt lat="52.0017939" lon="6.2871128"/>
<trkpt lat="52.0018311" lon="6.2871809"/>
<trkpt lat="52.0018657" lon="6.2872351"/>
<trkpt lat="52.0018942" lon="6.2872571"/>
<trkpt lat="52.0019230" lon="6.2872589"/>
<trkpt lat="52.0019776" lon="6.2872298"/>
<trkpt lat="52.0020124" lon="6.2872047"/>
<trkpt lat="52.0020542" lon="6.2872244"/>
<trkpt lat="52.0020773" lon="6.2872557"/>
<trkpt lat="52.0020942" lon="6.2873253"/>
<trkpt lat="52.0020949" lon="6.2873857"/>
<trkpt lat="52.0020836" lon="6.2874497"/>
<trkpt lat="52.0020753" lon="6.2875081"/>
<trkpt lat="52.0020727" lon="6.2875502"/>
<trkpt lat="52.0020772" lon="6.2876680"/>
<trkpt lat="52.0020657" lon="6.2877478"/>
<trkpt lat="52.0020579" lon="6.2878043"/>
<trkpt lat="52.0021007" lon="6.2877982"/>
<trkpt lat="52.0021503" lon="6.2878143"/>
<trkpt lat="52.0022071" lon="6.2878513"/>
<trkpt lat="52.0023691" lon="6.2880132"/>
<trkpt lat="52.0026557" lon="6.2882910"/>
<trkpt lat="52.0037125" lon="6.2893408"/>
<trkpt lat="52.0038274" lon="6.2894344"/>
<trkpt lat="52.0064567" lon="6.2906666"/>
<trkpt lat="52.0066437" lon="6.2907574"/>
<trkpt lat="52.0067282" lon="6.2908790"/>
<trkpt lat="52.0069056" lon="6.2912453"/>
<trkpt lat="52.0071055" lon="6.2916490"/>
<trkpt lat="52.0073512" lon="6.2921367"/>
<trkpt lat="52.0074904" lon="6.2924180"/>
<trkpt lat="52.0076877" lon="6.2928145"/>
<trkpt lat="52.0078061" lon="6.2930521"/>
<trkpt lat="52.0082295" lon="6.2938751"/>
<trkpt lat="52.0082547" lon="6.2939115"/>
<trkpt lat="52.0084022" lon="6.2938270"/>
<trkpt lat="52.0085088" lon="6.2937895"/>
<trkpt lat="52.0090777" lon="6.2934431"/>
<trkpt lat="52.0101879" lon="6.2928041"/>
<trkpt lat="52.0102730" lon="6.2928228"/>
<trkpt lat="52.0103831" lon="6.2925127"/>
<trkpt lat="52.0104920" lon="6.2925429"/>
<trkpt lat="52.0109929" lon="6.2926753"/>
<trkpt lat="52.0114658" lon="6.2928024"/>
<trkpt lat="52.0120582" lon="6.2929592"/>
<trkpt lat="52.0126725" lon="6.2931247"/>
<trkpt lat="52.0135577" lon="6.2933520"/>
<trkpt lat="52.0140094" lon="6.2935079"/>
<trkpt lat="52.0142804" lon="6.2936002"/>
<trkpt lat="52.0144983" lon="6.2936371"/>
<trkpt lat="52.0149207" lon="6.2935923"/>
<trkpt lat="52.0151807" lon="6.2935993"/>
<trkpt lat="52.0152340" lon="6.2936826"/>
<trkpt lat="52.0153573" lon="6.2942099"/>
<trkpt lat="52.0154359" lon="6.2945194"/>
<trkpt lat="52.0157122" lon="6.2955010"/>
<trkpt lat="52.0162709" lon="6.2951258"/>
<trkpt lat="52.0164836" lon="6.2949797"/>
<trkpt lat="52.0166850" lon="6.2949033"/>
<trkpt lat="52.0170092" lon="6.2948399"/>
<trkpt lat="52.0175083" lon="6.2947905"/>
<trkpt lat="52.0176611" lon="6.2947410"/>
<trkpt lat="52.0177969" lon="6.2946614"/>
<trkpt lat="52.0178955" lon="6.2946313"/>
<trkpt lat="52.0180019" lon="6.2946037"/>
<trkpt lat="52.0181038" lon="6.2945989"/>
<trkpt lat="52.0183204" lon="6.2945872"/>
<trkpt lat="52.0187487" lon="6.2945557"/>
<trkpt lat="52.0190241" lon="6.2945315"/>
<trkpt lat="52.0193018" lon="6.2944867"/>
<trkpt lat="52.0194209" lon="6.2944489"/>
<trkpt lat="52.0194101" lon="6.2943869"/>
<trkpt lat="52.0193532" lon="6.2942424"/>
<trkpt lat="52.0192835" lon="6.2940562"/>
<trkpt lat="52.0191529" lon="6.2937065"/>
<trkpt lat="52.0187541" lon="6.2926448"/>
<trkpt lat="52.0190645" lon="6.2924271"/>
<trkpt lat="52.0194856" lon="6.2921260"/>
<trkpt lat="52.0197349" lon="6.2919448"/>
<trkpt lat="52.0202093" lon="6.2916536"/>
<trkpt lat="52.0202496" lon="6.2915901"/>
<trkpt lat="52.0202379" lon="6.2915225"/>
<trkpt lat="52.0206373" lon="6.2910169"/>
<trkpt lat="52.0207195" lon="6.2909684"/>
<trkpt lat="52.0208529" lon="6.2915903"/>
<trkpt lat="52.0210428" lon="6.2913212"/>
<trkpt lat="52.0211668" lon="6.2911872"/>
<trkpt lat="52.0212343" lon="6.2912621"/>
<trkpt lat="52.0214427" lon="6.2912195"/>
<trkpt lat="52.0214585" lon="6.2911804"/>
<trkpt lat="52.0216705" lon="6.2912116"/>
<trkpt lat="52.0221203" lon="6.2913819"/>
<trkpt lat="52.0221249" lon="6.2914931"/>
<trkpt lat="52.0220925" lon="6.2916538"/>
<trkpt lat="52.0219973" lon="6.2922432"/>
<trkpt lat="52.0218776" lon="6.2930805"/>
<trkpt lat="52.0218592" lon="6.2933583"/>
<trkpt lat="52.0218187" lon="6.2934328"/>
<trkpt lat="52.0218319" lon="6.2936867"/>
<trkpt lat="52.0217753" lon="6.2937538"/>
<trkpt lat="52.0216145" lon="6.2937453"/>
<trkpt lat="52.0212357" lon="6.2938846"/>
<trkpt lat="52.0212999" lon="6.2953502"/>
<trkpt lat="52.0213102" lon="6.2955603"/>
<trkpt lat="52.0214768" lon="6.2956424"/>
<trkpt lat="52.0216486" lon="6.2957596"/>
<trkpt lat="52.0217215" lon="6.2958293"/>
<trkpt lat="52.0223535" lon="6.2962692"/>
<trkpt lat="52.0226366" lon="6.2964629"/>
<trkpt lat="52.0229089" lon="6.2966990"/>
<trkpt lat="52.0230403" lon="6.2970861"/>
<trkpt lat="52.0234117" lon="6.2981504"/>
<trkpt lat="52.0238908" lon="6.2996528"/>
<trkpt lat="52.0239805" lon="6.2996108"/>
<trkpt lat="52.0240430" lon="6.2996039"/>
<trkpt lat="52.0241138" lon="6.2995972"/>
<trkpt lat="52.0241946" lon="6.2996179"/>
<trkpt lat="52.0245767" lon="6.2997187"/>
<trkpt lat="52.0247401" lon="6.2997439"/>
<trkpt lat="52.0249137" lon="6.2997501"/>
<trkpt lat="52.0251097" lon="6.2997049"/>
<trkpt lat="52.0255335" lon="6.2996370"/>
<trkpt lat="52.0260434" lon="6.2995572"/>
<trkpt lat="52.0261313" lon="6.2995371"/>
<trkpt lat="52.0268151" lon="6.2992773"/>
<trkpt lat="52.0272999" lon="6.2989497"/>
<trkpt lat="52.0275833" lon="6.2987675"/>
<trkpt lat="52.0276520" lon="6.2987433"/>
<trkpt lat="52.0278016" lon="6.2988147"/>
<trkpt lat="52.0281024" lon="6.2984837"/>
<trkpt lat="52.0282113" lon="6.2983529"/>
<trkpt lat="52.0282640" lon="6.2982402"/>
<trkpt lat="52.0282966" lon="6.2980677"/>
<trkpt lat="52.0286733" lon="6.2982101"/>
<trkpt lat="52.0289581" lon="6.2983734"/>
<trkpt lat="52.0289665" lon="6.2982580"/>
<trkpt lat="52.0289549" lon="6.2979376"/>
<trkpt lat="52.0289480" lon="6.2977170"/>
<trkpt lat="52.0288987" lon="6.2969793"/>
<trkpt lat="52.0288463" lon="6.2964953"/>
<trkpt lat="52.0287390" lon="6.2957110"/>
<trkpt lat="52.0290821" lon="6.2957250"/>
<trkpt lat="52.0293205" lon="6.2957473"/>
<trkpt lat="52.0294648" lon="6.2957905"/>
<trkpt lat="52.0295399" lon="6.2958497"/>
<trkpt lat="52.0298370" lon="6.2960902"/>
<trkpt lat="52.0299058" lon="6.2961231"/>
<trkpt lat="52.0299280" lon="6.2960413"/>
<trkpt lat="52.0299538" lon="6.2956359"/>
<trkpt lat="52.0300488" lon="6.2943727"/>
<trkpt lat="52.0300869" lon="6.2942515"/>
<trkpt lat="52.0301609" lon="6.2936191"/>
<trkpt lat="52.0301899" lon="6.2932993"/>
<trkpt lat="52.0307054" lon="6.2934884"/>
<trkpt lat="52.0309383" lon="6.2936628"/>
<trkpt lat="52.0310929" lon="6.2937820"/>
<trkpt lat="52.0313055" lon="6.2939641"/>
<trkpt lat="52.0313167" lon="6.2939767"/>
</trkseg></trk>
<trk><name>Gooijschepad - Routeverkorter</name><type>shorteningRoute</type><trkseg>
<trkpt lat="52.0255482" lon="6.2894054"/>
<trkpt lat="52.0255456" lon="6.2895916"/>
<trkpt lat="52.0255194" lon="6.2899402"/>
<trkpt lat="52.0254578" lon="6.2903403"/>
<trkpt lat="52.0253813" lon="6.2907544"/>
<trkpt lat="52.0252584" lon="6.2915000"/>
<trkpt lat="52.0251364" lon="6.2921222"/>
<trkpt lat="52.0250983" lon="6.2923162"/>
<trkpt lat="52.0249988" lon="6.2923023"/>
<trkpt lat="52.0249389" lon="6.2924626"/>
<trkpt lat="52.0248339" lon="6.2927834"/>
<trkpt lat="52.0247381" lon="6.2930499"/>
<trkpt lat="52.0246434" lon="6.2933662"/>
<trkpt lat="52.0245892" lon="6.2935480"/>
<trkpt lat="52.0245610" lon="6.2935949"/>
<trkpt lat="52.0244951" lon="6.2935983"/>
<trkpt lat="52.0243210" lon="6.2935615"/>
<trkpt lat="52.0242326" lon="6.2935191"/>
<trkpt lat="52.0242041" lon="6.2935717"/>
<trkpt lat="52.0241900" lon="6.2936976"/>
<trkpt lat="52.0243069" lon="6.2937304"/>
<trkpt lat="52.0242859" lon="6.2939093"/>
<trkpt lat="52.0242115" lon="6.2945507"/>
<trkpt lat="52.0241660" lon="6.2949815"/>
<trkpt lat="52.0241156" lon="6.2954334"/>
<trkpt lat="52.0240905" lon="6.2956456"/>
<trkpt lat="52.0240613" lon="6.2957971"/>
<trkpt lat="52.0239899" lon="6.2958979"/>
<trkpt lat="52.0238180" lon="6.2959771"/>
<trkpt lat="52.0236016" lon="6.2960713"/>
<trkpt lat="52.0234394" lon="6.2961396"/>
<trkpt lat="52.0233935" lon="6.2961671"/>
<trkpt lat="52.0233461" lon="6.2963236"/>
<trkpt lat="52.0232894" lon="6.2965490"/>
<trkpt lat="52.0232352" lon="6.2967713"/>
<trkpt lat="52.0231749" lon="6.2970497"/>
<trkpt lat="52.0231432" lon="6.2972008"/>
<trkpt lat="52.0231156" lon="6.2973021"/>
</trkseg></trk>
<trk><name>Gooijschepad - Routeverlenger</name><type>extensionRoute</type><trkseg>
<trkpt lat="52.0410307" lon="6.2839524"/>
<trkpt lat="52.0420555" lon="6.2861993"/>
<trkpt lat="52.0436080" lon="6.2849111"/>
<trkpt lat="52.0436028" lon="6.2848217"/>
<trkpt lat="52.0435749" lon="6.2847606"/>
<trkpt lat="52.0435600" lon="6.2846976"/>
<trkpt lat="52.0435894" lon="6.2845479"/>
<trkpt lat="52.0443974" lon="6.2822448"/>
<trkpt lat="52.0447837" lon="6.2811851"/>
<trkpt lat="52.0453365" lon="6.2796557"/>
<trkpt lat="52.0454394" lon="6.2792469"/>
<trkpt lat="52.0454179" lon="6.2790474"/>
<trkpt lat="52.0453033" lon="6.2789704"/>
<trkpt lat="52.0446291" lon="6.2785376"/>
<trkpt lat="52.0441907" lon="6.2783096"/>
<trkpt lat="52.0441454" lon="6.2784326"/>
<trkpt lat="52.0438976" lon="6.2788867"/>
<trkpt lat="52.0434931" lon="6.2796047"/>
<trkpt lat="52.0433720" lon="6.2798353"/>
<trkpt lat="52.0432039" lon="6.2801296"/>
<trkpt lat="52.0428145" lon="6.2808141"/>
<trkpt lat="52.0422305" lon="6.2818930"/>
<trkpt lat="52.0419720" lon="6.2823603"/>
<trkpt lat="52.0417647" lon="6.2827254"/>
<trkpt lat="52.0414488" lon="6.2832731"/>
<trkpt lat="52.0412923" lon="6.2835083"/>
<trkpt lat="52.0411332" lon="6.2837777"/>
<trkpt lat="52.0410503" lon="6.2839212"/>
<trkpt lat="52.0410298" lon="6.2839538"/>
<trkpt lat="52.0410088" lon="6.2839367"/>
</trkseg></trk>
</gpx>