<?xml version="1.0" encoding="UTF-8"?>
<gpx version="1.1" creator="klompenpaden.nl via Jimbo API" xmlns="http://www.topografix.com/GPX/1/1">
<metadata><name>Graveslootpad</name><desc>Ontdek het mooie buitengebied van Kamerik. Wandelen door de polder, over boerenland en langs kleiputten. Geniet van de rust en de combinatie van cultuur en natuur. Klompen aan, rugzak op en gaan!</desc><link href="https://www.klompenpaden.nl/klompenpaden/Graveslootpad/04611bde-aab0-43e5-ae94-b69ed39a7a87"><text>klompenpaden.nl</text></link></metadata>
<wpt lat="52.10530586670738" lon="4.885836839675904"><name>Start Kamerik</name></wpt>
<trk><name>Graveslootpad - Hoofdroute</name><type>mainRoute</type><trkseg>
<trkpt lat="52.1057836" lon="4.8824721"/>
<trkpt lat="52.1057711" lon="4.8803374"/>
<trkpt lat="52.1057774" lon="4.8801806"/>
<trkpt lat="52.1057937" lon="4.8797694"/>
<trkpt lat="52.1057911" lon="4.8791785"/>
<trkpt lat="52.1057877" lon="4.8779396"/>
<trkpt lat="52.1057846" lon="4.8768440"/>
<trkpt lat="52.1057900" lon="4.8759245"/>
<trkpt lat="52.1057883" lon="4.8738147"/>
<trkpt lat="52.1057885" lon="4.8736288"/>
<trkpt lat="52.1057887" lon="4.8735823"/>
<trkpt lat="52.1057789" lon="4.8720564"/>
<trkpt lat="52.1057630" lon="4.8712455"/>
<trkpt lat="52.1057510" lon="4.8706803"/>
<trkpt lat="52.1057283" lon="4.8704386"/>
<trkpt lat="52.1057274" lon="4.8704289"/>
<trkpt lat="52.1057247" lon="4.8704284"/>
<trkpt lat="52.1057241" lon="4.8704268"/>
<trkpt lat="52.1056414" lon="4.8704143"/>
<trkpt lat="52.1050654" lon="4.8703205"/>
<trkpt lat="52.1050877" lon="4.8698879"/>
<trkpt lat="52.1050208" lon="4.8698268"/>
<trkpt lat="52.1050004" lon="4.8695181"/>
<trkpt lat="52.1049991" lon="4.8694120"/>
<trkpt lat="52.1049929" lon="4.8688926"/>
<trkpt lat="52.1049763" lon="4.8675117"/>
<trkpt lat="52.1049704" lon="4.8670236"/>
<trkpt lat="52.1049461" lon="4.8669756"/>
<trkpt lat="52.1047178" lon="4.8671586"/>
<trkpt lat="52.1046256" lon="4.8672894"/>
<trkpt lat="52.1042938" lon="4.8680370"/>
<trkpt lat="52.1042399" lon="4.8681582"/>
<trkpt lat="52.1040941" lon="4.8684171"/>
<trkpt lat="52.1039412" lon="4.8686853"/>
<trkpt lat="52.1039091" lon="4.8689244"/>
<trkpt lat="52.1038907" lon="4.8695942"/>
<trkpt lat="52.1039082" lon="4.8696844"/>
<trkpt lat="52.1040208" lon="4.8696692"/>
<trkpt lat="52.1040239" lon="4.8697086"/>
<trkpt lat="52.1042260" lon="4.8697758"/>
<trkpt lat="52.1043194" lon="4.8697584"/>
<trkpt lat="52.1043738" lon="4.8697879"/>
<trkpt lat="52.1045611" lon="4.8698241"/>
<trkpt lat="52.1047251" lon="4.8698557"/>
<trkpt lat="52.1048765" lon="4.8698933"/>
<trkpt lat="52.1048711" lon="4.8702896"/>
<trkpt lat="52.1048425" lon="4.8713963"/>
<trkpt lat="52.1032636" lon="4.8714105"/>
<trkpt lat="52.1031342" lon="4.8713994"/>
<trkpt lat="52.1031219" lon="4.8714990"/>
<trkpt lat="52.1012530" lon="4.8714877"/>
<trkpt lat="52.0999412" lon="4.8714696"/>
<trkpt lat="52.0999499" lon="4.8707885"/>
<trkpt lat="52.0998142" lon="4.8707669"/>
<trkpt lat="52.0998101" lon="4.8714620"/>
<trkpt lat="52.0990324" lon="4.8714362"/>
<trkpt lat="52.0946341" lon="4.8715024"/>
<trkpt lat="52.0929125" lon="4.8715454"/>
<trkpt lat="52.0929899" lon="4.8724231"/>
<trkpt lat="52.0931627" lon="4.8735556"/>
<trkpt lat="52.0933440" lon="4.8747736"/>
<trkpt lat="52.0935414" lon="4.8764161"/>
<trkpt lat="52.0937434" lon="4.8780509"/>
<trkpt lat="52.0937166" lon="4.8780686"/>
<trkpt lat="52.0920218" lon="4.8791902"/>
<trkpt lat="52.0923181" lon="4.8806230"/>
<trkpt lat="52.0923664" lon="4.8807924"/>
<trkpt lat="52.0925481" lon="4.8809988"/>
<trkpt lat="52.0926588" lon="4.8813219"/>
<trkpt lat="52.0926411" lon="4.8816232"/>
<trkpt lat="52.0926806" lon="4.8819702"/>
<trkpt lat="52.0927969" lon="4.8824554"/>
<trkpt lat="52.0927882" lon="4.8826486"/>
<trkpt lat="52.0927223" lon="4.8828115"/>
<trkpt lat="52.0927755" lon="4.8830271"/>
<trkpt lat="52.0928285" lon="4.8831732"/>
<trkpt lat="52.0929510" lon="4.8840289"/>
<trkpt lat="52.0929570" lon="4.8843223"/>
<trkpt lat="52.0928590" lon="4.8847558"/>
<trkpt lat="52.0928404" lon="4.8848487"/>
<trkpt lat="52.0914367" lon="4.8858297"/>
<trkpt lat="52.0916013" lon="4.8876289"/>
<trkpt lat="52.0916823" lon="4.8885063"/>
<trkpt lat="52.0917256" lon="4.8888919"/>
<trkpt lat="52.0914881" lon="4.8889814"/>
<trkpt lat="52.0912748" lon="4.8891098"/>
<trkpt lat="52.0912092" lon="4.8891429"/>
<trkpt lat="52.0908536" lon="4.8894018"/>
<trkpt lat="52.0902232" lon="4.8899365"/>
<trkpt lat="52.0902679" lon="4.8905186"/>
<trkpt lat="52.0904499" lon="4.8911112"/>
<trkpt lat="52.0907214" lon="4.8918741"/>
<trkpt lat="52.0908285" lon="4.8920119"/>
<trkpt lat="52.0910250" lon="4.8920237"/>
<trkpt lat="52.0911474" lon="4.8915083"/>
<trkpt lat="52.0913517" lon="4.8914629"/>
<trkpt lat="52.0920887" lon="4.8908305"/>
<trkpt lat="52.0921831" lon="4.8907473"/>
<trkpt lat="52.0923408" lon="4.8906084"/>
<trkpt lat="52.0923896" lon="4.8904472"/>
<trkpt lat="52.0926287" lon="4.8902994"/>
<trkpt lat="52.0934579" lon="4.8897867"/>
<trkpt lat="52.0934932" lon="4.8900489"/>
<trkpt lat="52.0940280" lon="4.8896414"/>
<trkpt lat="52.0940878" lon="4.8898415"/>
<trkpt lat="52.0946677" lon="4.8893876"/>
<trkpt lat="52.0947003" lon="4.8893621"/>
<trkpt lat="52.0947592" lon="4.8898000"/>
<trkpt lat="52.0949262" lon="4.8910430"/>
<trkpt lat="52.0949824" lon="4.8912864"/>
<trkpt lat="52.0950005" lon="4.8915148"/>
<trkpt lat="52.0949613" lon="4.8917005"/>
<trkpt lat="52.0951576" lon="4.8917910"/>
<trkpt lat="52.0952531" lon="4.8918703"/>
<trkpt lat="52.0953152" lon="4.8916966"/>
<trkpt lat="52.0952620" lon="4.8912619"/>
<trkpt lat="52.0959629" lon="4.8912386"/>
<trkpt lat="52.0965836" lon="4.8912376"/>
<trkpt lat="52.0965842" lon="4.8913823"/>
<trkpt lat="52.0974045" lon="4.8913559"/>
<trkpt lat="52.0988779" lon="4.8913801"/>
<trkpt lat="52.1003475" lon="4.8913638"/>
<trkpt lat="52.1010005" lon="4.8913513"/>
<trkpt lat="52.1017956" lon="4.8913361"/>
<trkpt lat="52.1031903" lon="4.8913091"/>
<trkpt lat="52.1032117" lon="4.8910539"/>
<trkpt lat="52.1031908" lon="4.8905985"/>
<trkpt lat="52.1031891" lon="4.8890692"/>
<trkpt lat="52.1032963" lon="4.8890642"/>
<trkpt lat="52.1032892" lon="4.8876991"/>
<trkpt lat="52.1032961" lon="4.8859612"/>
<trkpt lat="52.1032856" lon="4.8826653"/>
<trkpt lat="52.1032863" lon="4.8826652"/>
<trkpt lat="52.1043199" lon="4.8826362"/>
<trkpt lat="52.1057844" lon="4.8826428"/>
<trkpt lat="52.1057846" lon="4.8826313"/>
<trkpt lat="52.1057832" lon="4.8823974"/>
</trkseg></trk>
<trk><name>Graveslootpad - Track</name><type>approachRoute</type><trkseg>
<trkpt lat="52.0853975" lon="4.8920788"/>
<trkpt lat="52.0857258" lon="4.8920628"/>
<trkpt lat="52.0863180" lon="4.8915371"/>
<trkpt lat="52.0867261" lon="4.8914779"/>
<trkpt lat="52.0870522" lon="4.8909330"/>
<trkpt lat="52.0878346" lon="4.8908004"/>
<trkpt lat="52.0883131" lon="4.8900646"/>
<trkpt lat="52.0888830" lon="4.8898626"/>
<trkpt lat="52.0892068" lon="4.8906877"/>
<trkpt lat="52.0894785" lon="4.8914432"/>
<trkpt lat="52.0899258" lon="4.8929467"/>
<trkpt lat="52.0910399" lon="4.8921750"/>
</trkseg></trk>
<trk><name>Graveslootpad - Geimporteerde shapefile</name><type>approachRoute</type><trkseg>
<trkpt lat="52.1053805" lon="4.8858311"/>
<trkpt lat="52.1057499" lon="4.8858216"/>
<trkpt lat="52.1057289" lon="4.8846305"/>
<trkpt lat="52.1057734" lon="4.8843858"/>
<trkpt lat="52.1057753" lon="4.8840855"/>
<trkpt lat="52.1057716" lon="4.8837784"/>
<trkpt lat="52.1057844" lon="4.8826428"/>
</trkseg></trk>
</gpx>