<?xml version="1.0" encoding="UTF-8"?>
<gpx version="1.1" creator="klompenpaden.nl via Jimbo API" xmlns="http://www.topografix.com/GPX/1/1">
<metadata><name>Greffelkampsepad</name><desc>Ontdek het mooie buitengebied van de Greffelkamp langs de Hengelder Wetering en de oever van recreatieplas De Nevelhorst, via havezaten en door bossen en landerijen. Klompen aan, rugzak op en gaan!</desc><link href="https://www.klompenpaden.nl/klompenpaden/Greffelkampsepad/918ae391-88c7-4ecd-9f1d-879a7cc84ce1"><text>klompenpaden.nl</text></link></metadata>
<wpt lat="51.94142216511713" lon="6.1186706943377525"><name>Start Greffelkamp</name></wpt>
<trk><name>Greffelkampsepad - hoofdroute</name><type>mainRoute</type><trkseg>
<trkpt lat="51.9414222" lon="6.1186707"/>
<trkpt lat="51.9413207" lon="6.1175787"/>
<trkpt lat="51.9411593" lon="6.1171714"/>
<trkpt lat="51.9404156" lon="6.1174594"/>
<trkpt lat="51.9403023" lon="6.1173190"/>
<trkpt lat="51.9402137" lon="6.1154939"/>
<trkpt lat="51.9401976" lon="6.1141437"/>
<trkpt lat="51.9396845" lon="6.1134078"/>
<trkpt lat="51.9396351" lon="6.1098520"/>
<trkpt lat="51.9401048" lon="6.1090856"/>
<trkpt lat="51.9401174" lon="6.1087001"/>
<trkpt lat="51.9401740" lon="6.1086388"/>
<trkpt lat="51.9404208" lon="6.1083733"/>
<trkpt lat="51.9405468" lon="6.1082351"/>
<trkpt lat="51.9406653" lon="6.1080675"/>
<trkpt lat="51.9408832" lon="6.1077658"/>
<trkpt lat="51.9411028" lon="6.1073808"/>
<trkpt lat="51.9414943" lon="6.1065941"/>
<trkpt lat="51.9415888" lon="6.1064462"/>
<trkpt lat="51.9418133" lon="6.1061094"/>
<trkpt lat="51.9419521" lon="6.1058081"/>
<trkpt lat="51.9420328" lon="6.1055364"/>
<trkpt lat="51.9421462" lon="6.1052157"/>
<trkpt lat="51.9422531" lon="6.1049229"/>
<trkpt lat="51.9423233" lon="6.1047412"/>
<trkpt lat="51.9423935" lon="6.1045443"/>
<trkpt lat="51.9424399" lon="6.1044003"/>
<trkpt lat="51.9424757" lon="6.1042003"/>
<trkpt lat="51.9424924" lon="6.1040304"/>
<trkpt lat="51.9425051" lon="6.1037564"/>
<trkpt lat="51.9425146" lon="6.1032157"/>
<trkpt lat="51.9425399" lon="6.1021522"/>
<trkpt lat="51.9425816" lon="6.1017492"/>
<trkpt lat="51.9426630" lon="6.1014098"/>
<trkpt lat="51.9427934" lon="6.1010847"/>
<trkpt lat="51.9428909" lon="6.1009241"/>
<trkpt lat="51.9429975" lon="6.1008428"/>
<trkpt lat="51.9440347" lon="6.1010488"/>
<trkpt lat="51.9441726" lon="6.0990695"/>
<trkpt lat="51.9442464" lon="6.0991090"/>
<trkpt lat="51.9443276" lon="6.0991980"/>
<trkpt lat="51.9444782" lon="6.0993696"/>
<trkpt lat="51.9447331" lon="6.0973423"/>
<trkpt lat="51.9447896" lon="6.0973721"/>
<trkpt lat="51.9448363" lon="6.0971987"/>
<trkpt lat="51.9449014" lon="6.0969805"/>
<trkpt lat="51.9449819" lon="6.0966987"/>
<trkpt lat="51.9450546" lon="6.0964650"/>
<trkpt lat="51.9450726" lon="6.0964233"/>
<trkpt lat="51.9451795" lon="6.0964955"/>
<trkpt lat="51.9452615" lon="6.0966220"/>
<trkpt lat="51.9453222" lon="6.0966771"/>
<trkpt lat="51.9454002" lon="6.0967295"/>
<trkpt lat="51.9454878" lon="6.0967897"/>
<trkpt lat="51.9456909" lon="6.0968443"/>
<trkpt lat="51.9457726" lon="6.0968751"/>
<trkpt lat="51.9458129" lon="6.0969494"/>
<trkpt lat="51.9458808" lon="6.0969828"/>
<trkpt lat="51.9459469" lon="6.0970040"/>
<trkpt lat="51.9459798" lon="6.0968554"/>
<trkpt lat="51.9468321" lon="6.0968667"/>
<trkpt lat="51.9482470" lon="6.0968821"/>
<trkpt lat="51.9488213" lon="6.0968803"/>
<trkpt lat="51.9490021" lon="6.0967981"/>
<trkpt lat="51.9490665" lon="6.0972200"/>
<trkpt lat="51.9490338" lon="6.0989702"/>
<trkpt lat="51.9490049" lon="6.1001498"/>
<trkpt lat="51.9490597" lon="6.1002107"/>
<trkpt lat="51.9491331" lon="6.1001426"/>
<trkpt lat="51.9493232" lon="6.1001389"/>
<trkpt lat="51.9496165" lon="6.1001433"/>
<trkpt lat="51.9501726" lon="6.1001440"/>
<trkpt lat="51.9531552" lon="6.1001430"/>
<trkpt lat="51.9540469" lon="6.1001551"/>
<trkpt lat="51.9549386" lon="6.1001482"/>
<trkpt lat="51.9550670" lon="6.1001503"/>
<trkpt lat="51.9550233" lon="6.0989808"/>
<trkpt lat="51.9549879" lon="6.0981836"/>
<trkpt lat="51.9549426" lon="6.0974119"/>
<trkpt lat="51.9549182" lon="6.0968680"/>
<trkpt lat="51.9548856" lon="6.0963107"/>
<trkpt lat="51.9548268" lon="6.0949922"/>
<trkpt lat="51.9548286" lon="6.0941913"/>
<trkpt lat="51.9547908" lon="6.0931087"/>
<trkpt lat="51.9547961" lon="6.0913914"/>
<trkpt lat="51.9558419" lon="6.0914481"/>
<trkpt lat="51.9569411" lon="6.0914849"/>
<trkpt lat="51.9584491" lon="6.0914988"/>
<trkpt lat="51.9625414" lon="6.0915335"/>
<trkpt lat="51.9626682" lon="6.0916864"/>
<trkpt lat="51.9628478" lon="6.0922956"/>
<trkpt lat="51.9628021" lon="6.0926733"/>
<trkpt lat="51.9625856" lon="6.0941710"/>
<trkpt lat="51.9623221" lon="6.0957536"/>
<trkpt lat="51.9621457" lon="6.0968123"/>
<trkpt lat="51.9621018" lon="6.0975049"/>
<trkpt lat="51.9621005" lon="6.0980874"/>
<trkpt lat="51.9620834" lon="6.0990986"/>
<trkpt lat="51.9620433" lon="6.0995161"/>
<trkpt lat="51.9619644" lon="6.1002405"/>
<trkpt lat="51.9618263" lon="6.1019638"/>
<trkpt lat="51.9618058" lon="6.1030636"/>
<trkpt lat="51.9618190" lon="6.1037339"/>
<trkpt lat="51.9618378" lon="6.1039233"/>
<trkpt lat="51.9618432" lon="6.1042709"/>
<trkpt lat="51.9612948" lon="6.1045981"/>
<trkpt lat="51.9606052" lon="6.1049900"/>
<trkpt lat="51.9597652" lon="6.1055645"/>
<trkpt lat="51.9593641" lon="6.1058236"/>
<trkpt lat="51.9592028" lon="6.1059450"/>
<trkpt lat="51.9588904" lon="6.1061589"/>
<trkpt lat="51.9585467" lon="6.1063595"/>
<trkpt lat="51.9578360" lon="6.1067759"/>
<trkpt lat="51.9571386" lon="6.1071574"/>
<trkpt lat="51.9561778" lon="6.1076959"/>
<trkpt lat="51.9555170" lon="6.1081004"/>
<trkpt lat="51.9553841" lon="6.1082048"/>
<trkpt lat="51.9553008" lon="6.1083359"/>
<trkpt lat="51.9551857" lon="6.1083511"/>
<trkpt lat="51.9547803" lon="6.1086708"/>
<trkpt lat="51.9541831" lon="6.1091057"/>
<trkpt lat="51.9539083" lon="6.1092832"/>
<trkpt lat="51.9535664" lon="6.1096641"/>
<trkpt lat="51.9533469" lon="6.1098738"/>
<trkpt lat="51.9531051" lon="6.1099761"/>
<trkpt lat="51.9528583" lon="6.1099658"/>
<trkpt lat="51.9523234" lon="6.1099571"/>
<trkpt lat="51.9517993" lon="6.1101281"/>
<trkpt lat="51.9516345" lon="6.1102061"/>
<trkpt lat="51.9514499" lon="6.1102386"/>
<trkpt lat="51.9511141" lon="6.1103141"/>
<trkpt lat="51.9510100" lon="6.1103577"/>
<trkpt lat="51.9509389" lon="6.1104550"/>
<trkpt lat="51.9509555" lon="6.1106159"/>
<trkpt lat="51.9510051" lon="6.1107822"/>
<trkpt lat="51.9507028" lon="6.1110809"/>
<trkpt lat="51.9503079" lon="6.1114902"/>
<trkpt lat="51.9501130" lon="6.1107020"/>
<trkpt lat="51.9500929" lon="6.1099031"/>
<trkpt lat="51.9501918" lon="6.1092007"/>
<trkpt lat="51.9503667" lon="6.1085520"/>
<trkpt lat="51.9506078" lon="6.1079623"/>
<trkpt lat="51.9504261" lon="6.1077751"/>
<trkpt lat="51.9503321" lon="6.1076393"/>
<trkpt lat="51.9502378" lon="6.1074574"/>
<trkpt lat="51.9501442" lon="6.1071519"/>
<trkpt lat="51.9499320" lon="6.1064219"/>
<trkpt lat="51.9494250" lon="6.1050389"/>
<trkpt lat="51.9491820" lon="6.1043917"/>
<trkpt lat="51.9491541" lon="6.1044013"/>
<trkpt lat="51.9491225" lon="6.1044704"/>
<trkpt lat="51.9488092" lon="6.1053401"/>
<trkpt lat="51.9485455" lon="6.1062634"/>
<trkpt lat="51.9484405" lon="6.1061529"/>
<trkpt lat="51.9483798" lon="6.1060799"/>
<trkpt lat="51.9482410" lon="6.1059711"/>
<trkpt lat="51.9481315" lon="6.1059757"/>
<trkpt lat="51.9480439" lon="6.1059129"/>
<trkpt lat="51.9479194" lon="6.1057196"/>
<trkpt lat="51.9477868" lon="6.1056861"/>
<trkpt lat="51.9477056" lon="6.1056278"/>
<trkpt lat="51.9475922" lon="6.1055421"/>
<trkpt lat="51.9474662" lon="6.1053660"/>
<trkpt lat="51.9473778" lon="6.1053267"/>
<trkpt lat="51.9472718" lon="6.1051652"/>
<trkpt lat="51.9472085" lon="6.1050821"/>
<trkpt lat="51.9471011" lon="6.1049649"/>
<trkpt lat="51.9470963" lon="6.1048426"/>
<trkpt lat="51.9466539" lon="6.1046276"/>
<trkpt lat="51.9460361" lon="6.1043524"/>
<trkpt lat="51.9460400" lon="6.1044365"/>
<trkpt lat="51.9462378" lon="6.1050824"/>
<trkpt lat="51.9465844" lon="6.1063769"/>
<trkpt lat="51.9464143" lon="6.1070683"/>
<trkpt lat="51.9462162" lon="6.1078029"/>
<trkpt lat="51.9461472" lon="6.1075720"/>
<trkpt lat="51.9459531" lon="6.1066685"/>
<trkpt lat="51.9458375" lon="6.1057315"/>
<trkpt lat="51.9458027" lon="6.1050905"/>
<trkpt lat="51.9457811" lon="6.1044494"/>
<trkpt lat="51.9457854" lon="6.1035719"/>
<trkpt lat="51.9458361" lon="6.1024647"/>
<trkpt lat="51.9458684" lon="6.1018303"/>
<trkpt lat="51.9458849" lon="6.1014612"/>
<trkpt lat="51.9458830" lon="6.1013782"/>
<trkpt lat="51.9449633" lon="6.1012094"/>
<trkpt lat="51.9444903" lon="6.1011524"/>
<trkpt lat="51.9444806" lon="6.1013003"/>
<trkpt lat="51.9443588" lon="6.1024456"/>
<trkpt lat="51.9443734" lon="6.1026798"/>
<trkpt lat="51.9443469" lon="6.1029199"/>
<trkpt lat="51.9443147" lon="6.1030965"/>
<trkpt lat="51.9438519" lon="6.1030841"/>
<trkpt lat="51.9436426" lon="6.1031074"/>
<trkpt lat="51.9435327" lon="6.1031806"/>
<trkpt lat="51.9434611" lon="6.1031611"/>
<trkpt lat="51.9433530" lon="6.1030932"/>
<trkpt lat="51.9431279" lon="6.1029465"/>
<trkpt lat="51.9429688" lon="6.1028507"/>
<trkpt lat="51.9429101" lon="6.1028568"/>
<trkpt lat="51.9429247" lon="6.1029281"/>
<trkpt lat="51.9429841" lon="6.1031285"/>
<trkpt lat="51.9430812" lon="6.1033957"/>
<trkpt lat="51.9431977" lon="6.1037125"/>
<trkpt lat="51.9433746" lon="6.1041835"/>
<trkpt lat="51.9434678" lon="6.1044442"/>
<trkpt lat="51.9435239" lon="6.1046594"/>
<trkpt lat="51.9437058" lon="6.1056054"/>
<trkpt lat="51.9439320" lon="6.1065200"/>
<trkpt lat="51.9439833" lon="6.1067995"/>
<trkpt lat="51.9441962" lon="6.1066652"/>
<trkpt lat="51.9444069" lon="6.1073997"/>
<trkpt lat="51.9445498" lon="6.1078648"/>
<trkpt lat="51.9448303" lon="6.1082645"/>
<trkpt lat="51.9450234" lon="6.1088980"/>
<trkpt lat="51.9449908" lon="6.1089178"/>
<trkpt lat="51.9449530" lon="6.1090489"/>
<trkpt lat="51.9449480" lon="6.1091829"/>
<trkpt lat="51.9449794" lon="6.1093758"/>
<trkpt lat="51.9450231" lon="6.1094746"/>
<trkpt lat="51.9451091" lon="6.1095427"/>
<trkpt lat="51.9452010" lon="6.1098128"/>
<trkpt lat="51.9452850" lon="6.1100922"/>
<trkpt lat="51.9453346" lon="6.1100969"/>
<trkpt lat="51.9453527" lon="6.1101538"/>
<trkpt lat="51.9453628" lon="6.1102154"/>
<trkpt lat="51.9453153" lon="6.1103271"/>
<trkpt lat="51.9449789" lon="6.1112279"/>
<trkpt lat="51.9448376" lon="6.1116019"/>
<trkpt lat="51.9447303" lon="6.1118677"/>
<trkpt lat="51.9445498" lon="6.1121621"/>
<trkpt lat="51.9444002" lon="6.1123432"/>
<trkpt lat="51.9442601" lon="6.1124774"/>
<trkpt lat="51.9441135" lon="6.1125445"/>
<trkpt lat="51.9439499" lon="6.1126947"/>
<trkpt lat="51.9435810" lon="6.1132258"/>
<trkpt lat="51.9432073" lon="6.1137303"/>
<trkpt lat="51.9427611" lon="6.1143694"/>
<trkpt lat="51.9425132" lon="6.1146760"/>
<trkpt lat="51.9423018" lon="6.1150361"/>
<trkpt lat="51.9421585" lon="6.1152022"/>
<trkpt lat="51.9422397" lon="6.1155235"/>
<trkpt lat="51.9422604" lon="6.1157320"/>
<trkpt lat="51.9422691" lon="6.1161003"/>
<trkpt lat="51.9422443" lon="6.1162587"/>
<trkpt lat="51.9420219" lon="6.1164629"/>
<trkpt lat="51.9418215" lon="6.1165635"/>
<trkpt lat="51.9414928" lon="6.1166389"/>
<trkpt lat="51.9413705" lon="6.1168101"/>
<trkpt lat="51.9413473" lon="6.1170982"/>
<trkpt lat="51.9413207" lon="6.1175787"/>
<trkpt lat="51.9414222" lon="6.1186707"/>
</trkseg></trk>
<trk><name>Greffelkampsepad - routeverkorter</name><type>shorteningRoute</type><trkseg>
<trkpt lat="51.9550670" lon="6.1001503"/>
<trkpt lat="51.9550842" lon="6.1009160"/>
<trkpt lat="51.9544644" lon="6.1026771"/>
<trkpt lat="51.9541303" lon="6.1035529"/>
<trkpt lat="51.9522949" lon="6.1031136"/>
<trkpt lat="51.9525214" lon="6.1066240"/>
<trkpt lat="51.9515706" lon="6.1069839"/>
<trkpt lat="51.9511215" lon="6.1072645"/>
<trkpt lat="51.9507356" lon="6.1077904"/>
<trkpt lat="51.9506078" lon="6.1079623"/>
</trkseg></trk>
</gpx>