<?xml version="1.0" encoding="UTF-8"?>
<gpx version="1.1" creator="klompenpaden.nl via Jimbo API" xmlns="http://www.topografix.com/GPX/1/1">
<metadata><name>Griezeveensepad</name><desc>Ontdek het mooie buitengebied van Voorthuizen. Wandelen door heide- en veenontginningen, door Wilbrink- en Boeschoterbos over zandpaden en hessenwegen, langs de Hoevelakense beek  en door weilanden. Klompen aan, rugzak op en gaan!</desc><link href="https://www.klompenpaden.nl/klompenpaden/Griezeveensepad/a8296729-658e-4d86-84cb-5f2bcf334a1a"><text>klompenpaden.nl</text></link></metadata>
<wpt lat="52.191045321795315" lon="5.62949538230896"><name>Start Voorthuizen</name></wpt>
<trk><name>Griezeveensepad - Hoofdroute</name><type>mainRoute</type><trkseg>
<trkpt lat="52.1912517" lon="5.6292807"/>
<trkpt lat="52.1903953" lon="5.6298585"/>
<trkpt lat="52.1909300" lon="5.6315405"/>
<trkpt lat="52.1905550" lon="5.6340787"/>
<trkpt lat="52.1903135" lon="5.6365592"/>
<trkpt lat="52.1891359" lon="5.6372796"/>
<trkpt lat="52.1892370" lon="5.6379002"/>
<trkpt lat="52.1889188" lon="5.6379302"/>
<trkpt lat="52.1883581" lon="5.6383532"/>
<trkpt lat="52.1885051" lon="5.6392815"/>
<trkpt lat="52.1885348" lon="5.6397831"/>
<trkpt lat="52.1896143" lon="5.6394113"/>
<trkpt lat="52.1907951" lon="5.6419017"/>
<trkpt lat="52.1881023" lon="5.6457868"/>
<trkpt lat="52.1898608" lon="5.6489380"/>
<trkpt lat="52.1908273" lon="5.6506153"/>
<trkpt lat="52.1920334" lon="5.6523219"/>
<trkpt lat="52.1898638" lon="5.6556637"/>
<trkpt lat="52.1914446" lon="5.6610904"/>
<trkpt lat="52.1904838" lon="5.6651860"/>
<trkpt lat="52.1931561" lon="5.6678285"/>
<trkpt lat="52.1972874" lon="5.6705851"/>
<trkpt lat="52.2009283" lon="5.6731078"/>
<trkpt lat="52.2031366" lon="5.6744766"/>
<trkpt lat="52.2036362" lon="5.6743637"/>
<trkpt lat="52.2041600" lon="5.6740961"/>
<trkpt lat="52.2048253" lon="5.6735977"/>
<trkpt lat="52.2046382" lon="5.6728670"/>
<trkpt lat="52.2051649" lon="5.6725569"/>
<trkpt lat="52.2050210" lon="5.6720890"/>
<trkpt lat="52.2049046" lon="5.6710432"/>
<trkpt lat="52.2062633" lon="5.6697358"/>
<trkpt lat="52.2090281" lon="5.6670824"/>
<trkpt lat="52.2076973" lon="5.6667256"/>
<trkpt lat="52.2072698" lon="5.6664907"/>
<trkpt lat="52.2089873" lon="5.6642176"/>
<trkpt lat="52.2109206" lon="5.6612102"/>
<trkpt lat="52.2120902" lon="5.6593205"/>
<trkpt lat="52.2119954" lon="5.6591651"/>
<trkpt lat="52.2134736" lon="5.6575094"/>
<trkpt lat="52.2105159" lon="5.6509493"/>
<trkpt lat="52.2085366" lon="5.6534150"/>
<trkpt lat="52.2069254" lon="5.6507732"/>
<trkpt lat="52.2058563" lon="5.6508859"/>
<trkpt lat="52.2061956" lon="5.6474401"/>
<trkpt lat="52.2066821" lon="5.6424497"/>
<trkpt lat="52.2060777" lon="5.6409938"/>
<trkpt lat="52.2079980" lon="5.6387412"/>
<trkpt lat="52.2077854" lon="5.6380820"/>
<trkpt lat="52.2086371" lon="5.6362549"/>
<trkpt lat="52.2092750" lon="5.6359488"/>
<trkpt lat="52.2086976" lon="5.6346295"/>
<trkpt lat="52.2081285" lon="5.6332454"/>
<trkpt lat="52.2078244" lon="5.6308438"/>
<trkpt lat="52.2033758" lon="5.6316322"/>
<trkpt lat="52.2034448" lon="5.6327550"/>
<trkpt lat="52.2020167" lon="5.6315742"/>
<trkpt lat="52.1994806" lon="5.6294455"/>
<trkpt lat="52.1990030" lon="5.6310014"/>
<trkpt lat="52.1975834" lon="5.6298477"/>
<trkpt lat="52.1974428" lon="5.6298137"/>
<trkpt lat="52.1970109" lon="5.6296918"/>
<trkpt lat="52.1969583" lon="5.6300490"/>
<trkpt lat="52.1969574" lon="5.6305134"/>
<trkpt lat="52.1969049" lon="5.6308163"/>
<trkpt lat="52.1967900" lon="5.6309382"/>
<trkpt lat="52.1968132" lon="5.6312479"/>
<trkpt lat="52.1968171" lon="5.6314698"/>
<trkpt lat="52.1969801" lon="5.6320825"/>
<trkpt lat="52.1972347" lon="5.6342990"/>
<trkpt lat="52.1966900" lon="5.6344155"/>
<trkpt lat="52.1963999" lon="5.6344444"/>
<trkpt lat="52.1962406" lon="5.6338573"/>
<trkpt lat="52.1961558" lon="5.6334621"/>
<trkpt lat="52.1960612" lon="5.6326663"/>
<trkpt lat="52.1960080" lon="5.6324919"/>
<trkpt lat="52.1958087" lon="5.6322586"/>
<trkpt lat="52.1956109" lon="5.6317796"/>
<trkpt lat="52.1953619" lon="5.6313834"/>
<trkpt lat="52.1953047" lon="5.6312455"/>
<trkpt lat="52.1951872" lon="5.6308764"/>
<trkpt lat="52.1947862" lon="5.6286354"/>
<trkpt lat="52.1947462" lon="5.6283272"/>
<trkpt lat="52.1946019" lon="5.6282118"/>
<trkpt lat="52.1944356" lon="5.6280673"/>
<trkpt lat="52.1942204" lon="5.6278908"/>
<trkpt lat="52.1939269" lon="5.6276500"/>
<trkpt lat="52.1936284" lon="5.6274650"/>
<trkpt lat="52.1935500" lon="5.6275125"/>
<trkpt lat="52.1934731" lon="5.6267467"/>
<trkpt lat="52.1933763" lon="5.6261562"/>
<trkpt lat="52.1932986" lon="5.6256777"/>
<trkpt lat="52.1930914" lon="5.6255006"/>
<trkpt lat="52.1929086" lon="5.6254256"/>
<trkpt lat="52.1928022" lon="5.6251498"/>
<trkpt lat="52.1927051" lon="5.6249950"/>
<trkpt lat="52.1926494" lon="5.6251394"/>
<trkpt lat="52.1925039" lon="5.6256879"/>
<trkpt lat="52.1923383" lon="5.6260230"/>
<trkpt lat="52.1921536" lon="5.6263384"/>
<trkpt lat="52.1919591" lon="5.6267195"/>
<trkpt lat="52.1918137" lon="5.6267988"/>
<trkpt lat="52.1917066" lon="5.6267043"/>
<trkpt lat="52.1915393" lon="5.6265656"/>
<trkpt lat="52.1913493" lon="5.6265058"/>
<trkpt lat="52.1911191" lon="5.6263563"/>
<trkpt lat="52.1908841" lon="5.6259137"/>
<trkpt lat="52.1908032" lon="5.6257922"/>
<trkpt lat="52.1905974" lon="5.6259375"/>
<trkpt lat="52.1907260" lon="5.6264303"/>
<trkpt lat="52.1909065" lon="5.6268953"/>
<trkpt lat="52.1909706" lon="5.6272683"/>
<trkpt lat="52.1911940" lon="5.6279023"/>
<trkpt lat="52.1915418" lon="5.6289870"/>
<trkpt lat="52.1912526" lon="5.6292828"/>
</trkseg></trk>
<trk><name>Griezeveensepad - overstaproute</name><type>connectionRoute</type><trkseg>
<trkpt lat="52.1927052" lon="5.6249939"/>
<trkpt lat="52.1926793" lon="5.6248612"/>
<trkpt lat="52.1926656" lon="5.6245893"/>
<trkpt lat="52.1927013" lon="5.6237145"/>
<trkpt lat="52.1927934" lon="5.6232849"/>
<trkpt lat="52.1928127" lon="5.6230473"/>
<trkpt lat="52.1928629" lon="5.6227545"/>
<trkpt lat="52.1928581" lon="5.6224096"/>
<trkpt lat="52.1929193" lon="5.6222167"/>
<trkpt lat="52.1929607" lon="5.6220281"/>
<trkpt lat="52.1929570" lon="5.6218524"/>
<trkpt lat="52.1929141" lon="5.6216702"/>
<trkpt lat="52.1927664" lon="5.6213872"/>
<trkpt lat="52.1927097" lon="5.6212262"/>
<trkpt lat="52.1927691" lon="5.6206875"/>
<trkpt lat="52.1928735" lon="5.6202769"/>
<trkpt lat="52.1929312" lon="5.6199895"/>
<trkpt lat="52.1928888" lon="5.6197726"/>
<trkpt lat="52.1928311" lon="5.6195530"/>
<trkpt lat="52.1928587" lon="5.6190947"/>
<trkpt lat="52.1927627" lon="5.6190554"/>
<trkpt lat="52.1926525" lon="5.6189155"/>
<trkpt lat="52.1925859" lon="5.6188091"/>
<trkpt lat="52.1925322" lon="5.6186295"/>
<trkpt lat="52.1925028" lon="5.6184529"/>
<trkpt lat="52.1924337" lon="5.6183594"/>
<trkpt lat="52.1923023" lon="5.6182347"/>
<trkpt lat="52.1922287" lon="5.6181156"/>
<trkpt lat="52.1921645" lon="5.6179606"/>
<trkpt lat="52.1921526" lon="5.6177805"/>
<trkpt lat="52.1921575" lon="5.6176075"/>
<trkpt lat="52.1921616" lon="5.6174564"/>
<trkpt lat="52.1921645" lon="5.6173479"/>
<trkpt lat="52.1921077" lon="5.6173037"/>
<trkpt lat="52.1920270" lon="5.6173066"/>
<trkpt lat="52.1918844" lon="5.6173838"/>
<trkpt lat="52.1917905" lon="5.6175270"/>
<trkpt lat="52.1917230" lon="5.6176714"/>
<trkpt lat="52.1916959" lon="5.6177878"/>
<trkpt lat="52.1917005" lon="5.6179683"/>
<trkpt lat="52.1916170" lon="5.6179702"/>
<trkpt lat="52.1915098" lon="5.6179824"/>
<trkpt lat="52.1913965" lon="5.6179550"/>
<trkpt lat="52.1913479" lon="5.6179432"/>
<trkpt lat="52.1913384" lon="5.6176380"/>
<trkpt lat="52.1913423" lon="5.6174639"/>
<trkpt lat="52.1913781" lon="5.6174060"/>
<trkpt lat="52.1916605" lon="5.6170998"/>
<trkpt lat="52.1918892" lon="5.6168631"/>
<trkpt lat="52.1920900" lon="5.6167042"/>
<trkpt lat="52.1922000" lon="5.6166325"/>
<trkpt lat="52.1922002" lon="5.6165315"/>
<trkpt lat="52.1921308" lon="5.6162688"/>
<trkpt lat="52.1920583" lon="5.6161221"/>
<trkpt lat="52.1919830" lon="5.6161398"/>
<trkpt lat="52.1918935" lon="5.6162989"/>
<trkpt lat="52.1918281" lon="5.6163228"/>
<trkpt lat="52.1916412" lon="5.6161428"/>
<trkpt lat="52.1916236" lon="5.6160315"/>
<trkpt lat="52.1919044" lon="5.6151335"/>
<trkpt lat="52.1920568" lon="5.6147147"/>
<trkpt lat="52.1922762" lon="5.6144218"/>
<trkpt lat="52.1922860" lon="5.6142593"/>
<trkpt lat="52.1921941" lon="5.6125640"/>
<trkpt lat="52.1920510" lon="5.6120886"/>
<trkpt lat="52.1919405" lon="5.6116807"/>
<trkpt lat="52.1918412" lon="5.6112467"/>
<trkpt lat="52.1918076" lon="5.6107718"/>
<trkpt lat="52.1918171" lon="5.6103418"/>
<trkpt lat="52.1919439" lon="5.6094736"/>
<trkpt lat="52.1919548" lon="5.6089766"/>
<trkpt lat="52.1919635" lon="5.6087630"/>
<trkpt lat="52.1920306" lon="5.6084847"/>
<trkpt lat="52.1922168" lon="5.6080910"/>
<trkpt lat="52.1922408" lon="5.6078238"/>
<trkpt lat="52.1924788" lon="5.6078679"/>
<trkpt lat="52.1925222" lon="5.6074521"/>
<trkpt lat="52.1925311" lon="5.6068972"/>
<trkpt lat="52.1925286" lon="5.6067150"/>
<trkpt lat="52.1926010" lon="5.6058987"/>
<trkpt lat="52.1927515" lon="5.6044563"/>
<trkpt lat="52.1927336" lon="5.6038603"/>
<trkpt lat="52.1926128" lon="5.6034116"/>
<trkpt lat="52.1925096" lon="5.6030769"/>
<trkpt lat="52.1922310" lon="5.6022565"/>
<trkpt lat="52.1921482" lon="5.6024542"/>
<trkpt lat="52.1920765" lon="5.6026419"/>
<trkpt lat="52.1920175" lon="5.6025630"/>
<trkpt lat="52.1919878" lon="5.6025338"/>
<trkpt lat="52.1925497" lon="5.6008871"/>
<trkpt lat="52.1927888" lon="5.6001482"/>
<trkpt lat="52.1929207" lon="5.5995201"/>
<trkpt lat="52.1929449" lon="5.5993364"/>
<trkpt lat="52.1930344" lon="5.5984223"/>
<trkpt lat="52.1930315" lon="5.5982967"/>
<trkpt lat="52.1930196" lon="5.5977881"/>
<trkpt lat="52.1930909" lon="5.5962034"/>
<trkpt lat="52.1932373" lon="5.5961933"/>
<trkpt lat="52.1936086" lon="5.5960209"/>
<trkpt lat="52.1942247" lon="5.5945610"/>
<trkpt lat="52.1948601" lon="5.5942738"/>
<trkpt lat="52.1957310" lon="5.5939992"/>
<trkpt lat="52.1959908" lon="5.5922938"/>
<trkpt lat="52.1958808" lon="5.5898785"/>
<trkpt lat="52.1954959" lon="5.5897143"/>
<trkpt lat="52.1954107" lon="5.5894585"/>
<trkpt lat="52.1955128" lon="5.5881355"/>
<trkpt lat="52.1954988" lon="5.5879845"/>
<trkpt lat="52.1951708" lon="5.5879134"/>
<trkpt lat="52.1949206" lon="5.5882025"/>
<trkpt lat="52.1947057" lon="5.5887123"/>
<trkpt lat="52.1945741" lon="5.5889416"/>
<trkpt lat="52.1944697" lon="5.5888018"/>
<trkpt lat="52.1939555" lon="5.5893358"/>
<trkpt lat="52.1935230" lon="5.5877782"/>
<trkpt lat="52.1932529" lon="5.5871734"/>
<trkpt lat="52.1931898" lon="5.5865346"/>
<trkpt lat="52.1931764" lon="5.5860586"/>
<trkpt lat="52.1928374" lon="5.5839675"/>
<trkpt lat="52.1923783" lon="5.5823999"/>
<trkpt lat="52.1917229" lon="5.5822245"/>
<trkpt lat="52.1916548" lon="5.5813397"/>
<trkpt lat="52.1915504" lon="5.5802670"/>
<trkpt lat="52.1915101" lon="5.5798524"/>
<trkpt lat="52.1915233" lon="5.5795693"/>
<trkpt lat="52.1915227" lon="5.5790894"/>
<trkpt lat="52.1915406" lon="5.5786684"/>
<trkpt lat="52.1909630" lon="5.5729109"/>
<trkpt lat="52.1898475" lon="5.5624187"/>
</trkseg></trk>
</gpx>