<?xml version="1.0" encoding="UTF-8"?>
<gpx version="1.1" creator="klompenpaden.nl via Jimbo API" xmlns="http://www.topografix.com/GPX/1/1">
<metadata><name>Grift en Graftenpad</name><desc>Ontdek het mooie buitengebied van Rhenen. Wandelen door het landschap van de Utrechtse Heuvelrug en de Gelderse Vallei. Door het agrarisch gebied, over de Laarsenberg en langs de Grift. Geniet van de rust en de combinatie van cultuur en natuur. Klompen aan, rugzak op en gaan!</desc><link href="https://www.klompenpaden.nl/klompenpaden/Grift_en_Graftenpad/251b4966-4657-476a-9fa0-ecdeae01d0d7"><text>klompenpaden.nl</text></link></metadata>
<wpt lat="51.97383093388098" lon="5.58131217956543"><name>Start Achterberg</name></wpt>
<trk><name>Grift en Graftenpad - Geimporteerde shapefile</name><type>mainRoute</type><trkseg>
<trkpt lat="51.9738634" lon="5.5816922"/>
<trkpt lat="51.9739001" lon="5.5810686"/>
<trkpt lat="51.9739436" lon="5.5806298"/>
<trkpt lat="51.9740012" lon="5.5803412"/>
<trkpt lat="51.9741441" lon="5.5796862"/>
<trkpt lat="51.9742089" lon="5.5793630"/>
<trkpt lat="51.9744226" lon="5.5795257"/>
<trkpt lat="51.9745364" lon="5.5797341"/>
<trkpt lat="51.9753046" lon="5.5817931"/>
<trkpt lat="51.9758169" lon="5.5831530"/>
<trkpt lat="51.9764214" lon="5.5847442"/>
<trkpt lat="51.9772520" lon="5.5869230"/>
<trkpt lat="51.9780809" lon="5.5890379"/>
<trkpt lat="51.9791817" lon="5.5878298"/>
<trkpt lat="51.9792958" lon="5.5878303"/>
<trkpt lat="51.9803128" lon="5.5904043"/>
<trkpt lat="51.9819827" lon="5.5946379"/>
<trkpt lat="51.9825277" lon="5.5960135"/>
<trkpt lat="51.9815325" lon="5.5969162"/>
<trkpt lat="51.9811879" lon="5.5972391"/>
<trkpt lat="51.9874522" lon="5.6138798"/>
<trkpt lat="51.9871797" lon="5.6139280"/>
<trkpt lat="51.9865588" lon="5.6140289"/>
<trkpt lat="51.9863054" lon="5.6140738"/>
<trkpt lat="51.9861020" lon="5.6141305"/>
<trkpt lat="51.9859168" lon="5.6142117"/>
<trkpt lat="51.9857719" lon="5.6143962"/>
<trkpt lat="51.9856654" lon="5.6145978"/>
<trkpt lat="51.9855064" lon="5.6147761"/>
<trkpt lat="51.9853521" lon="5.6148831"/>
<trkpt lat="51.9852343" lon="5.6149236"/>
<trkpt lat="51.9850396" lon="5.6149173"/>
<trkpt lat="51.9848755" lon="5.6148933"/>
<trkpt lat="51.9843124" lon="5.6146247"/>
<trkpt lat="51.9841158" lon="5.6146096"/>
<trkpt lat="51.9839914" lon="5.6146000"/>
<trkpt lat="51.9838666" lon="5.6146276"/>
<trkpt lat="51.9836600" lon="5.6146734"/>
<trkpt lat="51.9832563" lon="5.6147349"/>
<trkpt lat="51.9829161" lon="5.6147280"/>
<trkpt lat="51.9826654" lon="5.6147774"/>
<trkpt lat="51.9825641" lon="5.6148469"/>
<trkpt lat="51.9822498" lon="5.6151770"/>
<trkpt lat="51.9817606" lon="5.6156575"/>
<trkpt lat="51.9808747" lon="5.6164408"/>
<trkpt lat="51.9804026" lon="5.6168968"/>
<trkpt lat="51.9795784" lon="5.6179091"/>
<trkpt lat="51.9791300" lon="5.6184229"/>
<trkpt lat="51.9787225" lon="5.6187861"/>
<trkpt lat="51.9776505" lon="5.6195590"/>
<trkpt lat="51.9771707" lon="5.6199303"/>
<trkpt lat="51.9770116" lon="5.6203992"/>
<trkpt lat="51.9767604" lon="5.6212550"/>
<trkpt lat="51.9766436" lon="5.6215520"/>
<trkpt lat="51.9763355" lon="5.6221276"/>
<trkpt lat="51.9757836" lon="5.6230516"/>
<trkpt lat="51.9744633" lon="5.6250955"/>
<trkpt lat="51.9741028" lon="5.6256130"/>
<trkpt lat="51.9739740" lon="5.6257661"/>
<trkpt lat="51.9738597" lon="5.6258694"/>
<trkpt lat="51.9737241" lon="5.6258687"/>
<trkpt lat="51.9736047" lon="5.6258092"/>
<trkpt lat="51.9730183" lon="5.6255513"/>
<trkpt lat="51.9727531" lon="5.6254536"/>
<trkpt lat="51.9724196" lon="5.6253419"/>
<trkpt lat="51.9716967" lon="5.6250442"/>
<trkpt lat="51.9712150" lon="5.6248492"/>
<trkpt lat="51.9705875" lon="5.6246045"/>
<trkpt lat="51.9701868" lon="5.6241569"/>
<trkpt lat="51.9699311" lon="5.6238941"/>
<trkpt lat="51.9693622" lon="5.6232465"/>
<trkpt lat="51.9690301" lon="5.6228721"/>
<trkpt lat="51.9685966" lon="5.6225025"/>
<trkpt lat="51.9683629" lon="5.6222077"/>
<trkpt lat="51.9681970" lon="5.6218163"/>
<trkpt lat="51.9679123" lon="5.6209897"/>
<trkpt lat="51.9676180" lon="5.6201295"/>
<trkpt lat="51.9673760" lon="5.6194361"/>
<trkpt lat="51.9671182" lon="5.6189810"/>
<trkpt lat="51.9667277" lon="5.6183286"/>
<trkpt lat="51.9666705" lon="5.6182396"/>
<trkpt lat="51.9666123" lon="5.6181385"/>
<trkpt lat="51.9665155" lon="5.6180801"/>
<trkpt lat="51.9662877" lon="5.6179400"/>
<trkpt lat="51.9661846" lon="5.6179284"/>
<trkpt lat="51.9657813" lon="5.6179993"/>
<trkpt lat="51.9655757" lon="5.6180305"/>
<trkpt lat="51.9647875" lon="5.6181478"/>
<trkpt lat="51.9644504" lon="5.6181967"/>
<trkpt lat="51.9643587" lon="5.6181913"/>
<trkpt lat="51.9642752" lon="5.6181065"/>
<trkpt lat="51.9641283" lon="5.6177920"/>
<trkpt lat="51.9640016" lon="5.6174692"/>
<trkpt lat="51.9638818" lon="5.6172720"/>
<trkpt lat="51.9635672" lon="5.6166984"/>
<trkpt lat="51.9633032" lon="5.6162523"/>
<trkpt lat="51.9631225" lon="5.6158134"/>
<trkpt lat="51.9628742" lon="5.6151404"/>
<trkpt lat="51.9626738" lon="5.6146074"/>
<trkpt lat="51.9622898" lon="5.6139702"/>
<trkpt lat="51.9621411" lon="5.6133689"/>
<trkpt lat="51.9619388" lon="5.6130336"/>
<trkpt lat="51.9614762" lon="5.6123842"/>
<trkpt lat="51.9612784" lon="5.6120512"/>
<trkpt lat="51.9610230" lon="5.6115944"/>
<trkpt lat="51.9609016" lon="5.6114126"/>
<trkpt lat="51.9606966" lon="5.6112564"/>
<trkpt lat="51.9604071" lon="5.6110854"/>
<trkpt lat="51.9597231" lon="5.6107636"/>
<trkpt lat="51.9592501" lon="5.6104904"/>
<trkpt lat="51.9591021" lon="5.6103776"/>
<trkpt lat="51.9588058" lon="5.6099900"/>
<trkpt lat="51.9586567" lon="5.6098187"/>
<trkpt lat="51.9583879" lon="5.6096559"/>
<trkpt lat="51.9578987" lon="5.6094891"/>
<trkpt lat="51.9575918" lon="5.6093729"/>
<trkpt lat="51.9573774" lon="5.6092862"/>
<trkpt lat="51.9572548" lon="5.6092449"/>
<trkpt lat="51.9571096" lon="5.6092442"/>
<trkpt lat="51.9567124" lon="5.6093115"/>
<trkpt lat="51.9565410" lon="5.6094030"/>
<trkpt lat="51.9559204" lon="5.6093653"/>
<trkpt lat="51.9558207" lon="5.6092609"/>
<trkpt lat="51.9557363" lon="5.6086254"/>
<trkpt lat="51.9557157" lon="5.6082096"/>
<trkpt lat="51.9560059" lon="5.6082547"/>
<trkpt lat="51.9565997" lon="5.6085719"/>
<trkpt lat="51.9572209" lon="5.6082747"/>
<trkpt lat="51.9577666" lon="5.6078597"/>
<trkpt lat="51.9583499" lon="5.6073680"/>
<trkpt lat="51.9582658" lon="5.6064703"/>
<trkpt lat="51.9581257" lon="5.6051266"/>
<trkpt lat="51.9579860" lon="5.6044598"/>
<trkpt lat="51.9578764" lon="5.6038619"/>
<trkpt lat="51.9578531" lon="5.6032603"/>
<trkpt lat="51.9578589" lon="5.6027927"/>
<trkpt lat="51.9578034" lon="5.6025304"/>
<trkpt lat="51.9576959" lon="5.6000300"/>
<trkpt lat="51.9575694" lon="5.5971906"/>
<trkpt lat="51.9576266" lon="5.5971332"/>
<trkpt lat="51.9577780" lon="5.5967762"/>
<trkpt lat="51.9579569" lon="5.5962771"/>
<trkpt lat="51.9583318" lon="5.5950873"/>
<trkpt lat="51.9583542" lon="5.5948504"/>
<trkpt lat="51.9584271" lon="5.5945344"/>
<trkpt lat="51.9585949" lon="5.5937971"/>
<trkpt lat="51.9588050" lon="5.5937160"/>
<trkpt lat="51.9596577" lon="5.5945167"/>
<trkpt lat="51.9603916" lon="5.5950909"/>
<trkpt lat="51.9611041" lon="5.5955976"/>
<trkpt lat="51.9613382" lon="5.5956342"/>
<trkpt lat="51.9614487" lon="5.5955978"/>
<trkpt lat="51.9616100" lon="5.5957091"/>
<trkpt lat="51.9618505" lon="5.5955892"/>
<trkpt lat="51.9619490" lon="5.5957437"/>
<trkpt lat="51.9619524" lon="5.5958858"/>
<trkpt lat="51.9623112" lon="5.5957572"/>
<trkpt lat="51.9618207" lon="5.5925312"/>
<trkpt lat="51.9619682" lon="5.5924629"/>
<trkpt lat="51.9625405" lon="5.5918543"/>
<trkpt lat="51.9628017" lon="5.5911618"/>
<trkpt lat="51.9630133" lon="5.5905256"/>
<trkpt lat="51.9632080" lon="5.5898978"/>
<trkpt lat="51.9633467" lon="5.5893640"/>
<trkpt lat="51.9635705" lon="5.5884760"/>
<trkpt lat="51.9635137" lon="5.5883140"/>
<trkpt lat="51.9628263" lon="5.5878760"/>
<trkpt lat="51.9625445" lon="5.5876629"/>
<trkpt lat="51.9627107" lon="5.5864164"/>
<trkpt lat="51.9627584" lon="5.5860445"/>
<trkpt lat="51.9632769" lon="5.5861976"/>
<trkpt lat="51.9636273" lon="5.5862907"/>
<trkpt lat="51.9638081" lon="5.5864700"/>
<trkpt lat="51.9641155" lon="5.5868038"/>
<trkpt lat="51.9647477" lon="5.5873119"/>
<trkpt lat="51.9649911" lon="5.5874517"/>
<trkpt lat="51.9653187" lon="5.5868285"/>
<trkpt lat="51.9655718" lon="5.5863491"/>
<trkpt lat="51.9658694" lon="5.5858459"/>
<trkpt lat="51.9662248" lon="5.5863280"/>
<trkpt lat="51.9667427" lon="5.5872193"/>
<trkpt lat="51.9670821" lon="5.5877609"/>
<trkpt lat="51.9674057" lon="5.5874665"/>
<trkpt lat="51.9680741" lon="5.5868288"/>
<trkpt lat="51.9682749" lon="5.5867992"/>
<trkpt lat="51.9686892" lon="5.5863324"/>
<trkpt lat="51.9690399" lon="5.5858439"/>
<trkpt lat="51.9694432" lon="5.5849310"/>
<trkpt lat="51.9699668" lon="5.5838054"/>
<trkpt lat="51.9702286" lon="5.5832271"/>
<trkpt lat="51.9702851" lon="5.5831510"/>
<trkpt lat="51.9702790" lon="5.5829847"/>
<trkpt lat="51.9707361" lon="5.5814406"/>
<trkpt lat="51.9710466" lon="5.5804237"/>
<trkpt lat="51.9710333" lon="5.5801349"/>
<trkpt lat="51.9712053" lon="5.5793386"/>
<trkpt lat="51.9713629" lon="5.5789581"/>
<trkpt lat="51.9717325" lon="5.5787604"/>
<trkpt lat="51.9720335" lon="5.5786136"/>
<trkpt lat="51.9723384" lon="5.5784723"/>
<trkpt lat="51.9727481" lon="5.5782825"/>
<trkpt lat="51.9730230" lon="5.5786635"/>
<trkpt lat="51.9733468" lon="5.5791210"/>
<trkpt lat="51.9736522" lon="5.5794530"/>
<trkpt lat="51.9738481" lon="5.5795253"/>
<trkpt lat="51.9739543" lon="5.5795687"/>
<trkpt lat="51.9741441" lon="5.5796862"/>
<trkpt lat="51.9740015" lon="5.5803438"/>
<trkpt lat="51.9739440" lon="5.5806346"/>
<trkpt lat="51.9739005" lon="5.5810711"/>
<trkpt lat="51.9738638" lon="5.5816924"/>
</trkseg></trk>
<trk><name>Grift en Graftenpad - shorteningRoute</name><type>shorteningRoute</type><trkseg>
<trkpt lat="51.9623700" lon="5.5957400"/>
<trkpt lat="51.9624500" lon="5.5969500"/>
<trkpt lat="51.9625100" lon="5.5986100"/>
<trkpt lat="51.9629100" lon="5.5989100"/>
<trkpt lat="51.9648700" lon="5.6005400"/>
<trkpt lat="51.9649100" lon="5.6006200"/>
<trkpt lat="51.9649400" lon="5.6007400"/>
<trkpt lat="51.9648800" lon="5.6027000"/>
<trkpt lat="51.9649000" lon="5.6028900"/>
<trkpt lat="51.9663800" lon="5.6134700"/>
<trkpt lat="51.9665000" lon="5.6141700"/>
<trkpt lat="51.9660200" lon="5.6158400"/>
<trkpt lat="51.9659800" lon="5.6161900"/>
<trkpt lat="51.9659700" lon="5.6170300"/>
<trkpt lat="51.9661100" lon="5.6179400"/>
</trkseg></trk>
<trk><name>Grift en Graftenpad - Geimporteerde shapefile</name><type>alternativeRoute</type><trkseg>
<trkpt lat="51.9850396" lon="5.6149173"/>
<trkpt lat="51.9850247" lon="5.6147754"/>
<trkpt lat="51.9838485" lon="5.6116331"/>
<trkpt lat="51.9819292" lon="5.6066168"/>
<trkpt lat="51.9828868" lon="5.6060610"/>
<trkpt lat="51.9841682" lon="5.6051548"/>
</trkseg></trk>
<trk><name>Grift en Graftenpad - approachRoute</name><type>approachRoute</type><trkseg>
<trkpt lat="51.9579400" lon="5.5787300"/>
<trkpt lat="51.9579300" lon="5.5789400"/>
<trkpt lat="51.9588500" lon="5.5793100"/>
<trkpt lat="51.9590000" lon="5.5819700"/>
<trkpt lat="51.9590300" lon="5.5821900"/>
<trkpt lat="51.9594100" lon="5.5827000"/>
<trkpt lat="51.9603900" lon="5.5854300"/>
<trkpt lat="51.9606200" lon="5.5857600"/>
<trkpt lat="51.9606600" lon="5.5858500"/>
<trkpt lat="51.9611800" lon="5.5858200"/>
<trkpt lat="51.9620900" lon="5.5858100"/>
<trkpt lat="51.9627900" lon="5.5860700"/>
</trkseg></trk>
</gpx>