<?xml version="1.0" encoding="UTF-8"?>
<gpx version="1.1" creator="klompenpaden.nl via Jimbo API" xmlns="http://www.topografix.com/GPX/1/1">
<metadata><name>Haarlose Veldpad</name><desc>Ontdek het prachtige buitengebied van Haarlo en wandel door het typisch Achterhoekse coulissenlandschap dat zich kenmerkt door houtwallen, bospercelen, afgewisseld met akkers en lanen. Je loopt langs indrukwekkende markebomen, de unieke koepelkerk ‘de Kluntjespot’ en het prachtige landgoed Wolink! Klompen aan, rugzak op en gaan!</desc><link href="https://www.klompenpaden.nl/klompenpaden/Haarlose_Veldpad/9f7c5ca5-cd2f-4e36-8ac0-783be22dfd24"><text>klompenpaden.nl</text></link></metadata>
<wpt lat="52.11259192196513" lon="6.581011712551118"><name>Start Haarlo</name></wpt>
<trk><name>Haarlose Veldpad - Hoofdroute</name><type>mainRoute</type><trkseg>
<trkpt lat="52.1125871" lon="6.5810043"/>
<trkpt lat="52.1126061" lon="6.5807609"/>
<trkpt lat="52.1087220" lon="6.5808340"/>
<trkpt lat="52.1074924" lon="6.5808544"/>
<trkpt lat="52.1073524" lon="6.5807658"/>
<trkpt lat="52.1068533" lon="6.5804231"/>
<trkpt lat="52.1071708" lon="6.5795551"/>
<trkpt lat="52.1072111" lon="6.5793861"/>
<trkpt lat="52.1070743" lon="6.5792547"/>
<trkpt lat="52.1078068" lon="6.5780402"/>
<trkpt lat="52.1080176" lon="6.5776861"/>
<trkpt lat="52.1083207" lon="6.5769995"/>
<trkpt lat="52.1084011" lon="6.5768107"/>
<trkpt lat="52.1085527" lon="6.5766283"/>
<trkpt lat="52.1088492" lon="6.5763600"/>
<trkpt lat="52.1093302" lon="6.5761562"/>
<trkpt lat="52.1095015" lon="6.5761562"/>
<trkpt lat="52.1095938" lon="6.5761670"/>
<trkpt lat="52.1097881" lon="6.5761777"/>
<trkpt lat="52.1099759" lon="6.5762528"/>
<trkpt lat="52.1098936" lon="6.5753730"/>
<trkpt lat="52.1098409" lon="6.5747669"/>
<trkpt lat="52.1097328" lon="6.5736468"/>
<trkpt lat="52.1098777" lon="6.5736360"/>
<trkpt lat="52.1101176" lon="6.5736574"/>
<trkpt lat="52.1105992" lon="6.5727734"/>
<trkpt lat="52.1106579" lon="6.5725095"/>
<trkpt lat="52.1106645" lon="6.5715546"/>
<trkpt lat="52.1108094" lon="6.5708680"/>
<trkpt lat="52.1102296" lon="6.5703959"/>
<trkpt lat="52.1099858" lon="6.5702028"/>
<trkpt lat="52.1097749" lon="6.5698916"/>
<trkpt lat="52.1094785" lon="6.5692587"/>
<trkpt lat="52.1090765" lon="6.5681536"/>
<trkpt lat="52.1086614" lon="6.5676386"/>
<trkpt lat="52.1080288" lon="6.5671193"/>
<trkpt lat="52.1075148" lon="6.5668081"/>
<trkpt lat="52.1074621" lon="6.5667653"/>
<trkpt lat="52.1071590" lon="6.5661859"/>
<trkpt lat="52.1069086" lon="6.5657674"/>
<trkpt lat="52.1066845" lon="6.5655315"/>
<trkpt lat="52.1059465" lon="6.5696192"/>
<trkpt lat="52.1046259" lon="6.5696599"/>
<trkpt lat="52.1030944" lon="6.5695118"/>
<trkpt lat="52.1015339" lon="6.5686750"/>
<trkpt lat="52.1014310" lon="6.5688960"/>
<trkpt lat="52.1010356" lon="6.5696492"/>
<trkpt lat="52.1004326" lon="6.5708047"/>
<trkpt lat="52.1000115" lon="6.5719473"/>
<trkpt lat="52.0997063" lon="6.5727766"/>
<trkpt lat="52.0992410" lon="6.5741596"/>
<trkpt lat="52.0977924" lon="6.5781797"/>
<trkpt lat="52.0975123" lon="6.5780295"/>
<trkpt lat="52.0971148" lon="6.5775628"/>
<trkpt lat="52.0969411" lon="6.5776298"/>
<trkpt lat="52.0971471" lon="6.5796709"/>
<trkpt lat="52.0972585" lon="6.5816075"/>
<trkpt lat="52.0973705" lon="6.5819187"/>
<trkpt lat="52.0975024" lon="6.5820152"/>
<trkpt lat="52.0977001" lon="6.5821332"/>
<trkpt lat="52.0978649" lon="6.5822727"/>
<trkpt lat="52.0981285" lon="6.5830559"/>
<trkpt lat="52.0984449" lon="6.5826912"/>
<trkpt lat="52.0986821" lon="6.5824015"/>
<trkpt lat="52.0989524" lon="6.5821869"/>
<trkpt lat="52.0992489" lon="6.5821869"/>
<trkpt lat="52.0994598" lon="6.5821440"/>
<trkpt lat="52.0996773" lon="6.5820045"/>
<trkpt lat="52.0998091" lon="6.5820045"/>
<trkpt lat="52.1000200" lon="6.5820903"/>
<trkpt lat="52.1011246" lon="6.5807042"/>
<trkpt lat="52.1011971" lon="6.5805540"/>
<trkpt lat="52.1012630" lon="6.5803394"/>
<trkpt lat="52.1011945" lon="6.5792880"/>
<trkpt lat="52.1018759" lon="6.5794167"/>
<trkpt lat="52.1021922" lon="6.5789124"/>
<trkpt lat="52.1023966" lon="6.5785154"/>
<trkpt lat="52.1030226" lon="6.5781185"/>
<trkpt lat="52.1039663" lon="6.5780348"/>
<trkpt lat="52.1039465" lon="6.5782378"/>
<trkpt lat="52.1033251" lon="6.5795837"/>
<trkpt lat="52.1029168" lon="6.5806001"/>
<trkpt lat="52.1027722" lon="6.5811357"/>
<trkpt lat="52.1031109" lon="6.5815703"/>
<trkpt lat="52.1035132" lon="6.5820910"/>
<trkpt lat="52.1038945" lon="6.5822512"/>
<trkpt lat="52.1038821" lon="6.5824858"/>
<trkpt lat="52.1039963" lon="6.5827718"/>
<trkpt lat="52.1043688" lon="6.5831524"/>
<trkpt lat="52.1044179" lon="6.5832997"/>
<trkpt lat="52.1050470" lon="6.5837732"/>
<trkpt lat="52.1048177" lon="6.5852518"/>
<trkpt lat="52.1045232" lon="6.5858962"/>
<trkpt lat="52.1031531" lon="6.5874332"/>
<trkpt lat="52.1041455" lon="6.5880352"/>
<trkpt lat="52.1057903" lon="6.5891129"/>
<trkpt lat="52.1067709" lon="6.5863368"/>
<trkpt lat="52.1070572" lon="6.5864176"/>
<trkpt lat="52.1074384" lon="6.5867216"/>
<trkpt lat="52.1078001" lon="6.5866600"/>
<trkpt lat="52.1081072" lon="6.5862021"/>
<trkpt lat="52.1085830" lon="6.5868258"/>
<trkpt lat="52.1091272" lon="6.5872692"/>
<trkpt lat="52.1101051" lon="6.5870315"/>
<trkpt lat="52.1102520" lon="6.5867275"/>
<trkpt lat="52.1104939" lon="6.5853249"/>
<trkpt lat="52.1102823" lon="6.5833213"/>
<trkpt lat="52.1110279" lon="6.5828775"/>
<trkpt lat="52.1109842" lon="6.5812222"/>
<trkpt lat="52.1109459" lon="6.5808458"/>
</trkseg></trk>
<trk><name>Haarlose Veldpad - routeverkorter</name><type>shorteningRoute</type><trkseg>
<trkpt lat="52.1039753" lon="6.5779842"/>
<trkpt lat="52.1046884" lon="6.5763574"/>
<trkpt lat="52.1047839" lon="6.5757834"/>
<trkpt lat="52.1049566" lon="6.5748017"/>
<trkpt lat="52.1051938" lon="6.5735464"/>
<trkpt lat="52.1053421" lon="6.5727739"/>
<trkpt lat="52.1059226" lon="6.5696454"/>
</trkseg></trk>
</gpx>