<?xml version="1.0" encoding="UTF-8"?>
<gpx version="1.1" creator="klompenpaden.nl via Jimbo API" xmlns="http://www.topografix.com/GPX/1/1">
<metadata><name>Hallsekerkepad</name><desc>Ontdek het prachtige buitengebied van Hall met typerende steilranden, het oude landgoed Leusveld, haar bijzondere flora en fauna en uitgestrekte weilanden. Klompen aan, rugzak op en gaan!</desc><link href="https://www.klompenpaden.nl/klompenpaden/Hallsekerkepad/ce2ad5b8-40b8-4e5a-96b6-bd824be6daba"><text>klompenpaden.nl</text></link></metadata>
<wpt lat="52.110855808961325" lon="6.103977747511209"><name>Start Hall</name></wpt>
<trk><name>Hallsekerkepad - Hoofdroute</name><type>mainRoute</type><trkseg>
<trkpt lat="52.0973088" lon="6.1302840"/>
<trkpt lat="52.0971438" lon="6.1288270"/>
<trkpt lat="52.0975209" lon="6.1287805"/>
<trkpt lat="52.0975403" lon="6.1287395"/>
<trkpt lat="52.0966394" lon="6.1231210"/>
<trkpt lat="52.0967171" lon="6.1229294"/>
<trkpt lat="52.0966302" lon="6.1223622"/>
<trkpt lat="52.0975867" lon="6.1217499"/>
<trkpt lat="52.0976628" lon="6.1215598"/>
<trkpt lat="52.0977360" lon="6.1205670"/>
<trkpt lat="52.0978330" lon="6.1194957"/>
<trkpt lat="52.0982482" lon="6.1193914"/>
<trkpt lat="52.0983006" lon="6.1193156"/>
<trkpt lat="52.0982545" lon="6.1188829"/>
<trkpt lat="52.0983105" lon="6.1187381"/>
<trkpt lat="52.0987614" lon="6.1186790"/>
<trkpt lat="52.0991971" lon="6.1183993"/>
<trkpt lat="52.0995540" lon="6.1180623"/>
<trkpt lat="52.0997371" lon="6.1179742"/>
<trkpt lat="52.1000899" lon="6.1178699"/>
<trkpt lat="52.1009460" lon="6.1175690"/>
<trkpt lat="52.1019673" lon="6.1172257"/>
<trkpt lat="52.1020090" lon="6.1171198"/>
<trkpt lat="52.1019895" lon="6.1169660"/>
<trkpt lat="52.1018706" lon="6.1166323"/>
<trkpt lat="52.1018419" lon="6.1165293"/>
<trkpt lat="52.1018101" lon="6.1164502"/>
<trkpt lat="52.1018102" lon="6.1163049"/>
<trkpt lat="52.1017335" lon="6.1161392"/>
<trkpt lat="52.1017281" lon="6.1160523"/>
<trkpt lat="52.1016819" lon="6.1159466"/>
<trkpt lat="52.1016336" lon="6.1156346"/>
<trkpt lat="52.1016122" lon="6.1154738"/>
<trkpt lat="52.1017521" lon="6.1153219"/>
<trkpt lat="52.1017158" lon="6.1151222"/>
<trkpt lat="52.1017799" lon="6.1147715"/>
<trkpt lat="52.1019127" lon="6.1144200"/>
<trkpt lat="52.1021366" lon="6.1141974"/>
<trkpt lat="52.1023838" lon="6.1140959"/>
<trkpt lat="52.1024924" lon="6.1139885"/>
<trkpt lat="52.1025529" lon="6.1137645"/>
<trkpt lat="52.1027149" lon="6.1135704"/>
<trkpt lat="52.1030439" lon="6.1134053"/>
<trkpt lat="52.1032742" lon="6.1132799"/>
<trkpt lat="52.1034204" lon="6.1134094"/>
<trkpt lat="52.1035951" lon="6.1136832"/>
<trkpt lat="52.1038745" lon="6.1135643"/>
<trkpt lat="52.1040479" lon="6.1136010"/>
<trkpt lat="52.1041992" lon="6.1137813"/>
<trkpt lat="52.1043152" lon="6.1141472"/>
<trkpt lat="52.1045698" lon="6.1149427"/>
<trkpt lat="52.1042710" lon="6.1149002"/>
<trkpt lat="52.1041522" lon="6.1149811"/>
<trkpt lat="52.1040175" lon="6.1151176"/>
<trkpt lat="52.1041434" lon="6.1152430"/>
<trkpt lat="52.1042263" lon="6.1154911"/>
<trkpt lat="52.1042381" lon="6.1157189"/>
<trkpt lat="52.1041067" lon="6.1162677"/>
<trkpt lat="52.1040516" lon="6.1167000"/>
<trkpt lat="52.1041903" lon="6.1177577"/>
<trkpt lat="52.1043721" lon="6.1181089"/>
<trkpt lat="52.1045289" lon="6.1183687"/>
<trkpt lat="52.1053004" lon="6.1189188"/>
<trkpt lat="52.1055904" lon="6.1189359"/>
<trkpt lat="52.1058826" lon="6.1187813"/>
<trkpt lat="52.1059788" lon="6.1189159"/>
<trkpt lat="52.1060220" lon="6.1190845"/>
<trkpt lat="52.1059264" lon="6.1207932"/>
<trkpt lat="52.1056192" lon="6.1227376"/>
<trkpt lat="52.1057104" lon="6.1245723"/>
<trkpt lat="52.1060825" lon="6.1245911"/>
<trkpt lat="52.1070612" lon="6.1246253"/>
<trkpt lat="52.1074703" lon="6.1246111"/>
</trkseg></trk>
<trk><name>Hallsekerkepad - Hoofdroute</name><type>mainRoute</type><trkseg>
<trkpt lat="52.0975220" lon="6.1310525"/>
<trkpt lat="52.0974235" lon="6.1306849"/>
<trkpt lat="52.0973088" lon="6.1302840"/>
</trkseg></trk>
<trk><name>Hallsekerkepad - Hoofdroute</name><type>mainRoute</type><trkseg>
<trkpt lat="52.1074121" lon="6.1246315"/>
<trkpt lat="52.1074826" lon="6.1256020"/>
<trkpt lat="52.1079380" lon="6.1266355"/>
<trkpt lat="52.1080336" lon="6.1274212"/>
<trkpt lat="52.1089592" lon="6.1283490"/>
<trkpt lat="52.1090547" lon="6.1291097"/>
<trkpt lat="52.1093225" lon="6.1302027"/>
<trkpt lat="52.1097594" lon="6.1295049"/>
<trkpt lat="52.1104072" lon="6.1290283"/>
<trkpt lat="52.1106130" lon="6.1289475"/>
<trkpt lat="52.1105084" lon="6.1276355"/>
<trkpt lat="52.1115906" lon="6.1272101"/>
<trkpt lat="52.1118431" lon="6.1269371"/>
<trkpt lat="52.1118810" lon="6.1266255"/>
<trkpt lat="52.1117806" lon="6.1251859"/>
<trkpt lat="52.1122464" lon="6.1250125"/>
<trkpt lat="52.1126589" lon="6.1244507"/>
<trkpt lat="52.1127906" lon="6.1239912"/>
<trkpt lat="52.1131961" lon="6.1237390"/>
<trkpt lat="52.1133312" lon="6.1234795"/>
<trkpt lat="52.1148534" lon="6.1228830"/>
<trkpt lat="52.1154183" lon="6.1268159"/>
<trkpt lat="52.1194967" lon="6.1253099"/>
<trkpt lat="52.1177850" lon="6.1132298"/>
<trkpt lat="52.1171615" lon="6.1088750"/>
<trkpt lat="52.1170984" lon="6.1086800"/>
<trkpt lat="52.1160729" lon="6.1068587"/>
<trkpt lat="52.1160439" lon="6.1067100"/>
<trkpt lat="52.1160361" lon="6.1064748"/>
<trkpt lat="52.1160177" lon="6.1063088"/>
<trkpt lat="52.1159385" lon="6.1046823"/>
<trkpt lat="52.1152596" lon="6.1021326"/>
<trkpt lat="52.1143250" lon="6.0987052"/>
<trkpt lat="52.1141342" lon="6.0979613"/>
<trkpt lat="52.1141512" lon="6.0978013"/>
<trkpt lat="52.1136495" lon="6.0958640"/>
<trkpt lat="52.1146079" lon="6.0934590"/>
<trkpt lat="52.1139261" lon="6.0922144"/>
<trkpt lat="52.1137482" lon="6.0920049"/>
<trkpt lat="52.1132537" lon="6.0914648"/>
<trkpt lat="52.1127338" lon="6.0909181"/>
<trkpt lat="52.1122129" lon="6.0903679"/>
<trkpt lat="52.1117622" lon="6.0899285"/>
<trkpt lat="52.1109259" lon="6.0921454"/>
<trkpt lat="52.1107646" lon="6.0918811"/>
<trkpt lat="52.1106195" lon="6.0916058"/>
<trkpt lat="52.1105274" lon="6.0914298"/>
<trkpt lat="52.1103841" lon="6.0912831"/>
<trkpt lat="52.1103271" lon="6.0912715"/>
<trkpt lat="52.1102494" lon="6.0912898"/>
<trkpt lat="52.1100838" lon="6.0916457"/>
<trkpt lat="52.1096139" lon="6.0927311"/>
<trkpt lat="52.1090204" lon="6.0941679"/>
<trkpt lat="52.1093145" lon="6.0944073"/>
<trkpt lat="52.1096003" lon="6.0947503"/>
<trkpt lat="52.1098608" lon="6.0951574"/>
<trkpt lat="52.1105191" lon="6.0962721"/>
<trkpt lat="52.1107045" lon="6.0967989"/>
<trkpt lat="52.1110891" lon="6.0980382"/>
<trkpt lat="52.1114125" lon="6.0987285"/>
<trkpt lat="52.1116236" lon="6.0990946"/>
<trkpt lat="52.1121178" lon="6.0994410"/>
<trkpt lat="52.1126266" lon="6.0998279"/>
<trkpt lat="52.1129614" lon="6.1002604"/>
<trkpt lat="52.1132473" lon="6.1006926"/>
<trkpt lat="52.1131748" lon="6.1009311"/>
<trkpt lat="52.1130190" lon="6.1010886"/>
<trkpt lat="52.1125447" lon="6.1016106"/>
<trkpt lat="52.1119702" lon="6.1026404"/>
<trkpt lat="52.1115880" lon="6.1032041"/>
<trkpt lat="52.1111192" lon="6.1037135"/>
<trkpt lat="52.1108567" lon="6.1038918"/>
<trkpt lat="52.1107125" lon="6.1038336"/>
<trkpt lat="52.1106786" lon="6.1041347"/>
<trkpt lat="52.1107293" lon="6.1044670"/>
<trkpt lat="52.1109861" lon="6.1052347"/>
<trkpt lat="52.1109350" lon="6.1053418"/>
<trkpt lat="52.1101688" lon="6.1057616"/>
<trkpt lat="52.1099325" lon="6.1061563"/>
<trkpt lat="52.1090974" lon="6.1065897"/>
<trkpt lat="52.1090581" lon="6.1067001"/>
<trkpt lat="52.1091902" lon="6.1071648"/>
<trkpt lat="52.1091507" lon="6.1072450"/>
<trkpt lat="52.1083916" lon="6.1075895"/>
<trkpt lat="52.1077231" lon="6.1078338"/>
<trkpt lat="52.1069181" lon="6.1093589"/>
<trkpt lat="52.1062693" lon="6.1095772"/>
<trkpt lat="52.1061928" lon="6.1094022"/>
<trkpt lat="52.1061198" lon="6.1094019"/>
<trkpt lat="52.1054574" lon="6.1087176"/>
<trkpt lat="52.1047934" lon="6.1085255"/>
<trkpt lat="52.1035750" lon="6.1085676"/>
<trkpt lat="52.1035042" lon="6.1087966"/>
<trkpt lat="52.1023154" lon="6.1086668"/>
<trkpt lat="52.1020708" lon="6.1055192"/>
<trkpt lat="52.1021060" lon="6.1043162"/>
<trkpt lat="52.1020285" lon="6.1042008"/>
<trkpt lat="52.1016475" lon="6.1053862"/>
<trkpt lat="52.1004313" lon="6.1055305"/>
<trkpt lat="52.0995270" lon="6.1056612"/>
<trkpt lat="52.0991621" lon="6.1057074"/>
<trkpt lat="52.0990110" lon="6.1057202"/>
<trkpt lat="52.0989390" lon="6.1058156"/>
<trkpt lat="52.0992058" lon="6.1067528"/>
<trkpt lat="52.1000554" lon="6.1096352"/>
<trkpt lat="52.1004083" lon="6.1108668"/>
<trkpt lat="52.0978390" lon="6.1113308"/>
<trkpt lat="52.0978904" lon="6.1122960"/>
<trkpt lat="52.0953918" lon="6.1127009"/>
<trkpt lat="52.0955629" lon="6.1154224"/>
<trkpt lat="52.0957683" lon="6.1175550"/>
<trkpt lat="52.0959272" lon="6.1185058"/>
<trkpt lat="52.0959747" lon="6.1189371"/>
<trkpt lat="52.0956559" lon="6.1189260"/>
<trkpt lat="52.0953419" lon="6.1189792"/>
<trkpt lat="52.0952220" lon="6.1190727"/>
<trkpt lat="52.0951865" lon="6.1194943"/>
<trkpt lat="52.0951279" lon="6.1195376"/>
<trkpt lat="52.0948027" lon="6.1195337"/>
<trkpt lat="52.0939991" lon="6.1196789"/>
<trkpt lat="52.0935161" lon="6.1195444"/>
<trkpt lat="52.0929205" lon="6.1194527"/>
<trkpt lat="52.0924707" lon="6.1191364"/>
<trkpt lat="52.0923882" lon="6.1191313"/>
<trkpt lat="52.0927572" lon="6.1231759"/>
<trkpt lat="52.0925794" lon="6.1232411"/>
<trkpt lat="52.0926542" lon="6.1238947"/>
<trkpt lat="52.0926691" lon="6.1242210"/>
<trkpt lat="52.0926567" lon="6.1247374"/>
<trkpt lat="52.0926868" lon="6.1250563"/>
<trkpt lat="52.0927855" lon="6.1256287"/>
<trkpt lat="52.0928038" lon="6.1258437"/>
<trkpt lat="52.0928093" lon="6.1261923"/>
<trkpt lat="52.0928529" lon="6.1266720"/>
<trkpt lat="52.0927887" lon="6.1271763"/>
<trkpt lat="52.0928942" lon="6.1276228"/>
<trkpt lat="52.0928987" lon="6.1279426"/>
<trkpt lat="52.0928311" lon="6.1283290"/>
<trkpt lat="52.0928885" lon="6.1287428"/>
<trkpt lat="52.0928856" lon="6.1289989"/>
<trkpt lat="52.0928438" lon="6.1292184"/>
<trkpt lat="52.0927295" lon="6.1294311"/>
<trkpt lat="52.0931413" lon="6.1293719"/>
<trkpt lat="52.0932040" lon="6.1305407"/>
<trkpt lat="52.0965488" lon="6.1300759"/>
<trkpt lat="52.0966195" lon="6.1304512"/>
<trkpt lat="52.0973088" lon="6.1302840"/>
</trkseg></trk>
<trk><name>Hallsekerkepad - Routeverkorter</name><type>shorteningRoute</type><trkseg>
<trkpt lat="52.1062693" lon="6.1095772"/>
<trkpt lat="52.1070597" lon="6.1150208"/>
<trkpt lat="52.1073890" lon="6.1172897"/>
<trkpt lat="52.1084195" lon="6.1246407"/>
<trkpt lat="52.1074703" lon="6.1246111"/>
</trkseg></trk>
<trk><name>Hallsekerkepad - Overstaproute</name><type>connectionRoute</type><trkseg>
<trkpt lat="52.0902726" lon="6.1376498"/>
<trkpt lat="52.0900445" lon="6.1375582"/>
<trkpt lat="52.0896876" lon="6.1401227"/>
<trkpt lat="52.0896076" lon="6.1401719"/>
<trkpt lat="52.0896198" lon="6.1409766"/>
<trkpt lat="52.0895416" lon="6.1418786"/>
<trkpt lat="52.0894213" lon="6.1418328"/>
</trkseg></trk>
<trk><name>Hallsekerkepad - Overstaproute</name><type>connectionRoute</type><trkseg>
<trkpt lat="52.1089958" lon="6.0941906"/>
<trkpt lat="52.1079212" lon="6.0930232"/>
<trkpt lat="52.1070424" lon="6.0925405"/>
<trkpt lat="52.1069164" lon="6.0926113"/>
<trkpt lat="52.1063084" lon="6.0903758"/>
<trkpt lat="52.1061342" lon="6.0895333"/>
<trkpt lat="52.1058811" lon="6.0886372"/>
<trkpt lat="52.1053607" lon="6.0872585"/>
<trkpt lat="52.1051495" lon="6.0868998"/>
<trkpt lat="52.1049953" lon="6.0863896"/>
<trkpt lat="52.1048850" lon="6.0858038"/>
<trkpt lat="52.1046438" lon="6.0851177"/>
<trkpt lat="52.1044024" lon="6.0845352"/>
<trkpt lat="52.1041860" lon="6.0839614"/>
<trkpt lat="52.1041163" lon="6.0836557"/>
<trkpt lat="52.1039912" lon="6.0833164"/>
<trkpt lat="52.1039674" lon="6.0819777"/>
<trkpt lat="52.1038033" lon="6.0798574"/>
<trkpt lat="52.1037886" lon="6.0797320"/>
</trkseg></trk>
<trk><name>Hallsekerkepad - Overstaproute</name><type>connectionRoute</type><trkseg>
<trkpt lat="52.1160709" lon="6.1313656"/>
<trkpt lat="52.1154177" lon="6.1268278"/>
</trkseg></trk>
<trk><name>Hallsekerkepad - Aanlooproute</name><type>approachRoute</type><trkseg>
<trkpt lat="52.0927295" lon="6.1294311"/>
<trkpt lat="52.0926960" lon="6.1295234"/>
<trkpt lat="52.0926724" lon="6.1297350"/>
<trkpt lat="52.0926615" lon="6.1299467"/>
<trkpt lat="52.0925713" lon="6.1301210"/>
<trkpt lat="52.0924818" lon="6.1301763"/>
<trkpt lat="52.0921350" lon="6.1301292"/>
<trkpt lat="52.0920045" lon="6.1301322"/>
<trkpt lat="52.0919657" lon="6.1302246"/>
<trkpt lat="52.0915228" lon="6.1333031"/>
<trkpt lat="52.0908988" lon="6.1378102"/>
<trkpt lat="52.0908284" lon="6.1378556"/>
<trkpt lat="52.0902726" lon="6.1376498"/>
</trkseg></trk>
</gpx>