<?xml version="1.0" encoding="UTF-8"?>
<gpx version="1.1" creator="klompenpaden.nl via Jimbo API" xmlns="http://www.topografix.com/GPX/1/1">
<metadata><name>Halostapad</name><desc>De route voert langs mooie en historische bezienswaardigheden van de polder rondom Aalst. U loopt langs akkers, weiden, wetering, door de uiterwaarden en natuurlijk komt u ook door het dorp Aalst. Klompen aan, rugzak op en gaan!</desc><link href="https://www.klompenpaden.nl/klompenpaden/Halostapad/b4f1dcba-75f0-4f6e-bed5-f9a8ab4a8ebe"><text>klompenpaden.nl</text></link></metadata>
<wpt lat="51.78216406788229" lon="5.1223862171173105"><name>Start Aalst</name></wpt>
<trk><name>Halostapad - Hoofdroute</name><type>mainRoute</type><trkseg>
<trkpt lat="51.7801025" lon="5.1247227"/>
<trkpt lat="51.7798947" lon="5.1243247"/>
<trkpt lat="51.7799626" lon="5.1240609"/>
<trkpt lat="51.7800835" lon="5.1238647"/>
<trkpt lat="51.7805967" lon="5.1236317"/>
<trkpt lat="51.7810385" lon="5.1233990"/>
<trkpt lat="51.7816868" lon="5.1229811"/>
<trkpt lat="51.7823407" lon="5.1225080"/>
<trkpt lat="51.7822844" lon="5.1222438"/>
<trkpt lat="51.7822103" lon="5.1218963"/>
<trkpt lat="51.7821674" lon="5.1213685"/>
<trkpt lat="51.7820593" lon="5.1194134"/>
<trkpt lat="51.7821671" lon="5.1193685"/>
<trkpt lat="51.7826428" lon="5.1192132"/>
<trkpt lat="51.7828328" lon="5.1191733"/>
<trkpt lat="51.7829957" lon="5.1192238"/>
<trkpt lat="51.7832613" lon="5.1193490"/>
<trkpt lat="51.7834884" lon="5.1195792"/>
<trkpt lat="51.7836358" lon="5.1198831"/>
<trkpt lat="51.7837344" lon="5.1202953"/>
<trkpt lat="51.7838008" lon="5.1191207"/>
<trkpt lat="51.7838600" lon="5.1186963"/>
<trkpt lat="51.7840678" lon="5.1183187"/>
<trkpt lat="51.7839814" lon="5.1191871"/>
<trkpt lat="51.7840906" lon="5.1201470"/>
<trkpt lat="51.7845173" lon="5.1203329"/>
<trkpt lat="51.7849723" lon="5.1203805"/>
<trkpt lat="51.7854450" lon="5.1204137"/>
<trkpt lat="51.7859102" lon="5.1202513"/>
<trkpt lat="51.7864427" lon="5.1199145"/>
<trkpt lat="51.7864259" lon="5.1195810"/>
<trkpt lat="51.7867948" lon="5.1194523"/>
<trkpt lat="51.7871708" lon="5.1192948"/>
<trkpt lat="51.7882246" lon="5.1191591"/>
<trkpt lat="51.7885332" lon="5.1193565"/>
<trkpt lat="51.7886724" lon="5.1187897"/>
<trkpt lat="51.7888240" lon="5.1184221"/>
<trkpt lat="51.7890388" lon="5.1171668"/>
<trkpt lat="51.7896528" lon="5.1173530"/>
<trkpt lat="51.7899456" lon="5.1174720"/>
<trkpt lat="51.7901277" lon="5.1175385"/>
<trkpt lat="51.7904417" lon="5.1176100"/>
<trkpt lat="51.7909592" lon="5.1177133"/>
<trkpt lat="51.7923949" lon="5.1176329"/>
<trkpt lat="51.7928778" lon="5.1174545"/>
<trkpt lat="51.7930750" lon="5.1169809"/>
<trkpt lat="51.7931783" lon="5.1157884"/>
<trkpt lat="51.7936304" lon="5.1158392"/>
<trkpt lat="51.7938216" lon="5.1157551"/>
<trkpt lat="51.7940175" lon="5.1157974"/>
<trkpt lat="51.7939418" lon="5.1169197"/>
<trkpt lat="51.7938908" lon="5.1174529"/>
<trkpt lat="51.7938320" lon="5.1179927"/>
<trkpt lat="51.7943046" lon="5.1177520"/>
<trkpt lat="51.7946169" lon="5.1174346"/>
<trkpt lat="51.7949342" lon="5.1174116"/>
<trkpt lat="51.7948975" lon="5.1177243"/>
<trkpt lat="51.7949185" lon="5.1189172"/>
<trkpt lat="51.7948715" lon="5.1190362"/>
<trkpt lat="51.7949582" lon="5.1191627"/>
<trkpt lat="51.7949640" lon="5.1192537"/>
<trkpt lat="51.7952243" lon="5.1191614"/>
<trkpt lat="51.7952327" lon="5.1205444"/>
<trkpt lat="51.7955116" lon="5.1205682"/>
<trkpt lat="51.7956113" lon="5.1204847"/>
<trkpt lat="51.7969771" lon="5.1207209"/>
<trkpt lat="51.7970925" lon="5.1208231"/>
<trkpt lat="51.7969944" lon="5.1221384"/>
<trkpt lat="51.7969417" lon="5.1238236"/>
<trkpt lat="51.7995377" lon="5.1241880"/>
<trkpt lat="51.7995371" lon="5.1272648"/>
<trkpt lat="51.7987216" lon="5.1271726"/>
<trkpt lat="51.7979447" lon="5.1271848"/>
<trkpt lat="51.7976777" lon="5.1303822"/>
<trkpt lat="51.7974712" lon="5.1326361"/>
<trkpt lat="51.7973796" lon="5.1337398"/>
<trkpt lat="51.7973096" lon="5.1338817"/>
<trkpt lat="51.7941851" lon="5.1338112"/>
<trkpt lat="51.7939897" lon="5.1337125"/>
<trkpt lat="51.7939486" lon="5.1340878"/>
<trkpt lat="51.7939489" lon="5.1342226"/>
<trkpt lat="51.7941000" lon="5.1345720"/>
<trkpt lat="51.7938317" lon="5.1370395"/>
<trkpt lat="51.7934142" lon="5.1421083"/>
<trkpt lat="51.7912516" lon="5.1416941"/>
<trkpt lat="51.7898752" lon="5.1414366"/>
<trkpt lat="51.7877156" lon="5.1410744"/>
<trkpt lat="51.7875634" lon="5.1435349"/>
<trkpt lat="51.7865740" lon="5.1433360"/>
<trkpt lat="51.7856693" lon="5.1431726"/>
<trkpt lat="51.7856136" lon="5.1438459"/>
<trkpt lat="51.7855984" lon="5.1441577"/>
<trkpt lat="51.7855701" lon="5.1445889"/>
<trkpt lat="51.7847018" lon="5.1444657"/>
<trkpt lat="51.7844214" lon="5.1445989"/>
<trkpt lat="51.7842979" lon="5.1446915"/>
<trkpt lat="51.7842027" lon="5.1447499"/>
<trkpt lat="51.7841240" lon="5.1445609"/>
<trkpt lat="51.7837464" lon="5.1437800"/>
<trkpt lat="51.7834969" lon="5.1430742"/>
<trkpt lat="51.7833993" lon="5.1429263"/>
<trkpt lat="51.7834148" lon="5.1424785"/>
<trkpt lat="51.7835174" lon="5.1368454"/>
<trkpt lat="51.7836117" lon="5.1332751"/>
<trkpt lat="51.7835859" lon="5.1328899"/>
<trkpt lat="51.7835637" lon="5.1327335"/>
<trkpt lat="51.7834855" lon="5.1326604"/>
<trkpt lat="51.7835027" lon="5.1323612"/>
<trkpt lat="51.7836203" lon="5.1323227"/>
<trkpt lat="51.7836270" lon="5.1320193"/>
<trkpt lat="51.7834000" lon="5.1320836"/>
<trkpt lat="51.7833889" lon="5.1315790"/>
<trkpt lat="51.7831772" lon="5.1314581"/>
<trkpt lat="51.7830535" lon="5.1310126"/>
<trkpt lat="51.7829668" lon="5.1307521"/>
<trkpt lat="51.7828828" lon="5.1305632"/>
<trkpt lat="51.7823200" lon="5.1298971"/>
<trkpt lat="51.7819406" lon="5.1294868"/>
<trkpt lat="51.7817785" lon="5.1293698"/>
<trkpt lat="51.7816769" lon="5.1293980"/>
<trkpt lat="51.7812298" lon="5.1288427"/>
<trkpt lat="51.7809038" lon="5.1282177"/>
<trkpt lat="51.7806244" lon="5.1276787"/>
<trkpt lat="51.7804806" lon="5.1270634"/>
<trkpt lat="51.7804276" lon="5.1265541"/>
<trkpt lat="51.7804276" lon="5.1259137"/>
<trkpt lat="51.7804154" lon="5.1254046"/>
<trkpt lat="51.7801041" lon="5.1247371"/>
</trkseg></trk>
<trk><name>Halostapad - Geimporteerde shapefile</name><type>alternativeRoute</type><trkseg>
<trkpt lat="51.7920229" lon="5.1196934"/>
<trkpt lat="51.7948275" lon="5.1193021"/>
</trkseg></trk>
<trk><name>Halostapad - Geimporteerde shapefile</name><type>alternativeRoute</type><trkseg>
<trkpt lat="51.7837344" lon="5.1202953"/>
<trkpt lat="51.7839383" lon="5.1216291"/>
<trkpt lat="51.7854114" lon="5.1215571"/>
<trkpt lat="51.7862454" lon="5.1212186"/>
<trkpt lat="51.7871329" lon="5.1208855"/>
<trkpt lat="51.7885323" lon="5.1204792"/>
</trkseg></trk>
<trk><name>Halostapad - Geimporteerde shapefile</name><type>alternativeRoute</type><trkseg>
<trkpt lat="51.7885323" lon="5.1204792"/>
<trkpt lat="51.7902737" lon="5.1199425"/>
<trkpt lat="51.7920229" lon="5.1196934"/>
</trkseg></trk>
<trk><name>Halostapad - alterntieve route</name><type>alternativeRoute</type><trkseg>
<trkpt lat="51.7920229" lon="5.1196934"/>
<trkpt lat="51.7948275" lon="5.1193021"/>
</trkseg></trk>
<trk><name>Halostapad - alternatieve route</name><type>alternativeRoute</type><trkseg>
<trkpt lat="51.7837344" lon="5.1202953"/>
<trkpt lat="51.7839383" lon="5.1216291"/>
<trkpt lat="51.7854114" lon="5.1215571"/>
<trkpt lat="51.7862454" lon="5.1212186"/>
<trkpt lat="51.7871329" lon="5.1208855"/>
<trkpt lat="51.7885323" lon="5.1204792"/>
</trkseg></trk>
<trk><name>Halostapad - Geimporteerde shapefile</name><type>alternativeRoute</type><trkseg>
<trkpt lat="51.7885323" lon="5.1204792"/>
<trkpt lat="51.7902737" lon="5.1199425"/>
<trkpt lat="51.7920229" lon="5.1196934"/>
</trkseg></trk>
<trk><name>Halostapad - Geimporteerde shapefile</name><type>connectionRoute</type><trkseg>
<trkpt lat="51.7952243" lon="5.1191614"/>
<trkpt lat="51.7976680" lon="5.1156141"/>
</trkseg></trk>
<trk><name>Halostapad - Geimporteerde shapefile</name><type>connectionRoute</type><trkseg>
<trkpt lat="51.7934142" lon="5.1421083"/>
<trkpt lat="51.7932298" lon="5.1439746"/>
<trkpt lat="51.7924383" lon="5.1476606"/>
<trkpt lat="51.7917044" lon="5.1516683"/>
<trkpt lat="51.7910531" lon="5.1542028"/>
<trkpt lat="51.7903744" lon="5.1573817"/>
<trkpt lat="51.7900633" lon="5.1588099"/>
<trkpt lat="51.7892670" lon="5.1602405"/>
<trkpt lat="51.7891259" lon="5.1610695"/>
<trkpt lat="51.7899316" lon="5.1612054"/>
</trkseg></trk>
<trk><name>Halostapad - Geimporteerde shapefile</name><type>connectionRoute</type><trkseg>
<trkpt lat="51.7952243" lon="5.1191614"/>
<trkpt lat="51.7976680" lon="5.1156141"/>
</trkseg></trk>
<trk><name>Halostapad - aanlooproute</name><type>connectionRoute</type><trkseg>
<trkpt lat="51.7934142" lon="5.1421083"/>
<trkpt lat="51.7932298" lon="5.1439746"/>
<trkpt lat="51.7924383" lon="5.1476606"/>
<trkpt lat="51.7917044" lon="5.1516683"/>
<trkpt lat="51.7910531" lon="5.1542028"/>
<trkpt lat="51.7903744" lon="5.1573817"/>
<trkpt lat="51.7900633" lon="5.1588099"/>
<trkpt lat="51.7892670" lon="5.1602405"/>
<trkpt lat="51.7891259" lon="5.1610695"/>
<trkpt lat="51.7899316" lon="5.1612054"/>
</trkseg></trk>
</gpx>