<?xml version="1.0" encoding="UTF-8"?>
<gpx version="1.1" creator="klompenpaden.nl via Jimbo API" xmlns="http://www.topografix.com/GPX/1/1">
<metadata><name>Hamarithapad</name><desc>Ontdek het mooie buitengebied van Nederhemert-Noord en -Zuid met haar rijke cultuurhistorie. Wandelen door het stroomgebied van de Maas met wielen, kades, een restant van een schans en een indrukwekkend kasteel. Klompen aan, rugzak op en gaan!</desc><link href="https://www.klompenpaden.nl/klompenpaden/Hamarithapad/89577701-1150-4f1f-a364-8f1c999a9da4"><text>klompenpaden.nl</text></link></metadata>
<wpt lat="51.76269063522912" lon="5.1746731996536255"><name>Start Nederhemert-Noord</name></wpt>
<trk><name>Hamarithapad - hoofdroute</name><type>mainRoute</type><trkseg>
<trkpt lat="51.7625500" lon="5.1745600"/>
<trkpt lat="51.7625400" lon="5.1717800"/>
<trkpt lat="51.7624900" lon="5.1711300"/>
<trkpt lat="51.7622300" lon="5.1698400"/>
<trkpt lat="51.7621500" lon="5.1698700"/>
<trkpt lat="51.7616700" lon="5.1679200"/>
<trkpt lat="51.7614600" lon="5.1672600"/>
<trkpt lat="51.7612000" lon="5.1658100"/>
<trkpt lat="51.7608400" lon="5.1642700"/>
<trkpt lat="51.7604100" lon="5.1625500"/>
<trkpt lat="51.7604700" lon="5.1625000"/>
<trkpt lat="51.7604300" lon="5.1622200"/>
<trkpt lat="51.7603500" lon="5.1620400"/>
<trkpt lat="51.7602300" lon="5.1618600"/>
<trkpt lat="51.7601400" lon="5.1619200"/>
<trkpt lat="51.7595300" lon="5.1602100"/>
<trkpt lat="51.7594300" lon="5.1597200"/>
<trkpt lat="51.7595000" lon="5.1596200"/>
<trkpt lat="51.7594900" lon="5.1588600"/>
<trkpt lat="51.7598800" lon="5.1569700"/>
<trkpt lat="51.7599900" lon="5.1563500"/>
<trkpt lat="51.7607900" lon="5.1532300"/>
<trkpt lat="51.7608600" lon="5.1530600"/>
<trkpt lat="51.7608800" lon="5.1529300"/>
<trkpt lat="51.7608300" lon="5.1522000"/>
<trkpt lat="51.7618900" lon="5.1518100"/>
<trkpt lat="51.7621200" lon="5.1517000"/>
<trkpt lat="51.7621400" lon="5.1517600"/>
<trkpt lat="51.7641300" lon="5.1502300"/>
<trkpt lat="51.7645000" lon="5.1498800"/>
<trkpt lat="51.7646600" lon="5.1505200"/>
<trkpt lat="51.7647300" lon="5.1505900"/>
<trkpt lat="51.7648300" lon="5.1505600"/>
<trkpt lat="51.7651900" lon="5.1503100"/>
<trkpt lat="51.7655500" lon="5.1499400"/>
<trkpt lat="51.7657500" lon="5.1498400"/>
<trkpt lat="51.7665500" lon="5.1496000"/>
<trkpt lat="51.7671500" lon="5.1494800"/>
<trkpt lat="51.7673900" lon="5.1495800"/>
<trkpt lat="51.7677700" lon="5.1498800"/>
<trkpt lat="51.7681700" lon="5.1501500"/>
<trkpt lat="51.7684700" lon="5.1502500"/>
<trkpt lat="51.7688800" lon="5.1502100"/>
<trkpt lat="51.7689800" lon="5.1503200"/>
<trkpt lat="51.7702600" lon="5.1552800"/>
<trkpt lat="51.7703600" lon="5.1554100"/>
<trkpt lat="51.7705600" lon="5.1562500"/>
<trkpt lat="51.7711900" lon="5.1558200"/>
<trkpt lat="51.7716000" lon="5.1547700"/>
<trkpt lat="51.7720900" lon="5.1528400"/>
<trkpt lat="51.7722900" lon="5.1524200"/>
<trkpt lat="51.7729600" lon="5.1513800"/>
<trkpt lat="51.7734600" lon="5.1510600"/>
<trkpt lat="51.7737800" lon="5.1507700"/>
<trkpt lat="51.7745600" lon="5.1501800"/>
<trkpt lat="51.7747500" lon="5.1498300"/>
<trkpt lat="51.7751800" lon="5.1489200"/>
<trkpt lat="51.7754300" lon="5.1485400"/>
<trkpt lat="51.7756000" lon="5.1483600"/>
<trkpt lat="51.7771900" lon="5.1475100"/>
<trkpt lat="51.7773000" lon="5.1473100"/>
<trkpt lat="51.7773900" lon="5.1470900"/>
<trkpt lat="51.7769600" lon="5.1466300"/>
<trkpt lat="51.7770700" lon="5.1462100"/>
<trkpt lat="51.7772800" lon="5.1455100"/>
<trkpt lat="51.7773800" lon="5.1453300"/>
<trkpt lat="51.7781500" lon="5.1451000"/>
<trkpt lat="51.7782300" lon="5.1450000"/>
<trkpt lat="51.7783800" lon="5.1451100"/>
<trkpt lat="51.7793200" lon="5.1466700"/>
<trkpt lat="51.7813800" lon="5.1414800"/>
<trkpt lat="51.7818200" lon="5.1416500"/>
<trkpt lat="51.7826900" lon="5.1421400"/>
<trkpt lat="51.7830500" lon="5.1425600"/>
<trkpt lat="51.7831600" lon="5.1423900"/>
<trkpt lat="51.7833600" lon="5.1423900"/>
<trkpt lat="51.7834700" lon="5.1425800"/>
<trkpt lat="51.7835100" lon="5.1428000"/>
<trkpt lat="51.7838300" lon="5.1437000"/>
<trkpt lat="51.7842200" lon="5.1444600"/>
<trkpt lat="51.7843200" lon="5.1447700"/>
<trkpt lat="51.7844100" lon="5.1455900"/>
<trkpt lat="51.7848800" lon="5.1475200"/>
<trkpt lat="51.7849800" lon="5.1492300"/>
<trkpt lat="51.7850200" lon="5.1530700"/>
<trkpt lat="51.7851000" lon="5.1534800"/>
<trkpt lat="51.7852300" lon="5.1543700"/>
<trkpt lat="51.7852500" lon="5.1557000"/>
<trkpt lat="51.7851500" lon="5.1570500"/>
<trkpt lat="51.7847800" lon="5.1602400"/>
<trkpt lat="51.7846500" lon="5.1608700"/>
<trkpt lat="51.7845100" lon="5.1622900"/>
<trkpt lat="51.7841700" lon="5.1645200"/>
<trkpt lat="51.7839300" lon="5.1655900"/>
<trkpt lat="51.7835500" lon="5.1666600"/>
<trkpt lat="51.7828800" lon="5.1681500"/>
<trkpt lat="51.7825000" lon="5.1688200"/>
<trkpt lat="51.7820800" lon="5.1694500"/>
<trkpt lat="51.7816600" lon="5.1699300"/>
<trkpt lat="51.7812700" lon="5.1704500"/>
<trkpt lat="51.7809700" lon="5.1709100"/>
<trkpt lat="51.7803800" lon="5.1713800"/>
<trkpt lat="51.7798500" lon="5.1719700"/>
<trkpt lat="51.7793100" lon="5.1726500"/>
<trkpt lat="51.7791700" lon="5.1730300"/>
<trkpt lat="51.7788900" lon="5.1733500"/>
<trkpt lat="51.7785000" lon="5.1736700"/>
<trkpt lat="51.7779100" lon="5.1740700"/>
<trkpt lat="51.7772700" lon="5.1743900"/>
<trkpt lat="51.7766700" lon="5.1746200"/>
<trkpt lat="51.7760900" lon="5.1749400"/>
<trkpt lat="51.7754500" lon="5.1754500"/>
<trkpt lat="51.7753300" lon="5.1750100"/>
<trkpt lat="51.7743900" lon="5.1756400"/>
<trkpt lat="51.7730000" lon="5.1763900"/>
<trkpt lat="51.7722100" lon="5.1769200"/>
<trkpt lat="51.7703900" lon="5.1789700"/>
<trkpt lat="51.7698000" lon="5.1795800"/>
<trkpt lat="51.7688700" lon="5.1802700"/>
<trkpt lat="51.7674100" lon="5.1814000"/>
<trkpt lat="51.7672800" lon="5.1815500"/>
<trkpt lat="51.7672000" lon="5.1817800"/>
<trkpt lat="51.7667600" lon="5.1821600"/>
<trkpt lat="51.7665500" lon="5.1823200"/>
<trkpt lat="51.7663500" lon="5.1822700"/>
<trkpt lat="51.7653900" lon="5.1822600"/>
<trkpt lat="51.7651500" lon="5.1822200"/>
<trkpt lat="51.7649100" lon="5.1820400"/>
<trkpt lat="51.7637000" lon="5.1802900"/>
<trkpt lat="51.7634000" lon="5.1799100"/>
<trkpt lat="51.7632100" lon="5.1799100"/>
<trkpt lat="51.7631400" lon="5.1800700"/>
<trkpt lat="51.7630500" lon="5.1799800"/>
<trkpt lat="51.7624000" lon="5.1787600"/>
<trkpt lat="51.7623300" lon="5.1783800"/>
<trkpt lat="51.7622400" lon="5.1782700"/>
<trkpt lat="51.7623100" lon="5.1777400"/>
<trkpt lat="51.7623600" lon="5.1766500"/>
<trkpt lat="51.7624600" lon="5.1766800"/>
<trkpt lat="51.7626800" lon="5.1753600"/>
<trkpt lat="51.7626700" lon="5.1751600"/>
<trkpt lat="51.7625500" lon="5.1751500"/>
<trkpt lat="51.7625500" lon="5.1745600"/>
</trkseg></trk>
<trk><name>Hamarithapad - Routeverlenger</name><type>extensionRoute</type><trkseg>
<trkpt lat="51.7595900" lon="5.1582000"/>
<trkpt lat="51.7595100" lon="5.1582900"/>
<trkpt lat="51.7593300" lon="5.1590600"/>
<trkpt lat="51.7592200" lon="5.1591700"/>
<trkpt lat="51.7589600" lon="5.1593000"/>
<trkpt lat="51.7574200" lon="5.1598400"/>
<trkpt lat="51.7572800" lon="5.1599600"/>
<trkpt lat="51.7572000" lon="5.1600000"/>
<trkpt lat="51.7571200" lon="5.1597800"/>
<trkpt lat="51.7570800" lon="5.1602000"/>
<trkpt lat="51.7571600" lon="5.1609000"/>
<trkpt lat="51.7568600" lon="5.1609100"/>
<trkpt lat="51.7565100" lon="5.1608000"/>
<trkpt lat="51.7559900" lon="5.1604800"/>
<trkpt lat="51.7554500" lon="5.1601100"/>
<trkpt lat="51.7548400" lon="5.1585500"/>
<trkpt lat="51.7547500" lon="5.1584400"/>
<trkpt lat="51.7545900" lon="5.1583100"/>
<trkpt lat="51.7528900" lon="5.1572900"/>
<trkpt lat="51.7528500" lon="5.1572400"/>
<trkpt lat="51.7532200" lon="5.1559900"/>
<trkpt lat="51.7533400" lon="5.1558500"/>
<trkpt lat="51.7533400" lon="5.1556500"/>
<trkpt lat="51.7523000" lon="5.1556000"/>
<trkpt lat="51.7523000" lon="5.1555000"/>
<trkpt lat="51.7526100" lon="5.1540500"/>
<trkpt lat="51.7526600" lon="5.1536500"/>
<trkpt lat="51.7526700" lon="5.1524400"/>
<trkpt lat="51.7527000" lon="5.1522000"/>
<trkpt lat="51.7527900" lon="5.1520800"/>
<trkpt lat="51.7524900" lon="5.1518000"/>
<trkpt lat="51.7518700" lon="5.1511200"/>
<trkpt lat="51.7512000" lon="5.1503800"/>
<trkpt lat="51.7509200" lon="5.1500200"/>
<trkpt lat="51.7501400" lon="5.1495200"/>
<trkpt lat="51.7500600" lon="5.1493900"/>
<trkpt lat="51.7500900" lon="5.1489200"/>
<trkpt lat="51.7502000" lon="5.1479800"/>
<trkpt lat="51.7499200" lon="5.1472500"/>
<trkpt lat="51.7497500" lon="5.1466400"/>
<trkpt lat="51.7497300" lon="5.1464100"/>
<trkpt lat="51.7496700" lon="5.1463300"/>
<trkpt lat="51.7493300" lon="5.1462400"/>
<trkpt lat="51.7490100" lon="5.1461800"/>
<trkpt lat="51.7488500" lon="5.1462700"/>
<trkpt lat="51.7485000" lon="5.1464000"/>
<trkpt lat="51.7483900" lon="5.1474600"/>
<trkpt lat="51.7483500" lon="5.1481200"/>
<trkpt lat="51.7485400" lon="5.1483000"/>
<trkpt lat="51.7501000" lon="5.1488500"/>
</trkseg></trk>
<trk><name>Hamarithapad - Routeverlenger</name><type>extensionRoute</type><trkseg>
<trkpt lat="51.7501300" lon="5.1495000"/>
<trkpt lat="51.7499500" lon="5.1499200"/>
<trkpt lat="51.7498300" lon="5.1506000"/>
<trkpt lat="51.7496700" lon="5.1522000"/>
<trkpt lat="51.7502800" lon="5.1526500"/>
<trkpt lat="51.7505700" lon="5.1529000"/>
<trkpt lat="51.7506400" lon="5.1531300"/>
<trkpt lat="51.7505900" lon="5.1534700"/>
<trkpt lat="51.7502800" lon="5.1544900"/>
<trkpt lat="51.7501600" lon="5.1546400"/>
<trkpt lat="51.7499100" lon="5.1546800"/>
<trkpt lat="51.7497600" lon="5.1546000"/>
<trkpt lat="51.7495300" lon="5.1543400"/>
<trkpt lat="51.7492400" lon="5.1542300"/>
<trkpt lat="51.7491600" lon="5.1541300"/>
<trkpt lat="51.7492900" lon="5.1535500"/>
<trkpt lat="51.7495700" lon="5.1524300"/>
<trkpt lat="51.7496700" lon="5.1522000"/>
</trkseg></trk>
<trk><name>Hamarithapad - Routeverlenger</name><type>extensionRoute</type><trkseg>
<trkpt lat="51.7528700" lon="5.1572700"/>
<trkpt lat="51.7516200" lon="5.1618200"/>
<trkpt lat="51.7513200" lon="5.1623200"/>
<trkpt lat="51.7511300" lon="5.1624000"/>
<trkpt lat="51.7506600" lon="5.1620300"/>
<trkpt lat="51.7505100" lon="5.1620300"/>
<trkpt lat="51.7502500" lon="5.1622500"/>
<trkpt lat="51.7498000" lon="5.1629200"/>
<trkpt lat="51.7486000" lon="5.1646500"/>
<trkpt lat="51.7481400" lon="5.1652200"/>
</trkseg></trk>
<trk><name>Hamarithapad - Routeverlenger</name><type>extensionRoute</type><trkseg>
<trkpt lat="51.7527900" lon="5.1520800"/>
<trkpt lat="51.7536300" lon="5.1526800"/>
<trkpt lat="51.7543400" lon="5.1531200"/>
<trkpt lat="51.7544000" lon="5.1533700"/>
<trkpt lat="51.7544400" lon="5.1540000"/>
<trkpt lat="51.7550200" lon="5.1539800"/>
<trkpt lat="51.7571200" lon="5.1597800"/>
</trkseg></trk>
<trk><name>Hamarithapad - Routeverlenger</name><type>extensionRoute</type><trkseg>
<trkpt lat="51.7501800" lon="5.1546500"/>
<trkpt lat="51.7502800" lon="5.1550800"/>
<trkpt lat="51.7502200" lon="5.1553900"/>
<trkpt lat="51.7503200" lon="5.1555700"/>
<trkpt lat="51.7528500" lon="5.1572100"/>
</trkseg></trk>
<trk><name>Hamarithapad - Overstaproute Baanbrekerpad</name><type>connectionRoute</type><trkseg>
<trkpt lat="51.7623100" lon="5.1787700"/>
<trkpt lat="51.7622200" lon="5.1791400"/>
<trkpt lat="51.7621500" lon="5.1797700"/>
<trkpt lat="51.7620600" lon="5.1802300"/>
<trkpt lat="51.7619300" lon="5.1808100"/>
<trkpt lat="51.7617600" lon="5.1813900"/>
<trkpt lat="51.7616100" lon="5.1819000"/>
<trkpt lat="51.7613900" lon="5.1825200"/>
<trkpt lat="51.7605300" lon="5.1844600"/>
<trkpt lat="51.7604200" lon="5.1847800"/>
<trkpt lat="51.7603100" lon="5.1853600"/>
<trkpt lat="51.7602500" lon="5.1853500"/>
<trkpt lat="51.7601400" lon="5.1859500"/>
<trkpt lat="51.7599700" lon="5.1864200"/>
<trkpt lat="51.7596800" lon="5.1868700"/>
<trkpt lat="51.7593100" lon="5.1873100"/>
<trkpt lat="51.7589800" lon="5.1878100"/>
<trkpt lat="51.7586000" lon="5.1882700"/>
<trkpt lat="51.7581200" lon="5.1886700"/>
<trkpt lat="51.7580000" lon="5.1887100"/>
</trkseg></trk>
<trk><name>Hamarithapad - Overstaproute Halostapd</name><type>connectionRoute</type><trkseg>
<trkpt lat="51.7847400" lon="5.1602100"/>
<trkpt lat="51.7899300" lon="5.1612000"/>
</trkseg></trk>
<trk><name>Hamarithapad - Overstaproute Aalderpad</name><type>connectionRoute</type><trkseg>
<trkpt lat="51.7760907" lon="5.1808385"/>
<trkpt lat="51.7758157" lon="5.1795329"/>
<trkpt lat="51.7755441" lon="5.1782677"/>
<trkpt lat="51.7754761" lon="5.1778940"/>
<trkpt lat="51.7754064" lon="5.1765675"/>
<trkpt lat="51.7753522" lon="5.1756028"/>
<trkpt lat="51.7754515" lon="5.1754542"/>
</trkseg></trk>
</gpx>