<?xml version="1.0" encoding="UTF-8"?>
<gpx version="1.1" creator="klompenpaden.nl via Jimbo API" xmlns="http://www.topografix.com/GPX/1/1">
<metadata><name>Harscamperpad</name><desc>Ontdek het mooie buitengebied van Harskamp. Wandelen over zandwegen en boerenland, langs lanen, oude landbouwgronden en historische gebouwen. Het landelijk gebied heeft hier volop afwisseling te bieden. Klompen aan, rugzak op en gaan!
</desc><link href="https://www.klompenpaden.nl/klompenpaden/Harscamperpad/0dba3312-362d-4c1d-8136-062ba70ea409"><text>klompenpaden.nl</text></link></metadata>
<wpt lat="52.12218569044184" lon="5.758788585662841"><name>Start Harskamp</name></wpt>
<trk><name>Harscamperpad - Geimporteerde shapefile</name><type>mainRoute</type><trkseg>
<trkpt lat="52.1196406" lon="5.7543951"/>
<trkpt lat="52.1232614" lon="5.7526769"/>
<trkpt lat="52.1231842" lon="5.7522447"/>
<trkpt lat="52.1231309" lon="5.7517984"/>
<trkpt lat="52.1230692" lon="5.7510874"/>
<trkpt lat="52.1232121" lon="5.7509304"/>
<trkpt lat="52.1229686" lon="5.7496750"/>
<trkpt lat="52.1233838" lon="5.7495696"/>
<trkpt lat="52.1231090" lon="5.7483973"/>
<trkpt lat="52.1226294" lon="5.7485032"/>
<trkpt lat="52.1226020" lon="5.7483122"/>
<trkpt lat="52.1250305" lon="5.7477583"/>
<trkpt lat="52.1251477" lon="5.7482043"/>
<trkpt lat="52.1252374" lon="5.7481949"/>
<trkpt lat="52.1256782" lon="5.7491438"/>
<trkpt lat="52.1267693" lon="5.7500336"/>
<trkpt lat="52.1276330" lon="5.7506743"/>
<trkpt lat="52.1277669" lon="5.7504435"/>
<trkpt lat="52.1299754" lon="5.7499051"/>
<trkpt lat="52.1299202" lon="5.7493018"/>
<trkpt lat="52.1298082" lon="5.7485899"/>
<trkpt lat="52.1289990" lon="5.7487997"/>
<trkpt lat="52.1287957" lon="5.7468661"/>
<trkpt lat="52.1272472" lon="5.7471966"/>
<trkpt lat="52.1266044" lon="5.7429687"/>
<trkpt lat="52.1264603" lon="5.7429102"/>
<trkpt lat="52.1257243" lon="5.7432851"/>
<trkpt lat="52.1250021" lon="5.7475763"/>
<trkpt lat="52.1241379" lon="5.7457931"/>
<trkpt lat="52.1240242" lon="5.7393168"/>
<trkpt lat="52.1239610" lon="5.7349891"/>
<trkpt lat="52.1239710" lon="5.7348347"/>
<trkpt lat="52.1261821" lon="5.7301226"/>
<trkpt lat="52.1264498" lon="5.7296610"/>
<trkpt lat="52.1274406" lon="5.7291277"/>
<trkpt lat="52.1276442" lon="5.7278155"/>
<trkpt lat="52.1277685" lon="5.7275846"/>
<trkpt lat="52.1280823" lon="5.7276179"/>
<trkpt lat="52.1282159" lon="5.7274953"/>
<trkpt lat="52.1298063" lon="5.7269865"/>
<trkpt lat="52.1289778" lon="5.7238380"/>
<trkpt lat="52.1287233" lon="5.7230478"/>
<trkpt lat="52.1285542" lon="5.7222738"/>
<trkpt lat="52.1283954" lon="5.7212525"/>
<trkpt lat="52.1282628" lon="5.7176967"/>
<trkpt lat="52.1283032" lon="5.7168314"/>
<trkpt lat="52.1283238" lon="5.7162906"/>
<trkpt lat="52.1301313" lon="5.7162267"/>
<trkpt lat="52.1305250" lon="5.7183008"/>
<trkpt lat="52.1313879" lon="5.7226351"/>
<trkpt lat="52.1318941" lon="5.7252357"/>
<trkpt lat="52.1331414" lon="5.7248432"/>
<trkpt lat="52.1331844" lon="5.7264357"/>
<trkpt lat="52.1321098" lon="5.7263348"/>
<trkpt lat="52.1322221" lon="5.7269539"/>
<trkpt lat="52.1322400" lon="5.7273405"/>
<trkpt lat="52.1319798" lon="5.7285287"/>
<trkpt lat="52.1319122" lon="5.7288682"/>
<trkpt lat="52.1318853" lon="5.7348190"/>
<trkpt lat="52.1317674" lon="5.7348517"/>
<trkpt lat="52.1312150" lon="5.7399095"/>
<trkpt lat="52.1311341" lon="5.7414778"/>
<trkpt lat="52.1312530" lon="5.7421543"/>
<trkpt lat="52.1313524" lon="5.7423097"/>
<trkpt lat="52.1314571" lon="5.7428142"/>
<trkpt lat="52.1323206" lon="5.7451015"/>
<trkpt lat="52.1332640" lon="5.7476904"/>
<trkpt lat="52.1336034" lon="5.7486825"/>
<trkpt lat="52.1336208" lon="5.7491927"/>
<trkpt lat="52.1334841" lon="5.7503509"/>
<trkpt lat="52.1328840" lon="5.7506088"/>
<trkpt lat="52.1328409" lon="5.7522469"/>
<trkpt lat="52.1329731" lon="5.7525726"/>
<trkpt lat="52.1331388" lon="5.7543516"/>
<trkpt lat="52.1333851" lon="5.7546628"/>
<trkpt lat="52.1338581" lon="5.7555169"/>
<trkpt lat="52.1339983" lon="5.7563064"/>
<trkpt lat="52.1342588" lon="5.7581789"/>
<trkpt lat="52.1348351" lon="5.7594049"/>
<trkpt lat="52.1350715" lon="5.7598552"/>
<trkpt lat="52.1353463" lon="5.7601821"/>
<trkpt lat="52.1356117" lon="5.7605089"/>
<trkpt lat="52.1357159" lon="5.7606335"/>
<trkpt lat="52.1357629" lon="5.7608039"/>
<trkpt lat="52.1357623" lon="5.7610049"/>
<trkpt lat="52.1355425" lon="5.7613276"/>
<trkpt lat="52.1352561" lon="5.7616344"/>
<trkpt lat="52.1351413" lon="5.7618499"/>
<trkpt lat="52.1350354" lon="5.7622354"/>
<trkpt lat="52.1346824" lon="5.7625725"/>
<trkpt lat="52.1343676" lon="5.7628481"/>
<trkpt lat="52.1337103" lon="5.7631517"/>
<trkpt lat="52.1328719" lon="5.7635620"/>
<trkpt lat="52.1322525" lon="5.7639123"/>
<trkpt lat="52.1315649" lon="5.7647567"/>
<trkpt lat="52.1297952" lon="5.7648808"/>
<trkpt lat="52.1289624" lon="5.7635291"/>
<trkpt lat="52.1283549" lon="5.7631376"/>
<trkpt lat="52.1279263" lon="5.7603056"/>
<trkpt lat="52.1278522" lon="5.7595999"/>
<trkpt lat="52.1275433" lon="5.7580093"/>
<trkpt lat="52.1269903" lon="5.7560412"/>
<trkpt lat="52.1265019" lon="5.7565071"/>
<trkpt lat="52.1262854" lon="5.7557789"/>
<trkpt lat="52.1246737" lon="5.7570947"/>
<trkpt lat="52.1246072" lon="5.7570787"/>
<trkpt lat="52.1241099" lon="5.7578937"/>
<trkpt lat="52.1239199" lon="5.7578303"/>
<trkpt lat="52.1233668" lon="5.7582739"/>
<trkpt lat="52.1232242" lon="5.7582572"/>
<trkpt lat="52.1229664" lon="5.7585642"/>
<trkpt lat="52.1226998" lon="5.7586238"/>
<trkpt lat="52.1221950" lon="5.7588205"/>
<trkpt lat="52.1216043" lon="5.7591401"/>
<trkpt lat="52.1210427" lon="5.7592590"/>
<trkpt lat="52.1209097" lon="5.7591961"/>
<trkpt lat="52.1208515" lon="5.7591507"/>
<trkpt lat="52.1208167" lon="5.7591035"/>
<trkpt lat="52.1207823" lon="5.7590573"/>
<trkpt lat="52.1206973" lon="5.7589386"/>
<trkpt lat="52.1205500" lon="5.7587863"/>
<trkpt lat="52.1203423" lon="5.7586377"/>
<trkpt lat="52.1201668" lon="5.7584728"/>
<trkpt lat="52.1201142" lon="5.7581606"/>
<trkpt lat="52.1199931" lon="5.7575048"/>
<trkpt lat="52.1199695" lon="5.7573783"/>
<trkpt lat="52.1199057" lon="5.7573482"/>
<trkpt lat="52.1197221" lon="5.7556939"/>
<trkpt lat="52.1196504" lon="5.7543766"/>
</trkseg></trk>
<trk><name>Harscamperpad - Geimporteerde shapefile</name><type>connectionRoute</type><trkseg>
<trkpt lat="52.1196406" lon="5.7543951"/>
<trkpt lat="52.1165856" lon="5.7557517"/>
<trkpt lat="52.1140795" lon="5.7569821"/>
<trkpt lat="52.1121345" lon="5.7580139"/>
<trkpt lat="52.1091307" lon="5.7596663"/>
</trkseg></trk>
</gpx>