<?xml version="1.0" encoding="UTF-8"?>
<gpx version="1.1" creator="klompenpaden.nl via Jimbo API" xmlns="http://www.topografix.com/GPX/1/1">
<metadata><name>Harsloërpad</name><desc>Ontdek het mooie buitengebied van Bennekom en Wageningen. U wandelt langs plekken waar kastelen en landgoederen stonden, langs uniek blauwgrasland en beschermd weidevogelgebied. De combinatie van natuur en cultuur bepalen hier de sfeer. Klompen aan, rugzak op en gaan!</desc><link href="https://www.klompenpaden.nl/klompenpaden/Harsloërpad/881d881e-7346-4d33-96c1-ffca4ebef03b"><text>klompenpaden.nl</text></link></metadata>
<wpt lat="51.99041693448843" lon="5.656049251556397"><name>Start Bennekom</name></wpt>
<trk><name>Harsloërpad - hoofdroute</name><type>mainRoute</type><trkseg>
<trkpt lat="52.0004819" lon="5.6339655"/>
<trkpt lat="52.0003164" lon="5.6346235"/>
<trkpt lat="52.0005717" lon="5.6353762"/>
<trkpt lat="52.0009902" lon="5.6365228"/>
<trkpt lat="52.0011532" lon="5.6370323"/>
<trkpt lat="52.0017522" lon="5.6371744"/>
<trkpt lat="52.0020588" lon="5.6372454"/>
<trkpt lat="52.0025796" lon="5.6372484"/>
<trkpt lat="52.0029860" lon="5.6373778"/>
<trkpt lat="52.0033851" lon="5.6375881"/>
<trkpt lat="52.0033837" lon="5.6382585"/>
<trkpt lat="52.0033438" lon="5.6402119"/>
<trkpt lat="52.0033503" lon="5.6405009"/>
<trkpt lat="52.0039990" lon="5.6407473"/>
<trkpt lat="52.0041486" lon="5.6408637"/>
<trkpt lat="52.0041622" lon="5.6411528"/>
<trkpt lat="52.0040375" lon="5.6427358"/>
<trkpt lat="52.0039649" lon="5.6433018"/>
<trkpt lat="52.0038212" lon="5.6437749"/>
<trkpt lat="52.0036276" lon="5.6442131"/>
<trkpt lat="52.0035203" lon="5.6443512"/>
<trkpt lat="52.0030208" lon="5.6444177"/>
<trkpt lat="52.0027137" lon="5.6445315"/>
<trkpt lat="52.0024993" lon="5.6447152"/>
<trkpt lat="52.0023415" lon="5.6450958"/>
<trkpt lat="52.0021537" lon="5.6461697"/>
<trkpt lat="52.0019802" lon="5.6471743"/>
<trkpt lat="52.0019291" lon="5.6477173"/>
<trkpt lat="52.0018928" lon="5.6479714"/>
<trkpt lat="52.0018066" lon="5.6482367"/>
<trkpt lat="52.0017061" lon="5.6485483"/>
<trkpt lat="52.0016627" lon="5.6488139"/>
<trkpt lat="52.0016406" lon="5.6491027"/>
<trkpt lat="52.0016257" lon="5.6493800"/>
<trkpt lat="52.0015897" lon="5.6495417"/>
<trkpt lat="52.0015038" lon="5.6496683"/>
<trkpt lat="52.0011040" lon="5.6497816"/>
<trkpt lat="52.0007328" lon="5.6498834"/>
<trkpt lat="52.0002473" lon="5.6500539"/>
<trkpt lat="51.9990050" lon="5.6504396"/>
<trkpt lat="51.9993226" lon="5.6520019"/>
<trkpt lat="51.9994779" lon="5.6527426"/>
<trkpt lat="51.9981851" lon="5.6533706"/>
<trkpt lat="51.9968777" lon="5.6541719"/>
<trkpt lat="51.9965776" lon="5.6543666"/>
<trkpt lat="51.9963093" lon="5.6531630"/>
<trkpt lat="51.9958734" lon="5.6534493"/>
<trkpt lat="51.9957879" lon="5.6534141"/>
<trkpt lat="51.9951663" lon="5.6538034"/>
<trkpt lat="51.9945804" lon="5.6510493"/>
<trkpt lat="51.9943402" lon="5.6499615"/>
<trkpt lat="51.9937468" lon="5.6473230"/>
<trkpt lat="51.9934220" lon="5.6457725"/>
<trkpt lat="51.9933866" lon="5.6456683"/>
<trkpt lat="51.9922717" lon="5.6465517"/>
<trkpt lat="51.9909424" lon="5.6476072"/>
<trkpt lat="51.9905178" lon="5.6459984"/>
<trkpt lat="51.9899659" lon="5.6439383"/>
<trkpt lat="51.9897395" lon="5.6430356"/>
<trkpt lat="51.9891736" lon="5.6408252"/>
<trkpt lat="51.9889540" lon="5.6400844"/>
<trkpt lat="51.9885040" lon="5.6403592"/>
<trkpt lat="51.9880803" lon="5.6382883"/>
<trkpt lat="51.9880521" lon="5.6381611"/>
<trkpt lat="51.9882163" lon="5.6380696"/>
<trkpt lat="51.9883093" lon="5.6379661"/>
<trkpt lat="51.9878220" lon="5.6356176"/>
<trkpt lat="51.9875809" lon="5.6349460"/>
<trkpt lat="51.9871076" lon="5.6327132"/>
<trkpt lat="51.9873433" lon="5.6325874"/>
<trkpt lat="51.9874360" lon="5.6322005"/>
<trkpt lat="51.9864378" lon="5.6237252"/>
<trkpt lat="51.9863800" lon="5.6237509"/>
<trkpt lat="51.9863510" lon="5.6236077"/>
<trkpt lat="51.9862788" lon="5.6234969"/>
<trkpt lat="51.9852506" lon="5.6241884"/>
<trkpt lat="51.9850982" lon="5.6241802"/>
<trkpt lat="51.9848894" lon="5.6237266"/>
<trkpt lat="51.9847533" lon="5.6236130"/>
<trkpt lat="51.9844595" lon="5.6235218"/>
<trkpt lat="51.9843380" lon="5.6232632"/>
<trkpt lat="51.9824020" lon="5.6158589"/>
<trkpt lat="51.9817224" lon="5.6162131"/>
<trkpt lat="51.9812291" lon="5.6165390"/>
<trkpt lat="51.9806381" lon="5.6170881"/>
<trkpt lat="51.9804581" lon="5.6173667"/>
<trkpt lat="51.9804247" lon="5.6176297"/>
<trkpt lat="51.9803199" lon="5.6183113"/>
<trkpt lat="51.9799766" lon="5.6192119"/>
<trkpt lat="51.9797263" lon="5.6182633"/>
<trkpt lat="51.9795784" lon="5.6179091"/>
<trkpt lat="51.9796109" lon="5.6178261"/>
<trkpt lat="51.9799470" lon="5.6174119"/>
<trkpt lat="51.9803047" lon="5.6169400"/>
<trkpt lat="51.9808550" lon="5.6164229"/>
<trkpt lat="51.9816555" lon="5.6157107"/>
<trkpt lat="51.9822487" lon="5.6151591"/>
<trkpt lat="51.9826275" lon="5.6147913"/>
<trkpt lat="51.9828132" lon="5.6147229"/>
<trkpt lat="51.9830130" lon="5.6147008"/>
<trkpt lat="51.9832840" lon="5.6147484"/>
<trkpt lat="51.9839263" lon="5.6146246"/>
<trkpt lat="51.9842830" lon="5.6146264"/>
<trkpt lat="51.9846039" lon="5.6147436"/>
<trkpt lat="51.9849104" lon="5.6148838"/>
<trkpt lat="51.9850317" lon="5.6148728"/>
<trkpt lat="51.9852814" lon="5.6148510"/>
<trkpt lat="51.9855958" lon="5.6146099"/>
<trkpt lat="51.9859177" lon="5.6141840"/>
<trkpt lat="51.9861534" lon="5.6140350"/>
<trkpt lat="51.9863889" lon="5.6140131"/>
<trkpt lat="51.9871668" lon="5.6138899"/>
<trkpt lat="51.9874522" lon="5.6138798"/>
<trkpt lat="51.9882581" lon="5.6139879"/>
<trkpt lat="51.9887574" lon="5.6140482"/>
<trkpt lat="51.9890072" lon="5.6140032"/>
<trkpt lat="51.9898425" lon="5.6137186"/>
<trkpt lat="51.9901994" lon="5.6136164"/>
<trkpt lat="51.9904710" lon="5.6133404"/>
<trkpt lat="51.9911862" lon="5.6124657"/>
<trkpt lat="51.9916652" lon="5.6119019"/>
<trkpt lat="51.9918371" lon="5.6115791"/>
<trkpt lat="51.9920446" lon="5.6112566"/>
<trkpt lat="51.9922447" lon="5.6110611"/>
<trkpt lat="51.9924304" lon="5.6109812"/>
<trkpt lat="51.9930452" lon="5.6103024"/>
<trkpt lat="51.9933384" lon="5.6099571"/>
<trkpt lat="51.9934816" lon="5.6096920"/>
<trkpt lat="51.9936183" lon="5.6090802"/>
<trkpt lat="51.9936550" lon="5.6085025"/>
<trkpt lat="51.9937272" lon="5.6080522"/>
<trkpt lat="51.9938922" lon="5.6075791"/>
<trkpt lat="51.9941216" lon="5.6069909"/>
<trkpt lat="51.9941577" lon="5.6067483"/>
<trkpt lat="51.9939664" lon="5.6060424"/>
<trkpt lat="51.9938106" lon="5.6054291"/>
<trkpt lat="51.9937470" lon="5.6051168"/>
<trkpt lat="51.9938049" lon="5.6046663"/>
<trkpt lat="51.9940986" lon="5.6040321"/>
<trkpt lat="51.9944349" lon="5.6034790"/>
<trkpt lat="51.9945997" lon="5.6030984"/>
<trkpt lat="51.9947220" lon="5.6025442"/>
<trkpt lat="51.9948009" lon="5.6022904"/>
<trkpt lat="51.9951369" lon="5.6019568"/>
<trkpt lat="51.9952726" lon="5.6018534"/>
<trkpt lat="51.9953729" lon="5.6016459"/>
<trkpt lat="51.9955804" lon="5.6013233"/>
<trkpt lat="51.9957246" lon="5.6017161"/>
<trkpt lat="51.9957006" lon="5.6019018"/>
<trkpt lat="51.9969626" lon="5.6052251"/>
<trkpt lat="51.9977433" lon="5.6045236"/>
<trkpt lat="51.9985436" lon="5.6038803"/>
<trkpt lat="52.0010657" lon="5.6018581"/>
<trkpt lat="52.0019160" lon="5.6011571"/>
<trkpt lat="52.0032807" lon="5.6000192"/>
<trkpt lat="52.0033521" lon="5.6000195"/>
<trkpt lat="52.0034089" lon="5.6001354"/>
<trkpt lat="52.0038123" lon="5.6019406"/>
<trkpt lat="52.0047608" lon="5.6059911"/>
<trkpt lat="52.0048391" lon="5.6060955"/>
<trkpt lat="52.0051184" lon="5.6093568"/>
<trkpt lat="52.0052510" lon="5.6108834"/>
<trkpt lat="52.0054462" lon="5.6132888"/>
<trkpt lat="52.0056208" lon="5.6152434"/>
<trkpt lat="52.0043431" lon="5.6155605"/>
<trkpt lat="52.0033581" lon="5.6158214"/>
<trkpt lat="52.0029869" lon="5.6159120"/>
<trkpt lat="52.0028512" lon="5.6159691"/>
<trkpt lat="52.0010993" lon="5.6180176"/>
<trkpt lat="52.0025984" lon="5.6211810"/>
<trkpt lat="52.0031879" lon="5.6225250"/>
<trkpt lat="52.0035219" lon="5.6231856"/>
<trkpt lat="52.0034281" lon="5.6237285"/>
<trkpt lat="52.0031284" lon="5.6237384"/>
<trkpt lat="52.0027072" lon="5.6238865"/>
<trkpt lat="52.0014574" lon="5.6245156"/>
<trkpt lat="52.0009933" lon="5.6246865"/>
<trkpt lat="52.0007004" lon="5.6248930"/>
<trkpt lat="52.0006145" lon="5.6249966"/>
<trkpt lat="52.0003670" lon="5.6274342"/>
<trkpt lat="52.0003238" lon="5.6276189"/>
<trkpt lat="51.9999737" lon="5.6279060"/>
<trkpt lat="52.0003768" lon="5.6296073"/>
<trkpt lat="52.0009289" lon="5.6317602"/>
<trkpt lat="52.0009569" lon="5.6319800"/>
<trkpt lat="52.0009423" lon="5.6321764"/>
<trkpt lat="52.0005468" lon="5.6336653"/>
<trkpt lat="52.0004819" lon="5.6339655"/>
</trkseg></trk>
<trk><name>Harsloërpad - routeverkorter</name><type>shorteningRoute</type><trkseg>
<trkpt lat="52.0003164" lon="5.6346350"/>
<trkpt lat="51.9993390" lon="5.6346527"/>
<trkpt lat="51.9977336" lon="5.6347132"/>
<trkpt lat="51.9974837" lon="5.6348043"/>
<trkpt lat="51.9972621" lon="5.6349996"/>
<trkpt lat="51.9972681" lon="5.6355313"/>
<trkpt lat="51.9972599" lon="5.6360629"/>
<trkpt lat="51.9972380" lon="5.6362939"/>
<trkpt lat="51.9971584" lon="5.6368020"/>
<trkpt lat="51.9971008" lon="5.6370560"/>
<trkpt lat="51.9969645" lon="5.6374135"/>
<trkpt lat="51.9969283" lon="5.6376560"/>
<trkpt lat="51.9969053" lon="5.6384303"/>
<trkpt lat="51.9969086" lon="5.6401871"/>
<trkpt lat="51.9968727" lon="5.6403256"/>
<trkpt lat="51.9967297" lon="5.6404634"/>
<trkpt lat="51.9963227" lon="5.6405998"/>
<trkpt lat="51.9960014" lon="5.6407136"/>
<trkpt lat="51.9957301" lon="5.6408392"/>
<trkpt lat="51.9955940" lon="5.6410927"/>
<trkpt lat="51.9955643" lon="5.6415895"/>
<trkpt lat="51.9954272" lon="5.6423284"/>
<trkpt lat="51.9953548" lon="5.6428134"/>
<trkpt lat="51.9953256" lon="5.6431137"/>
<trkpt lat="51.9954386" lon="5.6436460"/>
<trkpt lat="51.9955096" lon="5.6438082"/>
<trkpt lat="51.9954735" lon="5.6439929"/>
<trkpt lat="51.9950732" lon="5.6443374"/>
<trkpt lat="51.9935795" lon="5.6455307"/>
<trkpt lat="51.9933937" lon="5.6456683"/>
</trkseg></trk>
<trk><name>Harsloërpad - alternatieve route</name><type>alternativeRoute</type><trkseg>
<trkpt lat="51.9799766" lon="5.6192119"/>
<trkpt lat="51.9819764" lon="5.6268019"/>
<trkpt lat="51.9862989" lon="5.6238074"/>
</trkseg></trk>
<trk><name>Harsloërpad - ongemarkeerde route</name><type>alternativeRoute</type><trkseg>
<trkpt lat="51.9862989" lon="5.6238074"/>
<trkpt lat="51.9867924" lon="5.6278632"/>
<trkpt lat="51.9873433" lon="5.6325874"/>
</trkseg></trk>
<trk><name>Harsloërpad - overstaproute</name><type>connectionRoute</type><trkseg>
<trkpt lat="52.0061000" lon="5.6531400"/>
<trkpt lat="52.0064100" lon="5.6527500"/>
<trkpt lat="52.0068300" lon="5.6522800"/>
<trkpt lat="52.0069100" lon="5.6520700"/>
<trkpt lat="52.0069700" lon="5.6509500"/>
<trkpt lat="52.0069500" lon="5.6505600"/>
<trkpt lat="52.0067300" lon="5.6501500"/>
<trkpt lat="52.0064900" lon="5.6498900"/>
<trkpt lat="52.0061500" lon="5.6497000"/>
<trkpt lat="52.0058700" lon="5.6496000"/>
<trkpt lat="52.0055700" lon="5.6493900"/>
<trkpt lat="52.0052200" lon="5.6488300"/>
<trkpt lat="52.0050000" lon="5.6483600"/>
<trkpt lat="52.0047500" lon="5.6477100"/>
<trkpt lat="52.0045300" lon="5.6468200"/>
<trkpt lat="52.0043400" lon="5.6461600"/>
<trkpt lat="52.0041400" lon="5.6455600"/>
<trkpt lat="52.0037800" lon="5.6446800"/>
<trkpt lat="52.0035300" lon="5.6443500"/>
</trkseg></trk>
<trk><name>Harsloërpad - overstaproute</name><type>connectionRoute</type><trkseg>
<trkpt lat="51.9875021" lon="5.6805725"/>
<trkpt lat="51.9876360" lon="5.6804571"/>
<trkpt lat="51.9877410" lon="5.6802331"/>
<trkpt lat="51.9877839" lon="5.6798213"/>
<trkpt lat="51.9877912" lon="5.6793332"/>
<trkpt lat="51.9877760" lon="5.6789721"/>
<trkpt lat="51.9875990" lon="5.6786481"/>
<trkpt lat="51.9874090" lon="5.6783521"/>
<trkpt lat="51.9874834" lon="5.6781686"/>
<trkpt lat="51.9875379" lon="5.6777645"/>
<trkpt lat="51.9875802" lon="5.6774855"/>
<trkpt lat="51.9876637" lon="5.6773657"/>
<trkpt lat="51.9878035" lon="5.6773377"/>
<trkpt lat="51.9882880" lon="5.6773553"/>
<trkpt lat="51.9887547" lon="5.6773872"/>
<trkpt lat="51.9890609" lon="5.6773795"/>
<trkpt lat="51.9893762" lon="5.6772853"/>
<trkpt lat="51.9897037" lon="5.6770755"/>
<trkpt lat="51.9899423" lon="5.6767545"/>
<trkpt lat="51.9902197" lon="5.6763855"/>
<trkpt lat="51.9904698" lon="5.6762186"/>
<trkpt lat="51.9906576" lon="5.6759935"/>
<trkpt lat="51.9909232" lon="5.6755667"/>
<trkpt lat="51.9911024" lon="5.6752548"/>
<trkpt lat="51.9911829" lon="5.6751446"/>
<trkpt lat="51.9914070" lon="5.6747461"/>
<trkpt lat="51.9916920" lon="5.6744251"/>
<trkpt lat="51.9922280" lon="5.6739091"/>
<trkpt lat="51.9928260" lon="5.6733491"/>
<trkpt lat="51.9933884" lon="5.6728040"/>
<trkpt lat="51.9938654" lon="5.6722244"/>
<trkpt lat="51.9938390" lon="5.6720846"/>
<trkpt lat="51.9942627" lon="5.6719370"/>
<trkpt lat="51.9942767" lon="5.6717984"/>
<trkpt lat="51.9940939" lon="5.6711809"/>
<trkpt lat="51.9941004" lon="5.6709402"/>
<trkpt lat="51.9941370" lon="5.6706591"/>
<trkpt lat="51.9942670" lon="5.6702901"/>
<trkpt lat="51.9944760" lon="5.6699011"/>
<trkpt lat="51.9946210" lon="5.6695591"/>
<trkpt lat="51.9946990" lon="5.6693011"/>
<trkpt lat="51.9946420" lon="5.6691881"/>
<trkpt lat="51.9946010" lon="5.6690511"/>
<trkpt lat="51.9945550" lon="5.6687781"/>
<trkpt lat="51.9944750" lon="5.6687021"/>
<trkpt lat="51.9944580" lon="5.6685601"/>
<trkpt lat="51.9943880" lon="5.6680481"/>
<trkpt lat="51.9943260" lon="5.6669151"/>
<trkpt lat="51.9942540" lon="5.6662431"/>
<trkpt lat="51.9941490" lon="5.6656521"/>
<trkpt lat="51.9941200" lon="5.6651461"/>
<trkpt lat="51.9940390" lon="5.6647551"/>
<trkpt lat="51.9940280" lon="5.6646071"/>
<trkpt lat="51.9939640" lon="5.6645081"/>
<trkpt lat="51.9938850" lon="5.6644641"/>
<trkpt lat="51.9938080" lon="5.6643771"/>
<trkpt lat="51.9937090" lon="5.6641081"/>
<trkpt lat="51.9936730" lon="5.6639741"/>
<trkpt lat="51.9936870" lon="5.6638371"/>
<trkpt lat="51.9936630" lon="5.6632481"/>
<trkpt lat="51.9934207" lon="5.6629886"/>
<trkpt lat="51.9930868" lon="5.6625275"/>
<trkpt lat="51.9918572" lon="5.6578328"/>
<trkpt lat="51.9915374" lon="5.6566658"/>
</trkseg></trk>
<trk><name>Harsloërpad - aanlooproute</name><type>approachRoute</type><trkseg>
<trkpt lat="51.9909042" lon="5.6477371"/>
<trkpt lat="51.9897810" lon="5.6485405"/>
<trkpt lat="51.9915374" lon="5.6566658"/>
<trkpt lat="51.9908452" lon="5.6572003"/>
</trkseg></trk>
</gpx>