<?xml version="1.0" encoding="UTF-8"?>
<gpx version="1.1" creator="klompenpaden.nl via Jimbo API" xmlns="http://www.topografix.com/GPX/1/1">
<metadata><name>Hartensepad</name><desc>Ontdek het mooie buitengebied van Renkum. Wandelen door het prachtige Renkums Beekdal met bijzondere dieren en planten, langs grafheuvels, beken en sprengen, door uiterwaarden en over landgoederen. Klompen aan, rugzak op en gaan!</desc><link href="https://www.klompenpaden.nl/klompenpaden/Hartensepad/870286f7-2dff-4e1b-8b5e-7ab2b64c230b"><text>klompenpaden.nl</text></link></metadata>
<wpt lat="51.98656459721306" lon="5.730463767799064"><name>Start Renkum</name></wpt>
<trk><name>Hartensepad - hoofdroute</name><type>mainRoute</type><trkseg>
<trkpt lat="51.9865646" lon="5.7304638"/>
<trkpt lat="51.9863401" lon="5.7307876"/>
<trkpt lat="51.9860441" lon="5.7311782"/>
<trkpt lat="51.9859621" lon="5.7315781"/>
<trkpt lat="51.9860418" lon="5.7319716"/>
<trkpt lat="51.9860935" lon="5.7321569"/>
<trkpt lat="51.9861300" lon="5.7327041"/>
<trkpt lat="51.9862669" lon="5.7330518"/>
<trkpt lat="51.9862606" lon="5.7335833"/>
<trkpt lat="51.9864450" lon="5.7339391"/>
<trkpt lat="51.9867199" lon="5.7342571"/>
<trkpt lat="51.9868005" lon="5.7343656"/>
<trkpt lat="51.9868425" lon="5.7346355"/>
<trkpt lat="51.9867946" lon="5.7347584"/>
<trkpt lat="51.9867704" lon="5.7348969"/>
<trkpt lat="51.9867510" lon="5.7350046"/>
<trkpt lat="51.9867883" lon="5.7352668"/>
<trkpt lat="51.9867975" lon="5.7353593"/>
<trkpt lat="51.9867308" lon="5.7354204"/>
<trkpt lat="51.9867017" lon="5.7355896"/>
<trkpt lat="51.9866342" lon="5.7359204"/>
<trkpt lat="51.9865854" lon="5.7363283"/>
<trkpt lat="51.9862905" lon="5.7363106"/>
<trkpt lat="51.9852972" lon="5.7360717"/>
<trkpt lat="51.9851881" lon="5.7359785"/>
<trkpt lat="51.9850605" lon="5.7357078"/>
<trkpt lat="51.9848760" lon="5.7353521"/>
<trkpt lat="51.9847101" lon="5.7351813"/>
<trkpt lat="51.9846724" lon="5.7350501"/>
<trkpt lat="51.9846732" lon="5.7347651"/>
<trkpt lat="51.9847737" lon="5.7345578"/>
<trkpt lat="51.9847741" lon="5.7344192"/>
<trkpt lat="51.9847224" lon="5.7342339"/>
<trkpt lat="51.9848518" lon="5.7338729"/>
<trkpt lat="51.9848669" lon="5.7336188"/>
<trkpt lat="51.9848350" lon="5.7331409"/>
<trkpt lat="51.9848885" lon="5.7327177"/>
<trkpt lat="51.9848798" lon="5.7324634"/>
<trkpt lat="51.9848713" lon="5.7321167"/>
<trkpt lat="51.9847669" lon="5.7320389"/>
<trkpt lat="51.9847291" lon="5.7319384"/>
<trkpt lat="51.9847829" lon="5.7314304"/>
<trkpt lat="51.9848794" lon="5.7309844"/>
<trkpt lat="51.9848562" lon="5.7307762"/>
<trkpt lat="51.9847618" lon="5.7305367"/>
<trkpt lat="51.9846762" lon="5.7305129"/>
<trkpt lat="51.9845199" lon="5.7302806"/>
<trkpt lat="51.9842873" lon="5.7301248"/>
<trkpt lat="51.9841782" lon="5.7300469"/>
<trkpt lat="51.9840598" lon="5.7298612"/>
<trkpt lat="51.9840131" lon="5.7295681"/>
<trkpt lat="51.9839187" lon="5.7293132"/>
<trkpt lat="51.9837859" lon="5.7291735"/>
<trkpt lat="51.9835578" lon="5.7291255"/>
<trkpt lat="51.9834103" lon="5.7291398"/>
<trkpt lat="51.9832435" lon="5.7292310"/>
<trkpt lat="51.9830671" lon="5.7293914"/>
<trkpt lat="51.9829622" lon="5.7294753"/>
<trkpt lat="51.9827101" lon="5.7294965"/>
<trkpt lat="51.9825057" lon="5.7294487"/>
<trkpt lat="51.9822539" lon="5.7293467"/>
<trkpt lat="51.9820686" lon="5.7292759"/>
<trkpt lat="51.9818073" lon="5.7291738"/>
<trkpt lat="51.9815269" lon="5.7291101"/>
<trkpt lat="51.9812751" lon="5.7289926"/>
<trkpt lat="51.9809571" lon="5.7287591"/>
<trkpt lat="51.9803879" lon="5.7282387"/>
<trkpt lat="51.9801031" lon="5.7280286"/>
<trkpt lat="51.9798042" lon="5.7277798"/>
<trkpt lat="51.9795863" lon="5.7274778"/>
<trkpt lat="51.9793634" lon="5.7272373"/>
<trkpt lat="51.9791695" lon="5.7268584"/>
<trkpt lat="51.9791371" lon="5.7265501"/>
<trkpt lat="51.9789814" lon="5.7261407"/>
<trkpt lat="51.9786741" lon="5.7254683"/>
<trkpt lat="51.9786081" lon="5.7252675"/>
<trkpt lat="51.9785855" lon="5.7248592"/>
<trkpt lat="51.9787064" lon="5.7241515"/>
<trkpt lat="51.9786021" lon="5.7240429"/>
<trkpt lat="51.9781696" lon="5.7239395"/>
<trkpt lat="51.9776945" lon="5.7237588"/>
<trkpt lat="51.9775326" lon="5.7238038"/>
<trkpt lat="51.9773853" lon="5.7237796"/>
<trkpt lat="51.9768587" lon="5.7232981"/>
<trkpt lat="51.9765600" lon="5.7229801"/>
<trkpt lat="51.9762042" lon="5.7226385"/>
<trkpt lat="51.9759764" lon="5.7224674"/>
<trkpt lat="51.9756158" lon="5.7221643"/>
<trkpt lat="51.9752025" lon="5.7219995"/>
<trkpt lat="51.9745277" lon="5.7217634"/>
<trkpt lat="51.9738911" lon="5.7215200"/>
<trkpt lat="51.9732785" lon="5.7211842"/>
<trkpt lat="51.9724094" lon="5.7207311"/>
<trkpt lat="51.9718680" lon="5.7204421"/>
<trkpt lat="51.9716686" lon="5.7203020"/>
<trkpt lat="51.9716062" lon="5.7205172"/>
<trkpt lat="51.9712878" lon="5.7204224"/>
<trkpt lat="51.9708693" lon="5.7203885"/>
<trkpt lat="51.9706311" lon="5.7205254"/>
<trkpt lat="51.9703920" lon="5.7209856"/>
<trkpt lat="51.9703473" lon="5.7216399"/>
<trkpt lat="51.9701143" lon="5.7216227"/>
<trkpt lat="51.9696999" lon="5.7218429"/>
<trkpt lat="51.9694689" lon="5.7211251"/>
<trkpt lat="51.9691860" lon="5.7202220"/>
<trkpt lat="51.9689631" lon="5.7200047"/>
<trkpt lat="51.9688447" lon="5.7198421"/>
<trkpt lat="51.9687176" lon="5.7193715"/>
<trkpt lat="51.9686051" lon="5.7187854"/>
<trkpt lat="51.9685592" lon="5.7181921"/>
<trkpt lat="51.9684756" lon="5.7174523"/>
<trkpt lat="51.9678288" lon="5.7174629"/>
<trkpt lat="51.9672059" lon="5.7173736"/>
<trkpt lat="51.9662026" lon="5.7172893"/>
<trkpt lat="51.9660510" lon="5.7170879"/>
<trkpt lat="51.9658674" lon="5.7164090"/>
<trkpt lat="51.9656513" lon="5.7154218"/>
<trkpt lat="51.9656001" lon="5.7150288"/>
<trkpt lat="51.9656535" lon="5.7146365"/>
<trkpt lat="51.9656023" lon="5.7142357"/>
<trkpt lat="51.9655557" lon="5.7138966"/>
<trkpt lat="51.9655995" lon="5.7135427"/>
<trkpt lat="51.9655245" lon="5.7131340"/>
<trkpt lat="51.9654163" lon="5.7127021"/>
<trkpt lat="51.9654026" lon="5.7125018"/>
<trkpt lat="51.9653749" lon="5.7122090"/>
<trkpt lat="51.9658602" lon="5.7121355"/>
<trkpt lat="51.9665219" lon="5.7119478"/>
<trkpt lat="51.9668027" lon="5.7118651"/>
<trkpt lat="51.9673797" lon="5.7113380"/>
<trkpt lat="51.9675410" lon="5.7115009"/>
<trkpt lat="51.9677404" lon="5.7116024"/>
<trkpt lat="51.9678207" lon="5.7118109"/>
<trkpt lat="51.9680631" lon="5.7118742"/>
<trkpt lat="51.9681718" lon="5.7121291"/>
<trkpt lat="51.9691735" lon="5.7127986"/>
<trkpt lat="51.9703934" lon="5.7137162"/>
<trkpt lat="51.9717415" lon="5.7146732"/>
<trkpt lat="51.9719934" lon="5.7147367"/>
<trkpt lat="51.9722081" lon="5.7144918"/>
<trkpt lat="51.9723709" lon="5.7140925"/>
<trkpt lat="51.9727614" lon="5.7139414"/>
<trkpt lat="51.9732514" lon="5.7138756"/>
<trkpt lat="51.9736080" lon="5.7139398"/>
<trkpt lat="51.9740118" lon="5.7141276"/>
<trkpt lat="51.9741832" lon="5.7140595"/>
<trkpt lat="51.9743414" lon="5.7135986"/>
<trkpt lat="51.9746007" lon="5.7127225"/>
<trkpt lat="51.9749274" lon="5.7115389"/>
<trkpt lat="51.9751431" lon="5.7109089"/>
<trkpt lat="51.9752245" lon="5.7107401"/>
<trkpt lat="51.9756993" lon="5.7110207"/>
<trkpt lat="51.9766204" lon="5.7116127"/>
<trkpt lat="51.9767441" lon="5.7116586"/>
<trkpt lat="51.9767388" lon="5.7118588"/>
<trkpt lat="51.9770546" lon="5.7125730"/>
<trkpt lat="51.9771302" lon="5.7127276"/>
<trkpt lat="51.9774439" lon="5.7132473"/>
<trkpt lat="51.9777326" lon="5.7135155"/>
<trkpt lat="51.9779819" lon="5.7138974"/>
<trkpt lat="51.9780520" lon="5.7140119"/>
<trkpt lat="51.9783380" lon="5.7142811"/>
<trkpt lat="51.9779868" lon="5.7149490"/>
<trkpt lat="51.9777558" lon="5.7155412"/>
<trkpt lat="51.9777128" lon="5.7155948"/>
<trkpt lat="51.9778498" lon="5.7159193"/>
<trkpt lat="51.9778009" lon="5.7164196"/>
<trkpt lat="51.9774470" lon="5.7177197"/>
<trkpt lat="51.9772429" lon="5.7186336"/>
<trkpt lat="51.9772044" lon="5.7187874"/>
<trkpt lat="51.9772849" lon="5.7189266"/>
<trkpt lat="51.9771406" lon="5.7194955"/>
<trkpt lat="51.9770349" lon="5.7198721"/>
<trkpt lat="51.9771576" lon="5.7202273"/>
<trkpt lat="51.9780540" lon="5.7211043"/>
<trkpt lat="51.9788556" lon="5.7218959"/>
<trkpt lat="51.9794011" lon="5.7224083"/>
<trkpt lat="51.9795907" lon="5.7226254"/>
<trkpt lat="51.9795794" lon="5.7232492"/>
<trkpt lat="51.9795494" lon="5.7237881"/>
<trkpt lat="51.9797956" lon="5.7241597"/>
<trkpt lat="51.9801779" lon="5.7235232"/>
<trkpt lat="51.9803013" lon="5.7236397"/>
<trkpt lat="51.9809554" lon="5.7227511"/>
<trkpt lat="51.9813201" lon="5.7233007"/>
<trkpt lat="51.9818507" lon="5.7240211"/>
<trkpt lat="51.9822915" lon="5.7245636"/>
<trkpt lat="51.9825615" lon="5.7249353"/>
<trkpt lat="51.9825323" lon="5.7251970"/>
<trkpt lat="51.9824800" lon="5.7255931"/>
<trkpt lat="51.9824097" lon="5.7257011"/>
<trkpt lat="51.9825349" lon="5.7259696"/>
<trkpt lat="51.9827152" lon="5.7260958"/>
<trkpt lat="51.9828143" lon="5.7263623"/>
<trkpt lat="51.9829424" lon="5.7264634"/>
<trkpt lat="51.9838215" lon="5.7267550"/>
<trkpt lat="51.9843919" lon="5.7268672"/>
<trkpt lat="51.9847916" lon="5.7268086"/>
<trkpt lat="51.9851055" lon="5.7268033"/>
<trkpt lat="51.9853191" lon="5.7269667"/>
<trkpt lat="51.9856085" lon="5.7272154"/>
<trkpt lat="51.9860127" lon="5.7272569"/>
<trkpt lat="51.9862558" lon="5.7270816"/>
<trkpt lat="51.9865132" lon="5.7268602"/>
<trkpt lat="51.9866935" lon="5.7270233"/>
<trkpt lat="51.9868599" lon="5.7270323"/>
<trkpt lat="51.9869576" lon="5.7258326"/>
<trkpt lat="51.9872234" lon="5.7260195"/>
<trkpt lat="51.9874056" lon="5.7261688"/>
<trkpt lat="51.9876259" lon="5.7263184"/>
<trkpt lat="51.9877853" lon="5.7264428"/>
<trkpt lat="51.9879979" lon="5.7266170"/>
<trkpt lat="51.9881951" lon="5.7268404"/>
<trkpt lat="51.9884722" lon="5.7270907"/>
<trkpt lat="51.9892599" lon="5.7277284"/>
<trkpt lat="51.9896589" lon="5.7278855"/>
<trkpt lat="51.9902195" lon="5.7281209"/>
<trkpt lat="51.9905530" lon="5.7279385"/>
<trkpt lat="51.9914369" lon="5.7281841"/>
<trkpt lat="51.9922352" lon="5.7284367"/>
<trkpt lat="51.9925008" lon="5.7287084"/>
<trkpt lat="51.9926933" lon="5.7279163"/>
<trkpt lat="51.9928094" lon="5.7272623"/>
<trkpt lat="51.9928684" lon="5.7266078"/>
<trkpt lat="51.9930003" lon="5.7253761"/>
<trkpt lat="51.9930398" lon="5.7248679"/>
<trkpt lat="51.9936107" lon="5.7248260"/>
<trkpt lat="51.9942145" lon="5.7249076"/>
<trkpt lat="51.9942706" lon="5.7252624"/>
<trkpt lat="51.9943598" lon="5.7256483"/>
<trkpt lat="51.9945065" lon="5.7259268"/>
<trkpt lat="51.9947719" lon="5.7262447"/>
<trkpt lat="51.9947426" lon="5.7265296"/>
<trkpt lat="51.9948231" lon="5.7266381"/>
<trkpt lat="51.9949562" lon="5.7266545"/>
<trkpt lat="51.9952505" lon="5.7265638"/>
<trkpt lat="51.9953081" lon="5.7262043"/>
<trkpt lat="51.9956851" lon="5.7234797"/>
<trkpt lat="51.9958218" lon="5.7238874"/>
<trkpt lat="51.9962528" lon="5.7246563"/>
<trkpt lat="51.9977663" lon="5.7269532"/>
<trkpt lat="51.9982732" lon="5.7276659"/>
<trkpt lat="51.9989031" lon="5.7285954"/>
<trkpt lat="51.9993292" lon="5.7292767"/>
<trkpt lat="51.9996330" lon="5.7294794"/>
<trkpt lat="52.0005028" lon="5.7296632"/>
<trkpt lat="52.0007238" lon="5.7297054"/>
<trkpt lat="52.0007434" lon="5.7308988"/>
<trkpt lat="52.0007774" lon="5.7319723"/>
<trkpt lat="52.0007796" lon="5.7326167"/>
<trkpt lat="52.0008741" lon="5.7328101"/>
<trkpt lat="52.0013397" lon="5.7329909"/>
<trkpt lat="52.0017481" lon="5.7332022"/>
<trkpt lat="52.0020087" lon="5.7335664"/>
<trkpt lat="52.0021127" lon="5.7337829"/>
<trkpt lat="52.0021922" lon="5.7342151"/>
<trkpt lat="52.0020726" lon="5.7344685"/>
<trkpt lat="52.0019336" lon="5.7348373"/>
<trkpt lat="52.0018659" lon="5.7351989"/>
<trkpt lat="52.0023794" lon="5.7352723"/>
<trkpt lat="52.0027223" lon="5.7351131"/>
<trkpt lat="52.0028705" lon="5.7348600"/>
<trkpt lat="52.0029141" lon="5.7345829"/>
<trkpt lat="52.0029102" lon="5.7342823"/>
<trkpt lat="52.0030353" lon="5.7338132"/>
<trkpt lat="52.0033404" lon="5.7335766"/>
<trkpt lat="52.0037690" lon="5.7333796"/>
<trkpt lat="52.0038982" lon="5.7331186"/>
<trkpt lat="52.0041269" lon="5.7329893"/>
<trkpt lat="52.0043845" lon="5.7327370"/>
<trkpt lat="52.0045423" lon="5.7324377"/>
<trkpt lat="52.0048482" lon="5.7319314"/>
<trkpt lat="52.0049725" lon="5.7317088"/>
<trkpt lat="52.0051474" lon="5.7320878"/>
<trkpt lat="52.0053844" lon="5.7323440"/>
<trkpt lat="52.0061021" lon="5.7325422"/>
<trkpt lat="52.0061347" lon="5.7327813"/>
<trkpt lat="52.0061188" lon="5.7333361"/>
<trkpt lat="52.0062318" lon="5.7337146"/>
<trkpt lat="52.0064027" lon="5.7338161"/>
<trkpt lat="52.0066119" lon="5.7338409"/>
<trkpt lat="52.0067211" lon="5.7339111"/>
<trkpt lat="52.0069063" lon="5.7340281"/>
<trkpt lat="52.0069725" lon="5.7341365"/>
<trkpt lat="52.0069572" lon="5.7344832"/>
<trkpt lat="52.0069423" lon="5.7347143"/>
<trkpt lat="52.0069752" lon="5.7348456"/>
<trkpt lat="52.0069364" lon="5.7350919"/>
<trkpt lat="52.0068935" lon="5.7351147"/>
<trkpt lat="52.0067608" lon="5.7349749"/>
<trkpt lat="52.0066378" lon="5.7347582"/>
<trkpt lat="52.0065006" lon="5.7344797"/>
<trkpt lat="52.0064012" lon="5.7343248"/>
<trkpt lat="52.0062396" lon="5.7342927"/>
<trkpt lat="52.0058296" lon="5.7346286"/>
<trkpt lat="52.0054435" lon="5.7348953"/>
<trkpt lat="52.0051341" lon="5.7349700"/>
<trkpt lat="52.0045345" lon="5.7350810"/>
<trkpt lat="52.0042345" lon="5.7351942"/>
<trkpt lat="52.0040198" lon="5.7354238"/>
<trkpt lat="52.0037055" lon="5.7355754"/>
<trkpt lat="52.0032103" lon="5.7357565"/>
<trkpt lat="52.0031428" lon="5.7360489"/>
<trkpt lat="52.0032274" lon="5.7363963"/>
<trkpt lat="52.0032315" lon="5.7366044"/>
<trkpt lat="52.0031405" lon="5.7368272"/>
<trkpt lat="52.0031060" lon="5.7372353"/>
<trkpt lat="52.0030910" lon="5.7374972"/>
<trkpt lat="52.0024094" lon="5.7379851"/>
<trkpt lat="52.0022282" lon="5.7381378"/>
<trkpt lat="52.0018091" lon="5.7383041"/>
<trkpt lat="52.0008094" lon="5.7386045"/>
<trkpt lat="51.9997905" lon="5.7389664"/>
<trkpt lat="51.9977910" lon="5.7395825"/>
<trkpt lat="51.9974747" lon="5.7371914"/>
<trkpt lat="51.9975547" lon="5.7358898"/>
<trkpt lat="51.9975379" lon="5.7351422"/>
<trkpt lat="51.9971200" lon="5.7348924"/>
<trkpt lat="51.9966730" lon="5.7348735"/>
<trkpt lat="51.9961975" lon="5.7348467"/>
<trkpt lat="51.9958839" lon="5.7347287"/>
<trkpt lat="51.9956804" lon="5.7343727"/>
<trkpt lat="51.9955813" lon="5.7341331"/>
<trkpt lat="51.9954248" lon="5.7339547"/>
<trkpt lat="51.9949735" lon="5.7337894"/>
<trkpt lat="51.9947124" lon="5.7336178"/>
<trkpt lat="51.9943187" lon="5.7332373"/>
<trkpt lat="51.9940338" lon="5.7330733"/>
<trkpt lat="51.9936530" lon="5.7331705"/>
<trkpt lat="51.9933675" lon="5.7332376"/>
<trkpt lat="51.9929252" lon="5.7332034"/>
<trkpt lat="51.9922308" lon="5.7331980"/>
<trkpt lat="51.9915566" lon="5.7328153"/>
<trkpt lat="51.9908444" lon="5.7323861"/>
<trkpt lat="51.9901936" lon="5.7320960"/>
<trkpt lat="51.9897091" lon="5.7318920"/>
<trkpt lat="51.9890726" lon="5.7316020"/>
<trkpt lat="51.9888542" lon="5.7314694"/>
<trkpt lat="51.9886647" lon="5.7312137"/>
<trkpt lat="51.9883664" lon="5.7307415"/>
<trkpt lat="51.9881863" lon="5.7305167"/>
<trkpt lat="51.9878781" lon="5.7301908"/>
<trkpt lat="51.9876935" lon="5.7298889"/>
<trkpt lat="51.9874613" lon="5.7295867"/>
<trkpt lat="51.9872380" lon="5.7295311"/>
<trkpt lat="51.9870237" lon="5.7295988"/>
<trkpt lat="51.9869137" lon="5.7298290"/>
<trkpt lat="51.9868888" lon="5.7301909"/>
<trkpt lat="51.9866266" lon="5.7303969"/>
</trkseg></trk>
<trk><name>Hartensepad - routeverkorter</name><type>shorteningRoute</type><trkseg>
<trkpt lat="51.9812150" lon="5.7289111"/>
<trkpt lat="51.9812160" lon="5.7287681"/>
<trkpt lat="51.9812710" lon="5.7286711"/>
<trkpt lat="51.9812750" lon="5.7285281"/>
<trkpt lat="51.9812750" lon="5.7283691"/>
<trkpt lat="51.9813130" lon="5.7282431"/>
<trkpt lat="51.9813810" lon="5.7281361"/>
<trkpt lat="51.9815250" lon="5.7279751"/>
<trkpt lat="51.9814960" lon="5.7276951"/>
<trkpt lat="51.9817110" lon="5.7274751"/>
<trkpt lat="51.9817360" lon="5.7271951"/>
<trkpt lat="51.9817780" lon="5.7269111"/>
<trkpt lat="51.9818860" lon="5.7266691"/>
<trkpt lat="51.9820340" lon="5.7264381"/>
<trkpt lat="51.9821030" lon="5.7261661"/>
<trkpt lat="51.9823322" lon="5.7258807"/>
<trkpt lat="51.9824097" lon="5.7257011"/>
</trkseg></trk>
<trk><name>Hartensepad - aanlooproute</name><type>approachRoute</type><trkseg>
<trkpt lat="51.9698338" lon="5.7343319"/>
<trkpt lat="51.9699130" lon="5.7346252"/>
<trkpt lat="51.9698229" lon="5.7347939"/>
<trkpt lat="51.9698236" lon="5.7349441"/>
<trkpt lat="51.9700730" lon="5.7358875"/>
<trkpt lat="51.9704245" lon="5.7360396"/>
<trkpt lat="51.9705201" lon="5.7359017"/>
<trkpt lat="51.9713401" lon="5.7352458"/>
<trkpt lat="51.9716544" lon="5.7351250"/>
<trkpt lat="51.9720485" lon="5.7350935"/>
<trkpt lat="51.9721581" lon="5.7353063"/>
<trkpt lat="51.9723182" lon="5.7353205"/>
<trkpt lat="51.9727790" lon="5.7351204"/>
<trkpt lat="51.9730750" lon="5.7349423"/>
<trkpt lat="51.9731070" lon="5.7346382"/>
<trkpt lat="51.9730025" lon="5.7339350"/>
<trkpt lat="51.9724744" lon="5.7323907"/>
<trkpt lat="51.9722578" lon="5.7309844"/>
<trkpt lat="51.9728820" lon="5.7309275"/>
<trkpt lat="51.9738949" lon="5.7306765"/>
<trkpt lat="51.9746567" lon="5.7303866"/>
<trkpt lat="51.9752582" lon="5.7303050"/>
<trkpt lat="51.9752149" lon="5.7294667"/>
<trkpt lat="51.9751264" lon="5.7284926"/>
<trkpt lat="51.9747185" lon="5.7274667"/>
<trkpt lat="51.9752754" lon="5.7269904"/>
<trkpt lat="51.9755500" lon="5.7267583"/>
<trkpt lat="51.9753697" lon="5.7259560"/>
<trkpt lat="51.9753936" lon="5.7255742"/>
<trkpt lat="51.9756090" lon="5.7247749"/>
<trkpt lat="51.9758577" lon="5.7243938"/>
<trkpt lat="51.9761800" lon="5.7243868"/>
<trkpt lat="51.9764651" lon="5.7243591"/>
<trkpt lat="51.9768219" lon="5.7244541"/>
<trkpt lat="51.9770530" lon="5.7244536"/>
<trkpt lat="51.9772444" lon="5.7245805"/>
<trkpt lat="51.9774726" lon="5.7248534"/>
<trkpt lat="51.9776471" lon="5.7246158"/>
<trkpt lat="51.9777969" lon="5.7240588"/>
<trkpt lat="51.9778497" lon="5.7239469"/>
<trkpt lat="51.9785716" lon="5.7241579"/>
<trkpt lat="51.9785629" lon="5.7244190"/>
<trkpt lat="51.9784981" lon="5.7248220"/>
<trkpt lat="51.9785743" lon="5.7248980"/>
</trkseg></trk>
<trk><name>Hartensepad - aanlooproute </name><type>approachRoute</type><trkseg>
<trkpt lat="51.9828760" lon="5.7197727"/>
<trkpt lat="51.9824649" lon="5.7200812"/>
<trkpt lat="51.9820794" lon="5.7205098"/>
<trkpt lat="51.9820092" lon="5.7207022"/>
<trkpt lat="51.9815374" lon="5.7218845"/>
<trkpt lat="51.9814229" lon="5.7221709"/>
<trkpt lat="51.9809898" lon="5.7227263"/>
</trkseg></trk>
</gpx>