<?xml version="1.0" encoding="UTF-8"?>
<gpx version="1.1" creator="klompenpaden.nl via Jimbo API" xmlns="http://www.topografix.com/GPX/1/1">
<metadata><name>Heriwardapad</name><desc>Ontdek het unieke rivierenlandschap van de Maas en de Waal rondom Heerewaarden. Wandelen door uiterwaarden en langs oude forten. Klompen aan, rugzak op en gaan!</desc><link href="https://www.klompenpaden.nl/klompenpaden/Heriwardapad/c54d4d41-a02b-4af7-bfd5-5af2ff3c275c"><text>klompenpaden.nl</text></link></metadata>
<wpt lat="51.8170131521984" lon="5.387642771927161"><name>Start Parkeerplaats bij MFC de Steen, Bukestraat 1, 6624 AN, Heerewaarden. </name></wpt>
<trk><name>Heriwardapad - hoofdroute</name><type>mainRoute</type><trkseg>
<trkpt lat="51.8316570" lon="5.4016834"/>
<trkpt lat="51.8329751" lon="5.4034230"/>
<trkpt lat="51.8330507" lon="5.4031717"/>
<trkpt lat="51.8330759" lon="5.4030903"/>
<trkpt lat="51.8332434" lon="5.4025662"/>
<trkpt lat="51.8333804" lon="5.4025888"/>
<trkpt lat="51.8335929" lon="5.4024580"/>
<trkpt lat="51.8338138" lon="5.4022821"/>
<trkpt lat="51.8339564" lon="5.4021017"/>
<trkpt lat="51.8340598" lon="5.4019257"/>
<trkpt lat="51.8341912" lon="5.4018175"/>
<trkpt lat="51.8342911" lon="5.4017766"/>
<trkpt lat="51.8344056" lon="5.4017840"/>
<trkpt lat="51.8345075" lon="5.4017563"/>
<trkpt lat="51.8348222" lon="5.4015862"/>
<trkpt lat="51.8349868" lon="5.4015025"/>
<trkpt lat="51.8350548" lon="5.4015748"/>
<trkpt lat="51.8350780" lon="5.4020513"/>
<trkpt lat="51.8350672" lon="5.4023113"/>
<trkpt lat="51.8350529" lon="5.4025972"/>
<trkpt lat="51.8350510" lon="5.4029871"/>
<trkpt lat="51.8351118" lon="5.4034752"/>
<trkpt lat="51.8351082" lon="5.4036629"/>
<trkpt lat="51.8350778" lon="5.4037784"/>
<trkpt lat="51.8350939" lon="5.4039286"/>
<trkpt lat="51.8351886" lon="5.4042926"/>
<trkpt lat="51.8352405" lon="5.4044948"/>
<trkpt lat="51.8352101" lon="5.4046709"/>
<trkpt lat="51.8350043" lon="5.4048586"/>
<trkpt lat="51.8348003" lon="5.4050578"/>
<trkpt lat="51.8346965" lon="5.4051328"/>
<trkpt lat="51.8346500" lon="5.4051871"/>
<trkpt lat="51.8345811" lon="5.4053148"/>
<trkpt lat="51.8345452" lon="5.4053171"/>
<trkpt lat="51.8345086" lon="5.4052674"/>
<trkpt lat="51.8344536" lon="5.4053195"/>
<trkpt lat="51.8344133" lon="5.4053703"/>
<trkpt lat="51.8343121" lon="5.4054602"/>
<trkpt lat="51.8341707" lon="5.4055311"/>
<trkpt lat="51.8339024" lon="5.4056020"/>
<trkpt lat="51.8337588" lon="5.4056398"/>
<trkpt lat="51.8335191" lon="5.4057532"/>
<trkpt lat="51.8331636" lon="5.4059234"/>
<trkpt lat="51.8328319" lon="5.4060996"/>
<trkpt lat="51.8326977" lon="5.4061977"/>
<trkpt lat="51.8325814" lon="5.4062843"/>
<trkpt lat="51.8324776" lon="5.4061803"/>
<trkpt lat="51.8322844" lon="5.4060936"/>
<trkpt lat="51.8317512" lon="5.4058941"/>
<trkpt lat="51.8309533" lon="5.4055761"/>
<trkpt lat="51.8305829" lon="5.4053564"/>
<trkpt lat="51.8302466" lon="5.4051397"/>
<trkpt lat="51.8298619" lon="5.4049230"/>
<trkpt lat="51.8297031" lon="5.4056119"/>
<trkpt lat="51.8293812" lon="5.4068482"/>
<trkpt lat="51.8291061" lon="5.4078812"/>
<trkpt lat="51.8289996" lon="5.4081843"/>
<trkpt lat="51.8289057" lon="5.4083506"/>
<trkpt lat="51.8288418" lon="5.4084089"/>
<trkpt lat="51.8286897" lon="5.4085439"/>
<trkpt lat="51.8286925" lon="5.4086597"/>
<trkpt lat="51.8286017" lon="5.4087757"/>
<trkpt lat="51.8283275" lon="5.4091043"/>
<trkpt lat="51.8280116" lon="5.4094720"/>
<trkpt lat="51.8278606" lon="5.4096518"/>
<trkpt lat="51.8278356" lon="5.4097440"/>
<trkpt lat="51.8278546" lon="5.4099108"/>
<trkpt lat="51.8279294" lon="5.4101154"/>
<trkpt lat="51.8282673" lon="5.4109173"/>
<trkpt lat="51.8284184" lon="5.4112612"/>
<trkpt lat="51.8284253" lon="5.4113388"/>
<trkpt lat="51.8283989" lon="5.4114146"/>
<trkpt lat="51.8283222" lon="5.4114441"/>
<trkpt lat="51.8279981" lon="5.4114846"/>
<trkpt lat="51.8273832" lon="5.4115674"/>
<trkpt lat="51.8268804" lon="5.4116226"/>
<trkpt lat="51.8266262" lon="5.4116538"/>
<trkpt lat="51.8264842" lon="5.4116981"/>
<trkpt lat="51.8263926" lon="5.4117849"/>
<trkpt lat="51.8262723" lon="5.4119974"/>
<trkpt lat="51.8260147" lon="5.4124627"/>
<trkpt lat="51.8257770" lon="5.4127242"/>
<trkpt lat="51.8255031" lon="5.4127331"/>
<trkpt lat="51.8252123" lon="5.4126427"/>
<trkpt lat="51.8250418" lon="5.4124486"/>
<trkpt lat="51.8249273" lon="5.4121959"/>
<trkpt lat="51.8247707" lon="5.4121462"/>
<trkpt lat="51.8244939" lon="5.4122362"/>
<trkpt lat="51.8238788" lon="5.4124479"/>
<trkpt lat="51.8238089" lon="5.4124163"/>
<trkpt lat="51.8237530" lon="5.4123622"/>
<trkpt lat="51.8237587" lon="5.4120915"/>
<trkpt lat="51.8237755" lon="5.4115771"/>
<trkpt lat="51.8238765" lon="5.4100929"/>
<trkpt lat="51.8238682" lon="5.4097590"/>
<trkpt lat="51.8238347" lon="5.4095334"/>
<trkpt lat="51.8238431" lon="5.4092221"/>
<trkpt lat="51.8238041" lon="5.4087664"/>
<trkpt lat="51.8237650" lon="5.4083198"/>
<trkpt lat="51.8237175" lon="5.4079543"/>
<trkpt lat="51.8237176" lon="5.4077738"/>
<trkpt lat="51.8238238" lon="5.4076476"/>
<trkpt lat="51.8239860" lon="5.4075800"/>
<trkpt lat="51.8242208" lon="5.4074763"/>
<trkpt lat="51.8243243" lon="5.4073139"/>
<trkpt lat="51.8243355" lon="5.4071741"/>
<trkpt lat="51.8243188" lon="5.4071064"/>
<trkpt lat="51.8242683" lon="5.4070546"/>
<trkpt lat="51.8241574" lon="5.4069968"/>
<trkpt lat="51.8240952" lon="5.4069402"/>
<trkpt lat="51.8239865" lon="5.4067775"/>
<trkpt lat="51.8238411" lon="5.4065326"/>
<trkpt lat="51.8238186" lon="5.4064592"/>
<trkpt lat="51.8238007" lon="5.4063797"/>
<trkpt lat="51.8237907" lon="5.4063346"/>
<trkpt lat="51.8237585" lon="5.4062589"/>
<trkpt lat="51.8237263" lon="5.4060720"/>
<trkpt lat="51.8236941" lon="5.4059171"/>
<trkpt lat="51.8236391" lon="5.4057799"/>
<trkpt lat="51.8235285" lon="5.4054156"/>
<trkpt lat="51.8234714" lon="5.4053067"/>
<trkpt lat="51.8234054" lon="5.4052239"/>
<trkpt lat="51.8233402" lon="5.4051186"/>
<trkpt lat="51.8233131" lon="5.4050347"/>
<trkpt lat="51.8232787" lon="5.4048300"/>
<trkpt lat="51.8232626" lon="5.4047141"/>
<trkpt lat="51.8232803" lon="5.4045560"/>
<trkpt lat="51.8232059" lon="5.4043083"/>
<trkpt lat="51.8230857" lon="5.4039461"/>
<trkpt lat="51.8230262" lon="5.4037557"/>
<trkpt lat="51.8229106" lon="5.4034138"/>
<trkpt lat="51.8228293" lon="5.4031620"/>
<trkpt lat="51.8228131" lon="5.4031083"/>
<trkpt lat="51.8227732" lon="5.4030133"/>
<trkpt lat="51.8225835" lon="5.4025058"/>
<trkpt lat="51.8225330" lon="5.4023615"/>
<trkpt lat="51.8224656" lon="5.4021936"/>
<trkpt lat="51.8224480" lon="5.4021581"/>
<trkpt lat="51.8224289" lon="5.4020895"/>
<trkpt lat="51.8224128" lon="5.4019878"/>
<trkpt lat="51.8223557" lon="5.4018021"/>
<trkpt lat="51.8221893" lon="5.4012631"/>
<trkpt lat="51.8220188" lon="5.4008074"/>
<trkpt lat="51.8218539" lon="5.4004058"/>
<trkpt lat="51.8217281" lon="5.4001577"/>
<trkpt lat="51.8216582" lon="5.3999501"/>
<trkpt lat="51.8216219" lon="5.3995802"/>
<trkpt lat="51.8215644" lon="5.3994626"/>
<trkpt lat="51.8215139" lon="5.3993857"/>
<trkpt lat="51.8214472" lon="5.3993289"/>
<trkpt lat="51.8213219" lon="5.3992142"/>
<trkpt lat="51.8210229" lon="5.3989314"/>
<trkpt lat="51.8207891" lon="5.3987173"/>
<trkpt lat="51.8204982" lon="5.3984441"/>
<trkpt lat="51.8202161" lon="5.3981803"/>
<trkpt lat="51.8199105" lon="5.3978952"/>
<trkpt lat="51.8198394" lon="5.3978242"/>
<trkpt lat="51.8196444" lon="5.3977213"/>
<trkpt lat="51.8195265" lon="5.3976172"/>
<trkpt lat="51.8194407" lon="5.3975226"/>
<trkpt lat="51.8193872" lon="5.3974126"/>
<trkpt lat="51.8193367" lon="5.3973050"/>
<trkpt lat="51.8192766" lon="5.3972281"/>
<trkpt lat="51.8192333" lon="5.3971618"/>
<trkpt lat="51.8192040" lon="5.3970838"/>
<trkpt lat="51.8191960" lon="5.3970235"/>
<trkpt lat="51.8192001" lon="5.3970058"/>
<trkpt lat="51.8191638" lon="5.3968567"/>
<trkpt lat="51.8190919" lon="5.3966320"/>
<trkpt lat="51.8190634" lon="5.3964050"/>
<trkpt lat="51.8190663" lon="5.3961838"/>
<trkpt lat="51.8190759" lon="5.3959650"/>
<trkpt lat="51.8190429" lon="5.3958066"/>
<trkpt lat="51.8189528" lon="5.3956942"/>
<trkpt lat="51.8188729" lon="5.3956197"/>
<trkpt lat="51.8187740" lon="5.3955452"/>
<trkpt lat="51.8187325" lon="5.3954912"/>
<trkpt lat="51.8187087" lon="5.3953500"/>
<trkpt lat="51.8186985" lon="5.3951407"/>
<trkpt lat="51.8186861" lon="5.3950509"/>
<trkpt lat="51.8186604" lon="5.3950130"/>
<trkpt lat="51.8185395" lon="5.3950201"/>
<trkpt lat="51.8181525" lon="5.3950472"/>
<trkpt lat="51.8178579" lon="5.3950755"/>
<trkpt lat="51.8178081" lon="5.3950767"/>
<trkpt lat="51.8178093" lon="5.3952211"/>
<trkpt lat="51.8178417" lon="5.3956928"/>
<trkpt lat="51.8178705" lon="5.3963593"/>
<trkpt lat="51.8178647" lon="5.3967288"/>
<trkpt lat="51.8178544" lon="5.3967953"/>
<trkpt lat="51.8177903" lon="5.3968082"/>
<trkpt lat="51.8176346" lon="5.3967897"/>
<trkpt lat="51.8175281" lon="5.3967712"/>
<trkpt lat="51.8175338" lon="5.3965846"/>
<trkpt lat="51.8175430" lon="5.3962262"/>
<trkpt lat="51.8175167" lon="5.3958123"/>
<trkpt lat="51.8174961" lon="5.3953411"/>
<trkpt lat="51.8174950" lon="5.3951138"/>
<trkpt lat="51.8174686" lon="5.3950713"/>
<trkpt lat="51.8172133" lon="5.3949937"/>
<trkpt lat="51.8168656" lon="5.3948400"/>
<trkpt lat="51.8166377" lon="5.3947147"/>
<trkpt lat="51.8165446" lon="5.3946035"/>
<trkpt lat="51.8164567" lon="5.3944864"/>
<trkpt lat="51.8164215" lon="5.3944060"/>
<trkpt lat="51.8163841" lon="5.3943457"/>
<trkpt lat="51.8163269" lon="5.3943499"/>
</trkseg></trk>
<trk><name>Heriwardapad - hoofdroute</name><type>mainRoute</type><trkseg>
<trkpt lat="51.8163269" lon="5.3943499"/>
<trkpt lat="51.8161550" lon="5.3945390"/>
<trkpt lat="51.8159491" lon="5.3948670"/>
<trkpt lat="51.8158800" lon="5.3949195"/>
<trkpt lat="51.8158018" lon="5.3948249"/>
<trkpt lat="51.8156390" lon="5.3945558"/>
<trkpt lat="51.8151166" lon="5.3936455"/>
<trkpt lat="51.8145056" lon="5.3925880"/>
<trkpt lat="51.8143362" lon="5.3922874"/>
<trkpt lat="51.8142515" lon="5.3922348"/>
<trkpt lat="51.8141721" lon="5.3922222"/>
<trkpt lat="51.8141226" lon="5.3921696"/>
<trkpt lat="51.8140170" lon="5.3920014"/>
<trkpt lat="51.8131936" lon="5.3905568"/>
<trkpt lat="51.8130285" lon="5.3902771"/>
<trkpt lat="51.8127573" lon="5.3897358"/>
<trkpt lat="51.8123883" lon="5.3890322"/>
<trkpt lat="51.8123240" lon="5.3888562"/>
<trkpt lat="51.8123100" lon="5.3887660"/>
<trkpt lat="51.8123250" lon="5.3886911"/>
<trkpt lat="51.8124210" lon="5.3884999"/>
<trkpt lat="51.8123798" lon="5.3884444"/>
<trkpt lat="51.8124212" lon="5.3883604"/>
<trkpt lat="51.8124349" lon="5.3883031"/>
<trkpt lat="51.8124326" lon="5.3882144"/>
<trkpt lat="51.8124006" lon="5.3881239"/>
<trkpt lat="51.8123319" lon="5.3880721"/>
<trkpt lat="51.8119734" lon="5.3878449"/>
<trkpt lat="51.8118543" lon="5.3878061"/>
<trkpt lat="51.8118784" lon="5.3877525"/>
<trkpt lat="51.8119231" lon="5.3876953"/>
<trkpt lat="51.8120891" lon="5.3874773"/>
<trkpt lat="51.8120318" lon="5.3873904"/>
<trkpt lat="51.8119677" lon="5.3873239"/>
<trkpt lat="51.8118440" lon="5.3871669"/>
<trkpt lat="51.8117593" lon="5.3870579"/>
<trkpt lat="51.8116826" lon="5.3869581"/>
<trkpt lat="51.8115852" lon="5.3868306"/>
<trkpt lat="51.8114765" lon="5.3867253"/>
<trkpt lat="51.8111673" lon="5.3864279"/>
<trkpt lat="51.8110138" lon="5.3862986"/>
<trkpt lat="51.8105741" lon="5.3859679"/>
<trkpt lat="51.8104126" lon="5.3858294"/>
<trkpt lat="51.8102260" lon="5.3856409"/>
<trkpt lat="51.8101172" lon="5.3855264"/>
<trkpt lat="51.8096554" lon="5.3851693"/>
<trkpt lat="51.8094642" lon="5.3850250"/>
<trkpt lat="51.8093574" lon="5.3849349"/>
<trkpt lat="51.8091835" lon="5.3847866"/>
<trkpt lat="51.8085587" lon="5.3844440"/>
<trkpt lat="51.8081600" lon="5.3842477"/>
<trkpt lat="51.8078421" lon="5.3841375"/>
<trkpt lat="51.8074993" lon="5.3839872"/>
<trkpt lat="51.8073602" lon="5.3839031"/>
<trkpt lat="51.8071378" lon="5.3837789"/>
<trkpt lat="51.8068969" lon="5.3836126"/>
<trkpt lat="51.8066336" lon="5.3834183"/>
<trkpt lat="51.8064398" lon="5.3832801"/>
<trkpt lat="51.8060572" lon="5.3829876"/>
<trkpt lat="51.8056610" lon="5.3826771"/>
<trkpt lat="51.8052387" lon="5.3823545"/>
<trkpt lat="51.8050077" lon="5.3821582"/>
<trkpt lat="51.8047841" lon="5.3819799"/>
<trkpt lat="51.8046785" lon="5.3818898"/>
<trkpt lat="51.8044686" lon="5.3817015"/>
<trkpt lat="51.8043631" lon="5.3815593"/>
<trkpt lat="51.8043075" lon="5.3814902"/>
<trkpt lat="51.8042183" lon="5.3813757"/>
<trkpt lat="51.8040712" lon="5.3811646"/>
<trkpt lat="51.8039718" lon="5.3809983"/>
<trkpt lat="51.8038997" lon="5.3808541"/>
<trkpt lat="51.8037060" lon="5.3803533"/>
<trkpt lat="51.8036090" lon="5.3800707"/>
<trkpt lat="51.8036217" lon="5.3800412"/>
<trkpt lat="51.8035748" lon="5.3799015"/>
<trkpt lat="51.8034929" lon="5.3796681"/>
<trkpt lat="51.8034547" lon="5.3794656"/>
<trkpt lat="51.8034213" lon="5.3792412"/>
<trkpt lat="51.8033458" lon="5.3789796"/>
<trkpt lat="51.8032520" lon="5.3787142"/>
<trkpt lat="51.8030103" lon="5.3780495"/>
<trkpt lat="51.8028463" lon="5.3775987"/>
<trkpt lat="51.8027792" lon="5.3774425"/>
<trkpt lat="51.8027245" lon="5.3772882"/>
<trkpt lat="51.8023705" lon="5.3763187"/>
<trkpt lat="51.8022736" lon="5.3760743"/>
<trkpt lat="51.8021046" lon="5.3756056"/>
<trkpt lat="51.8019369" lon="5.3750627"/>
<trkpt lat="51.8018934" lon="5.3749084"/>
<trkpt lat="51.8018586" lon="5.3747201"/>
<trkpt lat="51.8018387" lon="5.3745098"/>
<trkpt lat="51.8018387" lon="5.3741913"/>
<trkpt lat="51.8018237" lon="5.3739969"/>
<trkpt lat="51.8017368" lon="5.3735983"/>
<trkpt lat="51.8015814" lon="5.3729653"/>
<trkpt lat="51.8014783" lon="5.3725006"/>
<trkpt lat="51.8014783" lon="5.3723062"/>
<trkpt lat="51.8014882" lon="5.3722061"/>
<trkpt lat="51.8015130" lon="5.3721259"/>
<trkpt lat="51.8015528" lon="5.3720358"/>
<trkpt lat="51.8016049" lon="5.3719636"/>
<trkpt lat="51.8017005" lon="5.3719075"/>
<trkpt lat="51.8025093" lon="5.3714755"/>
<trkpt lat="51.8032176" lon="5.3710214"/>
<trkpt lat="51.8034582" lon="5.3708147"/>
<trkpt lat="51.8038870" lon="5.3705703"/>
<trkpt lat="51.8039733" lon="5.3705564"/>
<trkpt lat="51.8040466" lon="5.3706085"/>
<trkpt lat="51.8041236" lon="5.3706786"/>
<trkpt lat="51.8041807" lon="5.3706745"/>
<trkpt lat="51.8043022" lon="5.3705680"/>
<trkpt lat="51.8043075" lon="5.3705246"/>
<trkpt lat="51.8043051" lon="5.3704489"/>
<trkpt lat="51.8042912" lon="5.3703597"/>
<trkpt lat="51.8042351" lon="5.3700348"/>
<trkpt lat="51.8041756" lon="5.3696868"/>
<trkpt lat="51.8041644" lon="5.3695847"/>
<trkpt lat="51.8040964" lon="5.3693118"/>
<trkpt lat="51.8039877" lon="5.3688642"/>
<trkpt lat="51.8039275" lon="5.3684980"/>
<trkpt lat="51.8038925" lon="5.3681412"/>
<trkpt lat="51.8038594" lon="5.3675433"/>
<trkpt lat="51.8038419" lon="5.3671989"/>
<trkpt lat="51.8037719" lon="5.3668546"/>
<trkpt lat="51.8036613" lon="5.3665354"/>
<trkpt lat="51.8034050" lon="5.3659282"/>
<trkpt lat="51.8030478" lon="5.3651114"/>
<trkpt lat="51.8027061" lon="5.3643039"/>
<trkpt lat="51.8024614" lon="5.3637187"/>
<trkpt lat="51.8023255" lon="5.3634245"/>
<trkpt lat="51.8019605" lon="5.3625389"/>
<trkpt lat="51.8014382" lon="5.3613277"/>
<trkpt lat="51.8008867" lon="5.3600416"/>
<trkpt lat="51.8007885" lon="5.3597553"/>
<trkpt lat="51.8006488" lon="5.3595776"/>
<trkpt lat="51.8003712" lon="5.3593316"/>
<trkpt lat="51.7999806" lon="5.3592294"/>
<trkpt lat="51.7998444" lon="5.3592091"/>
<trkpt lat="51.7995905" lon="5.3590600"/>
<trkpt lat="51.7992235" lon="5.3585124"/>
<trkpt lat="51.7989769" lon="5.3580686"/>
<trkpt lat="51.7989090" lon="5.3578604"/>
<trkpt lat="51.7988216" lon="5.3576356"/>
<trkpt lat="51.7987798" lon="5.3574773"/>
<trkpt lat="51.7987819" lon="5.3573968"/>
<trkpt lat="51.7988012" lon="5.3573279"/>
<trkpt lat="51.7989027" lon="5.3571653"/>
<trkpt lat="51.7991560" lon="5.3567815"/>
<trkpt lat="51.7993795" lon="5.3564429"/>
<trkpt lat="51.7996177" lon="5.3560969"/>
<trkpt lat="51.7997914" lon="5.3558496"/>
<trkpt lat="51.7998195" lon="5.3558208"/>
<trkpt lat="51.7998520" lon="5.3558050"/>
<trkpt lat="51.7998791" lon="5.3558128"/>
<trkpt lat="51.7999221" lon="5.3558758"/>
<trkpt lat="51.8001278" lon="5.3561452"/>
<trkpt lat="51.8002879" lon="5.3562834"/>
<trkpt lat="51.8003834" lon="5.3564036"/>
<trkpt lat="51.8005504" lon="5.3565523"/>
<trkpt lat="51.8007039" lon="5.3567188"/>
<trkpt lat="51.8007460" lon="5.3567925"/>
<trkpt lat="51.8007914" lon="5.3568931"/>
<trkpt lat="51.8008248" lon="5.3570290"/>
<trkpt lat="51.8008278" lon="5.3571499"/>
<trkpt lat="51.8008168" lon="5.3573700"/>
<trkpt lat="51.8007316" lon="5.3580894"/>
<trkpt lat="51.8007157" lon="5.3582309"/>
<trkpt lat="51.8006865" lon="5.3583610"/>
<trkpt lat="51.8005986" lon="5.3586908"/>
<trkpt lat="51.8005947" lon="5.3588382"/>
<trkpt lat="51.8006305" lon="5.3590510"/>
<trkpt lat="51.8007037" lon="5.3592369"/>
<trkpt lat="51.8007732" lon="5.3593834"/>
<trkpt lat="51.8008094" lon="5.3597912"/>
</trkseg></trk>
<trk><name>Heriwardapad - tijdelijke/hoofdwater route</name><type>mainRoute</type><trkseg>
<trkpt lat="51.8041644" lon="5.3695847"/>
<trkpt lat="51.8042324" lon="5.3697845"/>
<trkpt lat="51.8044731" lon="5.3705232"/>
<trkpt lat="51.8049431" lon="5.3716993"/>
<trkpt lat="51.8054739" lon="5.3728437"/>
<trkpt lat="51.8060017" lon="5.3739539"/>
<trkpt lat="51.8065052" lon="5.3750005"/>
<trkpt lat="51.8069449" lon="5.3757488"/>
<trkpt lat="51.8075424" lon="5.3766340"/>
<trkpt lat="51.8081944" lon="5.3774312"/>
<trkpt lat="51.8087433" lon="5.3779741"/>
<trkpt lat="51.8093922" lon="5.3786343"/>
<trkpt lat="51.8101352" lon="5.3793337"/>
<trkpt lat="51.8115453" lon="5.3806837"/>
<trkpt lat="51.8129068" lon="5.3819799"/>
<trkpt lat="51.8140228" lon="5.3829925"/>
<trkpt lat="51.8146292" lon="5.3834572"/>
<trkpt lat="51.8152115" lon="5.3838486"/>
<trkpt lat="51.8161363" lon="5.3843965"/>
<trkpt lat="51.8171370" lon="5.3848955"/>
<trkpt lat="51.8186223" lon="5.3857375"/>
<trkpt lat="51.8199704" lon="5.3869740"/>
<trkpt lat="51.8212863" lon="5.3886668"/>
<trkpt lat="51.8222682" lon="5.3899110"/>
<trkpt lat="51.8225205" lon="5.3902053"/>
<trkpt lat="51.8229726" lon="5.3907847"/>
<trkpt lat="51.8235063" lon="5.3914581"/>
<trkpt lat="51.8236810" lon="5.3916492"/>
<trkpt lat="51.8238149" lon="5.3917901"/>
<trkpt lat="51.8316570" lon="5.4016834"/>
</trkseg></trk>
<trk><name>Heriwardapad - routeverlenger</name><type>mainRoute</type><trkseg>
<trkpt lat="51.8015130" lon="5.3721259"/>
<trkpt lat="51.8014076" lon="5.3720251"/>
<trkpt lat="51.8010911" lon="5.3721907"/>
<trkpt lat="51.8009064" lon="5.3722996"/>
<trkpt lat="51.8007041" lon="5.3723469"/>
<trkpt lat="51.8002761" lon="5.3724700"/>
<trkpt lat="51.7998130" lon="5.3726309"/>
<trkpt lat="51.7992238" lon="5.3728817"/>
<trkpt lat="51.7990039" lon="5.3728345"/>
<trkpt lat="51.7987224" lon="5.3726029"/>
<trkpt lat="51.7981272" lon="5.3719222"/>
<trkpt lat="51.7978634" lon="5.3716339"/>
<trkpt lat="51.7977959" lon="5.3713266"/>
<trkpt lat="51.7977109" lon="5.3711422"/>
<trkpt lat="51.7975144" lon="5.3709768"/>
<trkpt lat="51.7972799" lon="5.3707358"/>
<trkpt lat="51.7970688" lon="5.3705042"/>
<trkpt lat="51.7967316" lon="5.3699511"/>
<trkpt lat="51.7961832" lon="5.3691665"/>
<trkpt lat="51.7958226" lon="5.3685473"/>
<trkpt lat="51.7958167" lon="5.3683440"/>
<trkpt lat="51.7958313" lon="5.3679043"/>
<trkpt lat="51.7959045" lon="5.3673890"/>
<trkpt lat="51.7960657" lon="5.3671005"/>
<trkpt lat="51.7962767" lon="5.3667789"/>
<trkpt lat="51.7963235" lon="5.3666087"/>
<trkpt lat="51.7963264" lon="5.3663486"/>
<trkpt lat="51.7962824" lon="5.3658570"/>
<trkpt lat="51.7961973" lon="5.3656490"/>
<trkpt lat="51.7960243" lon="5.3654789"/>
<trkpt lat="51.7958132" lon="5.3650345"/>
<trkpt lat="51.7957867" lon="5.3647367"/>
<trkpt lat="51.7959332" lon="5.3644010"/>
<trkpt lat="51.7962673" lon="5.3638996"/>
<trkpt lat="51.7965136" lon="5.3637577"/>
<trkpt lat="51.7966484" lon="5.3635779"/>
<trkpt lat="51.7968330" lon="5.3632374"/>
<trkpt lat="51.7970498" lon="5.3627787"/>
<trkpt lat="51.7971114" lon="5.3626274"/>
<trkpt lat="51.7971787" lon="5.3623531"/>
<trkpt lat="51.7973634" lon="5.3621430"/>
<trkpt lat="51.7975027" lon="5.3620825"/>
<trkpt lat="51.7978932" lon="5.3623461"/>
<trkpt lat="51.7983520" lon="5.3624349"/>
<trkpt lat="51.7992030" lon="5.3625462"/>
<trkpt lat="51.7998309" lon="5.3626299"/>
<trkpt lat="51.8000150" lon="5.3627050"/>
<trkpt lat="51.8001303" lon="5.3626468"/>
<trkpt lat="51.8002191" lon="5.3626313"/>
<trkpt lat="51.8002939" lon="5.3626917"/>
<trkpt lat="51.8003490" lon="5.3628556"/>
<trkpt lat="51.8004766" lon="5.3629221"/>
<trkpt lat="51.8006436" lon="5.3629402"/>
<trkpt lat="51.8008312" lon="5.3630067"/>
<trkpt lat="51.8009682" lon="5.3631670"/>
<trkpt lat="51.8010527" lon="5.3634695"/>
<trkpt lat="51.8010640" lon="5.3637661"/>
<trkpt lat="51.8010415" lon="5.3639477"/>
<trkpt lat="51.8009403" lon="5.3641999"/>
<trkpt lat="51.8009082" lon="5.3648618"/>
<trkpt lat="51.8009200" lon="5.3656562"/>
<trkpt lat="51.8008498" lon="5.3664175"/>
<trkpt lat="51.8007766" lon="5.3668809"/>
<trkpt lat="51.8007679" lon="5.3672450"/>
<trkpt lat="51.8008295" lon="5.3674908"/>
<trkpt lat="51.8009709" lon="5.3675852"/>
<trkpt lat="51.8013180" lon="5.3676697"/>
<trkpt lat="51.8015526" lon="5.3677967"/>
<trkpt lat="51.8018621" lon="5.3679449"/>
<trkpt lat="51.8021155" lon="5.3682898"/>
<trkpt lat="51.8023200" lon="5.3684107"/>
<trkpt lat="51.8024607" lon="5.3685105"/>
<trkpt lat="51.8026108" lon="5.3685135"/>
<trkpt lat="51.8027478" lon="5.3684287"/>
<trkpt lat="51.8028378" lon="5.3682955"/>
<trkpt lat="51.8028885" lon="5.3681896"/>
<trkpt lat="51.8029842" lon="5.3682985"/>
<trkpt lat="51.8030686" lon="5.3684740"/>
<trkpt lat="51.8032131" lon="5.3687705"/>
<trkpt lat="51.8033070" lon="5.3689853"/>
<trkpt lat="51.8034149" lon="5.3691964"/>
<trkpt lat="51.8034423" lon="5.3692432"/>
<trkpt lat="51.8034841" lon="5.3692662"/>
<trkpt lat="51.8035392" lon="5.3693510"/>
<trkpt lat="51.8036957" lon="5.3696364"/>
<trkpt lat="51.8037446" lon="5.3697492"/>
<trkpt lat="51.8038107" lon="5.3699913"/>
<trkpt lat="51.8038635" lon="5.3700165"/>
<trkpt lat="51.8039080" lon="5.3701172"/>
<trkpt lat="51.8039368" lon="5.3702547"/>
<trkpt lat="51.8039356" lon="5.3703980"/>
<trkpt lat="51.8039585" lon="5.3705588"/>
</trkseg></trk>
<trk><name>Heriwardapad - aanloop route</name><type>approachRoute</type><trkseg>
<trkpt lat="51.8170132" lon="5.3876428"/>
<trkpt lat="51.8170132" lon="5.3877577"/>
<trkpt lat="51.8163272" lon="5.3883859"/>
<trkpt lat="51.8162295" lon="5.3881504"/>
<trkpt lat="51.8161187" lon="5.3882492"/>
<trkpt lat="51.8161031" lon="5.3882009"/>
<trkpt lat="51.8159423" lon="5.3883596"/>
<trkpt lat="51.8159311" lon="5.3884090"/>
<trkpt lat="51.8162750" lon="5.3892983"/>
<trkpt lat="51.8164444" lon="5.3897397"/>
<trkpt lat="51.8167444" lon="5.3905728"/>
<trkpt lat="51.8167444" lon="5.3906877"/>
<trkpt lat="51.8166772" lon="5.3908027"/>
<trkpt lat="51.8165998" lon="5.3913020"/>
<trkpt lat="51.8164817" lon="5.3923498"/>
<trkpt lat="51.8163647" lon="5.3935485"/>
<trkpt lat="51.8163360" lon="5.3941233"/>
<trkpt lat="51.8163360" lon="5.3943081"/>
<trkpt lat="51.8163269" lon="5.3943499"/>
</trkseg></trk>
</gpx>