<?xml version="1.0" encoding="UTF-8"?>
<gpx version="1.1" creator="klompenpaden.nl via Jimbo API" xmlns="http://www.topografix.com/GPX/1/1">
<metadata><name>Heuzesepad</name><desc>Ontdek het mooie afwisselende buitengebied van Opheusden. Wandelen langs rivieren, door uiterwaarden en door het oeverwallenlandschap met eeuwenoude bomenteelt. Klompen aan, rugzak op en gaan!</desc><link href="https://www.klompenpaden.nl/klompenpaden/Heuzesepad/0037a2c6-163c-49f7-b843-1335920ec088"><text>klompenpaden.nl</text></link></metadata>
<wpt lat="51.940746331336875" lon="5.601943731307983"><name>Start Opheusden</name></wpt>
<trk><name>Heuzesepad - mainRoute</name><type>mainRoute</type><trkseg>
<trkpt lat="51.9409200" lon="5.6021100"/>
<trkpt lat="51.9414100" lon="5.6030000"/>
<trkpt lat="51.9417000" lon="5.6026700"/>
<trkpt lat="51.9420000" lon="5.6026700"/>
<trkpt lat="51.9420900" lon="5.6025200"/>
<trkpt lat="51.9413500" lon="5.5990400"/>
<trkpt lat="51.9413100" lon="5.5983400"/>
<trkpt lat="51.9412900" lon="5.5975500"/>
<trkpt lat="51.9410400" lon="5.5954300"/>
<trkpt lat="51.9406600" lon="5.5928400"/>
<trkpt lat="51.9407000" lon="5.5922800"/>
<trkpt lat="51.9407700" lon="5.5919700"/>
<trkpt lat="51.9447400" lon="5.5917400"/>
<trkpt lat="51.9447500" lon="5.5902200"/>
<trkpt lat="51.9444500" lon="5.5887500"/>
<trkpt lat="51.9443300" lon="5.5877100"/>
<trkpt lat="51.9441500" lon="5.5867900"/>
<trkpt lat="51.9437600" lon="5.5857400"/>
<trkpt lat="51.9405800" lon="5.5868100"/>
<trkpt lat="51.9408600" lon="5.5876700"/>
<trkpt lat="51.9409000" lon="5.5880300"/>
<trkpt lat="51.9409100" lon="5.5884600"/>
<trkpt lat="51.9410200" lon="5.5896000"/>
<trkpt lat="51.9409500" lon="5.5899300"/>
<trkpt lat="51.9408600" lon="5.5901000"/>
<trkpt lat="51.9406500" lon="5.5917600"/>
<trkpt lat="51.9406600" lon="5.5928400"/>
<trkpt lat="51.9379500" lon="5.5938800"/>
<trkpt lat="51.9380200" lon="5.5948800"/>
<trkpt lat="51.9382000" lon="5.5963500"/>
<trkpt lat="51.9301800" lon="5.5990100"/>
<trkpt lat="51.9298800" lon="5.5990100"/>
<trkpt lat="51.9295800" lon="5.5992200"/>
<trkpt lat="51.9265500" lon="5.6002200"/>
<trkpt lat="51.9262200" lon="5.6004500"/>
<trkpt lat="51.9243900" lon="5.6009400"/>
<trkpt lat="51.9244300" lon="5.6014400"/>
<trkpt lat="51.9245200" lon="5.6015200"/>
<trkpt lat="51.9244400" lon="5.6018800"/>
<trkpt lat="51.9244500" lon="5.6024600"/>
<trkpt lat="51.9245600" lon="5.6047300"/>
<trkpt lat="51.9253000" lon="5.6075900"/>
<trkpt lat="51.9254400" lon="5.6085000"/>
<trkpt lat="51.9253600" lon="5.6114000"/>
<trkpt lat="51.9269000" lon="5.6161100"/>
<trkpt lat="51.9270900" lon="5.6160100"/>
<trkpt lat="51.9282900" lon="5.6147100"/>
<trkpt lat="51.9284900" lon="5.6147900"/>
<trkpt lat="51.9284800" lon="5.6152600"/>
<trkpt lat="51.9288600" lon="5.6156400"/>
<trkpt lat="51.9289500" lon="5.6158200"/>
<trkpt lat="51.9289500" lon="5.6159800"/>
<trkpt lat="51.9288500" lon="5.6162000"/>
<trkpt lat="51.9286400" lon="5.6163100"/>
<trkpt lat="51.9285100" lon="5.6163100"/>
<trkpt lat="51.9283400" lon="5.6164300"/>
<trkpt lat="51.9277900" lon="5.6219600"/>
<trkpt lat="51.9291800" lon="5.6211200"/>
<trkpt lat="51.9300300" lon="5.6245700"/>
<trkpt lat="51.9315200" lon="5.6246200"/>
<trkpt lat="51.9317800" lon="5.6247900"/>
<trkpt lat="51.9319600" lon="5.6246600"/>
<trkpt lat="51.9321100" lon="5.6242800"/>
<trkpt lat="51.9322200" lon="5.6242100"/>
<trkpt lat="51.9323700" lon="5.6240000"/>
<trkpt lat="51.9327800" lon="5.6237900"/>
<trkpt lat="51.9325100" lon="5.6224500"/>
<trkpt lat="51.9336400" lon="5.6218400"/>
<trkpt lat="51.9336800" lon="5.6217700"/>
<trkpt lat="51.9335600" lon="5.6211000"/>
<trkpt lat="51.9354400" lon="5.6199900"/>
<trkpt lat="51.9355400" lon="5.6199500"/>
<trkpt lat="51.9356100" lon="5.6199800"/>
<trkpt lat="51.9357600" lon="5.6201100"/>
<trkpt lat="51.9361200" lon="5.6201600"/>
<trkpt lat="51.9360200" lon="5.6219200"/>
<trkpt lat="51.9360300" lon="5.6226800"/>
<trkpt lat="51.9361500" lon="5.6231300"/>
<trkpt lat="51.9362500" lon="5.6232400"/>
<trkpt lat="51.9364300" lon="5.6236200"/>
<trkpt lat="51.9363400" lon="5.6246000"/>
<trkpt lat="51.9364200" lon="5.6247200"/>
<trkpt lat="51.9366700" lon="5.6247200"/>
<trkpt lat="51.9368800" lon="5.6245500"/>
<trkpt lat="51.9379200" lon="5.6242300"/>
<trkpt lat="51.9389300" lon="5.6239900"/>
<trkpt lat="51.9392200" lon="5.6238600"/>
<trkpt lat="51.9395300" lon="5.6233400"/>
<trkpt lat="51.9396900" lon="5.6230100"/>
<trkpt lat="51.9397500" lon="5.6228500"/>
<trkpt lat="51.9398500" lon="5.6220300"/>
<trkpt lat="51.9399700" lon="5.6200200"/>
<trkpt lat="51.9400300" lon="5.6196700"/>
<trkpt lat="51.9401300" lon="5.6194200"/>
<trkpt lat="51.9401900" lon="5.6190800"/>
<trkpt lat="51.9402700" lon="5.6189300"/>
<trkpt lat="51.9403400" lon="5.6185300"/>
<trkpt lat="51.9403000" lon="5.6182000"/>
<trkpt lat="51.9402400" lon="5.6161700"/>
<trkpt lat="51.9402800" lon="5.6159400"/>
<trkpt lat="51.9402800" lon="5.6156300"/>
<trkpt lat="51.9378900" lon="5.6164800"/>
<trkpt lat="51.9376800" lon="5.6164800"/>
<trkpt lat="51.9381900" lon="5.6152900"/>
<trkpt lat="51.9387200" lon="5.6139100"/>
<trkpt lat="51.9393500" lon="5.6124200"/>
<trkpt lat="51.9396700" lon="5.6113600"/>
<trkpt lat="51.9398300" lon="5.6107000"/>
<trkpt lat="51.9397500" lon="5.6103700"/>
<trkpt lat="51.9398000" lon="5.6096700"/>
<trkpt lat="51.9399000" lon="5.6089000"/>
<trkpt lat="51.9397300" lon="5.6075200"/>
<trkpt lat="51.9396800" lon="5.6068200"/>
<trkpt lat="51.9398000" lon="5.6055100"/>
<trkpt lat="51.9400100" lon="5.6040400"/>
<trkpt lat="51.9401500" lon="5.6036400"/>
<trkpt lat="51.9400600" lon="5.6034900"/>
<trkpt lat="51.9402400" lon="5.6031800"/>
<trkpt lat="51.9406900" lon="5.6022900"/>
<trkpt lat="51.9407300" lon="5.6022000"/>
<trkpt lat="51.9407800" lon="5.6018500"/>
<trkpt lat="51.9409200" lon="5.6021100"/>
</trkseg></trk>
<trk><name>Heuzesepad - extensionRoute</name><type>extensionRoute</type><trkseg>
<trkpt lat="51.9366500" lon="5.6247400"/>
<trkpt lat="51.9365200" lon="5.6250000"/>
<trkpt lat="51.9364000" lon="5.6253400"/>
<trkpt lat="51.9364000" lon="5.6254300"/>
<trkpt lat="51.9364600" lon="5.6256100"/>
<trkpt lat="51.9364600" lon="5.6257500"/>
<trkpt lat="51.9372100" lon="5.6280100"/>
<trkpt lat="51.9369400" lon="5.6291000"/>
<trkpt lat="51.9367900" lon="5.6303500"/>
<trkpt lat="51.9364700" lon="5.6303100"/>
<trkpt lat="51.9362000" lon="5.6302500"/>
<trkpt lat="51.9359100" lon="5.6302500"/>
<trkpt lat="51.9359300" lon="5.6303600"/>
<trkpt lat="51.9361200" lon="5.6307400"/>
<trkpt lat="51.9366000" lon="5.6352200"/>
<trkpt lat="51.9364700" lon="5.6356400"/>
<trkpt lat="51.9365100" lon="5.6358800"/>
<trkpt lat="51.9365800" lon="5.6359200"/>
<trkpt lat="51.9366600" lon="5.6360600"/>
<trkpt lat="51.9370300" lon="5.6373100"/>
<trkpt lat="51.9371900" lon="5.6379600"/>
<trkpt lat="51.9374800" lon="5.6399300"/>
<trkpt lat="51.9376600" lon="5.6407700"/>
<trkpt lat="51.9378800" lon="5.6416700"/>
<trkpt lat="51.9380700" lon="5.6422900"/>
<trkpt lat="51.9385400" lon="5.6433800"/>
<trkpt lat="51.9385800" lon="5.6438300"/>
<trkpt lat="51.9385500" lon="5.6439500"/>
<trkpt lat="51.9384800" lon="5.6439200"/>
<trkpt lat="51.9380900" lon="5.6428800"/>
<trkpt lat="51.9378700" lon="5.6431400"/>
<trkpt lat="51.9376500" lon="5.6432900"/>
<trkpt lat="51.9373000" lon="5.6423700"/>
<trkpt lat="51.9368800" lon="5.6414800"/>
<trkpt lat="51.9365800" lon="5.6407300"/>
<trkpt lat="51.9362600" lon="5.6394900"/>
<trkpt lat="51.9361700" lon="5.6389500"/>
<trkpt lat="51.9358800" lon="5.6350200"/>
<trkpt lat="51.9359500" lon="5.6345100"/>
<trkpt lat="51.9359500" lon="5.6337400"/>
<trkpt lat="51.9362200" lon="5.6336600"/>
<trkpt lat="51.9358800" lon="5.6302600"/>
<trkpt lat="51.9362000" lon="5.6302500"/>
<trkpt lat="51.9364700" lon="5.6303100"/>
<trkpt lat="51.9367900" lon="5.6303500"/>
<trkpt lat="51.9369400" lon="5.6291000"/>
<trkpt lat="51.9372100" lon="5.6280100"/>
<trkpt lat="51.9364600" lon="5.6257500"/>
<trkpt lat="51.9364600" lon="5.6256100"/>
<trkpt lat="51.9364000" lon="5.6254300"/>
<trkpt lat="51.9364000" lon="5.6253400"/>
<trkpt lat="51.9365200" lon="5.6250000"/>
<trkpt lat="51.9366600" lon="5.6247400"/>
</trkseg></trk>
<trk><name>Heuzesepad - alternativeRoute</name><type>alternativeRoute</type><trkseg>
<trkpt lat="51.9377900" lon="5.6162100"/>
<trkpt lat="51.9361200" lon="5.6201600"/>
</trkseg></trk>
<trk><name>Heuzesepad - connectionRoute</name><type>connectionRoute</type><trkseg>
<trkpt lat="51.9402700" lon="5.6156400"/>
<trkpt lat="51.9405600" lon="5.6152100"/>
<trkpt lat="51.9408400" lon="5.6151600"/>
<trkpt lat="51.9411300" lon="5.6150100"/>
<trkpt lat="51.9417500" lon="5.6151100"/>
<trkpt lat="51.9422300" lon="5.6153700"/>
<trkpt lat="51.9426200" lon="5.6154900"/>
<trkpt lat="51.9428000" lon="5.6157200"/>
<trkpt lat="51.9430400" lon="5.6160700"/>
</trkseg></trk>
<trk><name>Heuzesepad - connectionRoute</name><type>connectionRoute</type><trkseg>
<trkpt lat="51.9415000" lon="5.5997100"/>
<trkpt lat="51.9416800" lon="5.5995200"/>
<trkpt lat="51.9423600" lon="5.5986400"/>
<trkpt lat="51.9431700" lon="5.5977100"/>
<trkpt lat="51.9434700" lon="5.5974400"/>
<trkpt lat="51.9441500" lon="5.5969500"/>
<trkpt lat="51.9447600" lon="5.5965400"/>
<trkpt lat="51.9459000" lon="5.5958600"/>
<trkpt lat="51.9461600" lon="5.5953700"/>
<trkpt lat="51.9471900" lon="5.5927300"/>
</trkseg></trk>
<trk><name>Heuzesepad - overstaproute</name><type>connectionRoute</type><trkseg>
<trkpt lat="51.9210751" lon="5.5990961"/>
<trkpt lat="51.9221973" lon="5.5986432"/>
<trkpt lat="51.9221955" lon="5.5986310"/>
<trkpt lat="51.9225814" lon="5.5984752"/>
<trkpt lat="51.9232461" lon="5.5987268"/>
<trkpt lat="51.9237042" lon="5.5992189"/>
<trkpt lat="51.9243664" lon="5.5999302"/>
<trkpt lat="51.9252710" lon="5.6003413"/>
<trkpt lat="51.9258247" lon="5.6003365"/>
<trkpt lat="51.9265522" lon="5.6002277"/>
</trkseg></trk>
<trk><name>Heuzesepad - approachRoute</name><type>approachRoute</type><trkseg>
<trkpt lat="51.9261400" lon="5.6373700"/>
<trkpt lat="51.9261100" lon="5.6374700"/>
<trkpt lat="51.9258600" lon="5.6374200"/>
<trkpt lat="51.9257600" lon="5.6358500"/>
<trkpt lat="51.9257500" lon="5.6345700"/>
<trkpt lat="51.9255200" lon="5.6319900"/>
<trkpt lat="51.9252600" lon="5.6298300"/>
<trkpt lat="51.9257700" lon="5.6296100"/>
<trkpt lat="51.9267100" lon="5.6290200"/>
<trkpt lat="51.9267700" lon="5.6290200"/>
<trkpt lat="51.9268300" lon="5.6284500"/>
<trkpt lat="51.9271700" lon="5.6285300"/>
<trkpt lat="51.9274600" lon="5.6285600"/>
<trkpt lat="51.9284500" lon="5.6279900"/>
<trkpt lat="51.9306700" lon="5.6265700"/>
<trkpt lat="51.9304900" lon="5.6255600"/>
<trkpt lat="51.9302300" lon="5.6245400"/>
</trkseg></trk>
</gpx>