<?xml version="1.0" encoding="UTF-8"?>
<gpx version="1.1" creator="klompenpaden.nl via Jimbo API" xmlns="http://www.topografix.com/GPX/1/1">
<metadata><name>Heyrderpad</name><desc>Ontdek het afwisselende buitengebied van Hierden. Wandelen over oude wegen, langs kasteel de Essenburgh en de Hierdense Beek. Klompen aan, rugzak op en gaan!</desc><link href="https://www.klompenpaden.nl/klompenpaden/Heyrderpad/fa07dfe7-a7a7-4cdb-a3ca-c38d07852ec6"><text>klompenpaden.nl</text></link></metadata>
<wpt lat="52.35976882852203" lon="5.69668471813202"><name>Start Hierden</name></wpt>
<trk><name>Heyrderpad - hoofdroute</name><type>mainRoute</type><trkseg>
<trkpt lat="52.3582871" lon="5.6888630"/>
<trkpt lat="52.3583785" lon="5.6891656"/>
<trkpt lat="52.3604064" lon="5.6950378"/>
<trkpt lat="52.3604681" lon="5.6953041"/>
<trkpt lat="52.3604511" lon="5.6955533"/>
<trkpt lat="52.3606192" lon="5.6956139"/>
<trkpt lat="52.3608293" lon="5.6961814"/>
<trkpt lat="52.3609786" lon="5.6968947"/>
<trkpt lat="52.3609393" lon="5.6978312"/>
<trkpt lat="52.3606090" lon="5.6982281"/>
<trkpt lat="52.3604306" lon="5.6978891"/>
<trkpt lat="52.3602275" lon="5.6979750"/>
<trkpt lat="52.3599039" lon="5.6966082"/>
<trkpt lat="52.3595226" lon="5.6968389"/>
<trkpt lat="52.3591151" lon="5.6969666"/>
<trkpt lat="52.3590116" lon="5.6971928"/>
<trkpt lat="52.3588294" lon="5.6973419"/>
<trkpt lat="52.3585973" lon="5.6965554"/>
<trkpt lat="52.3584766" lon="5.6966311"/>
<trkpt lat="52.3580203" lon="5.6952463"/>
<trkpt lat="52.3570659" lon="5.6961874"/>
<trkpt lat="52.3570132" lon="5.6964075"/>
<trkpt lat="52.3568440" lon="5.6966701"/>
<trkpt lat="52.3572813" lon="5.6980536"/>
<trkpt lat="52.3568351" lon="5.6983488"/>
<trkpt lat="52.3570120" lon="5.6989393"/>
<trkpt lat="52.3569465" lon="5.6991934"/>
<trkpt lat="52.3574444" lon="5.7004911"/>
<trkpt lat="52.3578112" lon="5.7000999"/>
<trkpt lat="52.3592578" lon="5.6988372"/>
<trkpt lat="52.3593415" lon="5.6990579"/>
<trkpt lat="52.3579996" lon="5.7002201"/>
<trkpt lat="52.3578314" lon="5.7005193"/>
<trkpt lat="52.3573274" lon="5.7007744"/>
<trkpt lat="52.3567763" lon="5.6988926"/>
<trkpt lat="52.3566339" lon="5.6986412"/>
<trkpt lat="52.3564435" lon="5.6986923"/>
<trkpt lat="52.3562741" lon="5.6988033"/>
<trkpt lat="52.3561606" lon="5.6988944"/>
<trkpt lat="52.3560673" lon="5.6989186"/>
<trkpt lat="52.3559372" lon="5.6988355"/>
<trkpt lat="52.3557770" lon="5.6993120"/>
<trkpt lat="52.3551997" lon="5.6993468"/>
<trkpt lat="52.3547300" lon="5.6996260"/>
<trkpt lat="52.3533796" lon="5.7006262"/>
<trkpt lat="52.3534470" lon="5.7011223"/>
<trkpt lat="52.3535564" lon="5.7019187"/>
<trkpt lat="52.3538126" lon="5.7032900"/>
<trkpt lat="52.3539958" lon="5.7043233"/>
<trkpt lat="52.3542072" lon="5.7051261"/>
<trkpt lat="52.3537427" lon="5.7055650"/>
<trkpt lat="52.3534066" lon="5.7058839"/>
<trkpt lat="52.3531649" lon="5.7062283"/>
<trkpt lat="52.3528652" lon="5.7070507"/>
<trkpt lat="52.3525943" lon="5.7077915"/>
<trkpt lat="52.3521207" lon="5.7085308"/>
<trkpt lat="52.3521096" lon="5.7085922"/>
<trkpt lat="52.3519138" lon="5.7087286"/>
<trkpt lat="52.3518468" lon="5.7089257"/>
<trkpt lat="52.3518593" lon="5.7093181"/>
<trkpt lat="52.3519687" lon="5.7097127"/>
<trkpt lat="52.3517928" lon="5.7096820"/>
<trkpt lat="52.3515614" lon="5.7097522"/>
<trkpt lat="52.3512936" lon="5.7098903"/>
<trkpt lat="52.3510811" lon="5.7099207"/>
<trkpt lat="52.3508778" lon="5.7100455"/>
<trkpt lat="52.3507736" lon="5.7100969"/>
<trkpt lat="52.3505803" lon="5.7099725"/>
<trkpt lat="52.3501016" lon="5.7102235"/>
<trkpt lat="52.3491039" lon="5.7109830"/>
<trkpt lat="52.3487546" lon="5.7113410"/>
<trkpt lat="52.3486336" lon="5.7112168"/>
<trkpt lat="52.3483541" lon="5.7114763"/>
<trkpt lat="52.3481584" lon="5.7114265"/>
<trkpt lat="52.3480521" lon="5.7112610"/>
<trkpt lat="52.3479406" lon="5.7108339"/>
<trkpt lat="52.3479303" lon="5.7102623"/>
<trkpt lat="52.3478252" lon="5.7101617"/>
<trkpt lat="52.3458938" lon="5.7119169"/>
<trkpt lat="52.3445685" lon="5.7060998"/>
<trkpt lat="52.3449483" lon="5.7056965"/>
<trkpt lat="52.3456148" lon="5.7050993"/>
<trkpt lat="52.3464551" lon="5.7043512"/>
<trkpt lat="52.3486591" lon="5.7024869"/>
<trkpt lat="52.3522945" lon="5.6993523"/>
<trkpt lat="52.3518686" lon="5.6988588"/>
<trkpt lat="52.3490886" lon="5.6958417"/>
<trkpt lat="52.3477345" lon="5.6930991"/>
<trkpt lat="52.3477620" lon="5.6923921"/>
<trkpt lat="52.3471289" lon="5.6889217"/>
<trkpt lat="52.3500495" lon="5.6880335"/>
<trkpt lat="52.3501539" lon="5.6878773"/>
<trkpt lat="52.3501470" lon="5.6860261"/>
<trkpt lat="52.3505375" lon="5.6859359"/>
<trkpt lat="52.3506200" lon="5.6857545"/>
<trkpt lat="52.3506625" lon="5.6851563"/>
<trkpt lat="52.3506003" lon="5.6842149"/>
<trkpt lat="52.3502676" lon="5.6831501"/>
<trkpt lat="52.3502422" lon="5.6827840"/>
<trkpt lat="52.3502050" lon="5.6823060"/>
<trkpt lat="52.3500946" lon="5.6813481"/>
<trkpt lat="52.3500351" lon="5.6807533"/>
<trkpt lat="52.3505325" lon="5.6807036"/>
<trkpt lat="52.3509211" lon="5.6805507"/>
<trkpt lat="52.3512780" lon="5.6804486"/>
<trkpt lat="52.3513570" lon="5.6803850"/>
<trkpt lat="52.3517994" lon="5.6796333"/>
<trkpt lat="52.3522273" lon="5.6789417"/>
<trkpt lat="52.3523024" lon="5.6789448"/>
<trkpt lat="52.3537436" lon="5.6803746"/>
<trkpt lat="52.3541758" lon="5.6793821"/>
<trkpt lat="52.3545784" lon="5.6786299"/>
<trkpt lat="52.3555752" lon="5.6763814"/>
<trkpt lat="52.3557151" lon="5.6762541"/>
<trkpt lat="52.3559022" lon="5.6764873"/>
<trkpt lat="52.3558692" lon="5.6765163"/>
<trkpt lat="52.3560820" lon="5.6763861"/>
<trkpt lat="52.3560767" lon="5.6761831"/>
<trkpt lat="52.3562130" lon="5.6759930"/>
<trkpt lat="52.3562662" lon="5.6759375"/>
<trkpt lat="52.3576765" lon="5.6780029"/>
<trkpt lat="52.3593173" lon="5.6805531"/>
<trkpt lat="52.3604514" lon="5.6823431"/>
<trkpt lat="52.3610322" lon="5.6831877"/>
<trkpt lat="52.3613801" lon="5.6834821"/>
<trkpt lat="52.3630120" lon="5.6844972"/>
<trkpt lat="52.3632184" lon="5.6849078"/>
<trkpt lat="52.3634038" lon="5.6854213"/>
<trkpt lat="52.3629761" lon="5.6873594"/>
<trkpt lat="52.3617247" lon="5.6877151"/>
<trkpt lat="52.3605283" lon="5.6881095"/>
<trkpt lat="52.3583058" lon="5.6888554"/>
</trkseg></trk>
<trk><name>Heyrderpad - routeverkorter</name><type>shorteningRoute</type><trkseg>
<trkpt lat="52.3522945" lon="5.6993523"/>
<trkpt lat="52.3531513" lon="5.6986829"/>
<trkpt lat="52.3531742" lon="5.6988406"/>
<trkpt lat="52.3531768" lon="5.6990539"/>
<trkpt lat="52.3533829" lon="5.7006505"/>
</trkseg></trk>
<trk><name>Heyrderpad - aanlooproute</name><type>approachRoute</type><trkseg>
<trkpt lat="52.3561052" lon="5.6668756"/>
<trkpt lat="52.3560371" lon="5.6668792"/>
<trkpt lat="52.3560676" lon="5.6684427"/>
<trkpt lat="52.3557950" lon="5.6684569"/>
<trkpt lat="52.3557980" lon="5.6686112"/>
<trkpt lat="52.3557628" lon="5.6688141"/>
<trkpt lat="52.3558502" lon="5.6749305"/>
<trkpt lat="52.3559721" lon="5.6757647"/>
<trkpt lat="52.3560563" lon="5.6761105"/>
<trkpt lat="52.3560767" lon="5.6761831"/>
</trkseg></trk>
<trk><name>Heyrderpad - aanlooproute</name><type>approachRoute</type><trkseg>
<trkpt lat="52.3510679" lon="5.6883287"/>
<trkpt lat="52.3505668" lon="5.6879290"/>
<trkpt lat="52.3504994" lon="5.6881108"/>
<trkpt lat="52.3503185" lon="5.6879683"/>
<trkpt lat="52.3502484" lon="5.6881045"/>
<trkpt lat="52.3501271" lon="5.6879174"/>
</trkseg></trk>
</gpx>