<?xml version="1.0" encoding="UTF-8"?>
<gpx version="1.1" creator="klompenpaden.nl via Jimbo API" xmlns="http://www.topografix.com/GPX/1/1">
<metadata><name>Hiensepad</name><desc>Ontdek het mooie buitengebied van Neder-Betuwe. Wandelen langs oeverwallen, oude stroombeddingen en dijken in het prachtige buitengebied van Dodewaard, Hien en Wely.  Klompen aan, rugzak op en gaan!</desc><link href="https://www.klompenpaden.nl/klompenpaden/Hiensepad/2cee04d8-a4be-46b7-92ad-25a41aad2104"><text>klompenpaden.nl</text></link></metadata>
<wpt lat="51.90994064654035" lon="5.656832456588745"><name>Start Dodewaard</name></wpt>
<trk><name>Hiensepad - mainRoute</name><type>mainRoute</type><trkseg>
<trkpt lat="51.9105100" lon="5.6563600"/>
<trkpt lat="51.9102800" lon="5.6563600"/>
<trkpt lat="51.9100000" lon="5.6563100"/>
<trkpt lat="51.9099500" lon="5.6566400"/>
<trkpt lat="51.9098200" lon="5.6570500"/>
<trkpt lat="51.9094100" lon="5.6575000"/>
<trkpt lat="51.9090200" lon="5.6591800"/>
<trkpt lat="51.9088100" lon="5.6596300"/>
<trkpt lat="51.9080200" lon="5.6610800"/>
<trkpt lat="51.9077700" lon="5.6618900"/>
<trkpt lat="51.9078200" lon="5.6620000"/>
<trkpt lat="51.9077300" lon="5.6622400"/>
<trkpt lat="51.9076900" lon="5.6625600"/>
<trkpt lat="51.9076800" lon="5.6631900"/>
<trkpt lat="51.9077300" lon="5.6636800"/>
<trkpt lat="51.9077600" lon="5.6638300"/>
<trkpt lat="51.9078100" lon="5.6639000"/>
<trkpt lat="51.9078700" lon="5.6644900"/>
<trkpt lat="51.9079300" lon="5.6645100"/>
<trkpt lat="51.9079500" lon="5.6648000"/>
<trkpt lat="51.9080400" lon="5.6649900"/>
<trkpt lat="51.9086900" lon="5.6652200"/>
<trkpt lat="51.9089700" lon="5.6653800"/>
<trkpt lat="51.9090900" lon="5.6655400"/>
<trkpt lat="51.9094000" lon="5.6656600"/>
<trkpt lat="51.9094100" lon="5.6660100"/>
<trkpt lat="51.9093700" lon="5.6661700"/>
<trkpt lat="51.9093800" lon="5.6664600"/>
<trkpt lat="51.9093200" lon="5.6667100"/>
<trkpt lat="51.9093100" lon="5.6678700"/>
<trkpt lat="51.9093800" lon="5.6687200"/>
<trkpt lat="51.9094500" lon="5.6700500"/>
<trkpt lat="51.9101900" lon="5.6700000"/>
<trkpt lat="51.9119500" lon="5.6698300"/>
<trkpt lat="51.9119500" lon="5.6711800"/>
<trkpt lat="51.9119900" lon="5.6715800"/>
<trkpt lat="51.9121400" lon="5.6719100"/>
<trkpt lat="51.9117800" lon="5.6724100"/>
<trkpt lat="51.9109900" lon="5.6724900"/>
<trkpt lat="51.9107600" lon="5.6724700"/>
<trkpt lat="51.9105000" lon="5.6725200"/>
<trkpt lat="51.9093500" lon="5.6726100"/>
<trkpt lat="51.9084300" lon="5.6725300"/>
<trkpt lat="51.9083700" lon="5.6724300"/>
<trkpt lat="51.9082200" lon="5.6722900"/>
<trkpt lat="51.9081300" lon="5.6724100"/>
<trkpt lat="51.9079200" lon="5.6724300"/>
<trkpt lat="51.9077800" lon="5.6724200"/>
<trkpt lat="51.9073800" lon="5.6727800"/>
<trkpt lat="51.9074700" lon="5.6722400"/>
<trkpt lat="51.9074500" lon="5.6720700"/>
<trkpt lat="51.9071600" lon="5.6724700"/>
<trkpt lat="51.9062800" lon="5.6752800"/>
<trkpt lat="51.9060000" lon="5.6762800"/>
<trkpt lat="51.9054500" lon="5.6778200"/>
<trkpt lat="51.9051100" lon="5.6784200"/>
<trkpt lat="51.9045900" lon="5.6800000"/>
<trkpt lat="51.9039400" lon="5.6810000"/>
<trkpt lat="51.9041300" lon="5.6814900"/>
<trkpt lat="51.9042000" lon="5.6820400"/>
<trkpt lat="51.9042200" lon="5.6824600"/>
<trkpt lat="51.9051000" lon="5.6863500"/>
<trkpt lat="51.9053700" lon="5.6885500"/>
<trkpt lat="51.9053000" lon="5.6891500"/>
<trkpt lat="51.9051300" lon="5.6897900"/>
<trkpt lat="51.9060200" lon="5.6901400"/>
<trkpt lat="51.9061800" lon="5.6911700"/>
<trkpt lat="51.9061000" lon="5.6922200"/>
<trkpt lat="51.9060500" lon="5.6924200"/>
<trkpt lat="51.9055200" lon="5.6924000"/>
<trkpt lat="51.9046400" lon="5.6922300"/>
<trkpt lat="51.9043200" lon="5.6939200"/>
<trkpt lat="51.9042800" lon="5.6952000"/>
<trkpt lat="51.9042100" lon="5.6966100"/>
<trkpt lat="51.9041800" lon="5.7028800"/>
<trkpt lat="51.9037200" lon="5.7029200"/>
<trkpt lat="51.9017100" lon="5.7035400"/>
<trkpt lat="51.9016100" lon="5.7036800"/>
<trkpt lat="51.9018600" lon="5.7058600"/>
<trkpt lat="51.9012800" lon="5.7060100"/>
<trkpt lat="51.9003600" lon="5.7063100"/>
<trkpt lat="51.9000000" lon="5.7064700"/>
<trkpt lat="51.8997500" lon="5.7066400"/>
<trkpt lat="51.8996200" lon="5.7069900"/>
<trkpt lat="51.8989400" lon="5.7065400"/>
<trkpt lat="51.8981100" lon="5.7064000"/>
<trkpt lat="51.8977600" lon="5.7063800"/>
<trkpt lat="51.8977000" lon="5.7062200"/>
<trkpt lat="51.8975300" lon="5.7061400"/>
<trkpt lat="51.8970300" lon="5.7051900"/>
<trkpt lat="51.8974500" lon="5.7044100"/>
<trkpt lat="51.8977800" lon="5.7041300"/>
<trkpt lat="51.8980300" lon="5.7036300"/>
<trkpt lat="51.8979600" lon="5.7032800"/>
<trkpt lat="51.8982500" lon="5.7027800"/>
<trkpt lat="51.8982500" lon="5.7025600"/>
<trkpt lat="51.8981500" lon="5.7024300"/>
<trkpt lat="51.8979000" lon="5.7022600"/>
<trkpt lat="51.8979000" lon="5.7021200"/>
<trkpt lat="51.8977800" lon="5.7018800"/>
<trkpt lat="51.8976700" lon="5.7021300"/>
<trkpt lat="51.8974700" lon="5.7024400"/>
<trkpt lat="51.8973100" lon="5.7027400"/>
<trkpt lat="51.8969600" lon="5.7033700"/>
<trkpt lat="51.8968000" lon="5.7039600"/>
<trkpt lat="51.8967000" lon="5.7045600"/>
<trkpt lat="51.8965700" lon="5.7038000"/>
<trkpt lat="51.8967400" lon="5.7033300"/>
<trkpt lat="51.8970700" lon="5.7021800"/>
<trkpt lat="51.8974400" lon="5.7014900"/>
<trkpt lat="51.8974600" lon="5.7012000"/>
<trkpt lat="51.8973000" lon="5.6988600"/>
<trkpt lat="51.8973800" lon="5.6984600"/>
<trkpt lat="51.8974100" lon="5.6980500"/>
<trkpt lat="51.8975800" lon="5.6956400"/>
<trkpt lat="51.8977000" lon="5.6952900"/>
<trkpt lat="51.8978700" lon="5.6950700"/>
<trkpt lat="51.8978400" lon="5.6948600"/>
<trkpt lat="51.8978300" lon="5.6944800"/>
<trkpt lat="51.8979000" lon="5.6935800"/>
<trkpt lat="51.8979400" lon="5.6917600"/>
<trkpt lat="51.8980400" lon="5.6902100"/>
<trkpt lat="51.8981600" lon="5.6898700"/>
<trkpt lat="51.8983700" lon="5.6896500"/>
<trkpt lat="51.8986300" lon="5.6894800"/>
<trkpt lat="51.8985700" lon="5.6884100"/>
<trkpt lat="51.8986800" lon="5.6878200"/>
<trkpt lat="51.8988600" lon="5.6873900"/>
<trkpt lat="51.8992100" lon="5.6858500"/>
<trkpt lat="51.8996100" lon="5.6842500"/>
<trkpt lat="51.8995400" lon="5.6840900"/>
<trkpt lat="51.8995000" lon="5.6837700"/>
<trkpt lat="51.8993500" lon="5.6820900"/>
<trkpt lat="51.8989600" lon="5.6772900"/>
<trkpt lat="51.8991200" lon="5.6741500"/>
<trkpt lat="51.8997500" lon="5.6736000"/>
<trkpt lat="51.9007500" lon="5.6723700"/>
<trkpt lat="51.9022800" lon="5.6702100"/>
<trkpt lat="51.9024000" lon="5.6696200"/>
<trkpt lat="51.9027600" lon="5.6688100"/>
<trkpt lat="51.9029200" lon="5.6685400"/>
<trkpt lat="51.9032000" lon="5.6681900"/>
<trkpt lat="51.9035400" lon="5.6680700"/>
<trkpt lat="51.9037900" lon="5.6677600"/>
<trkpt lat="51.9039100" lon="5.6674600"/>
<trkpt lat="51.9042700" lon="5.6672500"/>
<trkpt lat="51.9045000" lon="5.6670200"/>
<trkpt lat="51.9046800" lon="5.6667400"/>
<trkpt lat="51.9050600" lon="5.6657300"/>
<trkpt lat="51.9052700" lon="5.6653000"/>
<trkpt lat="51.9053900" lon="5.6643700"/>
<trkpt lat="51.9053600" lon="5.6640400"/>
<trkpt lat="51.9049800" lon="5.6634300"/>
<trkpt lat="51.9050100" lon="5.6631500"/>
<trkpt lat="51.9055700" lon="5.6614100"/>
<trkpt lat="51.9054400" lon="5.6603900"/>
<trkpt lat="51.9045100" lon="5.6590400"/>
<trkpt lat="51.9043300" lon="5.6589000"/>
<trkpt lat="51.9042200" lon="5.6586100"/>
<trkpt lat="51.9046800" lon="5.6576700"/>
<trkpt lat="51.9050100" lon="5.6565500"/>
<trkpt lat="51.9053700" lon="5.6554900"/>
<trkpt lat="51.9055300" lon="5.6553800"/>
<trkpt lat="51.9061200" lon="5.6551400"/>
<trkpt lat="51.9061400" lon="5.6552800"/>
<trkpt lat="51.9062100" lon="5.6552600"/>
<trkpt lat="51.9063900" lon="5.6551200"/>
<trkpt lat="51.9064800" lon="5.6548300"/>
<trkpt lat="51.9064500" lon="5.6544500"/>
<trkpt lat="51.9059600" lon="5.6531900"/>
<trkpt lat="51.9055600" lon="5.6519100"/>
<trkpt lat="51.9056800" lon="5.6519300"/>
<trkpt lat="51.9057600" lon="5.6520800"/>
<trkpt lat="51.9059700" lon="5.6519200"/>
<trkpt lat="51.9060500" lon="5.6513700"/>
<trkpt lat="51.9062700" lon="5.6514600"/>
<trkpt lat="51.9066700" lon="5.6517900"/>
<trkpt lat="51.9069000" lon="5.6521600"/>
<trkpt lat="51.9069500" lon="5.6526400"/>
<trkpt lat="51.9071100" lon="5.6525900"/>
<trkpt lat="51.9072200" lon="5.6524800"/>
<trkpt lat="51.9076800" lon="5.6514800"/>
<trkpt lat="51.9077900" lon="5.6511200"/>
<trkpt lat="51.9079200" lon="5.6512300"/>
<trkpt lat="51.9084600" lon="5.6515900"/>
<trkpt lat="51.9083500" lon="5.6519700"/>
<trkpt lat="51.9081000" lon="5.6522700"/>
<trkpt lat="51.9078800" lon="5.6523300"/>
<trkpt lat="51.9077400" lon="5.6523300"/>
<trkpt lat="51.9077400" lon="5.6525300"/>
<trkpt lat="51.9075900" lon="5.6525000"/>
<trkpt lat="51.9073100" lon="5.6527300"/>
<trkpt lat="51.9075900" lon="5.6528600"/>
<trkpt lat="51.9077200" lon="5.6529900"/>
<trkpt lat="51.9077900" lon="5.6532700"/>
<trkpt lat="51.9076900" lon="5.6538800"/>
<trkpt lat="51.9082300" lon="5.6541900"/>
<trkpt lat="51.9091300" lon="5.6552600"/>
<trkpt lat="51.9086600" lon="5.6561700"/>
<trkpt lat="51.9099300" lon="5.6564900"/>
<trkpt lat="51.9099400" lon="5.6560500"/>
<trkpt lat="51.9102700" lon="5.6561300"/>
<trkpt lat="51.9105200" lon="5.6561200"/>
<trkpt lat="51.9105100" lon="5.6563600"/>
</trkseg></trk>
<trk><name>Hiensepad - Geimporteerde shapefile</name><type>mainRoute</type><trkseg>
<trkpt lat="51.9105140" lon="5.6563667"/>
<trkpt lat="51.9102872" lon="5.6563603"/>
<trkpt lat="51.9100030" lon="5.6563109"/>
<trkpt lat="51.9099552" lon="5.6566468"/>
<trkpt lat="51.9098280" lon="5.6570542"/>
<trkpt lat="51.9094174" lon="5.6575016"/>
<trkpt lat="51.9090206" lon="5.6591874"/>
<trkpt lat="51.9088179" lon="5.6596358"/>
<trkpt lat="51.9082404" lon="5.6606894"/>
<trkpt lat="51.9080244" lon="5.6610845"/>
<trkpt lat="51.9077708" lon="5.6618921"/>
<trkpt lat="51.9078268" lon="5.6620033"/>
<trkpt lat="51.9077311" lon="5.6622489"/>
<trkpt lat="51.9076964" lon="5.6625665"/>
<trkpt lat="51.9076876" lon="5.6631983"/>
<trkpt lat="51.9077350" lon="5.6636891"/>
<trkpt lat="51.9077662" lon="5.6638305"/>
<trkpt lat="51.9078170" lon="5.6639054"/>
<trkpt lat="51.9078574" lon="5.6642667"/>
<trkpt lat="51.9078787" lon="5.6644910"/>
<trkpt lat="51.9079394" lon="5.6645105"/>
<trkpt lat="51.9079531" lon="5.6648009"/>
<trkpt lat="51.9080475" lon="5.6649931"/>
<trkpt lat="51.9086928" lon="5.6652270"/>
<trkpt lat="51.9089709" lon="5.6653820"/>
<trkpt lat="51.9090950" lon="5.6655456"/>
<trkpt lat="51.9094030" lon="5.6656601"/>
<trkpt lat="51.9094166" lon="5.6660170"/>
<trkpt lat="51.9093720" lon="5.6661701"/>
<trkpt lat="51.9093864" lon="5.6664604"/>
<trkpt lat="51.9093260" lon="5.6667143"/>
<trkpt lat="51.9093178" lon="5.6669436"/>
<trkpt lat="51.9093146" lon="5.6678751"/>
<trkpt lat="51.9093837" lon="5.6687282"/>
<trkpt lat="51.9094516" lon="5.6700508"/>
<trkpt lat="51.9101924" lon="5.6700075"/>
<trkpt lat="51.9119508" lon="5.6698377"/>
<trkpt lat="51.9119540" lon="5.6711816"/>
<trkpt lat="51.9119921" lon="5.6715856"/>
<trkpt lat="51.9121422" lon="5.6719189"/>
<trkpt lat="51.9117874" lon="5.6724160"/>
<trkpt lat="51.9109931" lon="5.6724909"/>
<trkpt lat="51.9107691" lon="5.6724761"/>
<trkpt lat="51.9105070" lon="5.6725266"/>
<trkpt lat="51.9101732" lon="5.6725490"/>
<trkpt lat="51.9096194" lon="5.6725946"/>
<trkpt lat="51.9093539" lon="5.6726174"/>
<trkpt lat="51.9084326" lon="5.6725380"/>
<trkpt lat="51.9083721" lon="5.6724334"/>
<trkpt lat="51.9082284" lon="5.6722976"/>
<trkpt lat="51.9081371" lon="5.6724135"/>
<trkpt lat="51.9079284" lon="5.6724367"/>
<trkpt lat="51.9077806" lon="5.6724235"/>
<trkpt lat="51.9076059" lon="5.6725788"/>
<trkpt lat="51.9073891" lon="5.6727828"/>
<trkpt lat="51.9074700" lon="5.6722437"/>
<trkpt lat="51.9074502" lon="5.6720797"/>
<trkpt lat="51.9071607" lon="5.6724712"/>
<trkpt lat="51.9069316" lon="5.6731964"/>
<trkpt lat="51.9062865" lon="5.6752807"/>
<trkpt lat="51.9060055" lon="5.6762848"/>
<trkpt lat="51.9054506" lon="5.6778236"/>
<trkpt lat="51.9051114" lon="5.6784250"/>
<trkpt lat="51.9045979" lon="5.6800023"/>
<trkpt lat="51.9041577" lon="5.6806892"/>
<trkpt lat="51.9039495" lon="5.6810039"/>
<trkpt lat="51.9041379" lon="5.6814937"/>
<trkpt lat="51.9042076" lon="5.6820402"/>
<trkpt lat="51.9042243" lon="5.6824618"/>
<trkpt lat="51.9047518" lon="5.6847932"/>
<trkpt lat="51.9049686" lon="5.6857526"/>
<trkpt lat="51.9051092" lon="5.6863570"/>
<trkpt lat="51.9052021" lon="5.6871145"/>
<trkpt lat="51.9052777" lon="5.6876993"/>
<trkpt lat="51.9053703" lon="5.6885526"/>
<trkpt lat="51.9053095" lon="5.6891557"/>
<trkpt lat="51.9051900" lon="5.6895477"/>
<trkpt lat="51.9051301" lon="5.6897963"/>
<trkpt lat="51.9060272" lon="5.6901469"/>
<trkpt lat="51.9061810" lon="5.6911737"/>
<trkpt lat="51.9061070" lon="5.6922205"/>
<trkpt lat="51.9060564" lon="5.6924249"/>
<trkpt lat="51.9055296" lon="5.6924092"/>
<trkpt lat="51.9046438" lon="5.6922374"/>
<trkpt lat="51.9043246" lon="5.6939213"/>
<trkpt lat="51.9042833" lon="5.6952024"/>
<trkpt lat="51.9042114" lon="5.6966181"/>
<trkpt lat="51.9041982" lon="5.6987394"/>
<trkpt lat="51.9042028" lon="5.7012776"/>
<trkpt lat="51.9041901" lon="5.7017803"/>
<trkpt lat="51.9041923" lon="5.7023505"/>
<trkpt lat="51.9041871" lon="5.7028899"/>
<trkpt lat="51.9037281" lon="5.7029296"/>
<trkpt lat="51.9017197" lon="5.7035464"/>
<trkpt lat="51.9016137" lon="5.7036872"/>
<trkpt lat="51.9018673" lon="5.7058616"/>
<trkpt lat="51.9013875" lon="5.7059907"/>
<trkpt lat="51.9012856" lon="5.7060178"/>
<trkpt lat="51.9003629" lon="5.7063171"/>
<trkpt lat="51.9000031" lon="5.7064718"/>
<trkpt lat="51.8997588" lon="5.7066474"/>
<trkpt lat="51.8996251" lon="5.7069959"/>
<trkpt lat="51.8989437" lon="5.7065496"/>
<trkpt lat="51.8983827" lon="5.7064537"/>
<trkpt lat="51.8981136" lon="5.7064028"/>
<trkpt lat="51.8977647" lon="5.7063819"/>
<trkpt lat="51.8977083" lon="5.7062221"/>
<trkpt lat="51.8975340" lon="5.7061412"/>
<trkpt lat="51.8973190" lon="5.7057351"/>
<trkpt lat="51.8970329" lon="5.7051960"/>
<trkpt lat="51.8974591" lon="5.7044120"/>
<trkpt lat="51.8977898" lon="5.7041323"/>
<trkpt lat="51.8980301" lon="5.7036313"/>
<trkpt lat="51.8979663" lon="5.7032871"/>
<trkpt lat="51.8982523" lon="5.7027869"/>
<trkpt lat="51.8982529" lon="5.7025663"/>
<trkpt lat="51.8981508" lon="5.7024307"/>
<trkpt lat="51.8979010" lon="5.7022696"/>
<trkpt lat="51.8979051" lon="5.7021286"/>
<trkpt lat="51.8977879" lon="5.7018822"/>
<trkpt lat="51.8976700" lon="5.7021331"/>
<trkpt lat="51.8974720" lon="5.7024443"/>
<trkpt lat="51.8973195" lon="5.7027497"/>
<trkpt lat="51.8972204" lon="5.7029330"/>
<trkpt lat="51.8969689" lon="5.7033787"/>
<trkpt lat="51.8968042" lon="5.7039660"/>
<trkpt lat="51.8967078" lon="5.7045660"/>
<trkpt lat="51.8965780" lon="5.7038089"/>
<trkpt lat="51.8967488" lon="5.7033386"/>
<trkpt lat="51.8970742" lon="5.7021841"/>
<trkpt lat="51.8974494" lon="5.7014971"/>
<trkpt lat="51.8974680" lon="5.7012003"/>
<trkpt lat="51.8973023" lon="5.6988620"/>
<trkpt lat="51.8973804" lon="5.6984699"/>
<trkpt lat="51.8974171" lon="5.6980583"/>
<trkpt lat="51.8975848" lon="5.6956469"/>
<trkpt lat="51.8977033" lon="5.6952921"/>
<trkpt lat="51.8978708" lon="5.6950787"/>
<trkpt lat="51.8978410" lon="5.6948640"/>
<trkpt lat="51.8978382" lon="5.6944839"/>
<trkpt lat="51.8979012" lon="5.6935832"/>
<trkpt lat="51.8979439" lon="5.6917628"/>
<trkpt lat="51.8980465" lon="5.6902126"/>
<trkpt lat="51.8981611" lon="5.6898701"/>
<trkpt lat="51.8983779" lon="5.6896570"/>
<trkpt lat="51.8986328" lon="5.6894839"/>
<trkpt lat="51.8985740" lon="5.6884112"/>
<trkpt lat="51.8986881" lon="5.6878277"/>
<trkpt lat="51.8988668" lon="5.6873979"/>
<trkpt lat="51.8992163" lon="5.6858535"/>
<trkpt lat="51.8996148" lon="5.6842579"/>
<trkpt lat="51.8995411" lon="5.6840920"/>
<trkpt lat="51.8995060" lon="5.6837752"/>
<trkpt lat="51.8993547" lon="5.6820941"/>
<trkpt lat="51.8989695" lon="5.6772927"/>
<trkpt lat="51.8991246" lon="5.6741538"/>
<trkpt lat="51.8997547" lon="5.6736009"/>
<trkpt lat="51.9007507" lon="5.6723780"/>
<trkpt lat="51.9014180" lon="5.6714367"/>
<trkpt lat="51.9022893" lon="5.6702139"/>
<trkpt lat="51.9024022" lon="5.6696244"/>
<trkpt lat="51.9025509" lon="5.6692759"/>
<trkpt lat="51.9027682" lon="5.6688113"/>
<trkpt lat="51.9029205" lon="5.6685425"/>
<trkpt lat="51.9032096" lon="5.6681949"/>
<trkpt lat="51.9035416" lon="5.6680798"/>
<trkpt lat="51.9037908" lon="5.6677693"/>
<trkpt lat="51.9038518" lon="5.6676287"/>
<trkpt lat="51.9039129" lon="5.6674697"/>
<trkpt lat="51.9040895" lon="5.6673731"/>
<trkpt lat="51.9042794" lon="5.6672593"/>
<trkpt lat="51.9045051" lon="5.6670212"/>
<trkpt lat="51.9046835" lon="5.6667445"/>
<trkpt lat="51.9048266" lon="5.6663909"/>
<trkpt lat="51.9050699" lon="5.6657357"/>
<trkpt lat="51.9052719" lon="5.6653016"/>
<trkpt lat="51.9053176" lon="5.6649674"/>
<trkpt lat="51.9053993" lon="5.6643705"/>
<trkpt lat="51.9053617" lon="5.6640453"/>
<trkpt lat="51.9049881" lon="5.6634360"/>
<trkpt lat="51.9050153" lon="5.6631541"/>
<trkpt lat="51.9055751" lon="5.6614114"/>
<trkpt lat="51.9055098" lon="5.6609515"/>
<trkpt lat="51.9054415" lon="5.6603963"/>
<trkpt lat="51.9045147" lon="5.6590495"/>
<trkpt lat="51.9043362" lon="5.6589094"/>
<trkpt lat="51.9042219" lon="5.6586124"/>
<trkpt lat="51.9046830" lon="5.6576710"/>
<trkpt lat="51.9050193" lon="5.6565510"/>
<trkpt lat="51.9053706" lon="5.6554924"/>
<trkpt lat="51.9055339" lon="5.6553830"/>
<trkpt lat="51.9061261" lon="5.6551475"/>
<trkpt lat="51.9061422" lon="5.6552832"/>
<trkpt lat="51.9062168" lon="5.6552645"/>
<trkpt lat="51.9063959" lon="5.6551284"/>
<trkpt lat="51.9064871" lon="5.6548308"/>
<trkpt lat="51.9064538" lon="5.6544566"/>
<trkpt lat="51.9059636" lon="5.6531968"/>
<trkpt lat="51.9055607" lon="5.6519130"/>
<trkpt lat="51.9056896" lon="5.6519321"/>
<trkpt lat="51.9057689" lon="5.6520859"/>
<trkpt lat="51.9059793" lon="5.6519227"/>
<trkpt lat="51.9060581" lon="5.6513741"/>
<trkpt lat="51.9062775" lon="5.6514699"/>
<trkpt lat="51.9064183" lon="5.6515831"/>
<trkpt lat="51.9066760" lon="5.6517969"/>
<trkpt lat="51.9069053" lon="5.6521614"/>
<trkpt lat="51.9069597" lon="5.6526431"/>
<trkpt lat="51.9071174" lon="5.6525967"/>
<trkpt lat="51.9072287" lon="5.6524859"/>
<trkpt lat="51.9073849" lon="5.6521591"/>
<trkpt lat="51.9075558" lon="5.6517837"/>
<trkpt lat="51.9076826" lon="5.6514897"/>
<trkpt lat="51.9077339" lon="5.6513150"/>
<trkpt lat="51.9077924" lon="5.6511229"/>
<trkpt lat="51.9079287" lon="5.6512341"/>
<trkpt lat="51.9084664" lon="5.6515929"/>
<trkpt lat="51.9083518" lon="5.6519785"/>
<trkpt lat="51.9081084" lon="5.6522714"/>
<trkpt lat="51.9078838" lon="5.6523347"/>
<trkpt lat="51.9077442" lon="5.6523367"/>
<trkpt lat="51.9077475" lon="5.6525329"/>
<trkpt lat="51.9075985" lon="5.6525091"/>
<trkpt lat="51.9073186" lon="5.6527327"/>
<trkpt lat="51.9075951" lon="5.6528631"/>
<trkpt lat="51.9077291" lon="5.6529947"/>
<trkpt lat="51.9077990" lon="5.6532751"/>
<trkpt lat="51.9076914" lon="5.6538876"/>
<trkpt lat="51.9082330" lon="5.6541913"/>
<trkpt lat="51.9091397" lon="5.6552634"/>
<trkpt lat="51.9086639" lon="5.6561722"/>
<trkpt lat="51.9099381" lon="5.6564947"/>
<trkpt lat="51.9099446" lon="5.6560518"/>
<trkpt lat="51.9102768" lon="5.6561317"/>
<trkpt lat="51.9105207" lon="5.6561231"/>
<trkpt lat="51.9105140" lon="5.6563667"/>
</trkseg></trk>
<trk><name>Hiensepad - shorteningRoute</name><type>shorteningRoute</type><trkseg>
<trkpt lat="51.9071600" lon="5.6724700"/>
<trkpt lat="51.9068100" lon="5.6729200"/>
<trkpt lat="51.9058800" lon="5.6761700"/>
<trkpt lat="51.9044000" lon="5.6799100"/>
<trkpt lat="51.9028100" lon="5.6825100"/>
<trkpt lat="51.9022900" lon="5.6834800"/>
<trkpt lat="51.9003600" lon="5.6877200"/>
<trkpt lat="51.8999600" lon="5.6883600"/>
<trkpt lat="51.8997500" lon="5.6886300"/>
<trkpt lat="51.8986300" lon="5.6894800"/>
</trkseg></trk>
<trk><name>Hiensepad - Geimporteerde shapefile</name><type>shorteningRoute</type><trkseg>
<trkpt lat="51.9071607" lon="5.6724712"/>
<trkpt lat="51.9068109" lon="5.6729266"/>
<trkpt lat="51.9058821" lon="5.6761770"/>
<trkpt lat="51.9044098" lon="5.6799112"/>
<trkpt lat="51.9028103" lon="5.6825200"/>
<trkpt lat="51.9022959" lon="5.6834852"/>
<trkpt lat="51.9016591" lon="5.6848666"/>
<trkpt lat="51.9009251" lon="5.6865210"/>
<trkpt lat="51.9003662" lon="5.6877270"/>
<trkpt lat="51.8999652" lon="5.6883682"/>
<trkpt lat="51.8997512" lon="5.6886385"/>
<trkpt lat="51.8986328" lon="5.6894839"/>
</trkseg></trk>
<trk><name>Hiensepad - extensionRoute</name><type>extensionRoute</type><trkseg>
<trkpt lat="51.9061700" lon="5.6911300"/>
<trkpt lat="51.9066500" lon="5.6911100"/>
<trkpt lat="51.9069100" lon="5.6912000"/>
<trkpt lat="51.9081300" lon="5.6918100"/>
<trkpt lat="51.9082000" lon="5.6918100"/>
<trkpt lat="51.9083200" lon="5.6915000"/>
<trkpt lat="51.9087700" lon="5.6915700"/>
<trkpt lat="51.9101800" lon="5.6919500"/>
<trkpt lat="51.9113400" lon="5.6924800"/>
<trkpt lat="51.9119000" lon="5.6929000"/>
<trkpt lat="51.9125800" lon="5.6932300"/>
<trkpt lat="51.9122000" lon="5.6952400"/>
<trkpt lat="51.9122600" lon="5.6952700"/>
<trkpt lat="51.9122500" lon="5.6954000"/>
<trkpt lat="51.9121700" lon="5.6953800"/>
<trkpt lat="51.9119200" lon="5.6967600"/>
<trkpt lat="51.9117000" lon="5.6983400"/>
<trkpt lat="51.9115100" lon="5.6982700"/>
<trkpt lat="51.9114300" lon="5.6987800"/>
<trkpt lat="51.9112900" lon="5.6992400"/>
<trkpt lat="51.9112000" lon="5.6994300"/>
<trkpt lat="51.9112200" lon="5.6996400"/>
<trkpt lat="51.9111900" lon="5.6998600"/>
<trkpt lat="51.9110700" lon="5.6999300"/>
<trkpt lat="51.9109400" lon="5.7001100"/>
<trkpt lat="51.9105500" lon="5.6999600"/>
<trkpt lat="51.9103800" lon="5.7000000"/>
<trkpt lat="51.9098400" lon="5.6998000"/>
<trkpt lat="51.9088800" lon="5.6993900"/>
<trkpt lat="51.9086600" lon="5.6992800"/>
<trkpt lat="51.9085500" lon="5.6992600"/>
<trkpt lat="51.9084900" lon="5.6991900"/>
<trkpt lat="51.9084900" lon="5.6990200"/>
<trkpt lat="51.9085200" lon="5.6987400"/>
<trkpt lat="51.9086600" lon="5.6975300"/>
<trkpt lat="51.9087400" lon="5.6970500"/>
<trkpt lat="51.9087700" lon="5.6966300"/>
<trkpt lat="51.9087500" lon="5.6956200"/>
<trkpt lat="51.9087100" lon="5.6951400"/>
<trkpt lat="51.9086600" lon="5.6949900"/>
<trkpt lat="51.9085800" lon="5.6949200"/>
<trkpt lat="51.9084400" lon="5.6943800"/>
<trkpt lat="51.9083800" lon="5.6942700"/>
<trkpt lat="51.9082900" lon="5.6938300"/>
<trkpt lat="51.9082500" lon="5.6935300"/>
<trkpt lat="51.9082900" lon="5.6935300"/>
<trkpt lat="51.9082500" lon="5.6932000"/>
<trkpt lat="51.9082500" lon="5.6925700"/>
<trkpt lat="51.9082100" lon="5.6920300"/>
<trkpt lat="51.9076800" lon="5.6917500"/>
<trkpt lat="51.9069700" lon="5.6914200"/>
<trkpt lat="51.9061600" lon="5.6913300"/>
</trkseg></trk>
<trk><name>Hiensepad - alternativeRoute</name><type>alternativeRoute</type><trkseg>
<trkpt lat="51.9112000" lon="5.6994300"/>
<trkpt lat="51.9111100" lon="5.6993300"/>
<trkpt lat="51.9109500" lon="5.6993200"/>
<trkpt lat="51.9108400" lon="5.6992400"/>
<trkpt lat="51.9107200" lon="5.6992200"/>
<trkpt lat="51.9103700" lon="5.6990100"/>
<trkpt lat="51.9103000" lon="5.6990800"/>
<trkpt lat="51.9102900" lon="5.6992800"/>
<trkpt lat="51.9101500" lon="5.6997000"/>
<trkpt lat="51.9100400" lon="5.6997300"/>
<trkpt lat="51.9099900" lon="5.6998500"/>
</trkseg></trk>
<trk><name>Hiensepad - alternativeRoute</name><type>alternativeRoute</type><trkseg>
<trkpt lat="51.9093200" lon="5.6679900"/>
<trkpt lat="51.9086100" lon="5.6680700"/>
<trkpt lat="51.9085600" lon="5.6680300"/>
<trkpt lat="51.9084600" lon="5.6664400"/>
<trkpt lat="51.9085700" lon="5.6663800"/>
<trkpt lat="51.9086300" lon="5.6662600"/>
<trkpt lat="51.9086600" lon="5.6660600"/>
<trkpt lat="51.9086600" lon="5.6658300"/>
<trkpt lat="51.9087900" lon="5.6655900"/>
<trkpt lat="51.9090900" lon="5.6655400"/>
</trkseg></trk>
<trk><name>Hiensepad - Geimporteerde shapefile</name><type>alternativeRoute</type><trkseg>
<trkpt lat="51.9112084" lon="5.6994380"/>
<trkpt lat="51.9111165" lon="5.6993318"/>
<trkpt lat="51.9109541" lon="5.6993229"/>
<trkpt lat="51.9108462" lon="5.6992464"/>
<trkpt lat="51.9107248" lon="5.6992217"/>
<trkpt lat="51.9103797" lon="5.6990102"/>
<trkpt lat="51.9103065" lon="5.6990862"/>
<trkpt lat="51.9102960" lon="5.6992875"/>
<trkpt lat="51.9101586" lon="5.6997079"/>
<trkpt lat="51.9100402" lon="5.6997364"/>
<trkpt lat="51.9099904" lon="5.6998561"/>
</trkseg></trk>
<trk><name>Hiensepad - Geimporteerde shapefile</name><type>alternativeRoute</type><trkseg>
<trkpt lat="51.9093241" lon="5.6679921"/>
<trkpt lat="51.9086140" lon="5.6680754"/>
<trkpt lat="51.9085648" lon="5.6680383"/>
<trkpt lat="51.9084662" lon="5.6664496"/>
<trkpt lat="51.9085725" lon="5.6663889"/>
<trkpt lat="51.9086373" lon="5.6662606"/>
<trkpt lat="51.9086681" lon="5.6660646"/>
<trkpt lat="51.9086610" lon="5.6658315"/>
<trkpt lat="51.9087981" lon="5.6655932"/>
<trkpt lat="51.9090950" lon="5.6655456"/>
</trkseg></trk>
<trk><name>Hiensepad - Geimporteerde shapefile</name><type>connectionRoute</type><trkseg>
<trkpt lat="51.9055475" lon="5.6192844"/>
<trkpt lat="51.9048880" lon="5.6202606"/>
<trkpt lat="51.9040472" lon="5.6206961"/>
<trkpt lat="51.9034939" lon="5.6212167"/>
<trkpt lat="51.9033763" lon="5.6220105"/>
<trkpt lat="51.9033506" lon="5.6231823"/>
<trkpt lat="51.9033247" lon="5.6245491"/>
<trkpt lat="51.9031110" lon="5.6260161"/>
<trkpt lat="51.9029444" lon="5.6274517"/>
<trkpt lat="51.9026917" lon="5.6287763"/>
<trkpt lat="51.9026368" lon="5.6292078"/>
<trkpt lat="51.9020741" lon="5.6299797"/>
<trkpt lat="51.9015115" lon="5.6306570"/>
<trkpt lat="51.9012878" lon="5.6313740"/>
<trkpt lat="51.9013561" lon="5.6322816"/>
<trkpt lat="51.9019498" lon="5.6334944"/>
<trkpt lat="51.9022991" lon="5.6342146"/>
<trkpt lat="51.9029637" lon="5.6350688"/>
<trkpt lat="51.9034988" lon="5.6363570"/>
<trkpt lat="51.9034616" lon="5.6373207"/>
<trkpt lat="51.9033428" lon="5.6382084"/>
<trkpt lat="51.9036559" lon="5.6401424"/>
<trkpt lat="51.9041427" lon="5.6413883"/>
<trkpt lat="51.9045607" lon="5.6427137"/>
<trkpt lat="51.9047573" lon="5.6445216"/>
<trkpt lat="51.9051100" lon="5.6481227"/>
<trkpt lat="51.9050834" lon="5.6495780"/>
<trkpt lat="51.9055607" lon="5.6519130"/>
</trkseg></trk>
<trk><name>Hiensepad - approachRoute</name><type>approachRoute</type><trkseg>
<trkpt lat="51.9094000" lon="5.6656600"/>
<trkpt lat="51.9106200" lon="5.6656900"/>
<trkpt lat="51.9123500" lon="5.6660400"/>
<trkpt lat="51.9133300" lon="5.6661200"/>
<trkpt lat="51.9140000" lon="5.6660400"/>
<trkpt lat="51.9147400" lon="5.6664700"/>
<trkpt lat="51.9150400" lon="5.6668500"/>
<trkpt lat="51.9163600" lon="5.6675000"/>
<trkpt lat="51.9168000" lon="5.6678600"/>
<trkpt lat="51.9173800" lon="5.6687000"/>
<trkpt lat="51.9176300" lon="5.6709600"/>
<trkpt lat="51.9180600" lon="5.6714700"/>
<trkpt lat="51.9185500" lon="5.6715500"/>
<trkpt lat="51.9195100" lon="5.6717600"/>
<trkpt lat="51.9204200" lon="5.6709300"/>
<trkpt lat="51.9207500" lon="5.6706100"/>
<trkpt lat="51.9212100" lon="5.6705500"/>
<trkpt lat="51.9222100" lon="5.6710400"/>
<trkpt lat="51.9221300" lon="5.6730100"/>
</trkseg></trk>
<trk><name>Hiensepad - Geimporteerde shapefile</name><type>approachRoute</type><trkseg>
<trkpt lat="51.9094030" lon="5.6656601"/>
<trkpt lat="51.9106270" lon="5.6656951"/>
<trkpt lat="51.9123550" lon="5.6660421"/>
<trkpt lat="51.9133310" lon="5.6661251"/>
<trkpt lat="51.9140050" lon="5.6660440"/>
<trkpt lat="51.9147460" lon="5.6664781"/>
<trkpt lat="51.9150480" lon="5.6668550"/>
<trkpt lat="51.9163690" lon="5.6675080"/>
<trkpt lat="51.9168010" lon="5.6678630"/>
<trkpt lat="51.9173870" lon="5.6687050"/>
<trkpt lat="51.9176330" lon="5.6709601"/>
<trkpt lat="51.9180690" lon="5.6714731"/>
<trkpt lat="51.9185510" lon="5.6715531"/>
<trkpt lat="51.9195140" lon="5.6717660"/>
<trkpt lat="51.9204290" lon="5.6709381"/>
<trkpt lat="51.9207560" lon="5.6706150"/>
<trkpt lat="51.9212150" lon="5.6705591"/>
<trkpt lat="51.9222200" lon="5.6710441"/>
<trkpt lat="51.9221330" lon="5.6730131"/>
</trkseg></trk>
</gpx>