<?xml version="1.0" encoding="UTF-8"?>
<gpx version="1.1" creator="klompenpaden.nl via Jimbo API" xmlns="http://www.topografix.com/GPX/1/1">
<metadata><name>Hoenwaardsepad</name><desc>Ontdek het mooie buitengebied van Hattem, een Hanzestad aan de IJssel. Wandelen in de voetsporen van een schipper die op het jaagpad zijn boot voorttrok door het kanaal. Beleef het landschap van de IJssel, wandel langs een sprengenbeek door bossen en langs een watermolen in het mooie buitengebied van Hattem.
Klompen aan, rugzak op en gaan
</desc><link href="https://www.klompenpaden.nl/klompenpaden/Hoenwaardsepad/e00517ee-fab4-46c7-b6e4-bdaafcad3586"><text>klompenpaden.nl</text></link></metadata>
<wpt lat="52.473272429381325" lon="6.0734546184539795"><name>Start Hattem</name></wpt>
<trk><name>Hoenwaardsepad - Geimporteerde shapefile</name><type>mainRoute</type><trkseg>
<trkpt lat="52.4612014" lon="6.0789303"/>
<trkpt lat="52.4610594" lon="6.0784313"/>
<trkpt lat="52.4609345" lon="6.0777333"/>
<trkpt lat="52.4607895" lon="6.0768258"/>
<trkpt lat="52.4606607" lon="6.0760199"/>
<trkpt lat="52.4601755" lon="6.0760822"/>
<trkpt lat="52.4600259" lon="6.0750589"/>
<trkpt lat="52.4598830" lon="6.0740737"/>
<trkpt lat="52.4597317" lon="6.0730942"/>
<trkpt lat="52.4596459" lon="6.0725129"/>
<trkpt lat="52.4595036" lon="6.0716347"/>
<trkpt lat="52.4594280" lon="6.0711353"/>
<trkpt lat="52.4593249" lon="6.0704466"/>
<trkpt lat="52.4591546" lon="6.0694727"/>
<trkpt lat="52.4593784" lon="6.0696338"/>
<trkpt lat="52.4595605" lon="6.0698098"/>
<trkpt lat="52.4597830" lon="6.0700414"/>
<trkpt lat="52.4599023" lon="6.0701226"/>
<trkpt lat="52.4600568" lon="6.0701367"/>
<trkpt lat="52.4601322" lon="6.0701217"/>
<trkpt lat="52.4602501" lon="6.0700826"/>
<trkpt lat="52.4603762" lon="6.0699818"/>
<trkpt lat="52.4604792" lon="6.0698550"/>
<trkpt lat="52.4605086" lon="6.0697876"/>
<trkpt lat="52.4605716" lon="6.0696618"/>
<trkpt lat="52.4606182" lon="6.0695022"/>
<trkpt lat="52.4606222" lon="6.0693029"/>
<trkpt lat="52.4605776" lon="6.0688892"/>
<trkpt lat="52.4604437" lon="6.0682951"/>
<trkpt lat="52.4602311" lon="6.0675076"/>
<trkpt lat="52.4601577" lon="6.0672060"/>
<trkpt lat="52.4601205" lon="6.0669260"/>
<trkpt lat="52.4600775" lon="6.0664308"/>
<trkpt lat="52.4600279" lon="6.0659473"/>
<trkpt lat="52.4600187" lon="6.0657984"/>
<trkpt lat="52.4604627" lon="6.0658253"/>
<trkpt lat="52.4606859" lon="6.0658990"/>
<trkpt lat="52.4608846" lon="6.0659772"/>
<trkpt lat="52.4611565" lon="6.0661018"/>
<trkpt lat="52.4613122" lon="6.0661995"/>
<trkpt lat="52.4613682" lon="6.0660448"/>
<trkpt lat="52.4614188" lon="6.0657698"/>
<trkpt lat="52.4616929" lon="6.0657252"/>
<trkpt lat="52.4627779" lon="6.0656682"/>
<trkpt lat="52.4627380" lon="6.0648742"/>
<trkpt lat="52.4627215" lon="6.0646919"/>
<trkpt lat="52.4627036" lon="6.0645358"/>
<trkpt lat="52.4626829" lon="6.0635745"/>
<trkpt lat="52.4626808" lon="6.0629310"/>
<trkpt lat="52.4626745" lon="6.0621285"/>
<trkpt lat="52.4626686" lon="6.0613410"/>
<trkpt lat="52.4626668" lon="6.0607268"/>
<trkpt lat="52.4626355" lon="6.0595924"/>
<trkpt lat="52.4631728" lon="6.0595648"/>
<trkpt lat="52.4629671" lon="6.0576538"/>
<trkpt lat="52.4628354" lon="6.0564468"/>
<trkpt lat="52.4627383" lon="6.0556588"/>
<trkpt lat="52.4627030" lon="6.0552969"/>
<trkpt lat="52.4627032" lon="6.0552659"/>
<trkpt lat="52.4626455" lon="6.0552677"/>
<trkpt lat="52.4625415" lon="6.0552628"/>
<trkpt lat="52.4624819" lon="6.0551595"/>
<trkpt lat="52.4624533" lon="6.0550733"/>
<trkpt lat="52.4623759" lon="6.0550235"/>
<trkpt lat="52.4622872" lon="6.0550100"/>
<trkpt lat="52.4622171" lon="6.0550135"/>
<trkpt lat="52.4621276" lon="6.0550967"/>
<trkpt lat="52.4620575" lon="6.0551974"/>
<trkpt lat="52.4619938" lon="6.0552190"/>
<trkpt lat="52.4617872" lon="6.0552506"/>
<trkpt lat="52.4617372" lon="6.0552434"/>
<trkpt lat="52.4616874" lon="6.0552370"/>
<trkpt lat="52.4616360" lon="6.0552104"/>
<trkpt lat="52.4616079" lon="6.0551017"/>
<trkpt lat="52.4615310" lon="6.0547715"/>
<trkpt lat="52.4614450" lon="6.0548177"/>
<trkpt lat="52.4614069" lon="6.0548692"/>
<trkpt lat="52.4613857" lon="6.0549586"/>
<trkpt lat="52.4613345" lon="6.0550624"/>
<trkpt lat="52.4613101" lon="6.0551142"/>
<trkpt lat="52.4612673" lon="6.0551982"/>
<trkpt lat="52.4612188" lon="6.0550371"/>
<trkpt lat="52.4611379" lon="6.0546970"/>
<trkpt lat="52.4610902" lon="6.0545122"/>
<trkpt lat="52.4610516" lon="6.0542285"/>
<trkpt lat="52.4610059" lon="6.0538923"/>
<trkpt lat="52.4609381" lon="6.0534395"/>
<trkpt lat="52.4608380" lon="6.0527704"/>
<trkpt lat="52.4608057" lon="6.0525518"/>
<trkpt lat="52.4607235" lon="6.0519954"/>
<trkpt lat="52.4606331" lon="6.0518014"/>
<trkpt lat="52.4606434" lon="6.0517758"/>
<trkpt lat="52.4607468" lon="6.0518209"/>
<trkpt lat="52.4612253" lon="6.0520275"/>
<trkpt lat="52.4616894" lon="6.0522633"/>
<trkpt lat="52.4623760" lon="6.0525603"/>
<trkpt lat="52.4625351" lon="6.0526202"/>
<trkpt lat="52.4628686" lon="6.0527817"/>
<trkpt lat="52.4629851" lon="6.0528065"/>
<trkpt lat="52.4629786" lon="6.0527554"/>
<trkpt lat="52.4629551" lon="6.0526022"/>
<trkpt lat="52.4629446" lon="6.0525440"/>
<trkpt lat="52.4629477" lon="6.0524455"/>
<trkpt lat="52.4629769" lon="6.0522838"/>
<trkpt lat="52.4629890" lon="6.0520494"/>
<trkpt lat="52.4629933" lon="6.0519328"/>
<trkpt lat="52.4629582" lon="6.0518767"/>
<trkpt lat="52.4628188" lon="6.0515579"/>
<trkpt lat="52.4627275" lon="6.0513682"/>
<trkpt lat="52.4626185" lon="6.0509125"/>
<trkpt lat="52.4625600" lon="6.0506760"/>
<trkpt lat="52.4625212" lon="6.0504984"/>
<trkpt lat="52.4624370" lon="6.0502614"/>
<trkpt lat="52.4623202" lon="6.0500239"/>
<trkpt lat="52.4620964" lon="6.0497458"/>
<trkpt lat="52.4619995" lon="6.0496566"/>
<trkpt lat="52.4618882" lon="6.0493157"/>
<trkpt lat="52.4618901" lon="6.0492371"/>
<trkpt lat="52.4619139" lon="6.0491205"/>
<trkpt lat="52.4621171" lon="6.0486395"/>
<trkpt lat="52.4623263" lon="6.0480172"/>
<trkpt lat="52.4624032" lon="6.0476232"/>
<trkpt lat="52.4624501" lon="6.0473864"/>
<trkpt lat="52.4624701" lon="6.0472877"/>
<trkpt lat="52.4627723" lon="6.0469611"/>
<trkpt lat="52.4628296" lon="6.0468992"/>
<trkpt lat="52.4628728" lon="6.0468490"/>
<trkpt lat="52.4629229" lon="6.0467877"/>
<trkpt lat="52.4630192" lon="6.0466654"/>
<trkpt lat="52.4631174" lon="6.0466764"/>
<trkpt lat="52.4631755" lon="6.0467344"/>
<trkpt lat="52.4632175" lon="6.0469355"/>
<trkpt lat="52.4640607" lon="6.0480878"/>
<trkpt lat="52.4642588" lon="6.0481522"/>
<trkpt lat="52.4642614" lon="6.0471428"/>
<trkpt lat="52.4642632" lon="6.0464516"/>
<trkpt lat="52.4641773" lon="6.0446908"/>
<trkpt lat="52.4649967" lon="6.0456238"/>
<trkpt lat="52.4657229" lon="6.0464741"/>
<trkpt lat="52.4656600" lon="6.0468907"/>
<trkpt lat="52.4666392" lon="6.0482911"/>
<trkpt lat="52.4651058" lon="6.0501398"/>
<trkpt lat="52.4660346" lon="6.0520553"/>
<trkpt lat="52.4657410" lon="6.0523667"/>
<trkpt lat="52.4655569" lon="6.0524967"/>
<trkpt lat="52.4652469" lon="6.0525255"/>
<trkpt lat="52.4655291" lon="6.0527438"/>
<trkpt lat="52.4656742" lon="6.0529391"/>
<trkpt lat="52.4657910" lon="6.0531927"/>
<trkpt lat="52.4658415" lon="6.0534293"/>
<trkpt lat="52.4659102" lon="6.0539353"/>
<trkpt lat="52.4659952" lon="6.0542518"/>
<trkpt lat="52.4661051" lon="6.0544563"/>
<trkpt lat="52.4658386" lon="6.0549364"/>
<trkpt lat="52.4657075" lon="6.0548607"/>
<trkpt lat="52.4656308" lon="6.0548740"/>
<trkpt lat="52.4656292" lon="6.0549527"/>
<trkpt lat="52.4656427" lon="6.0550728"/>
<trkpt lat="52.4657210" lon="6.0552578"/>
<trkpt lat="52.4656676" lon="6.0554527"/>
<trkpt lat="52.4655596" lon="6.0554083"/>
<trkpt lat="52.4654501" lon="6.0554142"/>
<trkpt lat="52.4652546" lon="6.0554838"/>
<trkpt lat="52.4648649" lon="6.0556966"/>
<trkpt lat="52.4648635" lon="6.0558215"/>
<trkpt lat="52.4650241" lon="6.0570137"/>
<trkpt lat="52.4653168" lon="6.0590595"/>
<trkpt lat="52.4653729" lon="6.0591983"/>
<trkpt lat="52.4654652" lon="6.0592845"/>
<trkpt lat="52.4670262" lon="6.0591083"/>
<trkpt lat="52.4671106" lon="6.0591034"/>
<trkpt lat="52.4673622" lon="6.0590231"/>
<trkpt lat="52.4676911" lon="6.0588611"/>
<trkpt lat="52.4677735" lon="6.0588134"/>
<trkpt lat="52.4679906" lon="6.0586344"/>
<trkpt lat="52.4681429" lon="6.0584861"/>
<trkpt lat="52.4682982" lon="6.0583809"/>
<trkpt lat="52.4684624" lon="6.0583928"/>
<trkpt lat="52.4685304" lon="6.0584674"/>
<trkpt lat="52.4685892" lon="6.0585712"/>
<trkpt lat="52.4686164" lon="6.0587106"/>
<trkpt lat="52.4686240" lon="6.0587586"/>
<trkpt lat="52.4685589" lon="6.0601163"/>
<trkpt lat="52.4707840" lon="6.0606376"/>
<trkpt lat="52.4707730" lon="6.0608677"/>
<trkpt lat="52.4707255" lon="6.0611138"/>
<trkpt lat="52.4706767" lon="6.0613297"/>
<trkpt lat="52.4706121" lon="6.0615280"/>
<trkpt lat="52.4705865" lon="6.0616310"/>
<trkpt lat="52.4704963" lon="6.0618061"/>
<trkpt lat="52.4703579" lon="6.0621038"/>
<trkpt lat="52.4702289" lon="6.0624650"/>
<trkpt lat="52.4701708" lon="6.0626806"/>
<trkpt lat="52.4701506" lon="6.0628828"/>
<trkpt lat="52.4701729" lon="6.0630023"/>
<trkpt lat="52.4701927" lon="6.0630304"/>
<trkpt lat="52.4702111" lon="6.0631766"/>
<trkpt lat="52.4699589" lon="6.0632843"/>
<trkpt lat="52.4702829" lon="6.0639447"/>
<trkpt lat="52.4702910" lon="6.0640306"/>
<trkpt lat="52.4702854" lon="6.0640858"/>
<trkpt lat="52.4702812" lon="6.0641278"/>
<trkpt lat="52.4701697" lon="6.0651567"/>
<trkpt lat="52.4700799" lon="6.0660105"/>
<trkpt lat="52.4700222" lon="6.0666050"/>
<trkpt lat="52.4704072" lon="6.0668276"/>
<trkpt lat="52.4708203" lon="6.0670557"/>
<trkpt lat="52.4712241" lon="6.0673002"/>
<trkpt lat="52.4711856" lon="6.0675519"/>
<trkpt lat="52.4711414" lon="6.0677289"/>
<trkpt lat="52.4710766" lon="6.0678436"/>
<trkpt lat="52.4712914" lon="6.0681938"/>
<trkpt lat="52.4713015" lon="6.0683015"/>
<trkpt lat="52.4712883" lon="6.0684193"/>
<trkpt lat="52.4711990" lon="6.0693769"/>
<trkpt lat="52.4710979" lon="6.0704513"/>
<trkpt lat="52.4710251" lon="6.0712025"/>
<trkpt lat="52.4709486" lon="6.0720014"/>
<trkpt lat="52.4708893" lon="6.0726150"/>
<trkpt lat="52.4708814" lon="6.0727388"/>
<trkpt lat="52.4708680" lon="6.0729547"/>
<trkpt lat="52.4708504" lon="6.0731635"/>
<trkpt lat="52.4708660" lon="6.0733919"/>
<trkpt lat="52.4708925" lon="6.0736026"/>
<trkpt lat="52.4709115" lon="6.0737711"/>
<trkpt lat="52.4709247" lon="6.0739277"/>
<trkpt lat="52.4709889" lon="6.0738625"/>
</trkseg></trk>
<trk><name>Hoenwaardsepad - Geimporteerde shapefile</name><type>mainRoute</type><trkseg>
<trkpt lat="52.4731760" lon="6.0732355"/>
<trkpt lat="52.4732902" lon="6.0734120"/>
<trkpt lat="52.4734228" lon="6.0733244"/>
<trkpt lat="52.4734926" lon="6.0732319"/>
<trkpt lat="52.4735738" lon="6.0731958"/>
<trkpt lat="52.4736582" lon="6.0730757"/>
<trkpt lat="52.4738788" lon="6.0727613"/>
<trkpt lat="52.4739596" lon="6.0726037"/>
<trkpt lat="52.4741622" lon="6.0721708"/>
<trkpt lat="52.4743230" lon="6.0722791"/>
<trkpt lat="52.4744555" lon="6.0723995"/>
<trkpt lat="52.4745604" lon="6.0726243"/>
<trkpt lat="52.4746893" lon="6.0729010"/>
<trkpt lat="52.4744939" lon="6.0731108"/>
<trkpt lat="52.4742198" lon="6.0734679"/>
<trkpt lat="52.4737810" lon="6.0740588"/>
<trkpt lat="52.4733480" lon="6.0745416"/>
<trkpt lat="52.4730204" lon="6.0749238"/>
<trkpt lat="52.4727933" lon="6.0752917"/>
<trkpt lat="52.4727383" lon="6.0754279"/>
<trkpt lat="52.4726299" lon="6.0757808"/>
<trkpt lat="52.4725449" lon="6.0761661"/>
<trkpt lat="52.4724826" lon="6.0765359"/>
<trkpt lat="52.4720640" lon="6.0787991"/>
<trkpt lat="52.4718995" lon="6.0793138"/>
<trkpt lat="52.4717548" lon="6.0796635"/>
<trkpt lat="52.4708664" lon="6.0812788"/>
<trkpt lat="52.4704684" lon="6.0820078"/>
<trkpt lat="52.4703204" lon="6.0822702"/>
<trkpt lat="52.4702168" lon="6.0824056"/>
<trkpt lat="52.4700908" lon="6.0824847"/>
<trkpt lat="52.4698769" lon="6.0825847"/>
<trkpt lat="52.4691095" lon="6.0827496"/>
<trkpt lat="52.4688167" lon="6.0828119"/>
<trkpt lat="52.4686704" lon="6.0828242"/>
<trkpt lat="52.4683754" lon="6.0828066"/>
<trkpt lat="52.4680751" lon="6.0827409"/>
<trkpt lat="52.4678793" lon="6.0827254"/>
<trkpt lat="52.4677098" lon="6.0827569"/>
<trkpt lat="52.4675284" lon="6.0828725"/>
<trkpt lat="52.4673666" lon="6.0830169"/>
<trkpt lat="52.4669127" lon="6.0833635"/>
<trkpt lat="52.4668329" lon="6.0833848"/>
<trkpt lat="52.4667275" lon="6.0833705"/>
<trkpt lat="52.4663639" lon="6.0833263"/>
<trkpt lat="52.4660720" lon="6.0832420"/>
<trkpt lat="52.4658419" lon="6.0831804"/>
<trkpt lat="52.4656690" lon="6.0831357"/>
<trkpt lat="52.4656020" lon="6.0831968"/>
<trkpt lat="52.4655923" lon="6.0833483"/>
<trkpt lat="52.4655365" lon="6.0834750"/>
<trkpt lat="52.4654682" lon="6.0835139"/>
<trkpt lat="52.4653061" lon="6.0834326"/>
<trkpt lat="52.4649653" lon="6.0833054"/>
<trkpt lat="52.4646811" lon="6.0831260"/>
<trkpt lat="52.4642907" lon="6.0828503"/>
<trkpt lat="52.4640058" lon="6.0826177"/>
<trkpt lat="52.4638955" lon="6.0824834"/>
<trkpt lat="52.4620385" lon="6.0808967"/>
<trkpt lat="52.4619535" lon="6.0808019"/>
<trkpt lat="52.4616330" lon="6.0809445"/>
<trkpt lat="52.4613861" lon="6.0811214"/>
<trkpt lat="52.4617121" lon="6.0816911"/>
<trkpt lat="52.4616480" lon="6.0828912"/>
<trkpt lat="52.4607835" lon="6.0826656"/>
<trkpt lat="52.4606844" lon="6.0825844"/>
<trkpt lat="52.4606092" lon="6.0825442"/>
<trkpt lat="52.4605180" lon="6.0825233"/>
<trkpt lat="52.4604068" lon="6.0825280"/>
<trkpt lat="52.4603037" lon="6.0825069"/>
<trkpt lat="52.4602411" lon="6.0823564"/>
<trkpt lat="52.4602779" lon="6.0821815"/>
<trkpt lat="52.4603973" lon="6.0821249"/>
<trkpt lat="52.4605133" lon="6.0819772"/>
<trkpt lat="52.4606135" lon="6.0818163"/>
<trkpt lat="52.4607697" lon="6.0815783"/>
<trkpt lat="52.4607080" lon="6.0812719"/>
<trkpt lat="52.4605983" lon="6.0810167"/>
<trkpt lat="52.4605719" lon="6.0807823"/>
<trkpt lat="52.4605747" lon="6.0806974"/>
<trkpt lat="52.4607516" lon="6.0807229"/>
<trkpt lat="52.4607395" lon="6.0803450"/>
<trkpt lat="52.4606302" lon="6.0803394"/>
<trkpt lat="52.4604825" lon="6.0802557"/>
<trkpt lat="52.4602881" lon="6.0802874"/>
<trkpt lat="52.4601183" lon="6.0802159"/>
<trkpt lat="52.4599616" lon="6.0801828"/>
<trkpt lat="52.4599182" lon="6.0802233"/>
<trkpt lat="52.4597712" lon="6.0802949"/>
<trkpt lat="52.4598769" lon="6.0801409"/>
<trkpt lat="52.4599224" lon="6.0798232"/>
<trkpt lat="52.4599399" lon="6.0796106"/>
<trkpt lat="52.4593060" lon="6.0792694"/>
<trkpt lat="52.4586191" lon="6.0788976"/>
<trkpt lat="52.4578798" lon="6.0785066"/>
<trkpt lat="52.4572933" lon="6.0782639"/>
<trkpt lat="52.4571996" lon="6.0782403"/>
<trkpt lat="52.4570958" lon="6.0782141"/>
<trkpt lat="52.4568151" lon="6.0781943"/>
<trkpt lat="52.4568112" lon="6.0778583"/>
<trkpt lat="52.4568260" lon="6.0776542"/>
<trkpt lat="52.4568508" lon="6.0774333"/>
<trkpt lat="52.4569365" lon="6.0769986"/>
<trkpt lat="52.4571690" lon="6.0771328"/>
<trkpt lat="52.4572778" lon="6.0771907"/>
<trkpt lat="52.4576650" lon="6.0776934"/>
<trkpt lat="52.4582760" lon="6.0780326"/>
<trkpt lat="52.4590524" lon="6.0785321"/>
<trkpt lat="52.4601004" lon="6.0790072"/>
<trkpt lat="52.4613757" lon="6.0795432"/>
<trkpt lat="52.4612014" lon="6.0789303"/>
</trkseg></trk>
<trk><name>Hoenwaardsepad - route verkorter</name><type>shorteningRoute</type><trkseg>
<trkpt lat="52.4612121" lon="6.0789222"/>
<trkpt lat="52.4615361" lon="6.0790335"/>
<trkpt lat="52.4616252" lon="6.0790748"/>
<trkpt lat="52.4617752" lon="6.0791104"/>
<trkpt lat="52.4618476" lon="6.0792112"/>
<trkpt lat="52.4620409" lon="6.0794800"/>
<trkpt lat="52.4622792" lon="6.0796831"/>
<trkpt lat="52.4623972" lon="6.0796435"/>
<trkpt lat="52.4628794" lon="6.0797656"/>
<trkpt lat="52.4630787" lon="6.0796956"/>
<trkpt lat="52.4631163" lon="6.0799859"/>
<trkpt lat="52.4633249" lon="6.0804236"/>
<trkpt lat="52.4637294" lon="6.0810233"/>
<trkpt lat="52.4638765" lon="6.0811483"/>
<trkpt lat="52.4640127" lon="6.0811745"/>
<trkpt lat="52.4641097" lon="6.0811343"/>
<trkpt lat="52.4646527" lon="6.0806394"/>
<trkpt lat="52.4651563" lon="6.0805645"/>
<trkpt lat="52.4662667" lon="6.0801345"/>
<trkpt lat="52.4656642" lon="6.0816271"/>
<trkpt lat="52.4655600" lon="6.0822154"/>
<trkpt lat="52.4655180" lon="6.0826002"/>
<trkpt lat="52.4655087" lon="6.0827274"/>
<trkpt lat="52.4654642" lon="6.0829786"/>
<trkpt lat="52.4654042" lon="6.0831521"/>
<trkpt lat="52.4653623" lon="6.0831821"/>
<trkpt lat="52.4642015" lon="6.0826352"/>
<trkpt lat="52.4638955" lon="6.0824834"/>
</trkseg></trk>
<trk><name>Hoenwaardsepad - route verlenger</name><type>extensionRoute</type><trkseg>
<trkpt lat="52.4746893" lon="6.0729010"/>
<trkpt lat="52.4749324" lon="6.0725876"/>
<trkpt lat="52.4752736" lon="6.0721859"/>
<trkpt lat="52.4756674" lon="6.0717364"/>
<trkpt lat="52.4760357" lon="6.0713624"/>
<trkpt lat="52.4762531" lon="6.0711702"/>
<trkpt lat="52.4764958" lon="6.0709703"/>
<trkpt lat="52.4767856" lon="6.0708034"/>
<trkpt lat="52.4770692" lon="6.0707027"/>
<trkpt lat="52.4773679" lon="6.0706567"/>
<trkpt lat="52.4775343" lon="6.0706612"/>
<trkpt lat="52.4780275" lon="6.0707136"/>
<trkpt lat="52.4786712" lon="6.0708404"/>
<trkpt lat="52.4793352" lon="6.0709461"/>
<trkpt lat="52.4801977" lon="6.0710743"/>
<trkpt lat="52.4808700" lon="6.0711821"/>
<trkpt lat="52.4810846" lon="6.0712429"/>
<trkpt lat="52.4810405" lon="6.0715486"/>
<trkpt lat="52.4809693" lon="6.0719921"/>
<trkpt lat="52.4808258" lon="6.0722875"/>
<trkpt lat="52.4807392" lon="6.0724502"/>
<trkpt lat="52.4806642" lon="6.0725769"/>
<trkpt lat="52.4805545" lon="6.0728974"/>
<trkpt lat="52.4804622" lon="6.0731645"/>
<trkpt lat="52.4802854" lon="6.0736192"/>
<trkpt lat="52.4801100" lon="6.0741010"/>
<trkpt lat="52.4799166" lon="6.0747117"/>
<trkpt lat="52.4797733" lon="6.0751792"/>
<trkpt lat="52.4797484" lon="6.0753416"/>
<trkpt lat="52.4797247" lon="6.0754487"/>
<trkpt lat="52.4796883" lon="6.0755438"/>
<trkpt lat="52.4796445" lon="6.0756335"/>
<trkpt lat="52.4796275" lon="6.0756801"/>
<trkpt lat="52.4795379" lon="6.0759989"/>
<trkpt lat="52.4794339" lon="6.0760756"/>
<trkpt lat="52.4793284" lon="6.0761745"/>
<trkpt lat="52.4791492" lon="6.0762212"/>
<trkpt lat="52.4791057" lon="6.0762018"/>
<trkpt lat="52.4790466" lon="6.0761816"/>
<trkpt lat="52.4789323" lon="6.0761618"/>
<trkpt lat="52.4786865" lon="6.0761456"/>
<trkpt lat="52.4784490" lon="6.0761543"/>
<trkpt lat="52.4781966" lon="6.0761487"/>
<trkpt lat="52.4781820" lon="6.0759747"/>
<trkpt lat="52.4781750" lon="6.0757147"/>
<trkpt lat="52.4781711" lon="6.0754788"/>
<trkpt lat="52.4781548" lon="6.0753705"/>
<trkpt lat="52.4781260" lon="6.0752648"/>
<trkpt lat="52.4780754" lon="6.0751938"/>
<trkpt lat="52.4780061" lon="6.0751523"/>
<trkpt lat="52.4779290" lon="6.0751322"/>
<trkpt lat="52.4777329" lon="6.0751333"/>
<trkpt lat="52.4776114" lon="6.0751340"/>
<trkpt lat="52.4775534" lon="6.0751215"/>
<trkpt lat="52.4774820" lon="6.0750726"/>
<trkpt lat="52.4774284" lon="6.0749745"/>
<trkpt lat="52.4773768" lon="6.0747609"/>
<trkpt lat="52.4773485" lon="6.0746439"/>
<trkpt lat="52.4773088" lon="6.0744300"/>
<trkpt lat="52.4772731" lon="6.0741989"/>
<trkpt lat="52.4772678" lon="6.0741608"/>
<trkpt lat="52.4772704" lon="6.0740944"/>
<trkpt lat="52.4772732" lon="6.0740232"/>
<trkpt lat="52.4773234" lon="6.0737454"/>
<trkpt lat="52.4774229" lon="6.0731942"/>
<trkpt lat="52.4774561" lon="6.0729848"/>
<trkpt lat="52.4774635" lon="6.0729287"/>
<trkpt lat="52.4774578" lon="6.0728476"/>
<trkpt lat="52.4774272" lon="6.0727905"/>
<trkpt lat="52.4773887" lon="6.0727642"/>
<trkpt lat="52.4773415" lon="6.0727383"/>
<trkpt lat="52.4772670" lon="6.0726975"/>
<trkpt lat="52.4772055" lon="6.0726794"/>
<trkpt lat="52.4771363" lon="6.0726554"/>
<trkpt lat="52.4770976" lon="6.0726381"/>
<trkpt lat="52.4769140" lon="6.0725490"/>
<trkpt lat="52.4767370" lon="6.0724046"/>
<trkpt lat="52.4766217" lon="6.0723005"/>
<trkpt lat="52.4765312" lon="6.0722002"/>
<trkpt lat="52.4764321" lon="6.0719719"/>
<trkpt lat="52.4762531" lon="6.0711702"/>
<trkpt lat="52.4760357" lon="6.0713624"/>
<trkpt lat="52.4756674" lon="6.0717364"/>
<trkpt lat="52.4752736" lon="6.0721859"/>
<trkpt lat="52.4749324" lon="6.0725876"/>
<trkpt lat="52.4746893" lon="6.0729010"/>
</trkseg></trk>
<trk><name>Hoenwaardsepad - alternatieve route</name><type>alternativeRoute</type><trkseg>
<trkpt lat="52.4709247" lon="6.0739277"/>
<trkpt lat="52.4709004" lon="6.0741998"/>
<trkpt lat="52.4708366" lon="6.0745336"/>
<trkpt lat="52.4707401" lon="6.0747736"/>
<trkpt lat="52.4705717" lon="6.0751214"/>
<trkpt lat="52.4704659" lon="6.0753144"/>
<trkpt lat="52.4702682" lon="6.0757786"/>
<trkpt lat="52.4701377" lon="6.0761348"/>
<trkpt lat="52.4700698" lon="6.0763674"/>
<trkpt lat="52.4699313" lon="6.0764587"/>
<trkpt lat="52.4694616" lon="6.0762645"/>
<trkpt lat="52.4692200" lon="6.0761050"/>
<trkpt lat="52.4690252" lon="6.0760708"/>
<trkpt lat="52.4688106" lon="6.0761765"/>
<trkpt lat="52.4679369" lon="6.0767469"/>
<trkpt lat="52.4677215" lon="6.0769849"/>
<trkpt lat="52.4674096" lon="6.0774551"/>
<trkpt lat="52.4673935" lon="6.0777741"/>
<trkpt lat="52.4673826" lon="6.0780154"/>
<trkpt lat="52.4673055" lon="6.0781855"/>
<trkpt lat="52.4671290" lon="6.0782684"/>
<trkpt lat="52.4669437" lon="6.0782499"/>
<trkpt lat="52.4668058" lon="6.0782478"/>
<trkpt lat="52.4666624" lon="6.0783545"/>
<trkpt lat="52.4665752" lon="6.0786335"/>
<trkpt lat="52.4665352" lon="6.0789677"/>
<trkpt lat="52.4665280" lon="6.0793881"/>
<trkpt lat="52.4665216" lon="6.0796684"/>
<trkpt lat="52.4664585" lon="6.0798932"/>
<trkpt lat="52.4663528" lon="6.0800629"/>
<trkpt lat="52.4662667" lon="6.0801345"/>
</trkseg></trk>
<trk><name>Hoenwaardsepad - alternatieve route</name><type>alternativeRoute</type><trkseg>
<trkpt lat="52.4613937" lon="6.0811160"/>
<trkpt lat="52.4613593" lon="6.0809037"/>
<trkpt lat="52.4613411" lon="6.0807710"/>
<trkpt lat="52.4612609" lon="6.0806530"/>
<trkpt lat="52.4611574" lon="6.0804723"/>
<trkpt lat="52.4610341" lon="6.0804003"/>
<trkpt lat="52.4609299" lon="6.0803363"/>
<trkpt lat="52.4607919" lon="6.0803420"/>
<trkpt lat="52.4606872" lon="6.0803481"/>
<trkpt lat="52.4606302" lon="6.0803394"/>
<trkpt lat="52.4605308" lon="6.0802600"/>
<trkpt lat="52.4604262" lon="6.0802506"/>
<trkpt lat="52.4602881" lon="6.0802874"/>
<trkpt lat="52.4601742" lon="6.0802389"/>
<trkpt lat="52.4600558" lon="6.0801514"/>
<trkpt lat="52.4599608" lon="6.0801343"/>
<trkpt lat="52.4598944" lon="6.0800188"/>
</trkseg></trk>
<trk><name>Hoenwaardsepad - overstaproute</name><type>connectionRoute</type><trkseg>
<trkpt lat="52.4568151" lon="6.0781943"/>
<trkpt lat="52.4565407" lon="6.0781895"/>
<trkpt lat="52.4562204" lon="6.0782256"/>
<trkpt lat="52.4556630" lon="6.0783209"/>
<trkpt lat="52.4552876" lon="6.0784436"/>
<trkpt lat="52.4541386" lon="6.0787687"/>
<trkpt lat="52.4533917" lon="6.0789875"/>
<trkpt lat="52.4528784" lon="6.0790233"/>
<trkpt lat="52.4524386" lon="6.0790058"/>
<trkpt lat="52.4513808" lon="6.0787891"/>
<trkpt lat="52.4505476" lon="6.0785336"/>
<trkpt lat="52.4498751" lon="6.0781586"/>
<trkpt lat="52.4496823" lon="6.0779458"/>
<trkpt lat="52.4493505" lon="6.0777102"/>
<trkpt lat="52.4490594" lon="6.0775968"/>
<trkpt lat="52.4486272" lon="6.0775881"/>
<trkpt lat="52.4478315" lon="6.0778017"/>
<trkpt lat="52.4474886" lon="6.0778698"/>
<trkpt lat="52.4472417" lon="6.0778963"/>
<trkpt lat="52.4470763" lon="6.0778957"/>
<trkpt lat="52.4465338" lon="6.0776200"/>
<trkpt lat="52.4461873" lon="6.0773937"/>
<trkpt lat="52.4457141" lon="6.0768330"/>
<trkpt lat="52.4450353" lon="6.0760455"/>
<trkpt lat="52.4439697" lon="6.0748035"/>
<trkpt lat="52.4431472" lon="6.0738779"/>
<trkpt lat="52.4430429" lon="6.0738375"/>
</trkseg></trk>
<trk><name>Hoenwaardsepad - Geimporteerde shapefile</name><type>detourRoute</type><trkseg>
<trkpt lat="52.4742146" lon="6.0722611"/>
<trkpt lat="52.4739299" lon="6.0718255"/>
<trkpt lat="52.4734286" lon="6.0715825"/>
<trkpt lat="52.4725924" lon="6.0713148"/>
<trkpt lat="52.4724831" lon="6.0715875"/>
<trkpt lat="52.4718813" lon="6.0721661"/>
<trkpt lat="52.4714219" lon="6.0729626"/>
<trkpt lat="52.4709075" lon="6.0729154"/>
</trkseg></trk>
</gpx>