<?xml version="1.0" encoding="UTF-8"?>
<gpx version="1.1" creator="klompenpaden.nl via Jimbo API" xmlns="http://www.topografix.com/GPX/1/1">
<metadata><name>Hoeverveldpad</name><desc>Ontdek het mooie buitengebied van Hoef en Steenenkamer. Wandel langs de voormalige Zuiderzee, over historische dijken en paden. Laat je verrassen door dit bijzondere afwisselende landschap. Klompen aan, rugzak op en gaan!</desc><link href="https://www.klompenpaden.nl/klompenpaden/Hoeverveldpad/38ec6f6f-840f-497b-b762-b68f7c327839"><text>klompenpaden.nl</text></link></metadata>
<wpt lat="52.26546535908787" lon="5.576269626617432"><name>Start Putten</name></wpt>
<trk><name>Hoeverveldpad - Hoofdroute</name><type>mainRoute</type><trkseg>
<trkpt lat="52.2697024" lon="5.5610020"/>
<trkpt lat="52.2674079" lon="5.5586270"/>
<trkpt lat="52.2678123" lon="5.5578714"/>
<trkpt lat="52.2682359" lon="5.5570311"/>
<trkpt lat="52.2696114" lon="5.5538841"/>
<trkpt lat="52.2697542" lon="5.5535739"/>
<trkpt lat="52.2697920" lon="5.5525763"/>
<trkpt lat="52.2697447" lon="5.5518808"/>
<trkpt lat="52.2694385" lon="5.5504776"/>
<trkpt lat="52.2694296" lon="5.5499734"/>
<trkpt lat="52.2693422" lon="5.5482786"/>
<trkpt lat="52.2692447" lon="5.5468863"/>
<trkpt lat="52.2691304" lon="5.5457804"/>
<trkpt lat="52.2690150" lon="5.5455322"/>
<trkpt lat="52.2689669" lon="5.5445493"/>
<trkpt lat="52.2690474" lon="5.5438511"/>
<trkpt lat="52.2690306" lon="5.5432154"/>
<trkpt lat="52.2687870" lon="5.5396745"/>
<trkpt lat="52.2687693" lon="5.5390870"/>
<trkpt lat="52.2687361" lon="5.5389320"/>
<trkpt lat="52.2675684" lon="5.5394587"/>
<trkpt lat="52.2661463" lon="5.5400470"/>
<trkpt lat="52.2657901" lon="5.5400083"/>
<trkpt lat="52.2654873" lon="5.5398447"/>
<trkpt lat="52.2662353" lon="5.5374502"/>
<trkpt lat="52.2667991" lon="5.5356779"/>
<trkpt lat="52.2673055" lon="5.5339995"/>
<trkpt lat="52.2669410" lon="5.5337477"/>
<trkpt lat="52.2665347" lon="5.5334673"/>
<trkpt lat="52.2656438" lon="5.5328132"/>
<trkpt lat="52.2653872" lon="5.5326147"/>
<trkpt lat="52.2652444" lon="5.5327421"/>
<trkpt lat="52.2652086" lon="5.5328699"/>
<trkpt lat="52.2650018" lon="5.5327646"/>
<trkpt lat="52.2645885" lon="5.5323330"/>
<trkpt lat="52.2644601" lon="5.5323558"/>
<trkpt lat="52.2643106" lon="5.5321228"/>
<trkpt lat="52.2639898" lon="5.5318776"/>
<trkpt lat="52.2636621" lon="5.5315045"/>
<trkpt lat="52.2635270" lon="5.5311901"/>
<trkpt lat="52.2634420" lon="5.5306550"/>
<trkpt lat="52.2635146" lon="5.5295971"/>
<trkpt lat="52.2634296" lon="5.5291202"/>
<trkpt lat="52.2629159" lon="5.5291767"/>
<trkpt lat="52.2625161" lon="5.5293730"/>
<trkpt lat="52.2622523" lon="5.5293141"/>
<trkpt lat="52.2619240" lon="5.5293479"/>
<trkpt lat="52.2618103" lon="5.5290452"/>
<trkpt lat="52.2617750" lon="5.5287196"/>
<trkpt lat="52.2615046" lon="5.5281258"/>
<trkpt lat="52.2614051" lon="5.5278464"/>
<trkpt lat="52.2610204" lon="5.5273918"/>
<trkpt lat="52.2606070" lon="5.5270649"/>
<trkpt lat="52.2600733" lon="5.5258890"/>
<trkpt lat="52.2593263" lon="5.5241195"/>
<trkpt lat="52.2593411" lon="5.5236894"/>
<trkpt lat="52.2594418" lon="5.5229573"/>
<trkpt lat="52.2594714" lon="5.5219808"/>
<trkpt lat="52.2594001" lon="5.5219806"/>
<trkpt lat="52.2592488" lon="5.5232590"/>
<trkpt lat="52.2589125" lon="5.5241415"/>
<trkpt lat="52.2586908" lon="5.5245826"/>
<trkpt lat="52.2585976" lon="5.5250357"/>
<trkpt lat="52.2585966" lon="5.5258728"/>
<trkpt lat="52.2584829" lon="5.5254423"/>
<trkpt lat="52.2585339" lon="5.5245821"/>
<trkpt lat="52.2579687" lon="5.5228903"/>
<trkpt lat="52.2576780" lon="5.5230160"/>
<trkpt lat="52.2571760" lon="5.5232558"/>
<trkpt lat="52.2566411" lon="5.5235356"/>
<trkpt lat="52.2565370" lon="5.5234012"/>
<trkpt lat="52.2562579" lon="5.5205813"/>
<trkpt lat="52.2562690" lon="5.5204250"/>
<trkpt lat="52.2563816" lon="5.5202958"/>
<trkpt lat="52.2567462" lon="5.5203147"/>
<trkpt lat="52.2568424" lon="5.5202077"/>
<trkpt lat="52.2568740" lon="5.5197590"/>
<trkpt lat="52.2567075" lon="5.5183454"/>
<trkpt lat="52.2559253" lon="5.5160413"/>
<trkpt lat="52.2558185" lon="5.5158550"/>
<trkpt lat="52.2545155" lon="5.5199780"/>
<trkpt lat="52.2541018" lon="5.5199186"/>
<trkpt lat="52.2540017" lon="5.5201159"/>
<trkpt lat="52.2539585" lon="5.5204645"/>
<trkpt lat="52.2539865" lon="5.5209645"/>
<trkpt lat="52.2542709" lon="5.5218023"/>
<trkpt lat="52.2542417" lon="5.5223951"/>
<trkpt lat="52.2542125" lon="5.5229995"/>
<trkpt lat="52.2541030" lon="5.5251148"/>
<trkpt lat="52.2538794" lon="5.5272181"/>
<trkpt lat="52.2534347" lon="5.5292277"/>
<trkpt lat="52.2529758" lon="5.5311327"/>
<trkpt lat="52.2521437" lon="5.5348032"/>
<trkpt lat="52.2519723" lon="5.5354923"/>
<trkpt lat="52.2517565" lon="5.5361115"/>
<trkpt lat="52.2515707" lon="5.5365797"/>
<trkpt lat="52.2511925" lon="5.5366947"/>
<trkpt lat="52.2507783" lon="5.5365842"/>
<trkpt lat="52.2504635" lon="5.5363507"/>
<trkpt lat="52.2500745" lon="5.5360249"/>
<trkpt lat="52.2492412" lon="5.5354051"/>
<trkpt lat="52.2481602" lon="5.5345830"/>
<trkpt lat="52.2477118" lon="5.5342183"/>
<trkpt lat="52.2476535" lon="5.5339728"/>
<trkpt lat="52.2475672" lon="5.5339055"/>
<trkpt lat="52.2473498" lon="5.5346361"/>
<trkpt lat="52.2464828" lon="5.5376435"/>
<trkpt lat="52.2460365" lon="5.5391802"/>
<trkpt lat="52.2461239" lon="5.5393624"/>
<trkpt lat="52.2464995" lon="5.5412466"/>
<trkpt lat="52.2464557" lon="5.5420600"/>
<trkpt lat="52.2463676" lon="5.5439193"/>
<trkpt lat="52.2463366" lon="5.5457555"/>
<trkpt lat="52.2463789" lon="5.5461509"/>
<trkpt lat="52.2464994" lon="5.5466976"/>
<trkpt lat="52.2466843" lon="5.5471283"/>
<trkpt lat="52.2470183" lon="5.5481290"/>
<trkpt lat="52.2476623" lon="5.5501402"/>
<trkpt lat="52.2480498" lon="5.5502830"/>
<trkpt lat="52.2504773" lon="5.5488389"/>
<trkpt lat="52.2518440" lon="5.5561205"/>
<trkpt lat="52.2534346" lon="5.5563242"/>
<trkpt lat="52.2546750" lon="5.5570031"/>
<trkpt lat="52.2548616" lon="5.5562134"/>
<trkpt lat="52.2582402" lon="5.5582258"/>
<trkpt lat="52.2620321" lon="5.5605890"/>
<trkpt lat="52.2624502" lon="5.5575909"/>
<trkpt lat="52.2625715" lon="5.5575914"/>
<trkpt lat="52.2629133" lon="5.5580345"/>
<trkpt lat="52.2640319" lon="5.5590271"/>
<trkpt lat="52.2645092" lon="5.5594824"/>
<trkpt lat="52.2649865" lon="5.5599959"/>
<trkpt lat="52.2655204" lon="5.5607770"/>
<trkpt lat="52.2666945" lon="5.5628397"/>
<trkpt lat="52.2667712" lon="5.5632113"/>
<trkpt lat="52.2688459" lon="5.5645996"/>
<trkpt lat="52.2712228" lon="5.5661557"/>
<trkpt lat="52.2710889" lon="5.5668267"/>
<trkpt lat="52.2712685" lon="5.5669446"/>
<trkpt lat="52.2713680" lon="5.5671776"/>
<trkpt lat="52.2711222" lon="5.5681314"/>
<trkpt lat="52.2708877" lon="5.5690080"/>
<trkpt lat="52.2720521" lon="5.5698185"/>
<trkpt lat="52.2718855" lon="5.5705809"/>
<trkpt lat="52.2721808" lon="5.5708001"/>
<trkpt lat="52.2722269" lon="5.5706167"/>
<trkpt lat="52.2722800" lon="5.5703989"/>
<trkpt lat="52.2723647" lon="5.5702386"/>
<trkpt lat="52.2724425" lon="5.5700496"/>
<trkpt lat="52.2724674" lon="5.5698833"/>
<trkpt lat="52.2725031" lon="5.5695048"/>
<trkpt lat="52.2725421" lon="5.5693328"/>
<trkpt lat="52.2733612" lon="5.5699136"/>
<trkpt lat="52.2747105" lon="5.5646043"/>
<trkpt lat="52.2750193" lon="5.5633166"/>
<trkpt lat="52.2743646" lon="5.5628846"/>
<trkpt lat="52.2739217" lon="5.5625896"/>
<trkpt lat="52.2734018" lon="5.5622734"/>
<trkpt lat="52.2732993" lon="5.5620740"/>
<trkpt lat="52.2732680" lon="5.5615292"/>
<trkpt lat="52.2732043" lon="5.5611729"/>
<trkpt lat="52.2731146" lon="5.5609945"/>
<trkpt lat="52.2727680" lon="5.5607732"/>
<trkpt lat="52.2725242" lon="5.5605628"/>
<trkpt lat="52.2719145" lon="5.5600892"/>
<trkpt lat="52.2719663" lon="5.5597961"/>
<trkpt lat="52.2704083" lon="5.5587690"/>
<trkpt lat="52.2700584" lon="5.5602366"/>
<trkpt lat="52.2698432" lon="5.5610730"/>
<trkpt lat="52.2697024" lon="5.5610018"/>
</trkseg></trk>
<trk><name>Hoeverveldpad - route verkorter</name><type>shorteningRoute</type><trkseg>
<trkpt lat="52.2662093" lon="5.5375276"/>
<trkpt lat="52.2654449" lon="5.5399810"/>
<trkpt lat="52.2651735" lon="5.5408948"/>
<trkpt lat="52.2648846" lon="5.5421526"/>
<trkpt lat="52.2648677" lon="5.5424363"/>
<trkpt lat="52.2645882" lon="5.5438798"/>
<trkpt lat="52.2644735" lon="5.5444189"/>
<trkpt lat="52.2643192" lon="5.5453466"/>
<trkpt lat="52.2641831" lon="5.5459842"/>
<trkpt lat="52.2640844" lon="5.5459264"/>
<trkpt lat="52.2640633" lon="5.5460472"/>
<trkpt lat="52.2640118" lon="5.5461121"/>
<trkpt lat="52.2634174" lon="5.5457260"/>
<trkpt lat="52.2625276" lon="5.5450752"/>
<trkpt lat="52.2621486" lon="5.5448685"/>
<trkpt lat="52.2586559" lon="5.5423322"/>
<trkpt lat="52.2582032" lon="5.5421145"/>
<trkpt lat="52.2580313" lon="5.5425524"/>
<trkpt lat="52.2571587" lon="5.5477816"/>
<trkpt lat="52.2570055" lon="5.5477114"/>
<trkpt lat="52.2556239" lon="5.5472430"/>
<trkpt lat="52.2548066" lon="5.5475651"/>
<trkpt lat="52.2537850" lon="5.5484395"/>
<trkpt lat="52.2535976" lon="5.5484877"/>
<trkpt lat="52.2527647" lon="5.5479860"/>
<trkpt lat="52.2519940" lon="5.5471049"/>
<trkpt lat="52.2517982" lon="5.5470911"/>
<trkpt lat="52.2502035" lon="5.5473445"/>
<trkpt lat="52.2504998" lon="5.5489314"/>
</trkseg></trk>
<trk><name>Hoeverveldpad - route verkorter 2</name><type>shorteningRoute</type><trkseg>
<trkpt lat="52.2698374" lon="5.5610701"/>
<trkpt lat="52.2688459" lon="5.5645996"/>
</trkseg></trk>
<trk><name>Hoeverveldpad - route verlenger</name><type>extensionRoute</type><trkseg>
<trkpt lat="52.2634109" lon="5.5291857"/>
<trkpt lat="52.2634338" lon="5.5279068"/>
<trkpt lat="52.2634950" lon="5.5244189"/>
<trkpt lat="52.2635239" lon="5.5240818"/>
<trkpt lat="52.2636809" lon="5.5240591"/>
<trkpt lat="52.2637850" lon="5.5203038"/>
<trkpt lat="52.2638941" lon="5.5119210"/>
<trkpt lat="52.2646348" lon="5.5061792"/>
<trkpt lat="52.2644163" lon="5.5035044"/>
<trkpt lat="52.2642469" lon="5.5016552"/>
<trkpt lat="52.2644050" lon="5.5004580"/>
<trkpt lat="52.2640275" lon="5.4998757"/>
<trkpt lat="52.2635451" lon="5.4969561"/>
<trkpt lat="52.2635245" lon="5.4960607"/>
<trkpt lat="52.2636043" lon="5.4946424"/>
<trkpt lat="52.2633410" lon="5.4939791"/>
<trkpt lat="52.2631419" lon="5.4932345"/>
<trkpt lat="52.2630708" lon="5.4928971"/>
<trkpt lat="52.2627029" lon="5.4894663"/>
<trkpt lat="52.2624962" lon="5.4892566"/>
<trkpt lat="52.2623535" lon="5.4893144"/>
<trkpt lat="52.2603654" lon="5.4946695"/>
<trkpt lat="52.2605079" lon="5.4948907"/>
<trkpt lat="52.2609836" lon="5.4974148"/>
<trkpt lat="52.2612736" lon="5.4999966"/>
<trkpt lat="52.2614484" lon="5.5037175"/>
<trkpt lat="52.2613298" lon="5.5081352"/>
<trkpt lat="52.2619833" lon="5.5108460"/>
<trkpt lat="52.2616826" lon="5.5118102"/>
<trkpt lat="52.2612820" lon="5.5128787"/>
<trkpt lat="52.2610884" lon="5.5137501"/>
<trkpt lat="52.2606940" lon="5.5157138"/>
<trkpt lat="52.2595612" lon="5.5207446"/>
<trkpt lat="52.2594079" lon="5.5219939"/>
</trkseg></trk>
<trk><name>Hoeverveldpad - aanlooproute</name><type>approachRoute</type><trkseg>
<trkpt lat="52.2667082" lon="5.5631654"/>
<trkpt lat="52.2664077" lon="5.5662044"/>
<trkpt lat="52.2663521" lon="5.5669223"/>
<trkpt lat="52.2663652" lon="5.5687376"/>
<trkpt lat="52.2663615" lon="5.5704269"/>
<trkpt lat="52.2661860" lon="5.5731354"/>
<trkpt lat="52.2661203" lon="5.5740886"/>
<trkpt lat="52.2657890" lon="5.5765177"/>
<trkpt lat="52.2655673" lon="5.5762689"/>
</trkseg></trk>
</gpx>