<?xml version="1.0" encoding="UTF-8"?>
<gpx version="1.1" creator="klompenpaden.nl via Jimbo API" xmlns="http://www.topografix.com/GPX/1/1">
<metadata><name>Holhorsterpad</name><desc>Ontdek het mooie buitengebied van Beemte Broekland. Wandelen door het Weteringse Broek, langs het Apeldoorns Kanaal en de middeleeuwse Grift. Laat je verrassen door dit bijzondere
afwisselende landschap. Klompen aan, rugzak op en gaan!</desc><link href="https://www.klompenpaden.nl/klompenpaden/Holhorsterpad/e62215f6-9ce1-41f5-a897-cc96ea1759e0"><text>klompenpaden.nl</text></link></metadata>
<wpt lat="52.25559542928872" lon="5.989694595336914"><name>Start Beemte Broekland</name></wpt>
<trk><name>Holhorsterpad - Geimporteerde shapefile</name><type>mainRoute</type><trkseg>
<trkpt lat="52.2557094" lon="5.9898557"/>
<trkpt lat="52.2557288" lon="5.9899868"/>
<trkpt lat="52.2561668" lon="5.9903055"/>
<trkpt lat="52.2562666" lon="5.9902688"/>
<trkpt lat="52.2564638" lon="5.9898332"/>
<trkpt lat="52.2567491" lon="5.9894552"/>
<trkpt lat="52.2568857" lon="5.9891402"/>
<trkpt lat="52.2569672" lon="5.9872922"/>
<trkpt lat="52.2569555" lon="5.9865569"/>
<trkpt lat="52.2568500" lon="5.9856780"/>
<trkpt lat="52.2566752" lon="5.9849434"/>
<trkpt lat="52.2561473" lon="5.9834187"/>
<trkpt lat="52.2560166" lon="5.9829085"/>
<trkpt lat="52.2559860" lon="5.9825978"/>
<trkpt lat="52.2559390" lon="5.9824303"/>
<trkpt lat="52.2551076" lon="5.9822333"/>
<trkpt lat="52.2551721" lon="5.9818366"/>
<trkpt lat="52.2549874" lon="5.9817408"/>
<trkpt lat="52.2545471" lon="5.9814258"/>
<trkpt lat="52.2539595" lon="5.9811271"/>
<trkpt lat="52.2532076" lon="5.9806516"/>
<trkpt lat="52.2527448" lon="5.9803946"/>
<trkpt lat="52.2524219" lon="5.9802557"/>
<trkpt lat="52.2530109" lon="5.9749286"/>
<trkpt lat="52.2510477" lon="5.9742908"/>
<trkpt lat="52.2485508" lon="5.9731948"/>
<trkpt lat="52.2474343" lon="5.9727187"/>
<trkpt lat="52.2473683" lon="5.9761413"/>
<trkpt lat="52.2473518" lon="5.9762761"/>
<trkpt lat="52.2473133" lon="5.9780188"/>
<trkpt lat="52.2473023" lon="5.9782434"/>
<trkpt lat="52.2468733" lon="5.9780817"/>
<trkpt lat="52.2468911" lon="5.9777667"/>
<trkpt lat="52.2454383" lon="5.9772972"/>
<trkpt lat="52.2450338" lon="5.9770465"/>
<trkpt lat="52.2448868" lon="5.9768129"/>
<trkpt lat="52.2445663" lon="5.9766052"/>
<trkpt lat="52.2437785" lon="5.9762804"/>
<trkpt lat="52.2437637" lon="5.9764154"/>
<trkpt lat="52.2445137" lon="5.9767200"/>
<trkpt lat="52.2445845" lon="5.9768594"/>
<trkpt lat="52.2446827" lon="5.9771704"/>
<trkpt lat="52.2443353" lon="5.9769726"/>
<trkpt lat="52.2443363" lon="5.9768351"/>
<trkpt lat="52.2433709" lon="5.9764714"/>
<trkpt lat="52.2430204" lon="5.9763345"/>
<trkpt lat="52.2430201" lon="5.9763418"/>
<trkpt lat="52.2430066" lon="5.9766641"/>
<trkpt lat="52.2430183" lon="5.9763386"/>
<trkpt lat="52.2416191" lon="5.9758420"/>
<trkpt lat="52.2412389" lon="5.9757159"/>
<trkpt lat="52.2411059" lon="5.9756717"/>
<trkpt lat="52.2410248" lon="5.9756417"/>
<trkpt lat="52.2405132" lon="5.9753485"/>
<trkpt lat="52.2400454" lon="5.9752617"/>
<trkpt lat="52.2396142" lon="5.9751246"/>
<trkpt lat="52.2394363" lon="5.9750984"/>
<trkpt lat="52.2392749" lon="5.9750392"/>
<trkpt lat="52.2391749" lon="5.9750832"/>
<trkpt lat="52.2391273" lon="5.9749985"/>
<trkpt lat="52.2390112" lon="5.9749706"/>
<trkpt lat="52.2388063" lon="5.9749792"/>
<trkpt lat="52.2387656" lon="5.9751981"/>
<trkpt lat="52.2386995" lon="5.9751987"/>
<trkpt lat="52.2387050" lon="5.9756922"/>
<trkpt lat="52.2388426" lon="5.9758179"/>
<trkpt lat="52.2390076" lon="5.9759527"/>
<trkpt lat="52.2390791" lon="5.9766803"/>
<trkpt lat="52.2391946" lon="5.9773900"/>
<trkpt lat="52.2394422" lon="5.9773001"/>
<trkpt lat="52.2397172" lon="5.9772642"/>
<trkpt lat="52.2403883" lon="5.9774439"/>
<trkpt lat="52.2404255" lon="5.9779803"/>
<trkpt lat="52.2404845" lon="5.9795550"/>
<trkpt lat="52.2405864" lon="5.9797525"/>
<trkpt lat="52.2415875" lon="5.9810192"/>
<trkpt lat="52.2418130" lon="5.9810731"/>
<trkpt lat="52.2422366" lon="5.9810461"/>
<trkpt lat="52.2427426" lon="5.9809743"/>
<trkpt lat="52.2432212" lon="5.9809114"/>
<trkpt lat="52.2437052" lon="5.9807830"/>
<trkpt lat="52.2440559" lon="5.9829143"/>
<trkpt lat="52.2440675" lon="5.9832744"/>
<trkpt lat="52.2440863" lon="5.9839653"/>
<trkpt lat="52.2441000" lon="5.9843509"/>
<trkpt lat="52.2446201" lon="5.9851940"/>
<trkpt lat="52.2448433" lon="5.9856260"/>
<trkpt lat="52.2451593" lon="5.9862482"/>
<trkpt lat="52.2455721" lon="5.9871336"/>
<trkpt lat="52.2456551" lon="5.9870365"/>
<trkpt lat="52.2457675" lon="5.9868817"/>
<trkpt lat="52.2457726" lon="5.9867618"/>
<trkpt lat="52.2458186" lon="5.9864825"/>
<trkpt lat="52.2459728" lon="5.9855721"/>
<trkpt lat="52.2462203" lon="5.9842848"/>
<trkpt lat="52.2464547" lon="5.9833718"/>
<trkpt lat="52.2465942" lon="5.9827156"/>
<trkpt lat="52.2465323" lon="5.9816121"/>
<trkpt lat="52.2465213" lon="5.9810821"/>
<trkpt lat="52.2465433" lon="5.9805610"/>
<trkpt lat="52.2471428" lon="5.9808395"/>
<trkpt lat="52.2470273" lon="5.9822049"/>
<trkpt lat="52.2469173" lon="5.9835614"/>
<trkpt lat="52.2469778" lon="5.9844956"/>
<trkpt lat="52.2470658" lon="5.9845585"/>
<trkpt lat="52.2470713" lon="5.9846214"/>
<trkpt lat="52.2476323" lon="5.9849089"/>
<trkpt lat="52.2474123" lon="5.9859330"/>
<trkpt lat="52.2473353" lon="5.9862563"/>
<trkpt lat="52.2473848" lon="5.9863102"/>
<trkpt lat="52.2473023" lon="5.9866875"/>
<trkpt lat="52.2471978" lon="5.9871008"/>
<trkpt lat="52.2471758" lon="5.9874781"/>
<trkpt lat="52.2471813" lon="5.9881698"/>
<trkpt lat="52.2472711" lon="5.9891669"/>
<trkpt lat="52.2474177" lon="5.9897397"/>
<trkpt lat="52.2477515" lon="5.9921001"/>
<trkpt lat="52.2478065" lon="5.9926898"/>
<trkpt lat="52.2478977" lon="5.9940581"/>
<trkpt lat="52.2480393" lon="5.9952305"/>
<trkpt lat="52.2483418" lon="5.9966139"/>
<trkpt lat="52.2491173" lon="5.9996682"/>
<trkpt lat="52.2494794" lon="6.0010494"/>
<trkpt lat="52.2495683" lon="6.0012582"/>
<trkpt lat="52.2499642" lon="6.0017343"/>
<trkpt lat="52.2500027" lon="6.0019499"/>
<trkpt lat="52.2499422" lon="6.0022284"/>
<trkpt lat="52.2497960" lon="6.0023772"/>
<trkpt lat="52.2495140" lon="6.0025442"/>
<trkpt lat="52.2491381" lon="6.0027353"/>
<trkpt lat="52.2495499" lon="6.0050715"/>
<trkpt lat="52.2501221" lon="6.0057448"/>
<trkpt lat="52.2503511" lon="6.0067660"/>
<trkpt lat="52.2500965" lon="6.0069233"/>
<trkpt lat="52.2499872" lon="6.0070788"/>
<trkpt lat="52.2499541" lon="6.0072701"/>
<trkpt lat="52.2498441" lon="6.0073848"/>
<trkpt lat="52.2497276" lon="6.0076098"/>
<trkpt lat="52.2497091" lon="6.0077200"/>
<trkpt lat="52.2497365" lon="6.0079471"/>
<trkpt lat="52.2498137" lon="6.0081864"/>
<trkpt lat="52.2498693" lon="6.0084720"/>
<trkpt lat="52.2499107" lon="6.0087341"/>
<trkpt lat="52.2498916" lon="6.0089721"/>
<trkpt lat="52.2498510" lon="6.0092389"/>
<trkpt lat="52.2496892" lon="6.0094749"/>
<trkpt lat="52.2495456" lon="6.0096414"/>
<trkpt lat="52.2493779" lon="6.0096507"/>
<trkpt lat="52.2492215" lon="6.0095555"/>
<trkpt lat="52.2490814" lon="6.0095207"/>
<trkpt lat="52.2489385" lon="6.0095574"/>
<trkpt lat="52.2488092" lon="6.0097183"/>
<trkpt lat="52.2487232" lon="6.0097869"/>
<trkpt lat="52.2486424" lon="6.0097935"/>
<trkpt lat="52.2478918" lon="6.0096280"/>
<trkpt lat="52.2478264" lon="6.0099160"/>
<trkpt lat="52.2476928" lon="6.0101426"/>
<trkpt lat="52.2475333" lon="6.0102863"/>
<trkpt lat="52.2473422" lon="6.0104081"/>
<trkpt lat="52.2471251" lon="6.0105792"/>
<trkpt lat="52.2469558" lon="6.0108343"/>
<trkpt lat="52.2468238" lon="6.0112385"/>
<trkpt lat="52.2464278" lon="6.0115709"/>
<trkpt lat="52.2463508" lon="6.0117236"/>
<trkpt lat="52.2462897" lon="6.0118981"/>
<trkpt lat="52.2462298" lon="6.0122446"/>
<trkpt lat="52.2462662" lon="6.0125850"/>
<trkpt lat="52.2463948" lon="6.0128914"/>
<trkpt lat="52.2465708" lon="6.0131339"/>
<trkpt lat="52.2466698" lon="6.0133316"/>
<trkpt lat="52.2467468" lon="6.0135561"/>
<trkpt lat="52.2467578" lon="6.0139514"/>
<trkpt lat="52.2468403" lon="6.0142029"/>
<trkpt lat="52.2470108" lon="6.0144006"/>
<trkpt lat="52.2471263" lon="6.0144634"/>
<trkpt lat="52.2471263" lon="6.0145431"/>
<trkpt lat="52.2480448" lon="6.0148228"/>
<trkpt lat="52.2481811" lon="6.0149633"/>
<trkpt lat="52.2483948" lon="6.0146464"/>
<trkpt lat="52.2485744" lon="6.0144380"/>
<trkpt lat="52.2498848" lon="6.0130858"/>
<trkpt lat="52.2507082" lon="6.0122466"/>
<trkpt lat="52.2513340" lon="6.0116409"/>
<trkpt lat="52.2519529" lon="6.0110824"/>
<trkpt lat="52.2529999" lon="6.0101875"/>
<trkpt lat="52.2529560" lon="6.0100437"/>
<trkpt lat="52.2527415" lon="6.0102144"/>
<trkpt lat="52.2527867" lon="6.0097545"/>
<trkpt lat="52.2528700" lon="6.0089867"/>
<trkpt lat="52.2529505" lon="6.0082202"/>
<trkpt lat="52.2529944" lon="6.0078069"/>
<trkpt lat="52.2530769" lon="6.0071512"/>
<trkpt lat="52.2531823" lon="6.0068810"/>
<trkpt lat="52.2533790" lon="6.0063066"/>
<trkpt lat="52.2535616" lon="6.0057632"/>
<trkpt lat="52.2537120" lon="6.0057834"/>
<trkpt lat="52.2547947" lon="6.0058842"/>
<trkpt lat="52.2550401" lon="6.0064595"/>
<trkpt lat="52.2553316" lon="6.0073308"/>
<trkpt lat="52.2556010" lon="6.0083369"/>
<trkpt lat="52.2569208" lon="6.0075195"/>
<trkpt lat="52.2570252" lon="6.0073668"/>
<trkpt lat="52.2566978" lon="6.0059783"/>
<trkpt lat="52.2562279" lon="6.0033243"/>
<trkpt lat="52.2557990" lon="6.0008630"/>
<trkpt lat="52.2556780" lon="5.9999018"/>
<trkpt lat="52.2555838" lon="5.9989142"/>
<trkpt lat="52.2556230" lon="5.9978805"/>
<trkpt lat="52.2557825" lon="5.9965870"/>
<trkpt lat="52.2560574" lon="5.9947903"/>
<trkpt lat="52.2561509" lon="5.9941436"/>
<trkpt lat="52.2559610" lon="5.9933467"/>
<trkpt lat="52.2559255" lon="5.9928590"/>
<trkpt lat="52.2562004" lon="5.9909725"/>
<trkpt lat="52.2561624" lon="5.9903018"/>
</trkseg></trk>
<trk><name>Holhorsterpad - Geimporteerde shapefile</name><type>shorteningRoute</type><trkseg>
<trkpt lat="52.2468740" lon="5.9780732"/>
<trkpt lat="52.2468019" lon="5.9786407"/>
<trkpt lat="52.2471043" lon="5.9787644"/>
<trkpt lat="52.2470328" lon="5.9791597"/>
<trkpt lat="52.2473903" lon="5.9809293"/>
<trkpt lat="52.2471483" lon="5.9808395"/>
</trkseg></trk>
<trk><name>Holhorsterpad - Geimporteerde shapefile</name><type>shorteningRoute</type><trkseg>
<trkpt lat="52.2488588" lon="5.9985453"/>
<trkpt lat="52.2494528" lon="5.9985363"/>
<trkpt lat="52.2495133" lon="5.9975033"/>
<trkpt lat="52.2501512" lon="5.9977638"/>
<trkpt lat="52.2502997" lon="5.9979344"/>
<trkpt lat="52.2505747" lon="5.9979973"/>
<trkpt lat="52.2521146" lon="5.9984645"/>
<trkpt lat="52.2535389" lon="5.9989585"/>
<trkpt lat="52.2555971" lon="5.9989251"/>
</trkseg></trk>
<trk><name>Holhorsterpad - Geimporteerde shapefile</name><type>alternativeRoute</type><trkseg>
<trkpt lat="52.2529975" lon="6.0101808"/>
<trkpt lat="52.2537199" lon="6.0095921"/>
<trkpt lat="52.2548153" lon="6.0090827"/>
<trkpt lat="52.2561655" lon="6.0082215"/>
<trkpt lat="52.2568841" lon="6.0077843"/>
<trkpt lat="52.2570496" lon="6.0077166"/>
<trkpt lat="52.2571165" lon="6.0076556"/>
<trkpt lat="52.2570187" lon="6.0073763"/>
</trkseg></trk>
<trk><name>Holhorsterpad - Geimporteerde shapefile</name><type>alternativeRoute</type><trkseg>
<trkpt lat="52.2468898" lon="5.9778661"/>
<trkpt lat="52.2470483" lon="5.9772344"/>
<trkpt lat="52.2470774" lon="5.9765601"/>
<trkpt lat="52.2470784" lon="5.9761107"/>
<trkpt lat="52.2470712" lon="5.9758955"/>
<trkpt lat="52.2470160" lon="5.9745640"/>
<trkpt lat="52.2470164" lon="5.9742444"/>
<trkpt lat="52.2470393" lon="5.9727317"/>
<trkpt lat="52.2470525" lon="5.9717633"/>
<trkpt lat="52.2470422" lon="5.9716319"/>
<trkpt lat="52.2469942" lon="5.9715196"/>
<trkpt lat="52.2469746" lon="5.9714404"/>
<trkpt lat="52.2469808" lon="5.9713536"/>
<trkpt lat="52.2470125" lon="5.9710891"/>
<trkpt lat="52.2470705" lon="5.9711053"/>
<trkpt lat="52.2471566" lon="5.9711870"/>
<trkpt lat="52.2471735" lon="5.9712276"/>
<trkpt lat="52.2473423" lon="5.9713382"/>
<trkpt lat="52.2473197" lon="5.9718788"/>
<trkpt lat="52.2472912" lon="5.9726316"/>
<trkpt lat="52.2474343" lon="5.9727187"/>
</trkseg></trk>
<trk><name>Holhorsterpad - Geimporteerde shapefile</name><type>alternativeRoute</type><trkseg>
<trkpt lat="52.2471428" lon="5.9808395"/>
<trkpt lat="52.2473903" lon="5.9809293"/>
<trkpt lat="52.2477808" lon="5.9811899"/>
<trkpt lat="52.2480445" lon="5.9813833"/>
<trkpt lat="52.2483028" lon="5.9816472"/>
<trkpt lat="52.2483920" lon="5.9817971"/>
<trkpt lat="52.2483684" lon="5.9819363"/>
<trkpt lat="52.2481043" lon="5.9831067"/>
<trkpt lat="52.2480501" lon="5.9833826"/>
<trkpt lat="52.2480423" lon="5.9835080"/>
<trkpt lat="52.2478917" lon="5.9842267"/>
<trkpt lat="52.2478088" lon="5.9845394"/>
<trkpt lat="52.2473848" lon="5.9863102"/>
</trkseg></trk>
<trk><name>Holhorsterpad - overstaproute</name><type>connectionRoute</type><trkseg>
<trkpt lat="52.2481811" lon="6.0149633"/>
<trkpt lat="52.2475113" lon="6.0159187"/>
<trkpt lat="52.2469435" lon="6.0168968"/>
</trkseg></trk>
</gpx>