<?xml version="1.0" encoding="UTF-8"?>
<gpx version="1.1" creator="klompenpaden.nl via Jimbo API" xmlns="http://www.topografix.com/GPX/1/1">
<metadata><name>Holthuyserpad</name><desc>Ontdek de prachtige natuur van het Waterrijk, het Zeegbos en landgoed Holthuysen, gelegen tussen Arnhem-Zuid en het aangrenzende Huissen. Klompen 
aan, rugzak op en gaan!</desc><link href="https://www.klompenpaden.nl/klompenpaden/Holthuyserpad/6d42c688-0c3a-459f-b98f-a803919688b9"><text>klompenpaden.nl</text></link></metadata>
<wpt lat="51.94693006132442" lon="5.90017855167389"><name>Start Arnhem </name></wpt>
<trk><name>Holthuyserpad - Hoofdroute</name><type>mainRoute</type><trkseg>
<trkpt lat="51.9421435" lon="5.8935212"/>
<trkpt lat="51.9421220" lon="5.8933690"/>
<trkpt lat="51.9420633" lon="5.8930816"/>
<trkpt lat="51.9419226" lon="5.8930639"/>
<trkpt lat="51.9416352" lon="5.8931473"/>
<trkpt lat="51.9415627" lon="5.8931067"/>
<trkpt lat="51.9414903" lon="5.8931426"/>
<trkpt lat="51.9415518" lon="5.8934978"/>
<trkpt lat="51.9414836" lon="5.8934514"/>
<trkpt lat="51.9413694" lon="5.8933031"/>
<trkpt lat="51.9412450" lon="5.8931834"/>
<trkpt lat="51.9409517" lon="5.8928842"/>
<trkpt lat="51.9408797" lon="5.8928314"/>
<trkpt lat="51.9408180" lon="5.8927536"/>
<trkpt lat="51.9407181" lon="5.8925934"/>
<trkpt lat="51.9406315" lon="5.8925207"/>
<trkpt lat="51.9403686" lon="5.8922462"/>
<trkpt lat="51.9401791" lon="5.8921238"/>
<trkpt lat="51.9400557" lon="5.8920348"/>
<trkpt lat="51.9399543" lon="5.8918982"/>
<trkpt lat="51.9397986" lon="5.8916076"/>
<trkpt lat="51.9396711" lon="5.8913823"/>
<trkpt lat="51.9396132" lon="5.8912674"/>
<trkpt lat="51.9395798" lon="5.8911971"/>
<trkpt lat="51.9395390" lon="5.8910991"/>
<trkpt lat="51.9395385" lon="5.8909634"/>
<trkpt lat="51.9395457" lon="5.8908207"/>
<trkpt lat="51.9395300" lon="5.8905207"/>
<trkpt lat="51.9395836" lon="5.8904322"/>
<trkpt lat="51.9396681" lon="5.8904027"/>
<trkpt lat="51.9397584" lon="5.8904161"/>
<trkpt lat="51.9399130" lon="5.8905679"/>
<trkpt lat="51.9400321" lon="5.8906058"/>
<trkpt lat="51.9401412" lon="5.8905680"/>
<trkpt lat="51.9402243" lon="5.8905329"/>
<trkpt lat="51.9402742" lon="5.8905062"/>
<trkpt lat="51.9402583" lon="5.8903913"/>
<trkpt lat="51.9402262" lon="5.8900517"/>
<trkpt lat="51.9402948" lon="5.8898596"/>
<trkpt lat="51.9405040" lon="5.8893351"/>
<trkpt lat="51.9406286" lon="5.8889501"/>
<trkpt lat="51.9407089" lon="5.8887045"/>
<trkpt lat="51.9407843" lon="5.8884720"/>
<trkpt lat="51.9407575" lon="5.8883536"/>
<trkpt lat="51.9407777" lon="5.8882281"/>
<trkpt lat="51.9408665" lon="5.8879490"/>
<trkpt lat="51.9410975" lon="5.8871510"/>
<trkpt lat="51.9410814" lon="5.8871116"/>
<trkpt lat="51.9410176" lon="5.8870474"/>
<trkpt lat="51.9409392" lon="5.8869686"/>
<trkpt lat="51.9407838" lon="5.8868292"/>
<trkpt lat="51.9407683" lon="5.8867286"/>
<trkpt lat="51.9407807" lon="5.8866471"/>
<trkpt lat="51.9408187" lon="5.8865269"/>
<trkpt lat="51.9408051" lon="5.8863878"/>
<trkpt lat="51.9396392" lon="5.8853356"/>
<trkpt lat="51.9384412" lon="5.8842584"/>
<trkpt lat="51.9378531" lon="5.8838365"/>
<trkpt lat="51.9376454" lon="5.8836953"/>
<trkpt lat="51.9374642" lon="5.8834738"/>
<trkpt lat="51.9369826" lon="5.8829449"/>
<trkpt lat="51.9358640" lon="5.8817206"/>
<trkpt lat="51.9358104" lon="5.8818297"/>
<trkpt lat="51.9356981" lon="5.8821439"/>
<trkpt lat="51.9355469" lon="5.8825839"/>
<trkpt lat="51.9353742" lon="5.8830947"/>
<trkpt lat="51.9352173" lon="5.8835371"/>
<trkpt lat="51.9351397" lon="5.8835413"/>
<trkpt lat="51.9350745" lon="5.8836711"/>
<trkpt lat="51.9347526" lon="5.8844513"/>
<trkpt lat="51.9345389" lon="5.8849789"/>
<trkpt lat="51.9343564" lon="5.8853733"/>
<trkpt lat="51.9345666" lon="5.8856936"/>
<trkpt lat="51.9347356" lon="5.8859614"/>
<trkpt lat="51.9348485" lon="5.8861336"/>
<trkpt lat="51.9349537" lon="5.8862969"/>
<trkpt lat="51.9346514" lon="5.8867840"/>
<trkpt lat="51.9343742" lon="5.8873237"/>
<trkpt lat="51.9339251" lon="5.8881796"/>
<trkpt lat="51.9336926" lon="5.8886320"/>
<trkpt lat="51.9335131" lon="5.8889690"/>
<trkpt lat="51.9333450" lon="5.8892948"/>
<trkpt lat="51.9332378" lon="5.8895066"/>
<trkpt lat="51.9332149" lon="5.8895464"/>
<trkpt lat="51.9329941" lon="5.8892720"/>
<trkpt lat="51.9331029" lon="5.8890408"/>
<trkpt lat="51.9327994" lon="5.8885453"/>
<trkpt lat="51.9322401" lon="5.8879355"/>
<trkpt lat="51.9321821" lon="5.8878815"/>
<trkpt lat="51.9318189" lon="5.8885258"/>
<trkpt lat="51.9318008" lon="5.8886228"/>
<trkpt lat="51.9318987" lon="5.8887655"/>
<trkpt lat="51.9320279" lon="5.8889513"/>
<trkpt lat="51.9322615" lon="5.8892590"/>
<trkpt lat="51.9323309" lon="5.8892437"/>
<trkpt lat="51.9323832" lon="5.8892316"/>
<trkpt lat="51.9328002" lon="5.8896479"/>
<trkpt lat="51.9328425" lon="5.8896159"/>
<trkpt lat="51.9329836" lon="5.8893148"/>
<trkpt lat="51.9331828" lon="5.8895627"/>
<trkpt lat="51.9329730" lon="5.8899583"/>
<trkpt lat="51.9329291" lon="5.8900458"/>
<trkpt lat="51.9326834" lon="5.8898321"/>
<trkpt lat="51.9325779" lon="5.8897400"/>
<trkpt lat="51.9323613" lon="5.8895339"/>
<trkpt lat="51.9322492" lon="5.8898339"/>
<trkpt lat="51.9320731" lon="5.8903433"/>
<trkpt lat="51.9317751" lon="5.8911621"/>
<trkpt lat="51.9320577" lon="5.8914468"/>
<trkpt lat="51.9321273" lon="5.8915152"/>
<trkpt lat="51.9321867" lon="5.8916399"/>
<trkpt lat="51.9322582" lon="5.8917013"/>
<trkpt lat="51.9323726" lon="5.8918253"/>
<trkpt lat="51.9325119" lon="5.8919482"/>
<trkpt lat="51.9324946" lon="5.8919920"/>
<trkpt lat="51.9320733" lon="5.8932078"/>
<trkpt lat="51.9333272" lon="5.8943915"/>
<trkpt lat="51.9331996" lon="5.8947469"/>
<trkpt lat="51.9331289" lon="5.8949373"/>
<trkpt lat="51.9330611" lon="5.8951198"/>
<trkpt lat="51.9339680" lon="5.8959724"/>
<trkpt lat="51.9338105" lon="5.8964601"/>
<trkpt lat="51.9336577" lon="5.8969316"/>
<trkpt lat="51.9335252" lon="5.8973513"/>
<trkpt lat="51.9338057" lon="5.8976303"/>
<trkpt lat="51.9339840" lon="5.8978084"/>
<trkpt lat="51.9341450" lon="5.8980147"/>
<trkpt lat="51.9341726" lon="5.8981586"/>
<trkpt lat="51.9342014" lon="5.8981869"/>
<trkpt lat="51.9342413" lon="5.8982240"/>
<trkpt lat="51.9343861" lon="5.8983323"/>
<trkpt lat="51.9344599" lon="5.8983856"/>
<trkpt lat="51.9345434" lon="5.8983880"/>
<trkpt lat="51.9345764" lon="5.8984161"/>
<trkpt lat="51.9345400" lon="5.8985326"/>
<trkpt lat="51.9342080" lon="5.8996219"/>
<trkpt lat="51.9338534" lon="5.9007410"/>
<trkpt lat="51.9334540" lon="5.9018675"/>
<trkpt lat="51.9337906" lon="5.9022622"/>
<trkpt lat="51.9342022" lon="5.9026736"/>
<trkpt lat="51.9344127" lon="5.9028559"/>
<trkpt lat="51.9354137" lon="5.9037762"/>
<trkpt lat="51.9367118" lon="5.9049296"/>
<trkpt lat="51.9379830" lon="5.9061170"/>
<trkpt lat="51.9390170" lon="5.9070599"/>
<trkpt lat="51.9398367" lon="5.9077826"/>
<trkpt lat="51.9403428" lon="5.9082409"/>
<trkpt lat="51.9405324" lon="5.9084238"/>
<trkpt lat="51.9408473" lon="5.9086925"/>
<trkpt lat="51.9408255" lon="5.9087909"/>
<trkpt lat="51.9408097" lon="5.9088734"/>
<trkpt lat="51.9408683" lon="5.9089997"/>
<trkpt lat="51.9409794" lon="5.9092190"/>
<trkpt lat="51.9411857" lon="5.9097939"/>
<trkpt lat="51.9413869" lon="5.9100910"/>
<trkpt lat="51.9414272" lon="5.9100897"/>
<trkpt lat="51.9415858" lon="5.9100880"/>
<trkpt lat="51.9416745" lon="5.9100693"/>
<trkpt lat="51.9417272" lon="5.9100511"/>
<trkpt lat="51.9417906" lon="5.9100115"/>
<trkpt lat="51.9418450" lon="5.9099584"/>
<trkpt lat="51.9419848" lon="5.9098776"/>
<trkpt lat="51.9420558" lon="5.9098837"/>
<trkpt lat="51.9421426" lon="5.9099533"/>
<trkpt lat="51.9418729" lon="5.9113798"/>
<trkpt lat="51.9417734" lon="5.9118988"/>
<trkpt lat="51.9416730" lon="5.9124262"/>
<trkpt lat="51.9418392" lon="5.9126213"/>
<trkpt lat="51.9419759" lon="5.9128415"/>
<trkpt lat="51.9424565" lon="5.9136331"/>
<trkpt lat="51.9428956" lon="5.9143591"/>
<trkpt lat="51.9429814" lon="5.9144648"/>
<trkpt lat="51.9430774" lon="5.9145084"/>
<trkpt lat="51.9433093" lon="5.9144862"/>
<trkpt lat="51.9435453" lon="5.9148671"/>
<trkpt lat="51.9440064" lon="5.9155903"/>
<trkpt lat="51.9440703" lon="5.9156515"/>
<trkpt lat="51.9440349" lon="5.9158951"/>
<trkpt lat="51.9453603" lon="5.9164341"/>
<trkpt lat="51.9459821" lon="5.9167063"/>
<trkpt lat="51.9466070" lon="5.9169749"/>
<trkpt lat="51.9471828" lon="5.9172208"/>
<trkpt lat="51.9474442" lon="5.9172116"/>
<trkpt lat="51.9479124" lon="5.9172090"/>
<trkpt lat="51.9481362" lon="5.9171770"/>
<trkpt lat="51.9482204" lon="5.9173212"/>
<trkpt lat="51.9482642" lon="5.9175120"/>
<trkpt lat="51.9482903" lon="5.9177147"/>
<trkpt lat="51.9483147" lon="5.9181654"/>
<trkpt lat="51.9484268" lon="5.9183628"/>
<trkpt lat="51.9485066" lon="5.9185447"/>
<trkpt lat="51.9486394" lon="5.9188742"/>
<trkpt lat="51.9486928" lon="5.9192013"/>
<trkpt lat="51.9487051" lon="5.9194844"/>
<trkpt lat="51.9487615" lon="5.9197864"/>
<trkpt lat="51.9488271" lon="5.9197828"/>
<trkpt lat="51.9489377" lon="5.9197970"/>
<trkpt lat="51.9491234" lon="5.9198423"/>
<trkpt lat="51.9492059" lon="5.9198579"/>
<trkpt lat="51.9492884" lon="5.9199092"/>
<trkpt lat="51.9494526" lon="5.9200215"/>
<trkpt lat="51.9496172" lon="5.9200044"/>
<trkpt lat="51.9497583" lon="5.9200635"/>
<trkpt lat="51.9498510" lon="5.9202391"/>
<trkpt lat="51.9499939" lon="5.9205236"/>
<trkpt lat="51.9502465" lon="5.9209722"/>
<trkpt lat="51.9503919" lon="5.9212083"/>
<trkpt lat="51.9504279" lon="5.9212787"/>
<trkpt lat="51.9504551" lon="5.9214398"/>
<trkpt lat="51.9498309" lon="5.9216110"/>
<trkpt lat="51.9492125" lon="5.9218202"/>
<trkpt lat="51.9491168" lon="5.9218823"/>
<trkpt lat="51.9491349" lon="5.9220112"/>
<trkpt lat="51.9491653" lon="5.9221663"/>
<trkpt lat="51.9492364" lon="5.9224766"/>
<trkpt lat="51.9493492" lon="5.9230113"/>
<trkpt lat="51.9493823" lon="5.9232778"/>
<trkpt lat="51.9493875" lon="5.9236539"/>
<trkpt lat="51.9492989" lon="5.9249418"/>
<trkpt lat="51.9492945" lon="5.9252966"/>
<trkpt lat="51.9493270" lon="5.9255941"/>
<trkpt lat="51.9494214" lon="5.9259699"/>
<trkpt lat="51.9495357" lon="5.9261909"/>
<trkpt lat="51.9495920" lon="5.9263416"/>
<trkpt lat="51.9496122" lon="5.9264911"/>
<trkpt lat="51.9496473" lon="5.9267079"/>
<trkpt lat="51.9496236" lon="5.9269105"/>
<trkpt lat="51.9497783" lon="5.9267951"/>
<trkpt lat="51.9499336" lon="5.9267442"/>
<trkpt lat="51.9500389" lon="5.9267312"/>
<trkpt lat="51.9501316" lon="5.9267623"/>
<trkpt lat="51.9502745" lon="5.9269389"/>
<trkpt lat="51.9503607" lon="5.9270976"/>
<trkpt lat="51.9504219" lon="5.9272539"/>
<trkpt lat="51.9504941" lon="5.9276092"/>
<trkpt lat="51.9504980" lon="5.9278202"/>
<trkpt lat="51.9504276" lon="5.9280121"/>
<trkpt lat="51.9503434" lon="5.9280883"/>
<trkpt lat="51.9502518" lon="5.9281453"/>
<trkpt lat="51.9501790" lon="5.9282380"/>
<trkpt lat="51.9501548" lon="5.9283533"/>
<trkpt lat="51.9501318" lon="5.9285133"/>
<trkpt lat="51.9500762" lon="5.9288475"/>
<trkpt lat="51.9500067" lon="5.9293089"/>
<trkpt lat="51.9499084" lon="5.9298965"/>
<trkpt lat="51.9498487" lon="5.9302536"/>
<trkpt lat="51.9498218" lon="5.9304883"/>
<trkpt lat="51.9498071" lon="5.9306095"/>
<trkpt lat="51.9497837" lon="5.9307026"/>
<trkpt lat="51.9497822" lon="5.9307547"/>
<trkpt lat="51.9497898" lon="5.9308149"/>
<trkpt lat="51.9497953" lon="5.9308674"/>
<trkpt lat="51.9497991" lon="5.9309162"/>
<trkpt lat="51.9498218" lon="5.9309714"/>
<trkpt lat="51.9498483" lon="5.9310028"/>
<trkpt lat="51.9498661" lon="5.9310236"/>
<trkpt lat="51.9498812" lon="5.9310411"/>
<trkpt lat="51.9499146" lon="5.9310772"/>
<trkpt lat="51.9499523" lon="5.9310997"/>
<trkpt lat="51.9499717" lon="5.9311012"/>
<trkpt lat="51.9500191" lon="5.9311127"/>
<trkpt lat="51.9500477" lon="5.9311215"/>
<trkpt lat="51.9501105" lon="5.9311210"/>
<trkpt lat="51.9501529" lon="5.9310985"/>
<trkpt lat="51.9501855" lon="5.9310557"/>
<trkpt lat="51.9502531" lon="5.9308820"/>
<trkpt lat="51.9502576" lon="5.9308706"/>
<trkpt lat="51.9503947" lon="5.9302151"/>
<trkpt lat="51.9505003" lon="5.9297334"/>
<trkpt lat="51.9506010" lon="5.9292612"/>
<trkpt lat="51.9506583" lon="5.9290053"/>
<trkpt lat="51.9507006" lon="5.9288018"/>
<trkpt lat="51.9507702" lon="5.9284468"/>
<trkpt lat="51.9507088" lon="5.9283349"/>
<trkpt lat="51.9506052" lon="5.9283387"/>
<trkpt lat="51.9503772" lon="5.9283912"/>
<trkpt lat="51.9503145" lon="5.9282350"/>
<trkpt lat="51.9504727" lon="5.9280752"/>
<trkpt lat="51.9505812" lon="5.9280477"/>
<trkpt lat="51.9507454" lon="5.9278135"/>
<trkpt lat="51.9508184" lon="5.9273458"/>
<trkpt lat="51.9508845" lon="5.9268357"/>
<trkpt lat="51.9510124" lon="5.9264043"/>
<trkpt lat="51.9510608" lon="5.9260484"/>
<trkpt lat="51.9510405" lon="5.9257611"/>
<trkpt lat="51.9509947" lon="5.9251524"/>
<trkpt lat="51.9509109" lon="5.9238738"/>
<trkpt lat="51.9507182" lon="5.9202600"/>
<trkpt lat="51.9505267" lon="5.9178590"/>
<trkpt lat="51.9504167" lon="5.9167781"/>
<trkpt lat="51.9501533" lon="5.9158173"/>
<trkpt lat="51.9500085" lon="5.9153672"/>
<trkpt lat="51.9498418" lon="5.9150201"/>
<trkpt lat="51.9495459" lon="5.9148257"/>
<trkpt lat="51.9489181" lon="5.9144666"/>
<trkpt lat="51.9487170" lon="5.9144790"/>
<trkpt lat="51.9483337" lon="5.9148072"/>
<trkpt lat="51.9486043" lon="5.9144049"/>
<trkpt lat="51.9487235" lon="5.9142599"/>
<trkpt lat="51.9487577" lon="5.9141745"/>
<trkpt lat="51.9487244" lon="5.9140509"/>
<trkpt lat="51.9486710" lon="5.9138716"/>
<trkpt lat="51.9487028" lon="5.9137972"/>
<trkpt lat="51.9487606" lon="5.9136246"/>
<trkpt lat="51.9487666" lon="5.9131475"/>
<trkpt lat="51.9487982" lon="5.9128982"/>
<trkpt lat="51.9488593" lon="5.9126657"/>
<trkpt lat="51.9486420" lon="5.9121995"/>
<trkpt lat="51.9482721" lon="5.9119449"/>
<trkpt lat="51.9482121" lon="5.9117652"/>
<trkpt lat="51.9481329" lon="5.9116094"/>
<trkpt lat="51.9479688" lon="5.9113286"/>
<trkpt lat="51.9478012" lon="5.9109259"/>
<trkpt lat="51.9476138" lon="5.9109560"/>
<trkpt lat="51.9475394" lon="5.9109303"/>
<trkpt lat="51.9474693" lon="5.9108736"/>
<trkpt lat="51.9472341" lon="5.9104719"/>
<trkpt lat="51.9470605" lon="5.9099780"/>
<trkpt lat="51.9469134" lon="5.9094699"/>
<trkpt lat="51.9469065" lon="5.9091971"/>
<trkpt lat="51.9469188" lon="5.9089219"/>
<trkpt lat="51.9469421" lon="5.9086389"/>
<trkpt lat="51.9469507" lon="5.9083583"/>
<trkpt lat="51.9469275" lon="5.9080961"/>
<trkpt lat="51.9469248" lon="5.9078399"/>
<trkpt lat="51.9469400" lon="5.9073059"/>
<trkpt lat="51.9470677" lon="5.9073250"/>
<trkpt lat="51.9471851" lon="5.9073620"/>
<trkpt lat="51.9472762" lon="5.9064925"/>
<trkpt lat="51.9471732" lon="5.9063631"/>
<trkpt lat="51.9471127" lon="5.9061838"/>
<trkpt lat="51.9470814" lon="5.9058888"/>
</trkseg></trk>
<trk><name>Holthuyserpad - Hoofdroute</name><type>mainRoute</type><trkseg>
<trkpt lat="51.9469261" lon="5.9001812"/>
<trkpt lat="51.9469645" lon="5.9000899"/>
<trkpt lat="51.9471658" lon="5.8994934"/>
<trkpt lat="51.9473226" lon="5.8990407"/>
</trkseg></trk>
<trk><name>Holthuyserpad - Hoofdroute</name><type>mainRoute</type><trkseg>
<trkpt lat="51.9470814" lon="5.9058888"/>
<trkpt lat="51.9470833" lon="5.9058794"/>
</trkseg></trk>
<trk><name>Holthuyserpad - Hoofdroute</name><type>mainRoute</type><trkseg>
<trkpt lat="51.9473226" lon="5.8990407"/>
<trkpt lat="51.9466736" lon="5.8984216"/>
<trkpt lat="51.9463029" lon="5.8980511"/>
<trkpt lat="51.9459242" lon="5.8976816"/>
<trkpt lat="51.9451740" lon="5.8969643"/>
<trkpt lat="51.9448133" lon="5.8966569"/>
<trkpt lat="51.9446166" lon="5.8964893"/>
<trkpt lat="51.9445259" lon="5.8964415"/>
<trkpt lat="51.9444324" lon="5.8964152"/>
<trkpt lat="51.9441327" lon="5.8961271"/>
<trkpt lat="51.9439806" lon="5.8959754"/>
<trkpt lat="51.9438183" lon="5.8958476"/>
<trkpt lat="51.9437719" lon="5.8958335"/>
<trkpt lat="51.9437535" lon="5.8957849"/>
<trkpt lat="51.9437358" lon="5.8955872"/>
<trkpt lat="51.9436692" lon="5.8954350"/>
<trkpt lat="51.9435750" lon="5.8953261"/>
<trkpt lat="51.9435028" lon="5.8953060"/>
<trkpt lat="51.9434290" lon="5.8953027"/>
<trkpt lat="51.9433274" lon="5.8953842"/>
<trkpt lat="51.9432560" lon="5.8955396"/>
<trkpt lat="51.9428299" lon="5.8951689"/>
<trkpt lat="51.9425967" lon="5.8949618"/>
<trkpt lat="51.9424484" lon="5.8948240"/>
<trkpt lat="51.9422074" lon="5.8945574"/>
<trkpt lat="51.9422336" lon="5.8941675"/>
<trkpt lat="51.9421463" lon="5.8935538"/>
</trkseg></trk>
<trk><name>Holthuyserpad - Hoofdroute</name><type>mainRoute</type><trkseg>
<trkpt lat="51.9473226" lon="5.8990407"/>
<trkpt lat="51.9473244" lon="5.8990423"/>
</trkseg></trk>
<trk><name>Holthuyserpad - Hoofdroute</name><type>mainRoute</type><trkseg>
<trkpt lat="51.9486176" lon="5.8982308"/>
<trkpt lat="51.9486074" lon="5.8982270"/>
<trkpt lat="51.9483523" lon="5.8981695"/>
<trkpt lat="51.9480549" lon="5.8979986"/>
<trkpt lat="51.9477648" lon="5.8978015"/>
<trkpt lat="51.9473263" lon="5.8990443"/>
<trkpt lat="51.9473226" lon="5.8990407"/>
</trkseg></trk>
<trk><name>Holthuyserpad - Hoofdroute</name><type>mainRoute</type><trkseg>
<trkpt lat="51.9486176" lon="5.8982308"/>
<trkpt lat="51.9486308" lon="5.8983299"/>
<trkpt lat="51.9486473" lon="5.8984425"/>
<trkpt lat="51.9486705" lon="5.8985337"/>
<trkpt lat="51.9486110" lon="5.8986947"/>
<trkpt lat="51.9485713" lon="5.8988288"/>
<trkpt lat="51.9481779" lon="5.8998961"/>
<trkpt lat="51.9482010" lon="5.9001428"/>
<trkpt lat="51.9480177" lon="5.9007418"/>
<trkpt lat="51.9477995" lon="5.9016483"/>
<trkpt lat="51.9476177" lon="5.9025333"/>
<trkpt lat="51.9474593" lon="5.9033111"/>
<trkpt lat="51.9471386" lon="5.9049363"/>
<trkpt lat="51.9471089" lon="5.9051455"/>
<trkpt lat="51.9471154" lon="5.9054190"/>
<trkpt lat="51.9470890" lon="5.9057998"/>
<trkpt lat="51.9470814" lon="5.9058888"/>
</trkseg></trk>
<trk><name>Holthuyserpad - Hoofdroute</name><type>mainRoute</type><trkseg>
<trkpt lat="51.9486179" lon="5.8982309"/>
<trkpt lat="51.9486176" lon="5.8982308"/>
</trkseg></trk>
</gpx>