<?xml version="1.0" encoding="UTF-8"?>
<gpx version="1.1" creator="klompenpaden.nl via Jimbo API" xmlns="http://www.topografix.com/GPX/1/1">
<metadata><name>Horsthoekerpad</name><desc>Ontdek het afwisselende landschap rond buurtschap de Horsthoek met beken, houtwallen, bos en heide. Onderweg kun u een kudde Veluwse heideschapen tegenkomen. Klompen aan, rugzak op en gaan!</desc><link href="https://www.klompenpaden.nl/klompenpaden/Horsthoekerpad/570de610-4245-454f-ad01-db3bca3228a3"><text>klompenpaden.nl</text></link></metadata>
<wpt lat="52.38999976558271" lon="5.9966254234313965"><name>Start Heerde</name></wpt>
<trk><name>Horsthoekerpad - Geimporteerde shapefile</name><type>mainRoute</type><trkseg>
<trkpt lat="52.3717985" lon="6.0217357"/>
<trkpt lat="52.3720335" lon="6.0213738"/>
<trkpt lat="52.3723494" lon="6.0209976"/>
<trkpt lat="52.3724458" lon="6.0212068"/>
<trkpt lat="52.3725768" lon="6.0213962"/>
<trkpt lat="52.3726839" lon="6.0215417"/>
<trkpt lat="52.3727906" lon="6.0217870"/>
<trkpt lat="52.3736241" lon="6.0231540"/>
<trkpt lat="52.3746825" lon="6.0248875"/>
<trkpt lat="52.3749256" lon="6.0253680"/>
<trkpt lat="52.3748619" lon="6.0254609"/>
<trkpt lat="52.3747308" lon="6.0252996"/>
<trkpt lat="52.3745593" lon="6.0251752"/>
<trkpt lat="52.3738745" lon="6.0244621"/>
<trkpt lat="52.3737786" lon="6.0244665"/>
<trkpt lat="52.3733314" lon="6.0251515"/>
<trkpt lat="52.3729585" lon="6.0257253"/>
<trkpt lat="52.3727166" lon="6.0259297"/>
<trkpt lat="52.3724664" lon="6.0260280"/>
<trkpt lat="52.3722351" lon="6.0260562"/>
<trkpt lat="52.3719497" lon="6.0259899"/>
<trkpt lat="52.3715292" lon="6.0257259"/>
<trkpt lat="52.3713856" lon="6.0260556"/>
<trkpt lat="52.3714422" lon="6.0264055"/>
<trkpt lat="52.3714291" lon="6.0267147"/>
<trkpt lat="52.3710410" lon="6.0274309"/>
<trkpt lat="52.3710965" lon="6.0277341"/>
<trkpt lat="52.3711572" lon="6.0280818"/>
<trkpt lat="52.3712293" lon="6.0283363"/>
<trkpt lat="52.3713566" lon="6.0287826"/>
<trkpt lat="52.3722627" lon="6.0293872"/>
<trkpt lat="52.3713408" lon="6.0345092"/>
<trkpt lat="52.3709942" lon="6.0371769"/>
<trkpt lat="52.3709747" lon="6.0375281"/>
<trkpt lat="52.3710624" lon="6.0375394"/>
<trkpt lat="52.3730667" lon="6.0383345"/>
<trkpt lat="52.3742497" lon="6.0388138"/>
<trkpt lat="52.3737179" lon="6.0405407"/>
<trkpt lat="52.3749836" lon="6.0410573"/>
<trkpt lat="52.3762935" lon="6.0415662"/>
<trkpt lat="52.3759485" lon="6.0429460"/>
<trkpt lat="52.3768801" lon="6.0436349"/>
<trkpt lat="52.3783891" lon="6.0447468"/>
<trkpt lat="52.3784457" lon="6.0448772"/>
<trkpt lat="52.3783404" lon="6.0452413"/>
<trkpt lat="52.3786867" lon="6.0455444"/>
<trkpt lat="52.3798422" lon="6.0462203"/>
<trkpt lat="52.3804342" lon="6.0464259"/>
<trkpt lat="52.3806727" lon="6.0465047"/>
<trkpt lat="52.3810175" lon="6.0465642"/>
<trkpt lat="52.3812020" lon="6.0476753"/>
<trkpt lat="52.3811999" lon="6.0480410"/>
<trkpt lat="52.3822088" lon="6.0482530"/>
<trkpt lat="52.3828944" lon="6.0484536"/>
<trkpt lat="52.3859164" lon="6.0492274"/>
<trkpt lat="52.3860508" lon="6.0492476"/>
<trkpt lat="52.3861056" lon="6.0491872"/>
<trkpt lat="52.3856528" lon="6.0484947"/>
<trkpt lat="52.3853838" lon="6.0480002"/>
<trkpt lat="52.3849748" lon="6.0472532"/>
<trkpt lat="52.3848377" lon="6.0471292"/>
<trkpt lat="52.3846143" lon="6.0470508"/>
<trkpt lat="52.3844254" lon="6.0469636"/>
<trkpt lat="52.3840889" lon="6.0469611"/>
<trkpt lat="52.3836054" lon="6.0468576"/>
<trkpt lat="52.3829653" lon="6.0468542"/>
<trkpt lat="52.3828359" lon="6.0468303"/>
<trkpt lat="52.3830262" lon="6.0457517"/>
<trkpt lat="52.3830300" lon="6.0454891"/>
<trkpt lat="52.3830118" lon="6.0453333"/>
<trkpt lat="52.3829703" lon="6.0452642"/>
<trkpt lat="52.3830356" lon="6.0448140"/>
<trkpt lat="52.3829682" lon="6.0448317"/>
<trkpt lat="52.3822838" lon="6.0450842"/>
<trkpt lat="52.3820336" lon="6.0450491"/>
<trkpt lat="52.3807890" lon="6.0448486"/>
<trkpt lat="52.3804374" lon="6.0448130"/>
<trkpt lat="52.3802366" lon="6.0447265"/>
<trkpt lat="52.3793107" lon="6.0437364"/>
<trkpt lat="52.3802612" lon="6.0423748"/>
<trkpt lat="52.3804973" lon="6.0422912"/>
<trkpt lat="52.3805391" lon="6.0420104"/>
<trkpt lat="52.3805992" lon="6.0415143"/>
<trkpt lat="52.3804856" lon="6.0413799"/>
<trkpt lat="52.3794392" lon="6.0406063"/>
<trkpt lat="52.3796644" lon="6.0393155"/>
<trkpt lat="52.3796779" lon="6.0389499"/>
<trkpt lat="52.3795881" lon="6.0385922"/>
<trkpt lat="52.3794316" lon="6.0378210"/>
<trkpt lat="52.3793385" lon="6.0359722"/>
<trkpt lat="52.3799643" lon="6.0338150"/>
<trkpt lat="52.3801623" lon="6.0332834"/>
<trkpt lat="52.3802828" lon="6.0332945"/>
<trkpt lat="52.3803697" lon="6.0331457"/>
<trkpt lat="52.3805249" lon="6.0331011"/>
<trkpt lat="52.3815943" lon="6.0340079"/>
<trkpt lat="52.3818874" lon="6.0332311"/>
<trkpt lat="52.3818309" lon="6.0327490"/>
<trkpt lat="52.3822478" lon="6.0315997"/>
<trkpt lat="52.3823510" lon="6.0315674"/>
<trkpt lat="52.3827405" lon="6.0317532"/>
<trkpt lat="52.3830275" lon="6.0304813"/>
<trkpt lat="52.3831965" lon="6.0304390"/>
<trkpt lat="52.3835027" lon="6.0306567"/>
<trkpt lat="52.3836203" lon="6.0306643"/>
<trkpt lat="52.3836101" lon="6.0303512"/>
<trkpt lat="52.3838011" lon="6.0300539"/>
<trkpt lat="52.3839527" lon="6.0296153"/>
<trkpt lat="52.3842319" lon="6.0289253"/>
<trkpt lat="52.3844035" lon="6.0283322"/>
<trkpt lat="52.3843297" lon="6.0278200"/>
<trkpt lat="52.3841585" lon="6.0276581"/>
<trkpt lat="52.3841362" lon="6.0275359"/>
<trkpt lat="52.3841673" lon="6.0270768"/>
<trkpt lat="52.3842013" lon="6.0267520"/>
<trkpt lat="52.3842463" lon="6.0262628"/>
<trkpt lat="52.3842535" lon="6.0259994"/>
<trkpt lat="52.3843409" lon="6.0257569"/>
<trkpt lat="52.3842576" lon="6.0252492"/>
<trkpt lat="52.3842999" lon="6.0248371"/>
<trkpt lat="52.3844568" lon="6.0244830"/>
<trkpt lat="52.3860613" lon="6.0261881"/>
<trkpt lat="52.3863178" lon="6.0263353"/>
<trkpt lat="52.3867700" lon="6.0262563"/>
<trkpt lat="52.3870144" lon="6.0241456"/>
<trkpt lat="52.3870995" lon="6.0233695"/>
<trkpt lat="52.3871817" lon="6.0222358"/>
<trkpt lat="52.3871894" lon="6.0216840"/>
<trkpt lat="52.3871470" lon="6.0191186"/>
<trkpt lat="52.3871128" lon="6.0177464"/>
<trkpt lat="52.3872026" lon="6.0164750"/>
<trkpt lat="52.3874934" lon="6.0145920"/>
<trkpt lat="52.3878686" lon="6.0131165"/>
<trkpt lat="52.3879796" lon="6.0128092"/>
<trkpt lat="52.3881743" lon="6.0121245"/>
<trkpt lat="52.3881668" lon="6.0119982"/>
<trkpt lat="52.3880950" lon="6.0119538"/>
<trkpt lat="52.3880104" lon="6.0118837"/>
<trkpt lat="52.3878056" lon="6.0117418"/>
<trkpt lat="52.3876472" lon="6.0116996"/>
<trkpt lat="52.3875095" lon="6.0115109"/>
<trkpt lat="52.3874387" lon="6.0112418"/>
<trkpt lat="52.3874075" lon="6.0109777"/>
<trkpt lat="52.3873616" lon="6.0105908"/>
<trkpt lat="52.3872662" lon="6.0100926"/>
<trkpt lat="52.3871122" lon="6.0097243"/>
<trkpt lat="52.3868849" lon="6.0095551"/>
<trkpt lat="52.3865150" lon="6.0094494"/>
<trkpt lat="52.3861268" lon="6.0093996"/>
<trkpt lat="52.3858853" lon="6.0091964"/>
<trkpt lat="52.3864971" lon="6.0044126"/>
<trkpt lat="52.3873670" lon="6.0048843"/>
<trkpt lat="52.3875029" lon="6.0042708"/>
<trkpt lat="52.3873915" lon="6.0032333"/>
<trkpt lat="52.3873844" lon="6.0026523"/>
<trkpt lat="52.3873592" lon="6.0021291"/>
<trkpt lat="52.3875400" lon="6.0021083"/>
<trkpt lat="52.3877147" lon="6.0023439"/>
<trkpt lat="52.3878617" lon="6.0024392"/>
<trkpt lat="52.3882963" lon="6.0027493"/>
<trkpt lat="52.3884591" lon="6.0025771"/>
<trkpt lat="52.3887682" lon="6.0022291"/>
<trkpt lat="52.3889142" lon="6.0015898"/>
<trkpt lat="52.3889641" lon="6.0012391"/>
<trkpt lat="52.3889685" lon="6.0004044"/>
<trkpt lat="52.3890327" lon="6.0001895"/>
<trkpt lat="52.3891431" lon="5.9999190"/>
<trkpt lat="52.3892660" lon="5.9994611"/>
<trkpt lat="52.3894591" lon="5.9987415"/>
<trkpt lat="52.3895883" lon="5.9981805"/>
<trkpt lat="52.3896697" lon="5.9981348"/>
<trkpt lat="52.3899839" lon="5.9971943"/>
<trkpt lat="52.3901951" lon="5.9965620"/>
<trkpt lat="52.3900324" lon="5.9964397"/>
<trkpt lat="52.3900387" lon="5.9962091"/>
<trkpt lat="52.3897895" lon="5.9958325"/>
<trkpt lat="52.3895965" lon="5.9956247"/>
<trkpt lat="52.3892673" lon="5.9952657"/>
<trkpt lat="52.3891194" lon="5.9951703"/>
<trkpt lat="52.3887713" lon="5.9951656"/>
<trkpt lat="52.3884694" lon="5.9950588"/>
<trkpt lat="52.3880888" lon="5.9947085"/>
<trkpt lat="52.3878845" lon="5.9944818"/>
<trkpt lat="52.3874351" lon="5.9941958"/>
<trkpt lat="52.3868323" lon="5.9937771"/>
<trkpt lat="52.3873184" lon="5.9917769"/>
<trkpt lat="52.3861643" lon="5.9901285"/>
<trkpt lat="52.3859128" lon="5.9905353"/>
<trkpt lat="52.3857051" lon="5.9910508"/>
<trkpt lat="52.3856649" lon="5.9913180"/>
<trkpt lat="52.3855967" lon="5.9913026"/>
<trkpt lat="52.3851571" lon="5.9913351"/>
<trkpt lat="52.3847641" lon="5.9913297"/>
<trkpt lat="52.3841295" lon="5.9915218"/>
<trkpt lat="52.3839280" lon="5.9914408"/>
<trkpt lat="52.3836112" lon="5.9929483"/>
<trkpt lat="52.3836513" lon="5.9934812"/>
<trkpt lat="52.3833875" lon="5.9938973"/>
<trkpt lat="52.3831915" lon="5.9941045"/>
<trkpt lat="52.3829902" lon="5.9944049"/>
<trkpt lat="52.3828327" lon="5.9945193"/>
<trkpt lat="52.3827507" lon="5.9947353"/>
<trkpt lat="52.3825726" lon="5.9951453"/>
<trkpt lat="52.3824859" lon="5.9953695"/>
<trkpt lat="52.3823043" lon="5.9955302"/>
<trkpt lat="52.3821902" lon="5.9955209"/>
<trkpt lat="52.3820148" lon="5.9954019"/>
<trkpt lat="52.3818920" lon="5.9952526"/>
<trkpt lat="52.3817452" lon="5.9951106"/>
<trkpt lat="52.3816168" lon="5.9951167"/>
<trkpt lat="52.3815213" lon="5.9951931"/>
<trkpt lat="52.3814817" lon="5.9954956"/>
<trkpt lat="52.3813673" lon="5.9955407"/>
<trkpt lat="52.3812538" lon="5.9954148"/>
<trkpt lat="52.3810143" lon="5.9953390"/>
<trkpt lat="52.3806209" lon="5.9954760"/>
<trkpt lat="52.3804156" lon="5.9956364"/>
<trkpt lat="52.3804693" lon="5.9959873"/>
<trkpt lat="52.3804364" lon="5.9962119"/>
<trkpt lat="52.3804883" lon="5.9968290"/>
<trkpt lat="52.3806714" lon="5.9969717"/>
<trkpt lat="52.3809268" lon="5.9971672"/>
<trkpt lat="52.3810718" lon="5.9972644"/>
<trkpt lat="52.3812765" lon="5.9974476"/>
<trkpt lat="52.3815819" lon="5.9977041"/>
<trkpt lat="52.3819860" lon="5.9980232"/>
<trkpt lat="52.3823112" lon="5.9982845"/>
<trkpt lat="52.3822515" lon="5.9984623"/>
<trkpt lat="52.3822014" lon="5.9986676"/>
<trkpt lat="52.3821654" lon="5.9988304"/>
<trkpt lat="52.3821306" lon="5.9989921"/>
<trkpt lat="52.3821211" lon="5.9990382"/>
<trkpt lat="52.3817916" lon="5.9999611"/>
<trkpt lat="52.3819662" lon="5.9999967"/>
<trkpt lat="52.3821665" lon="6.0000654"/>
<trkpt lat="52.3827131" lon="6.0009739"/>
<trkpt lat="52.3828569" lon="6.0010256"/>
<trkpt lat="52.3830278" lon="6.0010933"/>
<trkpt lat="52.3831074" lon="6.0013029"/>
<trkpt lat="52.3833404" lon="6.0013144"/>
<trkpt lat="52.3834122" lon="6.0014669"/>
<trkpt lat="52.3832963" lon="6.0016004"/>
<trkpt lat="52.3831216" lon="6.0017195"/>
<trkpt lat="52.3829158" lon="6.0015173"/>
<trkpt lat="52.3827779" lon="6.0015236"/>
<trkpt lat="52.3827161" lon="6.0018422"/>
<trkpt lat="52.3827101" lon="6.0020346"/>
<trkpt lat="52.3824826" lon="6.0024246"/>
<trkpt lat="52.3823209" lon="6.0026680"/>
<trkpt lat="52.3819819" lon="6.0028026"/>
<trkpt lat="52.3817708" lon="6.0029143"/>
<trkpt lat="52.3815903" lon="6.0029364"/>
<trkpt lat="52.3814433" lon="6.0028900"/>
<trkpt lat="52.3813378" lon="6.0028067"/>
<trkpt lat="52.3793195" lon="6.0030097"/>
<trkpt lat="52.3792219" lon="6.0030478"/>
<trkpt lat="52.3791261" lon="6.0031897"/>
<trkpt lat="52.3790273" lon="6.0032060"/>
<trkpt lat="52.3786985" lon="6.0032573"/>
<trkpt lat="52.3784332" lon="6.0032958"/>
<trkpt lat="52.3777915" lon="6.0033674"/>
<trkpt lat="52.3772245" lon="6.0034557"/>
<trkpt lat="52.3753272" lon="6.0037673"/>
<trkpt lat="52.3749672" lon="6.0039313"/>
<trkpt lat="52.3748740" lon="6.0041752"/>
<trkpt lat="52.3749524" lon="6.0043206"/>
<trkpt lat="52.3749288" lon="6.0044756"/>
<trkpt lat="52.3747024" lon="6.0046471"/>
<trkpt lat="52.3736483" lon="6.0085510"/>
<trkpt lat="52.3736389" lon="6.0090493"/>
<trkpt lat="52.3739326" lon="6.0097436"/>
<trkpt lat="52.3755472" lon="6.0127622"/>
<trkpt lat="52.3758532" lon="6.0134027"/>
<trkpt lat="52.3761416" lon="6.0140740"/>
<trkpt lat="52.3776969" lon="6.0174759"/>
<trkpt lat="52.3774457" lon="6.0179211"/>
<trkpt lat="52.3775712" lon="6.0183273"/>
<trkpt lat="52.3775381" lon="6.0186413"/>
<trkpt lat="52.3769068" lon="6.0198068"/>
<trkpt lat="52.3758407" lon="6.0202682"/>
<trkpt lat="52.3753525" lon="6.0201400"/>
<trkpt lat="52.3739430" lon="6.0190273"/>
<trkpt lat="52.3737716" lon="6.0191857"/>
<trkpt lat="52.3735943" lon="6.0192260"/>
<trkpt lat="52.3733317" lon="6.0192544"/>
<trkpt lat="52.3729917" lon="6.0190352"/>
<trkpt lat="52.3728151" lon="6.0189362"/>
<trkpt lat="52.3727897" lon="6.0191092"/>
<trkpt lat="52.3728158" lon="6.0191780"/>
<trkpt lat="52.3730543" lon="6.0193044"/>
<trkpt lat="52.3730780" lon="6.0193881"/>
<trkpt lat="52.3730151" lon="6.0195980"/>
<trkpt lat="52.3729340" lon="6.0196934"/>
<trkpt lat="52.3728930" lon="6.0198114"/>
<trkpt lat="52.3728613" lon="6.0199151"/>
<trkpt lat="52.3723174" lon="6.0209227"/>
<trkpt lat="52.3723494" lon="6.0209976"/>
</trkseg></trk>
<trk><name>Horsthoekerpad - route verlenger</name><type>extensionRoute</type><trkseg>
<trkpt lat="52.3861612" lon="5.9901316"/>
<trkpt lat="52.3861621" lon="5.9901476"/>
<trkpt lat="52.3861564" lon="5.9901204"/>
<trkpt lat="52.3861774" lon="5.9900635"/>
<trkpt lat="52.3863362" lon="5.9896389"/>
<trkpt lat="52.3866161" lon="5.9891058"/>
<trkpt lat="52.3869306" lon="5.9884864"/>
<trkpt lat="52.3870947" lon="5.9881329"/>
<trkpt lat="52.3875285" lon="5.9874163"/>
<trkpt lat="52.3880029" lon="5.9866140"/>
<trkpt lat="52.3879678" lon="5.9863140"/>
<trkpt lat="52.3879623" lon="5.9861942"/>
<trkpt lat="52.3878775" lon="5.9860632"/>
<trkpt lat="52.3878046" lon="5.9859824"/>
<trkpt lat="52.3877568" lon="5.9857621"/>
<trkpt lat="52.3877518" lon="5.9855424"/>
<trkpt lat="52.3877650" lon="5.9853429"/>
<trkpt lat="52.3877656" lon="5.9852231"/>
<trkpt lat="52.3876395" lon="5.9848121"/>
<trkpt lat="52.3874971" lon="5.9839616"/>
<trkpt lat="52.3874574" lon="5.9833620"/>
<trkpt lat="52.3874934" lon="5.9831454"/>
<trkpt lat="52.3876223" lon="5.9828234"/>
<trkpt lat="52.3877115" lon="5.9826367"/>
<trkpt lat="52.3877373" lon="5.9823675"/>
<trkpt lat="52.3877334" lon="5.9819181"/>
<trkpt lat="52.3879599" lon="5.9818104"/>
<trkpt lat="52.3881369" lon="5.9817781"/>
<trkpt lat="52.3882238" lon="5.9815753"/>
<trkpt lat="52.3882744" lon="5.9811672"/>
<trkpt lat="52.3882077" lon="5.9803569"/>
<trkpt lat="52.3882251" lon="5.9798604"/>
<trkpt lat="52.3884127" lon="5.9795348"/>
<trkpt lat="52.3879971" lon="5.9792003"/>
<trkpt lat="52.3873573" lon="5.9803800"/>
<trkpt lat="52.3869693" lon="5.9810750"/>
<trkpt lat="52.3855864" lon="5.9834707"/>
<trkpt lat="52.3851353" lon="5.9843076"/>
<trkpt lat="52.3836956" lon="5.9791749"/>
<trkpt lat="52.3818963" lon="5.9837838"/>
<trkpt lat="52.3814431" lon="5.9847971"/>
<trkpt lat="52.3812941" lon="5.9851620"/>
<trkpt lat="52.3811668" lon="5.9854389"/>
<trkpt lat="52.3810764" lon="5.9856569"/>
<trkpt lat="52.3809750" lon="5.9858462"/>
<trkpt lat="52.3808141" lon="5.9862032"/>
<trkpt lat="52.3807032" lon="5.9863896"/>
<trkpt lat="52.3801359" lon="5.9877154"/>
<trkpt lat="52.3800004" lon="5.9879332"/>
<trkpt lat="52.3799201" lon="5.9881118"/>
<trkpt lat="52.3796747" lon="5.9883280"/>
<trkpt lat="52.3791661" lon="5.9886405"/>
<trkpt lat="52.3788773" lon="5.9889760"/>
<trkpt lat="52.3787328" lon="5.9892237"/>
<trkpt lat="52.3785983" lon="5.9897707"/>
<trkpt lat="52.3785864" lon="5.9902043"/>
<trkpt lat="52.3784590" lon="5.9907370"/>
<trkpt lat="52.3784582" lon="5.9908967"/>
<trkpt lat="52.3783281" lon="5.9912543"/>
<trkpt lat="52.3781440" lon="5.9914215"/>
<trkpt lat="52.3780271" lon="5.9915995"/>
<trkpt lat="52.3780078" lon="5.9917889"/>
<trkpt lat="52.3780068" lon="5.9919686"/>
<trkpt lat="52.3780245" lon="5.9921085"/>
<trkpt lat="52.3781454" lon="5.9923497"/>
<trkpt lat="52.3782296" lon="5.9926104"/>
<trkpt lat="52.3782040" lon="5.9928396"/>
<trkpt lat="52.3781665" lon="5.9929988"/>
<trkpt lat="52.3781342" lon="5.9933477"/>
<trkpt lat="52.3782004" lon="5.9935283"/>
<trkpt lat="52.3783156" lon="5.9936995"/>
<trkpt lat="52.3784377" lon="5.9937212"/>
<trkpt lat="52.3786028" lon="5.9936835"/>
<trkpt lat="52.3787493" lon="5.9937055"/>
<trkpt lat="52.3789081" lon="5.9936977"/>
<trkpt lat="52.3789431" lon="5.9940375"/>
<trkpt lat="52.3789791" lon="5.9941478"/>
<trkpt lat="52.3791735" lon="5.9943701"/>
<trkpt lat="52.3794833" lon="5.9947037"/>
<trkpt lat="52.3795320" lon="5.9947243"/>
<trkpt lat="52.3796521" lon="5.9951352"/>
<trkpt lat="52.3797623" lon="5.9950769"/>
<trkpt lat="52.3798610" lon="5.9948886"/>
<trkpt lat="52.3799287" lon="5.9947897"/>
<trkpt lat="52.3801596" lon="5.9950424"/>
<trkpt lat="52.3801997" lon="5.9955520"/>
<trkpt lat="52.3802604" lon="5.9956327"/>
<trkpt lat="52.3804071" lon="5.9956147"/>
</trkseg></trk>
<trk><name>Horsthoekerpad - overstaproute</name><type>connectionRoute</type><trkseg>
<trkpt lat="52.3901951" lon="5.9965620"/>
<trkpt lat="52.3905119" lon="5.9966661"/>
<trkpt lat="52.3904033" lon="5.9975713"/>
<trkpt lat="52.3906728" lon="5.9976002"/>
<trkpt lat="52.3928905" lon="5.9978323"/>
<trkpt lat="52.3928934" lon="5.9980149"/>
<trkpt lat="52.3929119" lon="5.9981663"/>
<trkpt lat="52.3918874" lon="6.0007910"/>
<trkpt lat="52.3932842" lon="6.0019147"/>
<trkpt lat="52.3934361" lon="6.0020369"/>
<trkpt lat="52.3941319" lon="6.0026880"/>
<trkpt lat="52.3951170" lon="6.0039378"/>
<trkpt lat="52.3946934" lon="6.0060179"/>
<trkpt lat="52.3939967" lon="6.0094381"/>
<trkpt lat="52.3961931" lon="6.0105356"/>
<trkpt lat="52.3969497" lon="6.0108907"/>
<trkpt lat="52.3975430" lon="6.0106658"/>
<trkpt lat="52.3977319" lon="6.0113682"/>
<trkpt lat="52.3977932" lon="6.0119289"/>
<trkpt lat="52.3982518" lon="6.0128917"/>
<trkpt lat="52.3982605" lon="6.0152827"/>
<trkpt lat="52.3982003" lon="6.0158766"/>
<trkpt lat="52.3980118" lon="6.0164570"/>
<trkpt lat="52.3977095" lon="6.0183464"/>
<trkpt lat="52.3972580" lon="6.0213445"/>
<trkpt lat="52.3965989" lon="6.0235611"/>
<trkpt lat="52.3961391" lon="6.0251070"/>
<trkpt lat="52.3959623" lon="6.0261541"/>
<trkpt lat="52.3950140" lon="6.0273766"/>
<trkpt lat="52.3954012" lon="6.0297487"/>
<trkpt lat="52.3958499" lon="6.0324974"/>
<trkpt lat="52.3961224" lon="6.0341566"/>
<trkpt lat="52.3964897" lon="6.0348150"/>
<trkpt lat="52.3970247" lon="6.0352220"/>
<trkpt lat="52.3975124" lon="6.0356697"/>
<trkpt lat="52.3976607" lon="6.0363658"/>
</trkseg></trk>
<trk><name>Horsthoekerpad - verbindingsroute</name><type>connectionRoute</type><trkseg>
<trkpt lat="52.3849861" lon="6.0611847"/>
<trkpt lat="52.3853568" lon="6.0600859"/>
<trkpt lat="52.3856793" lon="6.0585673"/>
<trkpt lat="52.3860372" lon="6.0575311"/>
<trkpt lat="52.3864258" lon="6.0560912"/>
<trkpt lat="52.3868986" lon="6.0549013"/>
<trkpt lat="52.3877726" lon="6.0534065"/>
<trkpt lat="52.3880059" lon="6.0525238"/>
<trkpt lat="52.3882948" lon="6.0518907"/>
<trkpt lat="52.3880967" lon="6.0515924"/>
<trkpt lat="52.3882259" lon="6.0513331"/>
</trkseg></trk>
<trk><name>Horsthoekerpad - verbindingsroute</name><type>connectionRoute</type><trkseg>
<trkpt lat="52.3732288" lon="6.0454985"/>
<trkpt lat="52.3731627" lon="6.0454980"/>
<trkpt lat="52.3724758" lon="6.0455412"/>
<trkpt lat="52.3718055" lon="6.0452738"/>
<trkpt lat="52.3706252" lon="6.0447852"/>
<trkpt lat="52.3714260" lon="6.0440346"/>
<trkpt lat="52.3716245" lon="6.0436248"/>
<trkpt lat="52.3720627" lon="6.0417858"/>
<trkpt lat="52.3721737" lon="6.0410638"/>
<trkpt lat="52.3723079" lon="6.0404490"/>
<trkpt lat="52.3727888" lon="6.0389505"/>
<trkpt lat="52.3730667" lon="6.0383345"/>
</trkseg></trk>
<trk><name>Horsthoekerpad - verbindingsroute</name><type>connectionRoute</type><trkseg>
<trkpt lat="52.3860462" lon="6.0490940"/>
<trkpt lat="52.3861190" lon="6.0489976"/>
<trkpt lat="52.3861885" lon="6.0488972"/>
<trkpt lat="52.3863621" lon="6.0489021"/>
<trkpt lat="52.3867477" lon="6.0488320"/>
<trkpt lat="52.3867963" lon="6.0490718"/>
<trkpt lat="52.3872330" lon="6.0495141"/>
<trkpt lat="52.3873528" lon="6.0496472"/>
<trkpt lat="52.3873570" lon="6.0497221"/>
<trkpt lat="52.3874222" lon="6.0498229"/>
<trkpt lat="52.3874728" lon="6.0500040"/>
<trkpt lat="52.3875095" lon="6.0501657"/>
<trkpt lat="52.3875583" lon="6.0502662"/>
<trkpt lat="52.3876425" lon="6.0503097"/>
<trkpt lat="52.3877196" lon="6.0503799"/>
<trkpt lat="52.3877615" lon="6.0504496"/>
<trkpt lat="52.3878457" lon="6.0505123"/>
<trkpt lat="52.3879251" lon="6.0505864"/>
<trkpt lat="52.3880116" lon="6.0506453"/>
<trkpt lat="52.3880815" lon="6.0507423"/>
<trkpt lat="52.3881398" lon="6.0508237"/>
<trkpt lat="52.3881842" lon="6.0508628"/>
<trkpt lat="52.3882189" lon="6.0509477"/>
<trkpt lat="52.3882232" lon="6.0510207"/>
<trkpt lat="52.3881901" lon="6.0510701"/>
<trkpt lat="52.3881731" lon="6.0511696"/>
<trkpt lat="52.3884574" lon="6.0510361"/>
<trkpt lat="52.3900610" lon="6.0504420"/>
<trkpt lat="52.3904606" lon="6.0519876"/>
<trkpt lat="52.3919398" lon="6.0521206"/>
<trkpt lat="52.3919760" lon="6.0542913"/>
<trkpt lat="52.3911997" lon="6.0552356"/>
<trkpt lat="52.3910089" lon="6.0554484"/>
</trkseg></trk>
</gpx>