<?xml version="1.0" encoding="UTF-8"?>
<gpx version="1.1" creator="klompenpaden.nl via Jimbo API" xmlns="http://www.topografix.com/GPX/1/1">
<metadata><name>Houtdijkenpad</name><desc>Ontdek het mooie buitengebied van Kamerik. Wandelen door de polder, over boerenland en langs de Oude Rijn. Geniet van de rust en de combinatie van cultuur en natuur. Klompen aan, rugzak op en gaan!</desc><link href="https://www.klompenpaden.nl/klompenpaden/Houtdijkenpad/8d95eaa8-a7a4-4d00-a529-5b44b36dfca9"><text>klompenpaden.nl</text></link></metadata>
<wpt lat="52.10535199515185" lon="4.884527921676636"><name>Start Kamerik</name></wpt>
<trk><name>Houtdijkenpad - Geimporteerde shapefile</name><type>mainRoute</type><trkseg>
<trkpt lat="52.1189671" lon="4.9212664"/>
<trkpt lat="52.1172262" lon="4.9228196"/>
<trkpt lat="52.1171042" lon="4.9236261"/>
<trkpt lat="52.1170350" lon="4.9236354"/>
<trkpt lat="52.1170152" lon="4.9237810"/>
<trkpt lat="52.1146933" lon="4.9257416"/>
<trkpt lat="52.1141202" lon="4.9262319"/>
<trkpt lat="52.1135429" lon="4.9267246"/>
<trkpt lat="52.1132285" lon="4.9269781"/>
<trkpt lat="52.1129593" lon="4.9270921"/>
<trkpt lat="52.1124700" lon="4.9274865"/>
<trkpt lat="52.1119025" lon="4.9279698"/>
<trkpt lat="52.1113279" lon="4.9284415"/>
<trkpt lat="52.1111430" lon="4.9285940"/>
<trkpt lat="52.1107461" lon="4.9289063"/>
<trkpt lat="52.1101573" lon="4.9293851"/>
<trkpt lat="52.1095699" lon="4.9298732"/>
<trkpt lat="52.1092683" lon="4.9301242"/>
<trkpt lat="52.1090761" lon="4.9302258"/>
<trkpt lat="52.1089239" lon="4.9303386"/>
<trkpt lat="52.1085613" lon="4.9306598"/>
<trkpt lat="52.1080166" lon="4.9311219"/>
<trkpt lat="52.1074647" lon="4.9315771"/>
<trkpt lat="52.1065316" lon="4.9323397"/>
<trkpt lat="52.1064732" lon="4.9323704"/>
<trkpt lat="52.1064639" lon="4.9322963"/>
<trkpt lat="52.1067555" lon="4.9302001"/>
<trkpt lat="52.1069961" lon="4.9284713"/>
<trkpt lat="52.1071646" lon="4.9271603"/>
<trkpt lat="52.1071612" lon="4.9269209"/>
<trkpt lat="52.1070378" lon="4.9263583"/>
<trkpt lat="52.1066121" lon="4.9245436"/>
<trkpt lat="52.1063823" lon="4.9235573"/>
<trkpt lat="52.1060635" lon="4.9223054"/>
<trkpt lat="52.1058879" lon="4.9224038"/>
<trkpt lat="52.1049457" lon="4.9228886"/>
<trkpt lat="52.1039916" lon="4.9233812"/>
<trkpt lat="52.1035504" lon="4.9236639"/>
<trkpt lat="52.1034258" lon="4.9234219"/>
<trkpt lat="52.1031422" lon="4.9220693"/>
<trkpt lat="52.1028593" lon="4.9208867"/>
<trkpt lat="52.1025015" lon="4.9194152"/>
<trkpt lat="52.1022786" lon="4.9195798"/>
<trkpt lat="52.1021772" lon="4.9191831"/>
<trkpt lat="52.1020330" lon="4.9188061"/>
<trkpt lat="52.1018630" lon="4.9185221"/>
<trkpt lat="52.1015500" lon="4.9181508"/>
<trkpt lat="52.1009268" lon="4.9175241"/>
<trkpt lat="52.1006809" lon="4.9172872"/>
<trkpt lat="52.1001204" lon="4.9168722"/>
<trkpt lat="52.0998844" lon="4.9167318"/>
<trkpt lat="52.0995642" lon="4.9164929"/>
<trkpt lat="52.0992542" lon="4.9162760"/>
<trkpt lat="52.0988276" lon="4.9160411"/>
<trkpt lat="52.0983413" lon="4.9157489"/>
<trkpt lat="52.0980119" lon="4.9154512"/>
<trkpt lat="52.0977682" lon="4.9151758"/>
<trkpt lat="52.0974648" lon="4.9148276"/>
<trkpt lat="52.0972133" lon="4.9143901"/>
<trkpt lat="52.0970545" lon="4.9139207"/>
<trkpt lat="52.0969265" lon="4.9134201"/>
<trkpt lat="52.0969009" lon="4.9129763"/>
<trkpt lat="52.0968823" lon="4.9124861"/>
<trkpt lat="52.0968878" lon="4.9120922"/>
<trkpt lat="52.0969330" lon="4.9115009"/>
<trkpt lat="52.0970346" lon="4.9101561"/>
<trkpt lat="52.0970923" lon="4.9097269"/>
<trkpt lat="52.0971116" lon="4.9086262"/>
<trkpt lat="52.0970850" lon="4.9085145"/>
<trkpt lat="52.0970478" lon="4.9081443"/>
<trkpt lat="52.0970301" lon="4.9078742"/>
<trkpt lat="52.0969236" lon="4.9074235"/>
<trkpt lat="52.0968156" lon="4.9071814"/>
<trkpt lat="52.0966505" lon="4.9069284"/>
<trkpt lat="52.0965044" lon="4.9066789"/>
<trkpt lat="52.0963031" lon="4.9063027"/>
<trkpt lat="52.0960442" lon="4.9057881"/>
<trkpt lat="52.0959532" lon="4.9056501"/>
<trkpt lat="52.0955323" lon="4.9050716"/>
<trkpt lat="52.0950566" lon="4.9044589"/>
<trkpt lat="52.0947338" lon="4.9040338"/>
<trkpt lat="52.0944418" lon="4.9035814"/>
<trkpt lat="52.0942666" lon="4.9032010"/>
<trkpt lat="52.0940840" lon="4.9027435"/>
<trkpt lat="52.0939610" lon="4.9023163"/>
<trkpt lat="52.0938976" lon="4.9019502"/>
<trkpt lat="52.0938865" lon="4.9015642"/>
<trkpt lat="52.0938806" lon="4.9006994"/>
<trkpt lat="52.0939215" lon="4.8996603"/>
<trkpt lat="52.0939708" lon="4.8989262"/>
<trkpt lat="52.0940418" lon="4.8982806"/>
<trkpt lat="52.0941394" lon="4.8977197"/>
<trkpt lat="52.0942283" lon="4.8973867"/>
<trkpt lat="52.0944205" lon="4.8966935"/>
<trkpt lat="52.0944981" lon="4.8964957"/>
<trkpt lat="52.0947929" lon="4.8958901"/>
<trkpt lat="52.0952833" lon="4.8948886"/>
<trkpt lat="52.0954270" lon="4.8945627"/>
<trkpt lat="52.0956128" lon="4.8940471"/>
<trkpt lat="52.0956475" lon="4.8938266"/>
<trkpt lat="52.0956298" lon="4.8935681"/>
<trkpt lat="52.0955336" lon="4.8933143"/>
<trkpt lat="52.0953399" lon="4.8930501"/>
<trkpt lat="52.0949100" lon="4.8926262"/>
<trkpt lat="52.0948146" lon="4.8925578"/>
<trkpt lat="52.0946406" lon="4.8924670"/>
<trkpt lat="52.0943813" lon="4.8924352"/>
<trkpt lat="52.0941320" lon="4.8925344"/>
<trkpt lat="52.0938570" lon="4.8927460"/>
<trkpt lat="52.0932193" lon="4.8932125"/>
<trkpt lat="52.0926811" lon="4.8936084"/>
<trkpt lat="52.0922069" lon="4.8939650"/>
<trkpt lat="52.0919273" lon="4.8941958"/>
<trkpt lat="52.0917803" lon="4.8937341"/>
<trkpt lat="52.0916452" lon="4.8938399"/>
<trkpt lat="52.0915755" lon="4.8936785"/>
<trkpt lat="52.0915413" lon="4.8934549"/>
<trkpt lat="52.0916361" lon="4.8931489"/>
<trkpt lat="52.0915861" lon="4.8930105"/>
<trkpt lat="52.0915231" lon="4.8929617"/>
<trkpt lat="52.0914064" lon="4.8928240"/>
<trkpt lat="52.0912413" lon="4.8924645"/>
<trkpt lat="52.0910608" lon="4.8920711"/>
<trkpt lat="52.0910250" lon="4.8920237"/>
<trkpt lat="52.0908295" lon="4.8920179"/>
<trkpt lat="52.0906934" lon="4.8918114"/>
<trkpt lat="52.0904701" lon="4.8911668"/>
<trkpt lat="52.0902679" lon="4.8904988"/>
<trkpt lat="52.0902183" lon="4.8899605"/>
<trkpt lat="52.0908708" lon="4.8894791"/>
<trkpt lat="52.0913022" lon="4.8891654"/>
<trkpt lat="52.0916258" lon="4.8903317"/>
<trkpt lat="52.0916964" lon="4.8904903"/>
<trkpt lat="52.0918764" lon="4.8910933"/>
<trkpt lat="52.0921582" lon="4.8908238"/>
<trkpt lat="52.0923121" lon="4.8906561"/>
<trkpt lat="52.0924206" lon="4.8904387"/>
<trkpt lat="52.0926287" lon="4.8902994"/>
<trkpt lat="52.0934579" lon="4.8897867"/>
<trkpt lat="52.0934932" lon="4.8900489"/>
<trkpt lat="52.0940280" lon="4.8896414"/>
<trkpt lat="52.0940878" lon="4.8898415"/>
<trkpt lat="52.0947003" lon="4.8893621"/>
<trkpt lat="52.0947592" lon="4.8898000"/>
<trkpt lat="52.0949262" lon="4.8910430"/>
<trkpt lat="52.0949824" lon="4.8912864"/>
<trkpt lat="52.0950005" lon="4.8915148"/>
<trkpt lat="52.0949613" lon="4.8917005"/>
<trkpt lat="52.0951576" lon="4.8917910"/>
<trkpt lat="52.0952531" lon="4.8918703"/>
<trkpt lat="52.0953152" lon="4.8916966"/>
<trkpt lat="52.0952620" lon="4.8912619"/>
<trkpt lat="52.0959629" lon="4.8912386"/>
<trkpt lat="52.0965836" lon="4.8912376"/>
<trkpt lat="52.0965842" lon="4.8913823"/>
<trkpt lat="52.0974045" lon="4.8913559"/>
<trkpt lat="52.0988779" lon="4.8913801"/>
<trkpt lat="52.1003475" lon="4.8913638"/>
<trkpt lat="52.1017956" lon="4.8913361"/>
<trkpt lat="52.1031903" lon="4.8913091"/>
<trkpt lat="52.1031937" lon="4.8910981"/>
<trkpt lat="52.1033192" lon="4.8911297"/>
<trkpt lat="52.1033358" lon="4.8910525"/>
<trkpt lat="52.1033398" lon="4.8903922"/>
<trkpt lat="52.1033274" lon="4.8890609"/>
<trkpt lat="52.1033148" lon="4.8876912"/>
<trkpt lat="52.1032961" lon="4.8859612"/>
<trkpt lat="52.1032856" lon="4.8826653"/>
<trkpt lat="52.1032863" lon="4.8826652"/>
<trkpt lat="52.1043199" lon="4.8826362"/>
<trkpt lat="52.1057844" lon="4.8826428"/>
<trkpt lat="52.1057716" lon="4.8837784"/>
<trkpt lat="52.1057727" lon="4.8838700"/>
<trkpt lat="52.1057744" lon="4.8840058"/>
<trkpt lat="52.1057781" lon="4.8843135"/>
<trkpt lat="52.1057734" lon="4.8843858"/>
<trkpt lat="52.1057289" lon="4.8846305"/>
<trkpt lat="52.1057404" lon="4.8852539"/>
<trkpt lat="52.1057443" lon="4.8855054"/>
<trkpt lat="52.1057499" lon="4.8858216"/>
<trkpt lat="52.1054460" lon="4.8858294"/>
<trkpt lat="52.1052286" lon="4.8858350"/>
<trkpt lat="52.1052338" lon="4.8861066"/>
<trkpt lat="52.1052896" lon="4.8862044"/>
<trkpt lat="52.1055822" lon="4.8862332"/>
<trkpt lat="52.1057909" lon="4.8862625"/>
<trkpt lat="52.1058163" lon="4.8865588"/>
<trkpt lat="52.1058196" lon="4.8877983"/>
<trkpt lat="52.1058236" lon="4.8890640"/>
<trkpt lat="52.1058261" lon="4.8898992"/>
<trkpt lat="52.1058282" lon="4.8905710"/>
<trkpt lat="52.1058325" lon="4.8915994"/>
<trkpt lat="52.1058446" lon="4.8935797"/>
<trkpt lat="52.1058484" lon="4.8940788"/>
<trkpt lat="52.1059048" lon="4.8940873"/>
<trkpt lat="52.1063478" lon="4.8940721"/>
<trkpt lat="52.1064467" lon="4.8940726"/>
<trkpt lat="52.1070708" lon="4.8940758"/>
<trkpt lat="52.1072502" lon="4.8940729"/>
<trkpt lat="52.1077216" lon="4.8940735"/>
<trkpt lat="52.1080353" lon="4.8940555"/>
<trkpt lat="52.1085474" lon="4.8940363"/>
<trkpt lat="52.1085790" lon="4.8940363"/>
<trkpt lat="52.1092958" lon="4.8940406"/>
<trkpt lat="52.1093564" lon="4.8940434"/>
<trkpt lat="52.1098008" lon="4.8940727"/>
<trkpt lat="52.1101506" lon="4.8940621"/>
<trkpt lat="52.1104183" lon="4.8940592"/>
<trkpt lat="52.1108371" lon="4.8941163"/>
<trkpt lat="52.1109375" lon="4.8941180"/>
<trkpt lat="52.1109400" lon="4.8941181"/>
<trkpt lat="52.1115783" lon="4.8941289"/>
<trkpt lat="52.1117726" lon="4.8941436"/>
<trkpt lat="52.1118244" lon="4.8945757"/>
<trkpt lat="52.1119780" lon="4.8954855"/>
<trkpt lat="52.1122231" lon="4.8966725"/>
<trkpt lat="52.1122956" lon="4.8969576"/>
<trkpt lat="52.1122810" lon="4.8971648"/>
<trkpt lat="52.1121967" lon="4.8973640"/>
<trkpt lat="52.1122643" lon="4.8975976"/>
<trkpt lat="52.1123759" lon="4.8977406"/>
<trkpt lat="52.1125056" lon="4.8977933"/>
<trkpt lat="52.1126054" lon="4.8977922"/>
<trkpt lat="52.1127863" lon="4.8977093"/>
<trkpt lat="52.1129927" lon="4.8987538"/>
<trkpt lat="52.1133329" lon="4.9004999"/>
<trkpt lat="52.1130980" lon="4.9006337"/>
<trkpt lat="52.1131467" lon="4.9008997"/>
<trkpt lat="52.1134134" lon="4.9021522"/>
<trkpt lat="52.1135748" lon="4.9026488"/>
<trkpt lat="52.1137494" lon="4.9028979"/>
<trkpt lat="52.1142074" lon="4.9032406"/>
<trkpt lat="52.1144175" lon="4.9034392"/>
<trkpt lat="52.1145633" lon="4.9036037"/>
<trkpt lat="52.1147236" lon="4.9038492"/>
<trkpt lat="52.1149043" lon="4.9044151"/>
<trkpt lat="52.1150009" lon="4.9047733"/>
<trkpt lat="52.1154041" lon="4.9068472"/>
<trkpt lat="52.1158217" lon="4.9089634"/>
<trkpt lat="52.1162346" lon="4.9110913"/>
<trkpt lat="52.1162809" lon="4.9113651"/>
<trkpt lat="52.1163582" lon="4.9116502"/>
<trkpt lat="52.1163736" lon="4.9119359"/>
<trkpt lat="52.1164128" lon="4.9122252"/>
<trkpt lat="52.1164823" lon="4.9123635"/>
<trkpt lat="52.1165444" lon="4.9124169"/>
<trkpt lat="52.1166826" lon="4.9124850"/>
<trkpt lat="52.1168185" lon="4.9125685"/>
<trkpt lat="52.1168079" lon="4.9129086"/>
<trkpt lat="52.1166560" lon="4.9129836"/>
<trkpt lat="52.1166088" lon="4.9130691"/>
<trkpt lat="52.1165880" lon="4.9132084"/>
<trkpt lat="52.1166245" lon="4.9134204"/>
<trkpt lat="52.1166296" lon="4.9135015"/>
<trkpt lat="52.1166108" lon="4.9135712"/>
<trkpt lat="52.1165659" lon="4.9136335"/>
<trkpt lat="52.1168435" lon="4.9146620"/>
<trkpt lat="52.1172513" lon="4.9161256"/>
<trkpt lat="52.1175915" lon="4.9173505"/>
<trkpt lat="52.1176954" lon="4.9177821"/>
<trkpt lat="52.1177531" lon="4.9179321"/>
<trkpt lat="52.1178653" lon="4.9180275"/>
<trkpt lat="52.1180085" lon="4.9181612"/>
<trkpt lat="52.1182249" lon="4.9187577"/>
<trkpt lat="52.1187660" lon="4.9202819"/>
<trkpt lat="52.1191356" lon="4.9213310"/>
<trkpt lat="52.1190588" lon="4.9213887"/>
<trkpt lat="52.1190081" lon="4.9212214"/>
<trkpt lat="52.1189671" lon="4.9212664"/>
</trkseg></trk>
<trk><name>Houtdijkenpad - approachRoute</name><type>approachRoute</type><trkseg>
<trkpt lat="52.0909800" lon="4.8920500"/>
<trkpt lat="52.0898200" lon="4.8929700"/>
<trkpt lat="52.0892500" lon="4.8906800"/>
<trkpt lat="52.0889700" lon="4.8899300"/>
<trkpt lat="52.0889300" lon="4.8897700"/>
<trkpt lat="52.0888900" lon="4.8897200"/>
<trkpt lat="52.0884500" lon="4.8900400"/>
<trkpt lat="52.0882100" lon="4.8902800"/>
<trkpt lat="52.0880800" lon="4.8904900"/>
<trkpt lat="52.0879400" lon="4.8906600"/>
<trkpt lat="52.0878400" lon="4.8907000"/>
<trkpt lat="52.0877300" lon="4.8907300"/>
<trkpt lat="52.0874200" lon="4.8909600"/>
<trkpt lat="52.0873400" lon="4.8910500"/>
<trkpt lat="52.0872200" lon="4.8909200"/>
<trkpt lat="52.0871500" lon="4.8908900"/>
<trkpt lat="52.0870800" lon="4.8909500"/>
<trkpt lat="52.0870000" lon="4.8911500"/>
<trkpt lat="52.0869000" lon="4.8913300"/>
<trkpt lat="52.0867300" lon="4.8914600"/>
<trkpt lat="52.0861900" lon="4.8916000"/>
<trkpt lat="52.0859200" lon="4.8917500"/>
<trkpt lat="52.0856400" lon="4.8919600"/>
<trkpt lat="52.0853800" lon="4.8922000"/>
</trkseg></trk>
</gpx>