<?xml version="1.0" encoding="UTF-8"?>
<gpx version="1.1" creator="klompenpaden.nl via Jimbo API" xmlns="http://www.topografix.com/GPX/1/1">
<metadata><name>Huinerpad</name><desc>Ontdek het mooie buitengebied van Putten. Wandelen over essen, langs akkerranden, over landgoederen, door weilanden en over eeuwenoude boerenerven. En lees de geschiedenis van dit afwisselende landschap. Klompen aan, rugzak op en gaan!</desc><link href="https://www.klompenpaden.nl/klompenpaden/Huinerpad/c463afe3-ebf9-427e-a63e-83ee52a379ba"><text>klompenpaden.nl</text></link></metadata>
<wpt lat="52.23042800719171" lon="5.619335174560548"><name>Start Huinen</name></wpt>
<trk><name>Huinerpad - Hoofdroute</name><type>mainRoute</type><trkseg>
<trkpt lat="52.2386876" lon="5.5469038"/>
<trkpt lat="52.2386874" lon="5.5469117"/>
<trkpt lat="52.2397471" lon="5.5471657"/>
<trkpt lat="52.2398752" lon="5.5471550"/>
<trkpt lat="52.2399639" lon="5.5471121"/>
<trkpt lat="52.2400822" lon="5.5469565"/>
<trkpt lat="52.2401545" lon="5.5471121"/>
<trkpt lat="52.2401972" lon="5.5474554"/>
<trkpt lat="52.2401939" lon="5.5477505"/>
<trkpt lat="52.2400592" lon="5.5485337"/>
<trkpt lat="52.2400502" lon="5.5487202"/>
<trkpt lat="52.2403450" lon="5.5488877"/>
<trkpt lat="52.2403187" lon="5.5493169"/>
<trkpt lat="52.2403516" lon="5.5496602"/>
<trkpt lat="52.2403253" lon="5.5498962"/>
<trkpt lat="52.2403647" lon="5.5502288"/>
<trkpt lat="52.2403713" lon="5.5503468"/>
<trkpt lat="52.2405355" lon="5.5503576"/>
<trkpt lat="52.2406538" lon="5.5506794"/>
<trkpt lat="52.2406472" lon="5.5508511"/>
<trkpt lat="52.2405355" lon="5.5514734"/>
<trkpt lat="52.2406998" lon="5.5515914"/>
<trkpt lat="52.2406735" lon="5.5521064"/>
<trkpt lat="52.2407195" lon="5.5528037"/>
<trkpt lat="52.2407372" lon="5.5530225"/>
<trkpt lat="52.2407651" lon="5.5534293"/>
<trkpt lat="52.2407540" lon="5.5537663"/>
<trkpt lat="52.2408992" lon="5.5544990"/>
<trkpt lat="52.2410414" lon="5.5544882"/>
<trkpt lat="52.2410534" lon="5.5547580"/>
</trkseg></trk>
<trk><name>Huinerpad - Hoofdroute</name><type>mainRoute</type><trkseg>
<trkpt lat="52.2410522" lon="5.5547593"/>
<trkpt lat="52.2409015" lon="5.5548991"/>
<trkpt lat="52.2411355" lon="5.5558994"/>
<trkpt lat="52.2413843" lon="5.5565046"/>
<trkpt lat="52.2416468" lon="5.5575051"/>
<trkpt lat="52.2423295" lon="5.5590185"/>
<trkpt lat="52.2429624" lon="5.5604039"/>
<trkpt lat="52.2435805" lon="5.5621380"/>
<trkpt lat="52.2441276" lon="5.5636393"/>
<trkpt lat="52.2443902" lon="5.5645469"/>
<trkpt lat="52.2444063" lon="5.5646339"/>
<trkpt lat="52.2450941" lon="5.5643687"/>
<trkpt lat="52.2455012" lon="5.5668954"/>
<trkpt lat="52.2454860" lon="5.5669101"/>
<trkpt lat="52.2449177" lon="5.5670801"/>
<trkpt lat="52.2448664" lon="5.5670947"/>
<trkpt lat="52.2449848" lon="5.5675943"/>
<trkpt lat="52.2452974" lon="5.5684556"/>
<trkpt lat="52.2436273" lon="5.5689602"/>
<trkpt lat="52.2441539" lon="5.5743549"/>
<trkpt lat="52.2445683" lon="5.5784127"/>
<trkpt lat="52.2447788" lon="5.5805521"/>
<trkpt lat="52.2449194" lon="5.5818660"/>
<trkpt lat="52.2448627" lon="5.5859219"/>
<trkpt lat="52.2455761" lon="5.5872055"/>
<trkpt lat="52.2455948" lon="5.5875058"/>
<trkpt lat="52.2456630" lon="5.5893657"/>
<trkpt lat="52.2452243" lon="5.5892195"/>
<trkpt lat="52.2446873" lon="5.5889235"/>
<trkpt lat="52.2441713" lon="5.5886032"/>
<trkpt lat="52.2439736" lon="5.5885445"/>
<trkpt lat="52.2418544" lon="5.5887557"/>
<trkpt lat="52.2422936" lon="5.5905707"/>
<trkpt lat="52.2431365" lon="5.5940726"/>
<trkpt lat="52.2427253" lon="5.5947213"/>
<trkpt lat="52.2438684" lon="5.5952892"/>
<trkpt lat="52.2437959" lon="5.5955726"/>
<trkpt lat="52.2435814" lon="5.5966431"/>
<trkpt lat="52.2432923" lon="5.5987569"/>
<trkpt lat="52.2428232" lon="5.6020793"/>
<trkpt lat="52.2427780" lon="5.6022014"/>
<trkpt lat="52.2426932" lon="5.6025972"/>
<trkpt lat="52.2424049" lon="5.6025762"/>
<trkpt lat="52.2418303" lon="5.6024340"/>
<trkpt lat="52.2411889" lon="5.6024676"/>
<trkpt lat="52.2396365" lon="5.6023721"/>
<trkpt lat="52.2395682" lon="5.6027252"/>
<trkpt lat="52.2398109" lon="5.6038991"/>
<trkpt lat="52.2399148" lon="5.6045453"/>
<trkpt lat="52.2399107" lon="5.6051665"/>
<trkpt lat="52.2397693" lon="5.6058637"/>
<trkpt lat="52.2395873" lon="5.6062802"/>
<trkpt lat="52.2390473" lon="5.6066620"/>
<trkpt lat="52.2386643" lon="5.6069537"/>
<trkpt lat="52.2381733" lon="5.6069714"/>
<trkpt lat="52.2381537" lon="5.6068704"/>
<trkpt lat="52.2380917" lon="5.6068660"/>
<trkpt lat="52.2375067" lon="5.6067662"/>
<trkpt lat="52.2361415" lon="5.6062668"/>
<trkpt lat="52.2357279" lon="5.6059901"/>
<trkpt lat="52.2356266" lon="5.6058119"/>
<trkpt lat="52.2355449" lon="5.6057227"/>
<trkpt lat="52.2351314" lon="5.6054258"/>
<trkpt lat="52.2342776" lon="5.6045817"/>
<trkpt lat="52.2344454" lon="5.6064510"/>
<trkpt lat="52.2338663" lon="5.6079248"/>
<trkpt lat="52.2336189" lon="5.6085544"/>
<trkpt lat="52.2335239" lon="5.6089447"/>
<trkpt lat="52.2335403" lon="5.6092937"/>
<trkpt lat="52.2330647" lon="5.6097577"/>
<trkpt lat="52.2323086" lon="5.6106848"/>
<trkpt lat="52.2319714" lon="5.6111877"/>
<trkpt lat="52.2317543" lon="5.6114157"/>
<trkpt lat="52.2310485" lon="5.6121920"/>
<trkpt lat="52.2302628" lon="5.6129916"/>
<trkpt lat="52.2299027" lon="5.6132712"/>
<trkpt lat="52.2299183" lon="5.6138202"/>
<trkpt lat="52.2299946" lon="5.6148814"/>
<trkpt lat="52.2301332" lon="5.6155916"/>
<trkpt lat="52.2303096" lon="5.6169738"/>
<trkpt lat="52.2305076" lon="5.6177109"/>
<trkpt lat="52.2305739" lon="5.6185564"/>
<trkpt lat="52.2308561" lon="5.6192330"/>
<trkpt lat="52.2304629" lon="5.6193077"/>
<trkpt lat="52.2304664" lon="5.6192498"/>
<trkpt lat="52.2308561" lon="5.6192330"/>
<trkpt lat="52.2305739" lon="5.6185564"/>
<trkpt lat="52.2305076" lon="5.6177109"/>
<trkpt lat="52.2303096" lon="5.6169738"/>
<trkpt lat="52.2301332" lon="5.6155916"/>
<trkpt lat="52.2299946" lon="5.6148814"/>
<trkpt lat="52.2299183" lon="5.6138202"/>
<trkpt lat="52.2299027" lon="5.6132712"/>
<trkpt lat="52.2298075" lon="5.6133421"/>
<trkpt lat="52.2297581" lon="5.6133492"/>
<trkpt lat="52.2289078" lon="5.6142638"/>
<trkpt lat="52.2286554" lon="5.6145353"/>
<trkpt lat="52.2285212" lon="5.6146560"/>
<trkpt lat="52.2282526" lon="5.6147358"/>
<trkpt lat="52.2281370" lon="5.6147511"/>
<trkpt lat="52.2276415" lon="5.6147071"/>
<trkpt lat="52.2272793" lon="5.6146749"/>
<trkpt lat="52.2266534" lon="5.6146192"/>
<trkpt lat="52.2255945" lon="5.6145429"/>
<trkpt lat="52.2247959" lon="5.6145003"/>
<trkpt lat="52.2247046" lon="5.6145250"/>
<trkpt lat="52.2245500" lon="5.6144485"/>
<trkpt lat="52.2245786" lon="5.6140513"/>
<trkpt lat="52.2245964" lon="5.6138341"/>
<trkpt lat="52.2246389" lon="5.6132692"/>
<trkpt lat="52.2246574" lon="5.6127731"/>
<trkpt lat="52.2246611" lon="5.6124348"/>
<trkpt lat="52.2246527" lon="5.6121358"/>
<trkpt lat="52.2246520" lon="5.6119647"/>
<trkpt lat="52.2246481" lon="5.6118769"/>
<trkpt lat="52.2245288" lon="5.6118549"/>
<trkpt lat="52.2243249" lon="5.6117567"/>
<trkpt lat="52.2240483" lon="5.6115940"/>
<trkpt lat="52.2239755" lon="5.6115820"/>
<trkpt lat="52.2236310" lon="5.6114827"/>
<trkpt lat="52.2236025" lon="5.6114272"/>
<trkpt lat="52.2236043" lon="5.6113657"/>
<trkpt lat="52.2236150" lon="5.6109988"/>
<trkpt lat="52.2236097" lon="5.6109604"/>
<trkpt lat="52.2236049" lon="5.6109015"/>
<trkpt lat="52.2236026" lon="5.6108234"/>
<trkpt lat="52.2235974" lon="5.6107311"/>
<trkpt lat="52.2235574" lon="5.6106863"/>
<trkpt lat="52.2235222" lon="5.6106798"/>
<trkpt lat="52.2234758" lon="5.6106827"/>
<trkpt lat="52.2234137" lon="5.6106872"/>
<trkpt lat="52.2233692" lon="5.6106862"/>
<trkpt lat="52.2233316" lon="5.6106669"/>
<trkpt lat="52.2232852" lon="5.6106229"/>
<trkpt lat="52.2232223" lon="5.6105477"/>
<trkpt lat="52.2231571" lon="5.6104114"/>
<trkpt lat="52.2230746" lon="5.6102152"/>
<trkpt lat="52.2230359" lon="5.6100317"/>
<trkpt lat="52.2229408" lon="5.6089062"/>
<trkpt lat="52.2228739" lon="5.6083045"/>
<trkpt lat="52.2228618" lon="5.6072035"/>
<trkpt lat="52.2228602" lon="5.6070559"/>
<trkpt lat="52.2229940" lon="5.6056528"/>
<trkpt lat="52.2226378" lon="5.6054993"/>
<trkpt lat="52.2224904" lon="5.6051146"/>
<trkpt lat="52.2223204" lon="5.6051048"/>
<trkpt lat="52.2223293" lon="5.6046713"/>
<trkpt lat="52.2222573" lon="5.6046625"/>
<trkpt lat="52.2222570" lon="5.6046198"/>
<trkpt lat="52.2217932" lon="5.6047266"/>
<trkpt lat="52.2218670" lon="5.6035455"/>
<trkpt lat="52.2219033" lon="5.6031856"/>
<trkpt lat="52.2221479" lon="5.6021064"/>
<trkpt lat="52.2221124" lon="5.6020017"/>
<trkpt lat="52.2222730" lon="5.5999697"/>
<trkpt lat="52.2223088" lon="5.5998885"/>
<trkpt lat="52.2226297" lon="5.5999597"/>
<trkpt lat="52.2227084" lon="5.5998672"/>
<trkpt lat="52.2228674" lon="5.5987295"/>
<trkpt lat="52.2229110" lon="5.5982767"/>
<trkpt lat="52.2229038" lon="5.5980139"/>
<trkpt lat="52.2227922" lon="5.5968822"/>
<trkpt lat="52.2228951" lon="5.5951867"/>
<trkpt lat="52.2229473" lon="5.5944411"/>
<trkpt lat="52.2226398" lon="5.5942910"/>
<trkpt lat="52.2222904" lon="5.5942081"/>
<trkpt lat="52.2218483" lon="5.5940782"/>
<trkpt lat="52.2213066" lon="5.5937969"/>
<trkpt lat="52.2210075" lon="5.5935168"/>
<trkpt lat="52.2207226" lon="5.5932367"/>
<trkpt lat="52.2200310" lon="5.5929663"/>
<trkpt lat="52.2192254" lon="5.5926954"/>
<trkpt lat="52.2183092" lon="5.5924455"/>
<trkpt lat="52.2171520" lon="5.5920324"/>
<trkpt lat="52.2171450" lon="5.5917942"/>
<trkpt lat="52.2170907" lon="5.5916164"/>
<trkpt lat="52.2169898" lon="5.5911880"/>
<trkpt lat="52.2169134" lon="5.5909414"/>
<trkpt lat="52.2167433" lon="5.5903755"/>
<trkpt lat="52.2170991" lon="5.5887365"/>
<trkpt lat="52.2173101" lon="5.5880610"/>
<trkpt lat="52.2173278" lon="5.5878431"/>
<trkpt lat="52.2174436" lon="5.5868384"/>
<trkpt lat="52.2175371" lon="5.5857852"/>
<trkpt lat="52.2175872" lon="5.5854625"/>
<trkpt lat="52.2179118" lon="5.5840995"/>
<trkpt lat="52.2179865" lon="5.5839464"/>
<trkpt lat="52.2183294" lon="5.5825744"/>
<trkpt lat="52.2190072" lon="5.5829175"/>
<trkpt lat="52.2195251" lon="5.5831216"/>
<trkpt lat="52.2199603" lon="5.5823565"/>
<trkpt lat="52.2200427" lon="5.5819854"/>
<trkpt lat="52.2203395" lon="5.5809209"/>
<trkpt lat="52.2204216" lon="5.5807477"/>
<trkpt lat="52.2207695" lon="5.5802688"/>
<trkpt lat="52.2209304" lon="5.5800187"/>
<trkpt lat="52.2193741" lon="5.5784300"/>
<trkpt lat="52.2196577" lon="5.5778377"/>
<trkpt lat="52.2199138" lon="5.5774392"/>
<trkpt lat="52.2202007" lon="5.5768677"/>
<trkpt lat="52.2203797" lon="5.5759959"/>
<trkpt lat="52.2205973" lon="5.5748624"/>
<trkpt lat="52.2210218" lon="5.5729465"/>
<trkpt lat="52.2213963" lon="5.5712929"/>
<trkpt lat="52.2218979" lon="5.5692481"/>
<trkpt lat="52.2218965" lon="5.5691850"/>
<trkpt lat="52.2218765" lon="5.5686545"/>
<trkpt lat="52.2218123" lon="5.5684807"/>
<trkpt lat="52.2214213" lon="5.5679825"/>
<trkpt lat="52.2220357" lon="5.5667012"/>
<trkpt lat="52.2221576" lon="5.5663787"/>
<trkpt lat="52.2221926" lon="5.5662012"/>
<trkpt lat="52.2220148" lon="5.5657362"/>
<trkpt lat="52.2221565" lon="5.5654663"/>
<trkpt lat="52.2227465" lon="5.5639385"/>
<trkpt lat="52.2228325" lon="5.5635201"/>
<trkpt lat="52.2228492" lon="5.5632122"/>
<trkpt lat="52.2229611" lon="5.5630350"/>
<trkpt lat="52.2232927" lon="5.5617686"/>
<trkpt lat="52.2238484" lon="5.5598732"/>
<trkpt lat="52.2238812" lon="5.5595301"/>
<trkpt lat="52.2241393" lon="5.5593535"/>
<trkpt lat="52.2243029" lon="5.5593662"/>
<trkpt lat="52.2243820" lon="5.5595280"/>
<trkpt lat="52.2246621" lon="5.5595614"/>
<trkpt lat="52.2247613" lon="5.5595901"/>
<trkpt lat="52.2248330" lon="5.5597155"/>
<trkpt lat="52.2249050" lon="5.5596714"/>
<trkpt lat="52.2257904" lon="5.5594931"/>
<trkpt lat="52.2269904" lon="5.5595341"/>
<trkpt lat="52.2294003" lon="5.5596201"/>
<trkpt lat="52.2296431" lon="5.5603637"/>
<trkpt lat="52.2318387" lon="5.5566077"/>
<trkpt lat="52.2335169" lon="5.5539987"/>
<trkpt lat="52.2341825" lon="5.5531935"/>
<trkpt lat="52.2348197" lon="5.5523199"/>
<trkpt lat="52.2352056" lon="5.5518333"/>
<trkpt lat="52.2357446" lon="5.5514143"/>
<trkpt lat="52.2359011" lon="5.5511686"/>
<trkpt lat="52.2366669" lon="5.5496771"/>
<trkpt lat="52.2369426" lon="5.5493106"/>
<trkpt lat="52.2373502" lon="5.5486215"/>
<trkpt lat="52.2377004" lon="5.5481543"/>
<trkpt lat="52.2382144" lon="5.5475827"/>
<trkpt lat="52.2385204" lon="5.5470399"/>
<trkpt lat="52.2386792" lon="5.5469013"/>
</trkseg></trk>
<trk><name>Huinerpad - Route verkorter</name><type>shorteningRoute</type><trkseg>
<trkpt lat="52.2209375" lon="5.5800187"/>
<trkpt lat="52.2220202" lon="5.5810689"/>
<trkpt lat="52.2226400" lon="5.5816059"/>
<trkpt lat="52.2230671" lon="5.5821538"/>
<trkpt lat="52.2234514" lon="5.5827711"/>
<trkpt lat="52.2236933" lon="5.5831672"/>
<trkpt lat="52.2242846" lon="5.5836577"/>
<trkpt lat="52.2252892" lon="5.5844521"/>
<trkpt lat="52.2260235" lon="5.5847458"/>
<trkpt lat="52.2267149" lon="5.5851090"/>
<trkpt lat="52.2276414" lon="5.5856707"/>
<trkpt lat="52.2282040" lon="5.5862425"/>
<trkpt lat="52.2291009" lon="5.5874316"/>
<trkpt lat="52.2293788" lon="5.5876071"/>
<trkpt lat="52.2309111" lon="5.5885319"/>
<trkpt lat="52.2315667" lon="5.5889299"/>
<trkpt lat="52.2323228" lon="5.5890379"/>
<trkpt lat="52.2324870" lon="5.5889805"/>
<trkpt lat="52.2332550" lon="5.5882619"/>
<trkpt lat="52.2345170" lon="5.5873380"/>
<trkpt lat="52.2358886" lon="5.5861649"/>
<trkpt lat="52.2392049" lon="5.5854611"/>
<trkpt lat="52.2390824" lon="5.5875522"/>
<trkpt lat="52.2406992" lon="5.5877145"/>
<trkpt lat="52.2407931" lon="5.5884509"/>
<trkpt lat="52.2412923" lon="5.5885306"/>
<trkpt lat="52.2419102" lon="5.5887659"/>
</trkseg></trk>
<trk><name>Huinerpad - overstaproute</name><type>connectionRoute</type><trkseg>
<trkpt lat="52.2248357" lon="5.5597196"/>
<trkpt lat="52.2246840" lon="5.5593627"/>
<trkpt lat="52.2243703" lon="5.5591911"/>
<trkpt lat="52.2238852" lon="5.5592202"/>
<trkpt lat="52.2234189" lon="5.5593578"/>
<trkpt lat="52.2232000" lon="5.5594035"/>
<trkpt lat="52.2225634" lon="5.5589673"/>
<trkpt lat="52.2219077" lon="5.5585001"/>
<trkpt lat="52.2215372" lon="5.5581425"/>
<trkpt lat="52.2211955" lon="5.5576301"/>
<trkpt lat="52.2205694" lon="5.5565126"/>
<trkpt lat="52.2202470" lon="5.5557679"/>
<trkpt lat="52.2202381" lon="5.5553188"/>
<trkpt lat="52.2201343" lon="5.5547453"/>
<trkpt lat="52.2198122" lon="5.5538613"/>
<trkpt lat="52.2191869" lon="5.5520470"/>
<trkpt lat="52.2191492" lon="5.5517990"/>
<trkpt lat="52.2191120" lon="5.5511639"/>
</trkseg></trk>
<trk><name>Huinerpad - overstaproute</name><type>connectionRoute</type><trkseg>
<trkpt lat="52.2428352" lon="5.6020891"/>
<trkpt lat="52.2431764" lon="5.6022099"/>
<trkpt lat="52.2449136" lon="5.6012603"/>
<trkpt lat="52.2457170" lon="5.6012112"/>
<trkpt lat="52.2464501" lon="5.6013526"/>
<trkpt lat="52.2470979" lon="5.6019072"/>
<trkpt lat="52.2475769" lon="5.6022312"/>
<trkpt lat="52.2479235" lon="5.6023575"/>
<trkpt lat="52.2485793" lon="5.6024309"/>
<trkpt lat="52.2485788" lon="5.6026840"/>
<trkpt lat="52.2490619" lon="5.6027848"/>
<trkpt lat="52.2493904" lon="5.6024911"/>
<trkpt lat="52.2495727" lon="5.6019014"/>
<trkpt lat="52.2497969" lon="5.6020150"/>
<trkpt lat="52.2500302" lon="5.6018615"/>
<trkpt lat="52.2502283" lon="5.6021014"/>
<trkpt lat="52.2503837" lon="5.6020460"/>
<trkpt lat="52.2504818" lon="5.6016420"/>
<trkpt lat="52.2506563" lon="5.6017852"/>
<trkpt lat="52.2514161" lon="5.6024088"/>
<trkpt lat="52.2515292" lon="5.6024009"/>
<trkpt lat="52.2520271" lon="5.6028138"/>
<trkpt lat="52.2524046" lon="5.6031430"/>
<trkpt lat="52.2525098" lon="5.6028150"/>
<trkpt lat="52.2526888" lon="5.6029497"/>
<trkpt lat="52.2530870" lon="5.6016495"/>
<trkpt lat="52.2533964" lon="5.6017901"/>
<trkpt lat="52.2536548" lon="5.6010374"/>
<trkpt lat="52.2539816" lon="5.6013536"/>
<trkpt lat="52.2544159" lon="5.6018439"/>
<trkpt lat="52.2557685" lon="5.6034183"/>
<trkpt lat="52.2563484" lon="5.6039740"/>
<trkpt lat="52.2573289" lon="5.6047747"/>
<trkpt lat="52.2578522" lon="5.6053134"/>
<trkpt lat="52.2578107" lon="5.6055310"/>
<trkpt lat="52.2579232" lon="5.6058331"/>
<trkpt lat="52.2582410" lon="5.6063709"/>
<trkpt lat="52.2584768" lon="5.6067490"/>
<trkpt lat="52.2588252" lon="5.6073288"/>
<trkpt lat="52.2587788" lon="5.6074375"/>
<trkpt lat="52.2588145" lon="5.6075717"/>
<trkpt lat="52.2605569" lon="5.6077563"/>
<trkpt lat="52.2605424" lon="5.6072954"/>
<trkpt lat="52.2610977" lon="5.6072992"/>
<trkpt lat="52.2610983" lon="5.6069827"/>
<trkpt lat="52.2611061" lon="5.6067880"/>
</trkseg></trk>
<trk><name>Huinerpad - aanlooproute</name><type>approachRoute</type><trkseg>
<trkpt lat="52.2459988" lon="5.6094539"/>
<trkpt lat="52.2460420" lon="5.6092201"/>
<trkpt lat="52.2460271" lon="5.6089128"/>
<trkpt lat="52.2436763" lon="5.6091601"/>
<trkpt lat="52.2406889" lon="5.6094824"/>
<trkpt lat="52.2396041" lon="5.6095593"/>
<trkpt lat="52.2387881" lon="5.6096885"/>
<trkpt lat="52.2386889" lon="5.6097122"/>
<trkpt lat="52.2386781" lon="5.6094001"/>
<trkpt lat="52.2385600" lon="5.6093032"/>
<trkpt lat="52.2384423" lon="5.6090135"/>
<trkpt lat="52.2381709" lon="5.6069633"/>
</trkseg></trk>
<trk><name>Huinerpad - Geimporteerde shapefile</name><type>detourRoute</type><trkseg>
<trkpt lat="52.2381815" lon="5.5476520"/>
<trkpt lat="52.2383958" lon="5.5479533"/>
<trkpt lat="52.2387413" lon="5.5482125"/>
<trkpt lat="52.2387452" lon="5.5483822"/>
<trkpt lat="52.2388658" lon="5.5485931"/>
<trkpt lat="52.2384854" lon="5.5494401"/>
<trkpt lat="52.2386310" lon="5.5496307"/>
<trkpt lat="52.2383699" lon="5.5500704"/>
<trkpt lat="52.2381212" lon="5.5505647"/>
<trkpt lat="52.2377626" lon="5.5514322"/>
<trkpt lat="52.2389294" lon="5.5523749"/>
<trkpt lat="52.2390606" lon="5.5520278"/>
<trkpt lat="52.2391378" lon="5.5521063"/>
<trkpt lat="52.2388996" lon="5.5527266"/>
<trkpt lat="52.2393179" lon="5.5529975"/>
<trkpt lat="52.2400329" lon="5.5528177"/>
<trkpt lat="52.2399891" lon="5.5518604"/>
<trkpt lat="52.2400968" lon="5.5517246"/>
<trkpt lat="52.2402710" lon="5.5516863"/>
<trkpt lat="52.2402825" lon="5.5519839"/>
<trkpt lat="52.2402418" lon="5.5530236"/>
<trkpt lat="52.2402714" lon="5.5538411"/>
<trkpt lat="52.2402718" lon="5.5547391"/>
<trkpt lat="52.2406047" lon="5.5547070"/>
<trkpt lat="52.2407033" lon="5.5550049"/>
<trkpt lat="52.2409015" lon="5.5548991"/>
</trkseg></trk>
</gpx>