<?xml version="1.0" encoding="UTF-8"?>
<gpx version="1.1" creator="klompenpaden.nl via Jimbo API" xmlns="http://www.topografix.com/GPX/1/1">
<metadata><name>Husloapad</name><desc>Ontdek het fraaie buitengebied van Loo. Wandelen door het rivierenlandschap van de Rijn met fraaie vergezichten, over dijken, langs waaien, door uiterwaarden en weilanden. Klompen aan, rugzak op en gaan!</desc><link href="https://www.klompenpaden.nl/klompenpaden/Husloapad/35582929-6281-479a-a287-87857a3f1a2f"><text>klompenpaden.nl</text></link></metadata>
<wpt lat="51.91802786191891" lon="6.002140045166016"><name>Start Groessen</name></wpt>
<trk><name>Husloapad - hoofdroute</name><type>mainRoute</type><trkseg>
<trkpt lat="51.9177989" lon="5.9966909"/>
<trkpt lat="51.9177934" lon="5.9966193"/>
<trkpt lat="51.9179149" lon="5.9960929"/>
<trkpt lat="51.9179923" lon="5.9958938"/>
<trkpt lat="51.9180977" lon="5.9956707"/>
<trkpt lat="51.9193255" lon="5.9936412"/>
<trkpt lat="51.9198624" lon="5.9928724"/>
<trkpt lat="51.9203915" lon="5.9924547"/>
<trkpt lat="51.9208015" lon="5.9922930"/>
<trkpt lat="51.9221146" lon="5.9921044"/>
<trkpt lat="51.9229400" lon="5.9917001"/>
<trkpt lat="51.9230592" lon="5.9917046"/>
<trkpt lat="51.9231007" lon="5.9917181"/>
<trkpt lat="51.9231783" lon="5.9916103"/>
<trkpt lat="51.9231949" lon="5.9914756"/>
<trkpt lat="51.9231921" lon="5.9912869"/>
<trkpt lat="51.9231787" lon="5.9911847"/>
<trkpt lat="51.9231506" lon="5.9910803"/>
<trkpt lat="51.9231450" lon="5.9908782"/>
<trkpt lat="51.9231789" lon="5.9908039"/>
<trkpt lat="51.9232254" lon="5.9909199"/>
<trkpt lat="51.9233530" lon="5.9905150"/>
<trkpt lat="51.9239383" lon="5.9900399"/>
<trkpt lat="51.9244032" lon="5.9895059"/>
<trkpt lat="51.9247130" lon="5.9887896"/>
<trkpt lat="51.9250050" lon="5.9884541"/>
<trkpt lat="51.9253590" lon="5.9878501"/>
<trkpt lat="51.9255820" lon="5.9872941"/>
<trkpt lat="51.9258170" lon="5.9872351"/>
<trkpt lat="51.9260270" lon="5.9874581"/>
<trkpt lat="51.9265860" lon="5.9871061"/>
<trkpt lat="51.9274970" lon="5.9863291"/>
<trkpt lat="51.9279780" lon="5.9859851"/>
<trkpt lat="51.9283090" lon="5.9855081"/>
<trkpt lat="51.9284370" lon="5.9851331"/>
<trkpt lat="51.9285102" lon="5.9851602"/>
<trkpt lat="51.9286342" lon="5.9846310"/>
<trkpt lat="51.9286873" lon="5.9839970"/>
<trkpt lat="51.9287020" lon="5.9834501"/>
<trkpt lat="51.9281900" lon="5.9834751"/>
<trkpt lat="51.9279030" lon="5.9831711"/>
<trkpt lat="51.9274910" lon="5.9830101"/>
<trkpt lat="51.9271890" lon="5.9827741"/>
<trkpt lat="51.9273240" lon="5.9816631"/>
<trkpt lat="51.9279020" lon="5.9798301"/>
<trkpt lat="51.9282970" lon="5.9785511"/>
<trkpt lat="51.9287880" lon="5.9771541"/>
<trkpt lat="51.9292000" lon="5.9759641"/>
<trkpt lat="51.9298900" lon="5.9760271"/>
<trkpt lat="51.9301990" lon="5.9762571"/>
<trkpt lat="51.9304700" lon="5.9756302"/>
<trkpt lat="51.9315032" lon="5.9715160"/>
<trkpt lat="51.9315930" lon="5.9709714"/>
<trkpt lat="51.9316759" lon="5.9709580"/>
<trkpt lat="51.9319695" lon="5.9705448"/>
<trkpt lat="51.9321357" lon="5.9702933"/>
<trkpt lat="51.9325677" lon="5.9700148"/>
<trkpt lat="51.9329720" lon="5.9700058"/>
<trkpt lat="51.9335204" lon="5.9701406"/>
<trkpt lat="51.9338416" lon="5.9700058"/>
<trkpt lat="51.9343623" lon="5.9693860"/>
<trkpt lat="51.9349715" lon="5.9686943"/>
<trkpt lat="51.9351211" lon="5.9685955"/>
<trkpt lat="51.9359740" lon="5.9682721"/>
<trkpt lat="51.9361562" lon="5.9685486"/>
<trkpt lat="51.9370681" lon="5.9688259"/>
<trkpt lat="51.9376382" lon="5.9689487"/>
<trkpt lat="51.9385721" lon="5.9690993"/>
<trkpt lat="51.9396852" lon="5.9690791"/>
<trkpt lat="51.9413914" lon="5.9688704"/>
<trkpt lat="51.9416189" lon="5.9690349"/>
<trkpt lat="51.9412353" lon="5.9692782"/>
<trkpt lat="51.9409752" lon="5.9694155"/>
<trkpt lat="51.9409284" lon="5.9694477"/>
<trkpt lat="51.9409091" lon="5.9694936"/>
<trkpt lat="51.9409133" lon="5.9696110"/>
<trkpt lat="51.9409432" lon="5.9700597"/>
<trkpt lat="51.9407950" lon="5.9706773"/>
<trkpt lat="51.9407960" lon="5.9707196"/>
<trkpt lat="51.9408207" lon="5.9707681"/>
<trkpt lat="51.9410218" lon="5.9709861"/>
<trkpt lat="51.9410996" lon="5.9711257"/>
<trkpt lat="51.9411406" lon="5.9712513"/>
<trkpt lat="51.9411845" lon="5.9715077"/>
<trkpt lat="51.9411837" lon="5.9716751"/>
<trkpt lat="51.9410867" lon="5.9722780"/>
<trkpt lat="51.9410957" lon="5.9723800"/>
<trkpt lat="51.9411394" lon="5.9724499"/>
<trkpt lat="51.9413976" lon="5.9726476"/>
<trkpt lat="51.9414377" lon="5.9727250"/>
<trkpt lat="51.9416144" lon="5.9732795"/>
<trkpt lat="51.9416257" lon="5.9734067"/>
<trkpt lat="51.9416308" lon="5.9738069"/>
<trkpt lat="51.9416629" lon="5.9740478"/>
<trkpt lat="51.9416496" lon="5.9740958"/>
<trkpt lat="51.9416077" lon="5.9741491"/>
<trkpt lat="51.9415264" lon="5.9742327"/>
<trkpt lat="51.9413482" lon="5.9744400"/>
<trkpt lat="51.9413407" lon="5.9745265"/>
<trkpt lat="51.9413775" lon="5.9752466"/>
<trkpt lat="51.9413932" lon="5.9756720"/>
<trkpt lat="51.9415885" lon="5.9765557"/>
<trkpt lat="51.9418498" lon="5.9775712"/>
<trkpt lat="51.9419209" lon="5.9776125"/>
<trkpt lat="51.9420209" lon="5.9775965"/>
<trkpt lat="51.9420627" lon="5.9775701"/>
<trkpt lat="51.9421196" lon="5.9775920"/>
<trkpt lat="51.9421609" lon="5.9776618"/>
<trkpt lat="51.9421983" lon="5.9777970"/>
<trkpt lat="51.9422516" lon="5.9780613"/>
<trkpt lat="51.9424388" lon="5.9789199"/>
<trkpt lat="51.9427428" lon="5.9797012"/>
<trkpt lat="51.9429044" lon="5.9801921"/>
<trkpt lat="51.9429282" lon="5.9804214"/>
<trkpt lat="51.9429491" lon="5.9812316"/>
<trkpt lat="51.9430110" lon="5.9828602"/>
<trkpt lat="51.9430226" lon="5.9833837"/>
<trkpt lat="51.9429495" lon="5.9844313"/>
<trkpt lat="51.9430348" lon="5.9844959"/>
<trkpt lat="51.9432602" lon="5.9845990"/>
<trkpt lat="51.9439496" lon="5.9849982"/>
<trkpt lat="51.9441615" lon="5.9852258"/>
<trkpt lat="51.9444846" lon="5.9856641"/>
<trkpt lat="51.9449621" lon="5.9860461"/>
<trkpt lat="51.9453189" lon="5.9862140"/>
<trkpt lat="51.9456474" lon="5.9863354"/>
<trkpt lat="51.9460286" lon="5.9865899"/>
<trkpt lat="51.9464457" lon="5.9868663"/>
<trkpt lat="51.9464262" lon="5.9869677"/>
<trkpt lat="51.9467781" lon="5.9873418"/>
<trkpt lat="51.9468744" lon="5.9874878"/>
<trkpt lat="51.9470531" lon="5.9882722"/>
<trkpt lat="51.9467209" lon="5.9884987"/>
<trkpt lat="51.9464646" lon="5.9887508"/>
<trkpt lat="51.9462167" lon="5.9892339"/>
<trkpt lat="51.9458871" lon="5.9900761"/>
<trkpt lat="51.9455460" lon="5.9909212"/>
<trkpt lat="51.9454184" lon="5.9913135"/>
<trkpt lat="51.9453785" lon="5.9916701"/>
<trkpt lat="51.9454281" lon="5.9920187"/>
<trkpt lat="51.9455437" lon="5.9924666"/>
<trkpt lat="51.9457231" lon="5.9927369"/>
<trkpt lat="51.9461520" lon="5.9929459"/>
<trkpt lat="51.9465068" lon="5.9931292"/>
<trkpt lat="51.9466654" lon="5.9933715"/>
<trkpt lat="51.9467800" lon="5.9936471"/>
<trkpt lat="51.9468312" lon="5.9940572"/>
<trkpt lat="51.9471111" lon="5.9958559"/>
<trkpt lat="51.9472832" lon="5.9964247"/>
<trkpt lat="51.9474377" lon="5.9967131"/>
<trkpt lat="51.9476793" lon="5.9967103"/>
<trkpt lat="51.9478726" lon="5.9968576"/>
<trkpt lat="51.9483216" lon="5.9968514"/>
<trkpt lat="51.9485477" lon="5.9969222"/>
<trkpt lat="51.9489679" lon="5.9962259"/>
<trkpt lat="51.9492886" lon="5.9956545"/>
<trkpt lat="51.9495303" lon="5.9952822"/>
<trkpt lat="51.9496495" lon="5.9954131"/>
<trkpt lat="51.9497687" lon="5.9955317"/>
<trkpt lat="51.9499352" lon="5.9960820"/>
<trkpt lat="51.9500392" lon="5.9962035"/>
<trkpt lat="51.9501704" lon="5.9962268"/>
<trkpt lat="51.9502941" lon="5.9962131"/>
<trkpt lat="51.9504471" lon="5.9960643"/>
<trkpt lat="51.9506729" lon="5.9954485"/>
<trkpt lat="51.9511133" lon="5.9941551"/>
<trkpt lat="51.9511447" lon="5.9939647"/>
<trkpt lat="51.9511305" lon="5.9937767"/>
<trkpt lat="51.9509809" lon="5.9932758"/>
<trkpt lat="51.9509533" lon="5.9930969"/>
<trkpt lat="51.9509654" lon="5.9929616"/>
<trkpt lat="51.9510617" lon="5.9927289"/>
<trkpt lat="51.9512660" lon="5.9922143"/>
<trkpt lat="51.9516039" lon="5.9916277"/>
<trkpt lat="51.9521058" lon="5.9920686"/>
<trkpt lat="51.9520995" lon="5.9921917"/>
<trkpt lat="51.9521370" lon="5.9922969"/>
<trkpt lat="51.9523337" lon="5.9925151"/>
<trkpt lat="51.9524680" lon="5.9926616"/>
<trkpt lat="51.9523039" lon="5.9931367"/>
<trkpt lat="51.9523003" lon="5.9934661"/>
<trkpt lat="51.9528324" lon="5.9939505"/>
<trkpt lat="51.9531537" lon="5.9939918"/>
<trkpt lat="51.9534175" lon="5.9941278"/>
<trkpt lat="51.9542485" lon="5.9949396"/>
<trkpt lat="51.9545155" lon="5.9951896"/>
<trkpt lat="51.9544084" lon="5.9956623"/>
<trkpt lat="51.9543791" lon="5.9961639"/>
<trkpt lat="51.9537724" lon="5.9979662"/>
<trkpt lat="51.9528619" lon="6.0007219"/>
<trkpt lat="51.9528116" lon="6.0008844"/>
<trkpt lat="51.9524676" lon="6.0019305"/>
<trkpt lat="51.9524102" lon="6.0018764"/>
<trkpt lat="51.9523293" lon="6.0015594"/>
<trkpt lat="51.9521732" lon="6.0016486"/>
<trkpt lat="51.9520764" lon="6.0016604"/>
<trkpt lat="51.9519994" lon="6.0016434"/>
<trkpt lat="51.9518598" lon="6.0019735"/>
<trkpt lat="51.9523912" lon="6.0026554"/>
<trkpt lat="51.9523182" lon="6.0028138"/>
<trkpt lat="51.9522884" lon="6.0030604"/>
<trkpt lat="51.9521885" lon="6.0032468"/>
<trkpt lat="51.9517292" lon="6.0037609"/>
<trkpt lat="51.9515428" lon="6.0041186"/>
<trkpt lat="51.9514226" lon="6.0045449"/>
<trkpt lat="51.9513510" lon="6.0047779"/>
<trkpt lat="51.9512132" lon="6.0052902"/>
<trkpt lat="51.9510848" lon="6.0054763"/>
<trkpt lat="51.9509585" lon="6.0056008"/>
<trkpt lat="51.9505474" lon="6.0067159"/>
<trkpt lat="51.9505196" lon="6.0069433"/>
<trkpt lat="51.9505529" lon="6.0078367"/>
<trkpt lat="51.9505867" lon="6.0079295"/>
<trkpt lat="51.9504921" lon="6.0081930"/>
<trkpt lat="51.9504295" lon="6.0081583"/>
<trkpt lat="51.9496221" lon="6.0091884"/>
<trkpt lat="51.9494862" lon="6.0088941"/>
<trkpt lat="51.9485527" lon="6.0101049"/>
<trkpt lat="51.9484878" lon="6.0101230"/>
<trkpt lat="51.9484345" lon="6.0101700"/>
<trkpt lat="51.9483867" lon="6.0102933"/>
<trkpt lat="51.9483149" lon="6.0104781"/>
<trkpt lat="51.9481491" lon="6.0105313"/>
<trkpt lat="51.9480009" lon="6.0104892"/>
<trkpt lat="51.9478513" lon="6.0103578"/>
<trkpt lat="51.9477331" lon="6.0103931"/>
<trkpt lat="51.9475977" lon="6.0104651"/>
<trkpt lat="51.9474945" lon="6.0108978"/>
<trkpt lat="51.9474576" lon="6.0110450"/>
<trkpt lat="51.9474344" lon="6.0114727"/>
<trkpt lat="51.9473863" lon="6.0115705"/>
<trkpt lat="51.9473934" lon="6.0120324"/>
<trkpt lat="51.9473461" lon="6.0123304"/>
<trkpt lat="51.9472893" lon="6.0126437"/>
<trkpt lat="51.9469503" lon="6.0137750"/>
<trkpt lat="51.9467876" lon="6.0143115"/>
<trkpt lat="51.9466436" lon="6.0149191"/>
<trkpt lat="51.9464234" lon="6.0158889"/>
<trkpt lat="51.9462773" lon="6.0165241"/>
<trkpt lat="51.9462197" lon="6.0166341"/>
<trkpt lat="51.9460709" lon="6.0170692"/>
<trkpt lat="51.9460057" lon="6.0171576"/>
<trkpt lat="51.9458891" lon="6.0172637"/>
<trkpt lat="51.9457263" lon="6.0174615"/>
<trkpt lat="51.9456766" lon="6.0175070"/>
<trkpt lat="51.9454796" lon="6.0173349"/>
<trkpt lat="51.9452700" lon="6.0166916"/>
<trkpt lat="51.9449736" lon="6.0162595"/>
<trkpt lat="51.9445734" lon="6.0153242"/>
<trkpt lat="51.9445220" lon="6.0153142"/>
<trkpt lat="51.9442931" lon="6.0147261"/>
<trkpt lat="51.9442140" lon="6.0145772"/>
<trkpt lat="51.9439605" lon="6.0143028"/>
<trkpt lat="51.9435027" lon="6.0138131"/>
<trkpt lat="51.9432875" lon="6.0138562"/>
<trkpt lat="51.9432840" lon="6.0137946"/>
<trkpt lat="51.9432024" lon="6.0137504"/>
<trkpt lat="51.9423459" lon="6.0138246"/>
<trkpt lat="51.9413848" lon="6.0138697"/>
<trkpt lat="51.9406979" lon="6.0138817"/>
<trkpt lat="51.9405533" lon="6.0138920"/>
<trkpt lat="51.9404726" lon="6.0140478"/>
<trkpt lat="51.9404099" lon="6.0140162"/>
<trkpt lat="51.9401395" lon="6.0137076"/>
<trkpt lat="51.9399537" lon="6.0135881"/>
<trkpt lat="51.9397618" lon="6.0135423"/>
<trkpt lat="51.9394991" lon="6.0135725"/>
<trkpt lat="51.9391200" lon="6.0136565"/>
<trkpt lat="51.9389947" lon="6.0136055"/>
<trkpt lat="51.9387375" lon="6.0136819"/>
<trkpt lat="51.9385554" lon="6.0135655"/>
<trkpt lat="51.9384248" lon="6.0134498"/>
<trkpt lat="51.9382803" lon="6.0134201"/>
<trkpt lat="51.9381238" lon="6.0135256"/>
<trkpt lat="51.9379878" lon="6.0136961"/>
<trkpt lat="51.9378493" lon="6.0139773"/>
<trkpt lat="51.9377525" lon="6.0142961"/>
<trkpt lat="51.9376932" lon="6.0143568"/>
<trkpt lat="51.9376247" lon="6.0143497"/>
<trkpt lat="51.9372258" lon="6.0142364"/>
<trkpt lat="51.9369709" lon="6.0142267"/>
<trkpt lat="51.9368108" lon="6.0142830"/>
<trkpt lat="51.9365558" lon="6.0142886"/>
<trkpt lat="51.9357694" lon="6.0144038"/>
<trkpt lat="51.9354839" lon="6.0144337"/>
<trkpt lat="51.9352779" lon="6.0145293"/>
<trkpt lat="51.9350964" lon="6.0146653"/>
<trkpt lat="51.9349031" lon="6.0148780"/>
<trkpt lat="51.9347477" lon="6.0151283"/>
<trkpt lat="51.9346204" lon="6.0154404"/>
<trkpt lat="51.9344791" lon="6.0159001"/>
<trkpt lat="51.9342138" lon="6.0157025"/>
<trkpt lat="51.9342393" lon="6.0155551"/>
<trkpt lat="51.9343205" lon="6.0153162"/>
<trkpt lat="51.9343521" lon="6.0150920"/>
<trkpt lat="51.9344109" lon="6.0147788"/>
<trkpt lat="51.9347265" lon="6.0137552"/>
<trkpt lat="51.9348774" lon="6.0132864"/>
<trkpt lat="51.9352302" lon="6.0120602"/>
<trkpt lat="51.9352438" lon="6.0120049"/>
<trkpt lat="51.9346813" lon="6.0115201"/>
<trkpt lat="51.9337061" lon="6.0106539"/>
<trkpt lat="51.9322670" lon="6.0093659"/>
<trkpt lat="51.9326989" lon="6.0086302"/>
<trkpt lat="51.9327435" lon="6.0084769"/>
<trkpt lat="51.9326338" lon="6.0083461"/>
<trkpt lat="51.9323214" lon="6.0080556"/>
<trkpt lat="51.9313900" lon="6.0071810"/>
<trkpt lat="51.9311572" lon="6.0069562"/>
<trkpt lat="51.9303639" lon="6.0062097"/>
<trkpt lat="51.9302240" lon="6.0060446"/>
<trkpt lat="51.9299671" lon="6.0056902"/>
<trkpt lat="51.9294665" lon="6.0050186"/>
<trkpt lat="51.9292097" lon="6.0046488"/>
<trkpt lat="51.9290986" lon="6.0044319"/>
<trkpt lat="51.9290390" lon="6.0041879"/>
<trkpt lat="51.9289521" lon="6.0040698"/>
<trkpt lat="51.9286190" lon="6.0037236"/>
<trkpt lat="51.9283485" lon="6.0034306"/>
<trkpt lat="51.9282826" lon="6.0032943"/>
<trkpt lat="51.9282428" lon="6.0028999"/>
<trkpt lat="51.9281572" lon="6.0018062"/>
<trkpt lat="51.9281347" lon="6.0013935"/>
<trkpt lat="51.9281137" lon="6.0010424"/>
<trkpt lat="51.9281079" lon="6.0006884"/>
<trkpt lat="51.9281178" lon="6.0002516"/>
<trkpt lat="51.9282899" lon="5.9989952"/>
<trkpt lat="51.9283463" lon="5.9983867"/>
<trkpt lat="51.9276527" lon="5.9982326"/>
<trkpt lat="51.9269914" lon="5.9980667"/>
<trkpt lat="51.9266191" lon="5.9979662"/>
<trkpt lat="51.9255263" lon="5.9977390"/>
<trkpt lat="51.9252506" lon="5.9976952"/>
<trkpt lat="51.9245794" lon="5.9976277"/>
<trkpt lat="51.9241267" lon="5.9976092"/>
<trkpt lat="51.9232958" lon="5.9975025"/>
<trkpt lat="51.9228166" lon="5.9974499"/>
<trkpt lat="51.9224135" lon="5.9974167"/>
<trkpt lat="51.9219474" lon="5.9974011"/>
<trkpt lat="51.9216601" lon="5.9974003"/>
<trkpt lat="51.9212073" lon="5.9974064"/>
<trkpt lat="51.9207667" lon="5.9972435"/>
<trkpt lat="51.9204782" lon="5.9971135"/>
<trkpt lat="51.9203188" lon="5.9970375"/>
<trkpt lat="51.9201116" lon="5.9970039"/>
<trkpt lat="51.9199972" lon="5.9970454"/>
<trkpt lat="51.9198273" lon="5.9971692"/>
<trkpt lat="51.9195432" lon="5.9976454"/>
<trkpt lat="51.9194107" lon="5.9978805"/>
<trkpt lat="51.9192413" lon="5.9978905"/>
<trkpt lat="51.9187899" lon="5.9979920"/>
<trkpt lat="51.9183639" lon="5.9983185"/>
<trkpt lat="51.9182609" lon="5.9983633"/>
<trkpt lat="51.9181376" lon="5.9983001"/>
<trkpt lat="51.9179308" lon="5.9978235"/>
<trkpt lat="51.9178637" lon="5.9975579"/>
<trkpt lat="51.9178485" lon="5.9971885"/>
<trkpt lat="51.9178581" lon="5.9968071"/>
<trkpt lat="51.9177989" lon="5.9966909"/>
</trkseg></trk>
<trk><name>Husloapad - shorteningRoute</name><type>shorteningRoute</type><trkseg>
<trkpt lat="51.9231700" lon="5.9908000"/>
<trkpt lat="51.9232400" lon="5.9911800"/>
<trkpt lat="51.9232200" lon="5.9916300"/>
<trkpt lat="51.9230600" lon="5.9920100"/>
<trkpt lat="51.9233200" lon="5.9921100"/>
<trkpt lat="51.9237400" lon="5.9917100"/>
<trkpt lat="51.9242800" lon="5.9911100"/>
<trkpt lat="51.9249000" lon="5.9901800"/>
<trkpt lat="51.9258000" lon="5.9883000"/>
<trkpt lat="51.9269800" lon="5.9873200"/>
<trkpt lat="51.9277600" lon="5.9865000"/>
<trkpt lat="51.9281900" lon="5.9873400"/>
<trkpt lat="51.9287700" lon="5.9866700"/>
<trkpt lat="51.9289100" lon="5.9875600"/>
<trkpt lat="51.9288400" lon="5.9876400"/>
<trkpt lat="51.9289400" lon="5.9881400"/>
<trkpt lat="51.9290400" lon="5.9881100"/>
<trkpt lat="51.9294300" lon="5.9877300"/>
<trkpt lat="51.9301800" lon="5.9875200"/>
</trkseg></trk>
<trk><name>Husloapad - shorteningRoute</name><type>shorteningRoute</type><trkseg>
<trkpt lat="51.9289200" lon="5.9801800"/>
<trkpt lat="51.9290600" lon="5.9800000"/>
<trkpt lat="51.9291500" lon="5.9799400"/>
<trkpt lat="51.9298000" lon="5.9828100"/>
<trkpt lat="51.9299200" lon="5.9837700"/>
<trkpt lat="51.9301900" lon="5.9875300"/>
<trkpt lat="51.9304100" lon="5.9890700"/>
<trkpt lat="51.9305000" lon="5.9902300"/>
<trkpt lat="51.9307100" lon="5.9917500"/>
<trkpt lat="51.9311100" lon="5.9933600"/>
<trkpt lat="51.9312600" lon="5.9944500"/>
<trkpt lat="51.9314800" lon="5.9954200"/>
<trkpt lat="51.9319400" lon="5.9967700"/>
<trkpt lat="51.9324300" lon="5.9974200"/>
<trkpt lat="51.9324000" lon="5.9975000"/>
<trkpt lat="51.9321800" lon="5.9977600"/>
<trkpt lat="51.9319800" lon="5.9981000"/>
<trkpt lat="51.9319500" lon="5.9982400"/>
<trkpt lat="51.9315700" lon="5.9990300"/>
<trkpt lat="51.9315000" lon="5.9990900"/>
<trkpt lat="51.9312900" lon="5.9989100"/>
<trkpt lat="51.9312200" lon="5.9989100"/>
<trkpt lat="51.9305500" lon="5.9983700"/>
<trkpt lat="51.9304400" lon="5.9983000"/>
<trkpt lat="51.9303000" lon="5.9982900"/>
<trkpt lat="51.9301400" lon="5.9983200"/>
<trkpt lat="51.9298200" lon="5.9984500"/>
<trkpt lat="51.9289800" lon="5.9984400"/>
<trkpt lat="51.9288700" lon="5.9985100"/>
<trkpt lat="51.9285000" lon="5.9984600"/>
<trkpt lat="51.9284500" lon="5.9984100"/>
<trkpt lat="51.9283400" lon="5.9983800"/>
</trkseg></trk>
<trk><name>Husloapad - extensionRoute</name><type>extensionRoute</type><trkseg>
<trkpt lat="51.9277600" lon="5.9865000"/>
<trkpt lat="51.9281400" lon="5.9873400"/>
<trkpt lat="51.9281800" lon="5.9873700"/>
<trkpt lat="51.9287800" lon="5.9866600"/>
<trkpt lat="51.9289100" lon="5.9875700"/>
<trkpt lat="51.9288500" lon="5.9876300"/>
<trkpt lat="51.9289300" lon="5.9881600"/>
<trkpt lat="51.9290500" lon="5.9881000"/>
<trkpt lat="51.9294300" lon="5.9877400"/>
<trkpt lat="51.9301900" lon="5.9875300"/>
<trkpt lat="51.9299200" lon="5.9837500"/>
<trkpt lat="51.9298000" lon="5.9828100"/>
<trkpt lat="51.9291500" lon="5.9799400"/>
<trkpt lat="51.9289200" lon="5.9801800"/>
</trkseg></trk>
<trk><name>Husloapad - routeverlenger</name><type>extensionRoute</type><trkseg>
<trkpt lat="51.9177936" lon="5.9966466"/>
<trkpt lat="51.9167828" lon="5.9966521"/>
<trkpt lat="51.9159023" lon="5.9967748"/>
<trkpt lat="51.9177389" lon="6.0002995"/>
<trkpt lat="51.9175920" lon="6.0008640"/>
<trkpt lat="51.9174833" lon="6.0013451"/>
<trkpt lat="51.9174206" lon="6.0017205"/>
<trkpt lat="51.9173625" lon="6.0021941"/>
<trkpt lat="51.9173213" lon="6.0023997"/>
<trkpt lat="51.9172832" lon="6.0024260"/>
<trkpt lat="51.9172050" lon="6.0025392"/>
<trkpt lat="51.9170561" lon="6.0024530"/>
<trkpt lat="51.9169368" lon="6.0022011"/>
<trkpt lat="51.9168846" lon="6.0019504"/>
<trkpt lat="51.9168419" lon="6.0017929"/>
<trkpt lat="51.9167737" lon="6.0015566"/>
<trkpt lat="51.9166017" lon="6.0013840"/>
<trkpt lat="51.9163680" lon="6.0013867"/>
<trkpt lat="51.9162466" lon="6.0014138"/>
<trkpt lat="51.9158022" lon="6.0015510"/>
<trkpt lat="51.9156075" lon="6.0016561"/>
<trkpt lat="51.9154592" lon="6.0016990"/>
<trkpt lat="51.9153518" lon="6.0015878"/>
<trkpt lat="51.9152475" lon="6.0014766"/>
<trkpt lat="51.9151244" lon="6.0014301"/>
<trkpt lat="51.9149762" lon="6.0014480"/>
<trkpt lat="51.9148929" lon="6.0014618"/>
<trkpt lat="51.9147690" lon="6.0015599"/>
<trkpt lat="51.9145743" lon="6.0016320"/>
<trkpt lat="51.9144411" lon="6.0017449"/>
<trkpt lat="51.9143455" lon="6.0017386"/>
<trkpt lat="51.9141939" lon="6.0018214"/>
<trkpt lat="51.9141138" lon="6.0018279"/>
<trkpt lat="51.9140750" lon="6.0003141"/>
<trkpt lat="51.9140454" lon="5.9988355"/>
<trkpt lat="51.9140539" lon="5.9982849"/>
<trkpt lat="51.9141969" lon="5.9980512"/>
<trkpt lat="51.9145150" lon="5.9979314"/>
<trkpt lat="51.9153928" lon="5.9977136"/>
<trkpt lat="51.9154514" lon="5.9968572"/>
<trkpt lat="51.9155588" lon="5.9968329"/>
<trkpt lat="51.9155606" lon="5.9964949"/>
<trkpt lat="51.9155588" lon="5.9968329"/>
<trkpt lat="51.9154514" lon="5.9968572"/>
<trkpt lat="51.9146227" lon="5.9971012"/>
<trkpt lat="51.9138747" lon="5.9971913"/>
<trkpt lat="51.9136326" lon="5.9972917"/>
<trkpt lat="51.9135769" lon="5.9971349"/>
<trkpt lat="51.9135410" lon="5.9967971"/>
<trkpt lat="51.9134540" lon="5.9962651"/>
<trkpt lat="51.9133491" lon="5.9960121"/>
<trkpt lat="51.9131889" lon="5.9954553"/>
<trkpt lat="51.9130333" lon="5.9949610"/>
<trkpt lat="51.9128926" lon="5.9940299"/>
<trkpt lat="51.9129153" lon="5.9937691"/>
<trkpt lat="51.9132555" lon="5.9934799"/>
<trkpt lat="51.9134078" lon="5.9932111"/>
<trkpt lat="51.9136838" lon="5.9927241"/>
<trkpt lat="51.9138976" lon="5.9918150"/>
<trkpt lat="51.9138710" lon="5.9913397"/>
<trkpt lat="51.9138014" lon="5.9904581"/>
<trkpt lat="51.9138240" lon="5.9897508"/>
<trkpt lat="51.9140280" lon="5.9893155"/>
<trkpt lat="51.9141756" lon="5.9890029"/>
<trkpt lat="51.9141692" lon="5.9887941"/>
<trkpt lat="51.9144934" lon="5.9887222"/>
<trkpt lat="51.9145972" lon="5.9886847"/>
<trkpt lat="51.9148951" lon="5.9884662"/>
<trkpt lat="51.9151887" lon="5.9881601"/>
<trkpt lat="51.9153813" lon="5.9880826"/>
<trkpt lat="51.9155739" lon="5.9882147"/>
<trkpt lat="51.9160055" lon="5.9884110"/>
<trkpt lat="51.9161917" lon="5.9886818"/>
<trkpt lat="51.9162682" lon="5.9891344"/>
<trkpt lat="51.9163501" lon="5.9894924"/>
<trkpt lat="51.9163768" lon="5.9898404"/>
<trkpt lat="51.9163690" lon="5.9904605"/>
<trkpt lat="51.9163363" lon="5.9910582"/>
<trkpt lat="51.9163690" lon="5.9915115"/>
<trkpt lat="51.9163645" lon="5.9922462"/>
<trkpt lat="51.9163603" lon="5.9930430"/>
<trkpt lat="51.9163025" lon="5.9935866"/>
<trkpt lat="51.9162294" lon="5.9940842"/>
<trkpt lat="51.9160421" lon="5.9949161"/>
<trkpt lat="51.9157656" lon="5.9954808"/>
<trkpt lat="51.9155600" lon="5.9959312"/>
<trkpt lat="51.9154621" lon="5.9962642"/>
<trkpt lat="51.9154514" lon="5.9968572"/>
<trkpt lat="51.9155588" lon="5.9968329"/>
<trkpt lat="51.9155606" lon="5.9964949"/>
<trkpt lat="51.9157498" lon="5.9964740"/>
<trkpt lat="51.9167899" lon="5.9964300"/>
<trkpt lat="51.9172351" lon="5.9964268"/>
<trkpt lat="51.9175152" lon="5.9963568"/>
<trkpt lat="51.9177321" lon="5.9962097"/>
<trkpt lat="51.9179149" lon="5.9960929"/>
</trkseg></trk>
<trk><name>Husloapad - alternativeRoute</name><type>alternativeRoute</type><trkseg>
<trkpt lat="51.9231700" lon="5.9908000"/>
<trkpt lat="51.9232700" lon="5.9911800"/>
<trkpt lat="51.9232600" lon="5.9916200"/>
<trkpt lat="51.9231100" lon="5.9920900"/>
<trkpt lat="51.9233500" lon="5.9919900"/>
<trkpt lat="51.9239200" lon="5.9914100"/>
<trkpt lat="51.9244300" lon="5.9907700"/>
<trkpt lat="51.9248400" lon="5.9901400"/>
<trkpt lat="51.9254900" lon="5.9888300"/>
<trkpt lat="51.9258000" lon="5.9883000"/>
<trkpt lat="51.9277600" lon="5.9865100"/>
<trkpt lat="51.9283200" lon="5.9859100"/>
<trkpt lat="51.9285700" lon="5.9853600"/>
<trkpt lat="51.9287300" lon="5.9848300"/>
<trkpt lat="51.9288600" lon="5.9813100"/>
<trkpt lat="51.9289200" lon="5.9801800"/>
<trkpt lat="51.9289800" lon="5.9798800"/>
<trkpt lat="51.9295500" lon="5.9786200"/>
<trkpt lat="51.9300000" lon="5.9776800"/>
<trkpt lat="51.9305000" lon="5.9760900"/>
<trkpt lat="51.9308700" lon="5.9745200"/>
<trkpt lat="51.9316100" lon="5.9718100"/>
<trkpt lat="51.9319000" lon="5.9709500"/>
<trkpt lat="51.9321800" lon="5.9705100"/>
<trkpt lat="51.9326600" lon="5.9702100"/>
<trkpt lat="51.9335900" lon="5.9703600"/>
<trkpt lat="51.9339700" lon="5.9701700"/>
<trkpt lat="51.9346900" lon="5.9692600"/>
<trkpt lat="51.9350900" lon="5.9688400"/>
<trkpt lat="51.9354300" lon="5.9687100"/>
<trkpt lat="51.9385400" lon="5.9693200"/>
<trkpt lat="51.9413800" lon="5.9691800"/>
</trkseg></trk>
<trk><name>Husloapad - approachRoute</name><type>approachRoute</type><trkseg>
<trkpt lat="51.9181700" lon="6.0020900"/>
<trkpt lat="51.9183800" lon="6.0022400"/>
<trkpt lat="51.9185500" lon="6.0023300"/>
<trkpt lat="51.9185600" lon="6.0020600"/>
<trkpt lat="51.9185500" lon="6.0019000"/>
<trkpt lat="51.9184200" lon="6.0016200"/>
<trkpt lat="51.9177300" lon="6.0002700"/>
<trkpt lat="51.9159000" lon="5.9967800"/>
<trkpt lat="51.9163100" lon="5.9967100"/>
<trkpt lat="51.9170100" lon="5.9966700"/>
<trkpt lat="51.9177900" lon="5.9966900"/>
</trkseg></trk>
</gpx>