<?xml version="1.0" encoding="UTF-8"?>
<gpx version="1.1" creator="klompenpaden.nl via Jimbo API" xmlns="http://www.topografix.com/GPX/1/1">
<metadata><name>Jordenpad</name><desc>Ontdek het mooie agrarische cultuurlandschap van Poederoijen en Brakel. Geniet van de dijken die een prachtig uitzicht bieden op de uiterwaarden en de altijd boeiende rivieren Maas en Waal.
Klompen aan, rugzak op en gaan!</desc><link href="https://www.klompenpaden.nl/klompenpaden/Jordenpad/98197919-a003-41fe-adcf-ecc703a63742"><text>klompenpaden.nl</text></link></metadata>
<wpt lat="51.79210749634026" lon="5.062251091003418"><name>Start Poederoijen</name></wpt>
<trk><name>Jordenpad - Hoofdroute</name><type>mainRoute</type><trkseg>
<trkpt lat="51.7934107" lon="5.0735440"/>
<trkpt lat="51.7936097" lon="5.0725864"/>
<trkpt lat="51.7963000" lon="5.0754443"/>
<trkpt lat="51.7952853" lon="5.0802609"/>
<trkpt lat="51.7952685" lon="5.0804261"/>
<trkpt lat="51.7953507" lon="5.0804658"/>
<trkpt lat="51.7953155" lon="5.0809280"/>
<trkpt lat="51.7951579" lon="5.0817903"/>
<trkpt lat="51.7949901" lon="5.0819888"/>
<trkpt lat="51.7947025" lon="5.0836229"/>
<trkpt lat="51.7944707" lon="5.0853060"/>
<trkpt lat="51.7945451" lon="5.0864791"/>
<trkpt lat="51.7944759" lon="5.0873080"/>
<trkpt lat="51.7944520" lon="5.0891491"/>
<trkpt lat="51.7943286" lon="5.0911289"/>
<trkpt lat="51.7942430" lon="5.0939830"/>
<trkpt lat="51.7941760" lon="5.0940392"/>
<trkpt lat="51.7935803" lon="5.0940201"/>
<trkpt lat="51.7934985" lon="5.0941184"/>
<trkpt lat="51.7934526" lon="5.0943373"/>
<trkpt lat="51.7934100" lon="5.0945727"/>
<trkpt lat="51.7935249" lon="5.0947165"/>
<trkpt lat="51.7940294" lon="5.0953173"/>
<trkpt lat="51.7946445" lon="5.0959347"/>
<trkpt lat="51.7951245" lon="5.0967255"/>
<trkpt lat="51.7957478" lon="5.0977628"/>
<trkpt lat="51.7968653" lon="5.0995967"/>
<trkpt lat="51.7969180" lon="5.0997131"/>
<trkpt lat="51.7962082" lon="5.1022531"/>
<trkpt lat="51.7955012" lon="5.1049212"/>
<trkpt lat="51.7961121" lon="5.1052856"/>
<trkpt lat="51.7962413" lon="5.1056070"/>
<trkpt lat="51.7963181" lon="5.1061191"/>
<trkpt lat="51.7964860" lon="5.1064915"/>
<trkpt lat="51.7966755" lon="5.1066629"/>
<trkpt lat="51.7971608" lon="5.1067462"/>
<trkpt lat="51.7974539" lon="5.1069860"/>
<trkpt lat="51.7975766" lon="5.1073079"/>
<trkpt lat="51.7975584" lon="5.1076774"/>
<trkpt lat="51.7974283" lon="5.1082231"/>
<trkpt lat="51.7974580" lon="5.1087005"/>
<trkpt lat="51.7977595" lon="5.1094811"/>
<trkpt lat="51.7978713" lon="5.1100097"/>
<trkpt lat="51.7979410" lon="5.1105506"/>
<trkpt lat="51.7980592" lon="5.1122529"/>
<trkpt lat="51.7982595" lon="5.1127574"/>
<trkpt lat="51.7986252" lon="5.1135377"/>
<trkpt lat="51.7986119" lon="5.1139463"/>
<trkpt lat="51.7985025" lon="5.1144648"/>
<trkpt lat="51.7984109" lon="5.1149659"/>
<trkpt lat="51.7983579" lon="5.1152078"/>
<trkpt lat="51.7982806" lon="5.1154044"/>
<trkpt lat="51.7981946" lon="5.1155195"/>
<trkpt lat="51.7979625" lon="5.1154288"/>
<trkpt lat="51.7978020" lon="5.1154298"/>
<trkpt lat="51.7977218" lon="5.1154858"/>
<trkpt lat="51.7976680" lon="5.1156141"/>
<trkpt lat="51.7976600" lon="5.1157661"/>
<trkpt lat="51.7977690" lon="5.1160051"/>
<trkpt lat="51.7978484" lon="5.1160929"/>
<trkpt lat="51.8000938" lon="5.1176714"/>
<trkpt lat="51.8005513" lon="5.1180715"/>
<trkpt lat="51.8006909" lon="5.1182950"/>
<trkpt lat="51.8008692" lon="5.1184337"/>
<trkpt lat="51.8010510" lon="5.1181893"/>
<trkpt lat="51.8011500" lon="5.1183291"/>
<trkpt lat="51.8011657" lon="5.1184591"/>
<trkpt lat="51.8014510" lon="5.1185581"/>
<trkpt lat="51.8018018" lon="5.1189098"/>
<trkpt lat="51.8027095" lon="5.1196467"/>
<trkpt lat="51.8035262" lon="5.1203266"/>
<trkpt lat="51.8042624" lon="5.1208977"/>
<trkpt lat="51.8049253" lon="5.1214519"/>
<trkpt lat="51.8055890" lon="5.1221645"/>
<trkpt lat="51.8056958" lon="5.1222004"/>
<trkpt lat="51.8064396" lon="5.1229844"/>
<trkpt lat="51.8071430" lon="5.1237811"/>
<trkpt lat="51.8077956" lon="5.1245398"/>
<trkpt lat="51.8084817" lon="5.1250268"/>
<trkpt lat="51.8087490" lon="5.1252221"/>
<trkpt lat="51.8088201" lon="5.1253912"/>
<trkpt lat="51.8089518" lon="5.1268521"/>
<trkpt lat="51.8091046" lon="5.1250212"/>
<trkpt lat="51.8094512" lon="5.1236840"/>
<trkpt lat="51.8098133" lon="5.1228647"/>
<trkpt lat="51.8102672" lon="5.1216881"/>
<trkpt lat="51.8105722" lon="5.1208863"/>
<trkpt lat="51.8110447" lon="5.1200490"/>
<trkpt lat="51.8115037" lon="5.1194938"/>
<trkpt lat="51.8119411" lon="5.1189272"/>
<trkpt lat="51.8124097" lon="5.1179173"/>
<trkpt lat="51.8129958" lon="5.1168030"/>
<trkpt lat="51.8133405" lon="5.1162599"/>
<trkpt lat="51.8136714" lon="5.1158723"/>
<trkpt lat="51.8139200" lon="5.1154104"/>
<trkpt lat="51.8147076" lon="5.1135408"/>
<trkpt lat="51.8148488" lon="5.1129069"/>
<trkpt lat="51.8149861" lon="5.1120945"/>
<trkpt lat="51.8154255" lon="5.1108716"/>
<trkpt lat="51.8158122" lon="5.1099656"/>
<trkpt lat="51.8168636" lon="5.1080655"/>
<trkpt lat="51.8169945" lon="5.1076042"/>
<trkpt lat="51.8171201" lon="5.1064004"/>
<trkpt lat="51.8172311" lon="5.1050989"/>
<trkpt lat="51.8173004" lon="5.1042409"/>
<trkpt lat="51.8175373" lon="5.1033587"/>
<trkpt lat="51.8179163" lon="5.1022512"/>
<trkpt lat="51.8183211" lon="5.1014658"/>
<trkpt lat="51.8186192" lon="5.1008653"/>
<trkpt lat="51.8189105" lon="5.1003512"/>
<trkpt lat="51.8192876" lon="5.0999343"/>
<trkpt lat="51.8197213" lon="5.0993052"/>
<trkpt lat="51.8200737" lon="5.0990198"/>
<trkpt lat="51.8204864" lon="5.0985509"/>
<trkpt lat="51.8207851" lon="5.0981806"/>
<trkpt lat="51.8209983" lon="5.0978281"/>
<trkpt lat="51.8210913" lon="5.0964644"/>
<trkpt lat="51.8213285" lon="5.0942984"/>
<trkpt lat="51.8214483" lon="5.0936990"/>
<trkpt lat="51.8213864" lon="5.0928812"/>
<trkpt lat="51.8214560" lon="5.0922015"/>
<trkpt lat="51.8215326" lon="5.0914412"/>
<trkpt lat="51.8216152" lon="5.0902548"/>
<trkpt lat="51.8217129" lon="5.0893792"/>
<trkpt lat="51.8220317" lon="5.0884906"/>
<trkpt lat="51.8223084" lon="5.0879016"/>
<trkpt lat="51.8225708" lon="5.0872896"/>
<trkpt lat="51.8229271" lon="5.0871031"/>
<trkpt lat="51.8233330" lon="5.0868125"/>
<trkpt lat="51.8235940" lon="5.0865561"/>
<trkpt lat="51.8237230" lon="5.0867621"/>
<trkpt lat="51.8241816" lon="5.0870510"/>
<trkpt lat="51.8245380" lon="5.0862261"/>
<trkpt lat="51.8247325" lon="5.0853830"/>
<trkpt lat="51.8248990" lon="5.0842751"/>
<trkpt lat="51.8247630" lon="5.0832431"/>
<trkpt lat="51.8247730" lon="5.0817421"/>
<trkpt lat="51.8245450" lon="5.0806581"/>
<trkpt lat="51.8244820" lon="5.0790401"/>
<trkpt lat="51.8241150" lon="5.0779461"/>
<trkpt lat="51.8237485" lon="5.0765013"/>
<trkpt lat="51.8230365" lon="5.0752320"/>
<trkpt lat="51.8221988" lon="5.0750383"/>
<trkpt lat="51.8219340" lon="5.0752251"/>
<trkpt lat="51.8218618" lon="5.0753479"/>
<trkpt lat="51.8218651" lon="5.0755220"/>
<trkpt lat="51.8219910" lon="5.0758838"/>
<trkpt lat="51.8220352" lon="5.0761757"/>
<trkpt lat="51.8218731" lon="5.0758385"/>
<trkpt lat="51.8216581" lon="5.0754889"/>
<trkpt lat="51.8200692" lon="5.0735945"/>
<trkpt lat="51.8197761" lon="5.0733721"/>
<trkpt lat="51.8184508" lon="5.0726963"/>
<trkpt lat="51.8171043" lon="5.0720668"/>
<trkpt lat="51.8161502" lon="5.0714807"/>
<trkpt lat="51.8155964" lon="5.0711507"/>
<trkpt lat="51.8149607" lon="5.0708731"/>
<trkpt lat="51.8147710" lon="5.0706385"/>
<trkpt lat="51.8145702" lon="5.0702658"/>
<trkpt lat="51.8142606" lon="5.0692205"/>
<trkpt lat="51.8138654" lon="5.0679212"/>
<trkpt lat="51.8134757" lon="5.0665440"/>
<trkpt lat="51.8132598" lon="5.0658894"/>
<trkpt lat="51.8130999" lon="5.0653271"/>
<trkpt lat="51.8128911" lon="5.0641079"/>
<trkpt lat="51.8125994" lon="5.0631028"/>
<trkpt lat="51.8123467" lon="5.0620341"/>
<trkpt lat="51.8121480" lon="5.0611493"/>
<trkpt lat="51.8120944" lon="5.0611094"/>
<trkpt lat="51.8121166" lon="5.0613739"/>
<trkpt lat="51.8115815" lon="5.0613836"/>
<trkpt lat="51.8105897" lon="5.0613677"/>
<trkpt lat="51.8092378" lon="5.0613890"/>
<trkpt lat="51.8085456" lon="5.0613537"/>
<trkpt lat="51.8078628" lon="5.0613189"/>
<trkpt lat="51.8074105" lon="5.0610914"/>
<trkpt lat="51.8069617" lon="5.0613364"/>
<trkpt lat="51.8062234" lon="5.0613877"/>
<trkpt lat="51.8051389" lon="5.0613668"/>
<trkpt lat="51.8048618" lon="5.0617773"/>
<trkpt lat="51.8047482" lon="5.0619853"/>
<trkpt lat="51.8045986" lon="5.0620612"/>
<trkpt lat="51.8044736" lon="5.0620161"/>
<trkpt lat="51.8043898" lon="5.0618734"/>
<trkpt lat="51.8042748" lon="5.0615635"/>
<trkpt lat="51.8041456" lon="5.0612882"/>
<trkpt lat="51.8029182" lon="5.0611935"/>
<trkpt lat="51.8024832" lon="5.0612887"/>
<trkpt lat="51.8022418" lon="5.0616932"/>
<trkpt lat="51.8020428" lon="5.0619593"/>
<trkpt lat="51.8019339" lon="5.0620919"/>
<trkpt lat="51.8016771" lon="5.0620880"/>
<trkpt lat="51.8015360" lon="5.0618939"/>
<trkpt lat="51.8013472" lon="5.0614920"/>
<trkpt lat="51.8010898" lon="5.0612867"/>
<trkpt lat="51.8008539" lon="5.0611158"/>
<trkpt lat="51.8006056" lon="5.0608420"/>
<trkpt lat="51.8003557" lon="5.0607862"/>
<trkpt lat="51.8001581" lon="5.0610460"/>
<trkpt lat="51.7999153" lon="5.0612297"/>
<trkpt lat="51.7997693" lon="5.0612297"/>
<trkpt lat="51.7994951" lon="5.0612292"/>
<trkpt lat="51.7992880" lon="5.0612091"/>
<trkpt lat="51.7991204" lon="5.0611859"/>
<trkpt lat="51.7982776" lon="5.0607712"/>
<trkpt lat="51.7979951" lon="5.0606244"/>
<trkpt lat="51.7977985" lon="5.0603949"/>
<trkpt lat="51.7971781" lon="5.0592956"/>
<trkpt lat="51.7965968" lon="5.0580801"/>
<trkpt lat="51.7965146" lon="5.0580404"/>
<trkpt lat="51.7964175" lon="5.0577535"/>
<trkpt lat="51.7962522" lon="5.0573232"/>
<trkpt lat="51.7960406" lon="5.0569335"/>
<trkpt lat="51.7957140" lon="5.0562110"/>
<trkpt lat="51.7954623" lon="5.0555052"/>
<trkpt lat="51.7952547" lon="5.0552766"/>
<trkpt lat="51.7947979" lon="5.0543509"/>
<trkpt lat="51.7945989" lon="5.0542286"/>
<trkpt lat="51.7943634" lon="5.0542131"/>
<trkpt lat="51.7942776" lon="5.0541275"/>
<trkpt lat="51.7938289" lon="5.0544012"/>
<trkpt lat="51.7932634" lon="5.0550209"/>
<trkpt lat="51.7923531" lon="5.0560401"/>
<trkpt lat="51.7920798" lon="5.0565483"/>
<trkpt lat="51.7920489" lon="5.0569685"/>
<trkpt lat="51.7919841" lon="5.0573774"/>
<trkpt lat="51.7918871" lon="5.0577779"/>
<trkpt lat="51.7918250" lon="5.0579049"/>
<trkpt lat="51.7918975" lon="5.0582201"/>
<trkpt lat="51.7917795" lon="5.0585431"/>
<trkpt lat="51.7916901" lon="5.0589042"/>
<trkpt lat="51.7917012" lon="5.0594564"/>
<trkpt lat="51.7916810" lon="5.0597841"/>
<trkpt lat="51.7914503" lon="5.0597801"/>
<trkpt lat="51.7915083" lon="5.0611752"/>
<trkpt lat="51.7913696" lon="5.0626086"/>
<trkpt lat="51.7910047" lon="5.0635432"/>
<trkpt lat="51.7906442" lon="5.0643063"/>
<trkpt lat="51.7903674" lon="5.0648202"/>
<trkpt lat="51.7901935" lon="5.0651493"/>
<trkpt lat="51.7899210" lon="5.0655721"/>
<trkpt lat="51.7902400" lon="5.0654251"/>
<trkpt lat="51.7903018" lon="5.0666872"/>
<trkpt lat="51.7898099" lon="5.0694518"/>
<trkpt lat="51.7902963" lon="5.0699214"/>
<trkpt lat="51.7901126" lon="5.0706015"/>
<trkpt lat="51.7908991" lon="5.0712159"/>
<trkpt lat="51.7912063" lon="5.0713532"/>
<trkpt lat="51.7913798" lon="5.0713368"/>
<trkpt lat="51.7914031" lon="5.0707466"/>
<trkpt lat="51.7914938" lon="5.0708162"/>
<trkpt lat="51.7934037" lon="5.0726897"/>
<trkpt lat="51.7932596" lon="5.0734731"/>
<trkpt lat="51.7934025" lon="5.0735641"/>
</trkseg></trk>
<trk><name>Jordenpad - Routeverkorter</name><type>shorteningRoute</type><trkseg>
<trkpt lat="51.8201565" lon="5.0989258"/>
<trkpt lat="51.8200063" lon="5.0986577"/>
<trkpt lat="51.8199394" lon="5.0985200"/>
<trkpt lat="51.8198812" lon="5.0980599"/>
<trkpt lat="51.8193448" lon="5.0985084"/>
<trkpt lat="51.8192829" lon="5.0984705"/>
<trkpt lat="51.8192724" lon="5.0980561"/>
<trkpt lat="51.8189190" lon="5.0979703"/>
<trkpt lat="51.8171301" lon="5.0977669"/>
<trkpt lat="51.8168920" lon="5.0976303"/>
<trkpt lat="51.8167962" lon="5.0973700"/>
<trkpt lat="51.8156589" lon="5.0968080"/>
<trkpt lat="51.8155746" lon="5.0967628"/>
<trkpt lat="51.8153886" lon="5.0969989"/>
<trkpt lat="51.8149265" lon="5.0967180"/>
<trkpt lat="51.8145986" lon="5.0968198"/>
<trkpt lat="51.8139513" lon="5.0966398"/>
<trkpt lat="51.8138276" lon="5.0966483"/>
<trkpt lat="51.8135523" lon="5.0968573"/>
<trkpt lat="51.8134396" lon="5.0974566"/>
<trkpt lat="51.8132489" lon="5.0972736"/>
<trkpt lat="51.8132009" lon="5.0971128"/>
<trkpt lat="51.8131104" lon="5.0970366"/>
<trkpt lat="51.8134085" lon="5.0956024"/>
<trkpt lat="51.8139160" lon="5.0931127"/>
<trkpt lat="51.8137343" lon="5.0917787"/>
<trkpt lat="51.8137818" lon="5.0910719"/>
<trkpt lat="51.8137110" lon="5.0909223"/>
<trkpt lat="51.8109967" lon="5.0896970"/>
<trkpt lat="51.8089804" lon="5.0879609"/>
<trkpt lat="51.8053941" lon="5.0861433"/>
<trkpt lat="51.8050661" lon="5.0862145"/>
<trkpt lat="51.8049520" lon="5.0862153"/>
<trkpt lat="51.8047081" lon="5.0856875"/>
<trkpt lat="51.8002368" lon="5.0837381"/>
<trkpt lat="51.7991658" lon="5.0834231"/>
<trkpt lat="51.7960255" lon="5.0830300"/>
<trkpt lat="51.7956398" lon="5.0828485"/>
<trkpt lat="51.7949901" lon="5.0819888"/>
</trkseg></trk>
<trk><name>Jordenpad - Overstaproute Nywele</name><type>connectionRoute</type><trkseg>
<trkpt lat="51.8089518" lon="5.1268521"/>
<trkpt lat="51.8085421" lon="5.1285511"/>
<trkpt lat="51.8086981" lon="5.1306865"/>
<trkpt lat="51.8094956" lon="5.1320248"/>
<trkpt lat="51.8099127" lon="5.1324497"/>
<trkpt lat="51.8101417" lon="5.1333640"/>
<trkpt lat="51.8112800" lon="5.1348836"/>
<trkpt lat="51.8117367" lon="5.1361018"/>
<trkpt lat="51.8118537" lon="5.1377493"/>
<trkpt lat="51.8116678" lon="5.1392763"/>
<trkpt lat="51.8112167" lon="5.1406827"/>
<trkpt lat="51.8104250" lon="5.1420299"/>
<trkpt lat="51.8103879" lon="5.1423963"/>
<trkpt lat="51.8104271" lon="5.1430676"/>
<trkpt lat="51.8109604" lon="5.1447738"/>
<trkpt lat="51.8110372" lon="5.1453227"/>
<trkpt lat="51.8108878" lon="5.1463002"/>
<trkpt lat="51.8102857" lon="5.1478904"/>
<trkpt lat="51.8099843" lon="5.1485024"/>
<trkpt lat="51.8099869" lon="5.1497842"/>
<trkpt lat="51.8099195" lon="5.1539351"/>
<trkpt lat="51.8098837" lon="5.1549730"/>
<trkpt lat="51.8094691" lon="5.1557686"/>
<trkpt lat="51.8092449" lon="5.1571736"/>
<trkpt lat="51.8092844" lon="5.1580279"/>
<trkpt lat="51.8094760" lon="5.1593059"/>
</trkseg></trk>
<trk><name>Jordenpad - overstaproute</name><type>connectionRoute</type><trkseg>
<trkpt lat="51.7952243" lon="5.1191614"/>
<trkpt lat="51.7976680" lon="5.1156141"/>
</trkseg></trk>
<trk><name>Jordenpad - Overstaproute Vuren</name><type>connectionRoute</type><trkseg>
<trkpt lat="51.8120944" lon="5.0611094"/>
<trkpt lat="51.8121253" lon="5.0604764"/>
<trkpt lat="51.8123936" lon="5.0577733"/>
<trkpt lat="51.8122004" lon="5.0567004"/>
<trkpt lat="51.8121707" lon="5.0563169"/>
<trkpt lat="51.8121681" lon="5.0553808"/>
<trkpt lat="51.8121940" lon="5.0544598"/>
<trkpt lat="51.8119090" lon="5.0512389"/>
<trkpt lat="51.8117820" lon="5.0500888"/>
<trkpt lat="51.8114523" lon="5.0479120"/>
<trkpt lat="51.8113831" lon="5.0469917"/>
<trkpt lat="51.8114081" lon="5.0457945"/>
<trkpt lat="51.8119378" lon="5.0414932"/>
<trkpt lat="51.8123995" lon="5.0400163"/>
<trkpt lat="51.8127388" lon="5.0389241"/>
<trkpt lat="51.8130752" lon="5.0368956"/>
<trkpt lat="51.8140750" lon="5.0314265"/>
<trkpt lat="51.8141870" lon="5.0291618"/>
<trkpt lat="51.8149648" lon="5.0268534"/>
<trkpt lat="51.8151053" lon="5.0261424"/>
<trkpt lat="51.8153416" lon="5.0256417"/>
<trkpt lat="51.8157689" lon="5.0254080"/>
<trkpt lat="51.8170572" lon="5.0228843"/>
<trkpt lat="51.8171151" lon="5.0223850"/>
<trkpt lat="51.8175872" lon="5.0212299"/>
<trkpt lat="51.8173470" lon="5.0204836"/>
<trkpt lat="51.8177470" lon="5.0203794"/>
<trkpt lat="51.8180898" lon="5.0204687"/>
<trkpt lat="51.8183167" lon="5.0200371"/>
<trkpt lat="51.8186618" lon="5.0208632"/>
<trkpt lat="51.8204172" lon="5.0286775"/>
<trkpt lat="51.8208738" lon="5.0286738"/>
<trkpt lat="51.8210640" lon="5.0286416"/>
<trkpt lat="51.8213410" lon="5.0287082"/>
<trkpt lat="51.8214269" lon="5.0287920"/>
<trkpt lat="51.8215123" lon="5.0287518"/>
</trkseg></trk>
<trk><name>Jordenpad - Overstaproute Engelenburgerpad</name><type>connectionRoute</type><trkseg>
<trkpt lat="51.8293800" lon="5.0937881"/>
<trkpt lat="51.8294399" lon="5.0935488"/>
<trkpt lat="51.8286468" lon="5.0932127"/>
<trkpt lat="51.8283906" lon="5.0929648"/>
<trkpt lat="51.8244454" lon="5.0922727"/>
<trkpt lat="51.8240653" lon="5.0924441"/>
<trkpt lat="51.8215642" lon="5.0927368"/>
<trkpt lat="51.8213742" lon="5.0928454"/>
</trkseg></trk>
<trk><name>Jordenpad - Aanlooproute</name><type>approachRoute</type><trkseg>
<trkpt lat="51.8244544" lon="5.0922742"/>
<trkpt lat="51.8240794" lon="5.0924242"/>
<trkpt lat="51.8215903" lon="5.0927398"/>
<trkpt lat="51.8213864" lon="5.0928812"/>
</trkseg></trk>
</gpx>