<?xml version="1.0" encoding="UTF-8"?>
<gpx version="1.1" creator="klompenpaden.nl via Jimbo API" xmlns="http://www.topografix.com/GPX/1/1">
<metadata><name>Jufferpad</name><desc>Ontdek het het mooie buitengebied van Renswoude en Veenendaal. Wandelen over oude en nieuwe landgoederen en langs forten en kastelen. Klompen aan, rugzak op en gaan!</desc><link href="https://www.klompenpaden.nl/klompenpaden/Jufferpad/6f22d22c-ca30-4bc1-a9d1-4be7b0708507"><text>klompenpaden.nl</text></link></metadata>
<wpt lat="52.04915197434068" lon="5.556743144989014"><name>Start Renswoude</name></wpt>
<trk><name>Jufferpad - Hoofdroute</name><type>mainRoute</type><trkseg>
<trkpt lat="52.0491132" lon="5.5567344"/>
<trkpt lat="52.0497347" lon="5.5570088"/>
<trkpt lat="52.0502071" lon="5.5572365"/>
<trkpt lat="52.0508310" lon="5.5574758"/>
<trkpt lat="52.0512064" lon="5.5575942"/>
<trkpt lat="52.0517924" lon="5.5577790"/>
<trkpt lat="52.0521931" lon="5.5579054"/>
<trkpt lat="52.0525570" lon="5.5580190"/>
<trkpt lat="52.0529821" lon="5.5581123"/>
<trkpt lat="52.0534939" lon="5.5582247"/>
<trkpt lat="52.0539491" lon="5.5583211"/>
<trkpt lat="52.0543548" lon="5.5584039"/>
<trkpt lat="52.0547167" lon="5.5584739"/>
<trkpt lat="52.0551439" lon="5.5585292"/>
<trkpt lat="52.0554409" lon="5.5585417"/>
<trkpt lat="52.0558422" lon="5.5585587"/>
<trkpt lat="52.0560385" lon="5.5585703"/>
<trkpt lat="52.0564407" lon="5.5586428"/>
<trkpt lat="52.0568360" lon="5.5587139"/>
<trkpt lat="52.0570980" lon="5.5587980"/>
<trkpt lat="52.0576042" lon="5.5588950"/>
<trkpt lat="52.0578770" lon="5.5589605"/>
<trkpt lat="52.0582606" lon="5.5590832"/>
<trkpt lat="52.0586666" lon="5.5591803"/>
<trkpt lat="52.0589399" lon="5.5592566"/>
<trkpt lat="52.0592565" lon="5.5594993"/>
<trkpt lat="52.0593752" lon="5.5595401"/>
<trkpt lat="52.0600077" lon="5.5596011"/>
<trkpt lat="52.0604336" lon="5.5596323"/>
<trkpt lat="52.0608067" lon="5.5596591"/>
<trkpt lat="52.0610421" lon="5.5596761"/>
<trkpt lat="52.0620362" lon="5.5597422"/>
<trkpt lat="52.0627910" lon="5.5597811"/>
<trkpt lat="52.0638767" lon="5.5599956"/>
<trkpt lat="52.0647419" lon="5.5601157"/>
<trkpt lat="52.0655939" lon="5.5601863"/>
<trkpt lat="52.0662624" lon="5.5602976"/>
<trkpt lat="52.0664997" lon="5.5603913"/>
<trkpt lat="52.0666697" lon="5.5604351"/>
<trkpt lat="52.0670125" lon="5.5605156"/>
<trkpt lat="52.0671371" lon="5.5605849"/>
<trkpt lat="52.0672377" lon="5.5606929"/>
<trkpt lat="52.0676589" lon="5.5607639"/>
<trkpt lat="52.0677871" lon="5.5607672"/>
<trkpt lat="52.0678252" lon="5.5606588"/>
<trkpt lat="52.0685259" lon="5.5606792"/>
<trkpt lat="52.0690707" lon="5.5603161"/>
<trkpt lat="52.0701215" lon="5.5596156"/>
<trkpt lat="52.0705980" lon="5.5592979"/>
<trkpt lat="52.0708695" lon="5.5591169"/>
<trkpt lat="52.0710285" lon="5.5590842"/>
<trkpt lat="52.0711310" lon="5.5591439"/>
<trkpt lat="52.0712767" lon="5.5592938"/>
<trkpt lat="52.0719610" lon="5.5599737"/>
<trkpt lat="52.0724386" lon="5.5604473"/>
<trkpt lat="52.0731460" lon="5.5611488"/>
<trkpt lat="52.0733239" lon="5.5613252"/>
<trkpt lat="52.0736662" lon="5.5614482"/>
<trkpt lat="52.0744420" lon="5.5616249"/>
<trkpt lat="52.0755270" lon="5.5619111"/>
<trkpt lat="52.0759723" lon="5.5620216"/>
<trkpt lat="52.0759538" lon="5.5617733"/>
<trkpt lat="52.0758937" lon="5.5614315"/>
<trkpt lat="52.0757695" lon="5.5610258"/>
<trkpt lat="52.0756915" lon="5.5607071"/>
<trkpt lat="52.0756100" lon="5.5602900"/>
<trkpt lat="52.0756104" lon="5.5600468"/>
<trkpt lat="52.0756682" lon="5.5595260"/>
<trkpt lat="52.0758262" lon="5.5588146"/>
<trkpt lat="52.0760011" lon="5.5587400"/>
<trkpt lat="52.0762046" lon="5.5586308"/>
<trkpt lat="52.0764404" lon="5.5583596"/>
<trkpt lat="52.0766446" lon="5.5577815"/>
<trkpt lat="52.0767770" lon="5.5574578"/>
<trkpt lat="52.0769703" lon="5.5570475"/>
<trkpt lat="52.0771385" lon="5.5566544"/>
<trkpt lat="52.0772890" lon="5.5561977"/>
<trkpt lat="52.0774110" lon="5.5556423"/>
<trkpt lat="52.0775404" lon="5.5549944"/>
<trkpt lat="52.0776194" lon="5.5545837"/>
<trkpt lat="52.0776138" lon="5.5535242"/>
<trkpt lat="52.0769827" lon="5.5533599"/>
<trkpt lat="52.0768497" lon="5.5532668"/>
<trkpt lat="52.0762941" lon="5.5526087"/>
<trkpt lat="52.0762732" lon="5.5525709"/>
<trkpt lat="52.0763283" lon="5.5524379"/>
<trkpt lat="52.0763646" lon="5.5524663"/>
<trkpt lat="52.0764088" lon="5.5523962"/>
<trkpt lat="52.0765132" lon="5.5521794"/>
<trkpt lat="52.0768779" lon="5.5513883"/>
<trkpt lat="52.0771790" lon="5.5507351"/>
<trkpt lat="52.0776341" lon="5.5497476"/>
<trkpt lat="52.0781053" lon="5.5487255"/>
<trkpt lat="52.0784491" lon="5.5479747"/>
<trkpt lat="52.0788405" lon="5.5471171"/>
<trkpt lat="52.0791922" lon="5.5463464"/>
<trkpt lat="52.0794031" lon="5.5458615"/>
<trkpt lat="52.0794243" lon="5.5457767"/>
<trkpt lat="52.0794375" lon="5.5456630"/>
<trkpt lat="52.0794318" lon="5.5454936"/>
<trkpt lat="52.0793655" lon="5.5439525"/>
<trkpt lat="52.0795830" lon="5.5440517"/>
<trkpt lat="52.0796792" lon="5.5440983"/>
<trkpt lat="52.0797180" lon="5.5444285"/>
<trkpt lat="52.0797604" lon="5.5447991"/>
<trkpt lat="52.0798062" lon="5.5451698"/>
<trkpt lat="52.0798664" lon="5.5455174"/>
<trkpt lat="52.0799479" lon="5.5459288"/>
<trkpt lat="52.0800154" lon="5.5461664"/>
<trkpt lat="52.0801006" lon="5.5464214"/>
<trkpt lat="52.0801575" lon="5.5465780"/>
<trkpt lat="52.0802215" lon="5.5467114"/>
<trkpt lat="52.0802821" lon="5.5467463"/>
<trkpt lat="52.0804069" lon="5.5467873"/>
<trkpt lat="52.0805068" lon="5.5467876"/>
<trkpt lat="52.0806245" lon="5.5467707"/>
<trkpt lat="52.0807708" lon="5.5467770"/>
<trkpt lat="52.0808778" lon="5.5467774"/>
<trkpt lat="52.0810526" lon="5.5467838"/>
<trkpt lat="52.0812095" lon="5.5468017"/>
<trkpt lat="52.0813914" lon="5.5468198"/>
<trkpt lat="52.0815198" lon="5.5467855"/>
<trkpt lat="52.0815877" lon="5.5467105"/>
<trkpt lat="52.0816699" lon="5.5465834"/>
<trkpt lat="52.0818201" lon="5.5463465"/>
<trkpt lat="52.0819273" lon="5.5461906"/>
<trkpt lat="52.0820560" lon="5.5459826"/>
<trkpt lat="52.0822097" lon="5.5457747"/>
<trkpt lat="52.0823597" lon="5.5456536"/>
<trkpt lat="52.0825738" lon="5.5455965"/>
<trkpt lat="52.0826986" lon="5.5455912"/>
<trkpt lat="52.0829056" lon="5.5455514"/>
<trkpt lat="52.0830555" lon="5.5454882"/>
<trkpt lat="52.0832053" lon="5.5454482"/>
<trkpt lat="52.0833588" lon="5.5454256"/>
<trkpt lat="52.0834942" lon="5.5454782"/>
<trkpt lat="52.0836011" lon="5.5455828"/>
<trkpt lat="52.0836794" lon="5.5457278"/>
<trkpt lat="52.0837611" lon="5.5459481"/>
<trkpt lat="52.0838073" lon="5.5460988"/>
<trkpt lat="52.0838464" lon="5.5462379"/>
<trkpt lat="52.0838998" lon="5.5462960"/>
<trkpt lat="52.0839640" lon="5.5462847"/>
<trkpt lat="52.0840061" lon="5.5462654"/>
<trkpt lat="52.0839098" lon="5.5456523"/>
<trkpt lat="52.0835975" lon="5.5438295"/>
<trkpt lat="52.0832697" lon="5.5418373"/>
<trkpt lat="52.0828892" lon="5.5394428"/>
<trkpt lat="52.0827005" lon="5.5384177"/>
<trkpt lat="52.0823348" lon="5.5361461"/>
<trkpt lat="52.0820108" lon="5.5340788"/>
<trkpt lat="52.0815614" lon="5.5313383"/>
<trkpt lat="52.0814489" lon="5.5313868"/>
<trkpt lat="52.0813630" lon="5.5313717"/>
<trkpt lat="52.0812751" lon="5.5312994"/>
<trkpt lat="52.0811764" lon="5.5311668"/>
<trkpt lat="52.0810877" lon="5.5309363"/>
<trkpt lat="52.0809931" lon="5.5305274"/>
<trkpt lat="52.0808686" lon="5.5298408"/>
<trkpt lat="52.0807756" lon="5.5293964"/>
<trkpt lat="52.0807205" lon="5.5292634"/>
<trkpt lat="52.0806532" lon="5.5291737"/>
<trkpt lat="52.0805579" lon="5.5291275"/>
<trkpt lat="52.0804063" lon="5.5291451"/>
<trkpt lat="52.0801945" lon="5.5291697"/>
<trkpt lat="52.0800398" lon="5.5291739"/>
<trkpt lat="52.0799498" lon="5.5290155"/>
<trkpt lat="52.0798503" lon="5.5288891"/>
<trkpt lat="52.0798118" lon="5.5288279"/>
<trkpt lat="52.0797126" lon="5.5287126"/>
<trkpt lat="52.0795929" lon="5.5285710"/>
<trkpt lat="52.0794844" lon="5.5284115"/>
<trkpt lat="52.0793924" lon="5.5281974"/>
<trkpt lat="52.0793344" lon="5.5279643"/>
<trkpt lat="52.0792686" lon="5.5277471"/>
<trkpt lat="52.0791467" lon="5.5274936"/>
<trkpt lat="52.0790238" lon="5.5273221"/>
<trkpt lat="52.0788199" lon="5.5270325"/>
<trkpt lat="52.0787058" lon="5.5268443"/>
<trkpt lat="52.0786296" lon="5.5267157"/>
<trkpt lat="52.0786762" lon="5.5264904"/>
<trkpt lat="52.0787290" lon="5.5263276"/>
<trkpt lat="52.0788037" lon="5.5261500"/>
<trkpt lat="52.0788421" lon="5.5260352"/>
<trkpt lat="52.0788956" lon="5.5258753"/>
<trkpt lat="52.0789310" lon="5.5257694"/>
<trkpt lat="52.0789584" lon="5.5256380"/>
<trkpt lat="52.0789761" lon="5.5255533"/>
<trkpt lat="52.0790516" lon="5.5253813"/>
<trkpt lat="52.0791517" lon="5.5251532"/>
<trkpt lat="52.0789840" lon="5.5249910"/>
<trkpt lat="52.0787777" lon="5.5247907"/>
<trkpt lat="52.0786660" lon="5.5246820"/>
<trkpt lat="52.0784194" lon="5.5244753"/>
<trkpt lat="52.0782334" lon="5.5243661"/>
<trkpt lat="52.0781019" lon="5.5243159"/>
<trkpt lat="52.0779564" lon="5.5242657"/>
<trkpt lat="52.0777759" lon="5.5242082"/>
<trkpt lat="52.0774967" lon="5.5241447"/>
<trkpt lat="52.0772722" lon="5.5240957"/>
<trkpt lat="52.0769097" lon="5.5240223"/>
<trkpt lat="52.0768272" lon="5.5242093"/>
<trkpt lat="52.0767532" lon="5.5243355"/>
<trkpt lat="52.0766621" lon="5.5243800"/>
<trkpt lat="52.0765376" lon="5.5243710"/>
<trkpt lat="52.0763928" lon="5.5242499"/>
<trkpt lat="52.0762139" lon="5.5240308"/>
<trkpt lat="52.0759913" lon="5.5238833"/>
<trkpt lat="52.0756946" lon="5.5235067"/>
<trkpt lat="52.0751049" lon="5.5227612"/>
<trkpt lat="52.0749413" lon="5.5225864"/>
<trkpt lat="52.0745749" lon="5.5233926"/>
<trkpt lat="52.0743303" lon="5.5241498"/>
<trkpt lat="52.0736988" lon="5.5258285"/>
<trkpt lat="52.0733235" lon="5.5255199"/>
<trkpt lat="52.0729337" lon="5.5252717"/>
<trkpt lat="52.0724202" lon="5.5251312"/>
<trkpt lat="52.0719255" lon="5.5251760"/>
<trkpt lat="52.0715925" lon="5.5252984"/>
<trkpt lat="52.0712021" lon="5.5256368"/>
<trkpt lat="52.0707657" lon="5.5261958"/>
<trkpt lat="52.0705134" lon="5.5264034"/>
<trkpt lat="52.0702755" lon="5.5264721"/>
<trkpt lat="52.0700757" lon="5.5265024"/>
<trkpt lat="52.0700329" lon="5.5269151"/>
<trkpt lat="52.0701170" lon="5.5268813"/>
<trkpt lat="52.0699896" lon="5.5279727"/>
<trkpt lat="52.0699045" lon="5.5288083"/>
<trkpt lat="52.0696928" lon="5.5299676"/>
<trkpt lat="52.0694107" lon="5.5297571"/>
<trkpt lat="52.0691304" lon="5.5295324"/>
<trkpt lat="52.0687548" lon="5.5293692"/>
<trkpt lat="52.0681130" lon="5.5291433"/>
<trkpt lat="52.0680148" lon="5.5291976"/>
<trkpt lat="52.0679820" lon="5.5297446"/>
<trkpt lat="52.0678331" lon="5.5312258"/>
<trkpt lat="52.0677465" lon="5.5323138"/>
<trkpt lat="52.0677212" lon="5.5326616"/>
<trkpt lat="52.0677155" lon="5.5332089"/>
<trkpt lat="52.0673745" lon="5.5339135"/>
<trkpt lat="52.0671026" lon="5.5344802"/>
<trkpt lat="52.0669320" lon="5.5348477"/>
<trkpt lat="52.0668198" lon="5.5353048"/>
<trkpt lat="52.0667685" lon="5.5356331"/>
<trkpt lat="52.0668633" lon="5.5358727"/>
<trkpt lat="52.0671182" lon="5.5365063"/>
<trkpt lat="52.0672061" lon="5.5365992"/>
<trkpt lat="52.0674224" lon="5.5366540"/>
<trkpt lat="52.0675020" lon="5.5367005"/>
<trkpt lat="52.0675566" lon="5.5367991"/>
<trkpt lat="52.0678337" lon="5.5367152"/>
<trkpt lat="52.0679943" lon="5.5366675"/>
<trkpt lat="52.0680656" lon="5.5366870"/>
<trkpt lat="52.0685928" lon="5.5368746"/>
<trkpt lat="52.0692149" lon="5.5371346"/>
<trkpt lat="52.0698237" lon="5.5373706"/>
<trkpt lat="52.0703593" lon="5.5376296"/>
<trkpt lat="52.0702570" lon="5.5380722"/>
<trkpt lat="52.0700910" lon="5.5385538"/>
<trkpt lat="52.0699669" lon="5.5389136"/>
<trkpt lat="52.0698748" lon="5.5392934"/>
<trkpt lat="52.0698668" lon="5.5394384"/>
<trkpt lat="52.0698427" lon="5.5397730"/>
<trkpt lat="52.0697408" lon="5.5399290"/>
<trkpt lat="52.0696750" lon="5.5401332"/>
<trkpt lat="52.0695678" lon="5.5412485"/>
<trkpt lat="52.0696212" lon="5.5413268"/>
<trkpt lat="52.0700901" lon="5.5412704"/>
<trkpt lat="52.0709438" lon="5.5410050"/>
<trkpt lat="52.0711739" lon="5.5409327"/>
<trkpt lat="52.0713611" lon="5.5410028"/>
<trkpt lat="52.0711384" lon="5.5413745"/>
<trkpt lat="52.0708999" lon="5.5417221"/>
<trkpt lat="52.0705356" lon="5.5417976"/>
<trkpt lat="52.0704877" lon="5.5417728"/>
<trkpt lat="52.0700969" lon="5.5418756"/>
<trkpt lat="52.0699685" lon="5.5418318"/>
<trkpt lat="52.0698453" lon="5.5418921"/>
<trkpt lat="52.0697862" lon="5.5420222"/>
<trkpt lat="52.0698075" lon="5.5421265"/>
<trkpt lat="52.0698873" lon="5.5422183"/>
<trkpt lat="52.0700105" lon="5.5424225"/>
<trkpt lat="52.0701486" lon="5.5427310"/>
<trkpt lat="52.0702773" lon="5.5430661"/>
<trkpt lat="52.0703279" lon="5.5434416"/>
<trkpt lat="52.0703205" lon="5.5436383"/>
<trkpt lat="52.0702941" lon="5.5438273"/>
<trkpt lat="52.0702512" lon="5.5439237"/>
<trkpt lat="52.0702035" lon="5.5440084"/>
<trkpt lat="52.0701701" lon="5.5440970"/>
<trkpt lat="52.0701337" lon="5.5443020"/>
<trkpt lat="52.0701221" lon="5.5445948"/>
<trkpt lat="52.0701318" lon="5.5448085"/>
<trkpt lat="52.0701894" lon="5.5451700"/>
<trkpt lat="52.0702737" lon="5.5455732"/>
<trkpt lat="52.0703165" lon="5.5457499"/>
<trkpt lat="52.0704021" lon="5.5458110"/>
<trkpt lat="52.0707179" lon="5.5457427"/>
<trkpt lat="52.0708694" lon="5.5473064"/>
<trkpt lat="52.0709041" lon="5.5476016"/>
<trkpt lat="52.0709254" lon="5.5478245"/>
<trkpt lat="52.0707782" lon="5.5481511"/>
<trkpt lat="52.0705898" lon="5.5485093"/>
<trkpt lat="52.0702418" lon="5.5491370"/>
<trkpt lat="52.0699520" lon="5.5495714"/>
<trkpt lat="52.0697247" lon="5.5498722"/>
<trkpt lat="52.0694674" lon="5.5501993"/>
<trkpt lat="52.0691411" lon="5.5505608"/>
<trkpt lat="52.0689649" lon="5.5507029"/>
<trkpt lat="52.0686293" lon="5.5508985"/>
<trkpt lat="52.0681914" lon="5.5511439"/>
<trkpt lat="52.0676994" lon="5.5513842"/>
<trkpt lat="52.0671113" lon="5.5516396"/>
<trkpt lat="52.0667472" lon="5.5518003"/>
<trkpt lat="52.0661154" lon="5.5520700"/>
<trkpt lat="52.0657978" lon="5.5522020"/>
<trkpt lat="52.0651053" lon="5.5525177"/>
<trkpt lat="52.0648447" lon="5.5526383"/>
<trkpt lat="52.0645747" lon="5.5527521"/>
<trkpt lat="52.0642683" lon="5.5529005"/>
<trkpt lat="52.0640124" lon="5.5530490"/>
<trkpt lat="52.0637952" lon="5.5532122"/>
<trkpt lat="52.0635690" lon="5.5533850"/>
<trkpt lat="52.0629809" lon="5.5532169"/>
<trkpt lat="52.0622142" lon="5.5530289"/>
<trkpt lat="52.0619076" lon="5.5529409"/>
<trkpt lat="52.0610774" lon="5.5522607"/>
<trkpt lat="52.0599052" lon="5.5512610"/>
<trkpt lat="52.0586752" lon="5.5502491"/>
<trkpt lat="52.0577388" lon="5.5494881"/>
<trkpt lat="52.0558305" lon="5.5478545"/>
<trkpt lat="52.0528077" lon="5.5452707"/>
<trkpt lat="52.0527196" lon="5.5452561"/>
<trkpt lat="52.0525744" lon="5.5454705"/>
<trkpt lat="52.0524410" lon="5.5456166"/>
<trkpt lat="52.0523316" lon="5.5456316"/>
<trkpt lat="52.0521605" lon="5.5455847"/>
<trkpt lat="52.0518801" lon="5.5453677"/>
<trkpt lat="52.0514051" lon="5.5449649"/>
<trkpt lat="52.0513291" lon="5.5448258"/>
<trkpt lat="52.0511918" lon="5.5443701"/>
<trkpt lat="52.0510427" lon="5.5438373"/>
<trkpt lat="52.0508104" lon="5.5432579"/>
<trkpt lat="52.0504972" lon="5.5427477"/>
<trkpt lat="52.0500818" lon="5.5421252"/>
<trkpt lat="52.0497472" lon="5.5415956"/>
<trkpt lat="52.0491183" lon="5.5406022"/>
<trkpt lat="52.0489807" lon="5.5403982"/>
<trkpt lat="52.0487299" lon="5.5412411"/>
<trkpt lat="52.0486372" lon="5.5416120"/>
<trkpt lat="52.0486310" lon="5.5418097"/>
<trkpt lat="52.0486634" lon="5.5420412"/>
<trkpt lat="52.0486689" lon="5.5423691"/>
<trkpt lat="52.0486472" lon="5.5430922"/>
<trkpt lat="52.0486439" lon="5.5433043"/>
<trkpt lat="52.0485784" lon="5.5434005"/>
<trkpt lat="52.0484595" lon="5.5433616"/>
<trkpt lat="52.0482906" lon="5.5451738"/>
<trkpt lat="52.0480867" lon="5.5469038"/>
<trkpt lat="52.0480490" lon="5.5473054"/>
<trkpt lat="52.0480111" lon="5.5478477"/>
<trkpt lat="52.0480726" lon="5.5481492"/>
<trkpt lat="52.0481838" lon="5.5483304"/>
<trkpt lat="52.0483072" lon="5.5486322"/>
<trkpt lat="52.0482315" lon="5.5496966"/>
<trkpt lat="52.0482059" lon="5.5502991"/>
<trkpt lat="52.0481060" lon="5.5508412"/>
<trkpt lat="52.0477469" lon="5.5507595"/>
<trkpt lat="52.0476289" lon="5.5508846"/>
<trkpt lat="52.0475345" lon="5.5514132"/>
<trkpt lat="52.0471647" lon="5.5535146"/>
<trkpt lat="52.0476339" lon="5.5537028"/>
<trkpt lat="52.0476275" lon="5.5540361"/>
<trkpt lat="52.0476388" lon="5.5543600"/>
<trkpt lat="52.0477265" lon="5.5546555"/>
<trkpt lat="52.0478083" lon="5.5549415"/>
<trkpt lat="52.0478429" lon="5.5553417"/>
<trkpt lat="52.0478427" lon="5.5554941"/>
<trkpt lat="52.0484291" lon="5.5560487"/>
<trkpt lat="52.0485342" lon="5.5564586"/>
<trkpt lat="52.0485291" lon="5.5568447"/>
<trkpt lat="52.0483145" lon="5.5575123"/>
<trkpt lat="52.0478565" lon="5.5575848"/>
<trkpt lat="52.0478193" lon="5.5569039"/>
<trkpt lat="52.0476701" lon="5.5569000"/>
<trkpt lat="52.0477039" lon="5.5575100"/>
<trkpt lat="52.0477187" lon="5.5578319"/>
<trkpt lat="52.0480993" lon="5.5579283"/>
<trkpt lat="52.0482831" lon="5.5579380"/>
<trkpt lat="52.0484470" lon="5.5580486"/>
<trkpt lat="52.0486186" lon="5.5584236"/>
<trkpt lat="52.0487269" lon="5.5583860"/>
<trkpt lat="52.0488983" lon="5.5584002"/>
<trkpt lat="52.0488900" lon="5.5581913"/>
<trkpt lat="52.0489003" lon="5.5577837"/>
<trkpt lat="52.0491136" lon="5.5567346"/>
</trkseg></trk>
<trk><name>Jufferpad - Routeverkorter</name><type>shorteningRoute</type><trkseg>
<trkpt lat="52.0516173" lon="5.5451170"/>
<trkpt lat="52.0506529" lon="5.5477359"/>
<trkpt lat="52.0501599" lon="5.5491429"/>
<trkpt lat="52.0499004" lon="5.5498836"/>
<trkpt lat="52.0499081" lon="5.5503293"/>
<trkpt lat="52.0498563" lon="5.5516387"/>
<trkpt lat="52.0498174" lon="5.5523134"/>
<trkpt lat="52.0497721" lon="5.5524173"/>
<trkpt lat="52.0497049" lon="5.5525056"/>
<trkpt lat="52.0496359" lon="5.5525748"/>
<trkpt lat="52.0496096" lon="5.5526557"/>
<trkpt lat="52.0495951" lon="5.5528215"/>
<trkpt lat="52.0495128" lon="5.5538433"/>
<trkpt lat="52.0494309" lon="5.5546106"/>
<trkpt lat="52.0493731" lon="5.5550887"/>
<trkpt lat="52.0491136" lon="5.5567346"/>
</trkseg></trk>
<trk><name>Jufferpad - Geimporteerde shapefile</name><type>approachRoute</type><trkseg>
<trkpt lat="52.0464373" lon="5.5735080"/>
<trkpt lat="52.0463881" lon="5.5734154"/>
<trkpt lat="52.0464662" lon="5.5732157"/>
<trkpt lat="52.0466283" lon="5.5733270"/>
<trkpt lat="52.0467936" lon="5.5734818"/>
<trkpt lat="52.0469741" lon="5.5736395"/>
<trkpt lat="52.0472166" lon="5.5738590"/>
<trkpt lat="52.0473663" lon="5.5739642"/>
<trkpt lat="52.0476034" lon="5.5740298"/>
<trkpt lat="52.0479449" lon="5.5740651"/>
<trkpt lat="52.0481519" lon="5.5739367"/>
<trkpt lat="52.0482340" lon="5.5736539"/>
<trkpt lat="52.0482475" lon="5.5734817"/>
<trkpt lat="52.0482460" lon="5.5732324"/>
<trkpt lat="52.0482143" lon="5.5728814"/>
<trkpt lat="52.0483662" lon="5.5728266"/>
<trkpt lat="52.0484573" lon="5.5727901"/>
<trkpt lat="52.0483241" lon="5.5718263"/>
<trkpt lat="52.0482704" lon="5.5710074"/>
<trkpt lat="52.0483232" lon="5.5699921"/>
<trkpt lat="52.0483993" lon="5.5686167"/>
<trkpt lat="52.0485256" lon="5.5667091"/>
<trkpt lat="52.0484462" lon="5.5665211"/>
<trkpt lat="52.0484680" lon="5.5658131"/>
<trkpt lat="52.0485901" lon="5.5642012"/>
<trkpt lat="52.0486857" lon="5.5624566"/>
<trkpt lat="52.0487793" lon="5.5607520"/>
<trkpt lat="52.0490359" lon="5.5604729"/>
<trkpt lat="52.0491542" lon="5.5587376"/>
<trkpt lat="52.0493106" lon="5.5585543"/>
<trkpt lat="52.0491171" lon="5.5581681"/>
<trkpt lat="52.0489500" lon="5.5581297"/>
<trkpt lat="52.0489579" lon="5.5580413"/>
<trkpt lat="52.0488940" lon="5.5580317"/>
</trkseg></trk>
</gpx>