<?xml version="1.0" encoding="UTF-8"?>
<gpx version="1.1" creator="klompenpaden.nl via Jimbo API" xmlns="http://www.topografix.com/GPX/1/1">
<metadata><name>Kandiapad</name><desc>Ontdek het fraaie buitengebied van Groessen. Wandelen door het rivierenlandschap van de Rijn met fraaie vergezichten, over dijken, de oeverwal, kerkenpaden en door uiterwaarden. Klompen aan, rugzak op en gaan!</desc><link href="https://www.klompenpaden.nl/klompenpaden/Kandiapad/abcb6dd5-fe97-43fd-99a0-c2644e9dc60b"><text>klompenpaden.nl</text></link></metadata>
<wpt lat="51.918120505701935" lon="6.002161502838135"><name>Start Groessen</name></wpt>
<trk><name>Kandiapad - Hoofdroute</name><type>mainRoute</type><trkseg>
<trkpt lat="51.9173061" lon="6.0024057"/>
<trkpt lat="51.9172274" lon="6.0030660"/>
<trkpt lat="51.9172045" lon="6.0034288"/>
<trkpt lat="51.9171498" lon="6.0037018"/>
<trkpt lat="51.9171207" lon="6.0038153"/>
<trkpt lat="51.9170474" lon="6.0039989"/>
<trkpt lat="51.9169397" lon="6.0042676"/>
<trkpt lat="51.9168788" lon="6.0044113"/>
<trkpt lat="51.9168113" lon="6.0047556"/>
<trkpt lat="51.9167987" lon="6.0049985"/>
<trkpt lat="51.9170756" lon="6.0069590"/>
<trkpt lat="51.9171858" lon="6.0077082"/>
<trkpt lat="51.9173054" lon="6.0080854"/>
<trkpt lat="51.9176711" lon="6.0088490"/>
<trkpt lat="51.9180475" lon="6.0095415"/>
<trkpt lat="51.9190009" lon="6.0113553"/>
<trkpt lat="51.9202179" lon="6.0136235"/>
<trkpt lat="51.9204802" lon="6.0141670"/>
<trkpt lat="51.9205965" lon="6.0145533"/>
<trkpt lat="51.9206298" lon="6.0148138"/>
<trkpt lat="51.9206242" lon="6.0150114"/>
<trkpt lat="51.9205190" lon="6.0152989"/>
<trkpt lat="51.9202863" lon="6.0158199"/>
<trkpt lat="51.9202087" lon="6.0160804"/>
<trkpt lat="51.9202032" lon="6.0164308"/>
<trkpt lat="51.9202586" lon="6.0168799"/>
<trkpt lat="51.9205411" lon="6.0180118"/>
<trkpt lat="51.9210231" lon="6.0200061"/>
<trkpt lat="51.9213833" lon="6.0212996"/>
<trkpt lat="51.9214719" lon="6.0218746"/>
<trkpt lat="51.9214608" lon="6.0222159"/>
<trkpt lat="51.9213722" lon="6.0225842"/>
<trkpt lat="51.9212891" lon="6.0228178"/>
<trkpt lat="51.9211062" lon="6.0231232"/>
<trkpt lat="51.9208957" lon="6.0234556"/>
<trkpt lat="51.9205356" lon="6.0239497"/>
<trkpt lat="51.9202198" lon="6.0244078"/>
<trkpt lat="51.9194607" lon="6.0255756"/>
<trkpt lat="51.9191647" lon="6.0261257"/>
<trkpt lat="51.9189378" lon="6.0265655"/>
<trkpt lat="51.9186255" lon="6.0273241"/>
<trkpt lat="51.9185478" lon="6.0276184"/>
<trkpt lat="51.9183711" lon="6.0282682"/>
<trkpt lat="51.9183360" lon="6.0287692"/>
<trkpt lat="51.9182965" lon="6.0286825"/>
<trkpt lat="51.9182278" lon="6.0283769"/>
<trkpt lat="51.9181018" lon="6.0280982"/>
<trkpt lat="51.9179451" lon="6.0278775"/>
<trkpt lat="51.9177482" lon="6.0273639"/>
<trkpt lat="51.9175977" lon="6.0270357"/>
<trkpt lat="51.9174534" lon="6.0269875"/>
<trkpt lat="51.9174039" lon="6.0269898"/>
<trkpt lat="51.9173858" lon="6.0271772"/>
<trkpt lat="51.9172643" lon="6.0274770"/>
<trkpt lat="51.9171931" lon="6.0276299"/>
<trkpt lat="51.9169907" lon="6.0280977"/>
<trkpt lat="51.9168061" lon="6.0284612"/>
<trkpt lat="51.9166755" lon="6.0286808"/>
<trkpt lat="51.9166050" lon="6.0287168"/>
<trkpt lat="51.9165023" lon="6.0287061"/>
<trkpt lat="51.9161060" lon="6.0295034"/>
<trkpt lat="51.9160516" lon="6.0297026"/>
<trkpt lat="51.9159599" lon="6.0301259"/>
<trkpt lat="51.9158830" lon="6.0302694"/>
<trkpt lat="51.9158073" lon="6.0305513"/>
<trkpt lat="51.9157739" lon="6.0307354"/>
<trkpt lat="51.9155855" lon="6.0310866"/>
<trkpt lat="51.9152407" lon="6.0315216"/>
<trkpt lat="51.9151275" lon="6.0316984"/>
<trkpt lat="51.9151249" lon="6.0318245"/>
<trkpt lat="51.9152095" lon="6.0320103"/>
<trkpt lat="51.9153046" lon="6.0323501"/>
<trkpt lat="51.9154797" lon="6.0326818"/>
<trkpt lat="51.9156730" lon="6.0328261"/>
<trkpt lat="51.9161214" lon="6.0329371"/>
<trkpt lat="51.9162506" lon="6.0329636"/>
<trkpt lat="51.9165528" lon="6.0330295"/>
<trkpt lat="51.9166684" lon="6.0331111"/>
<trkpt lat="51.9164283" lon="6.0335169"/>
<trkpt lat="51.9162094" lon="6.0338829"/>
<trkpt lat="51.9151817" lon="6.0356741"/>
<trkpt lat="51.9150873" lon="6.0358819"/>
<trkpt lat="51.9150309" lon="6.0361088"/>
<trkpt lat="51.9150649" lon="6.0361585"/>
<trkpt lat="51.9157026" lon="6.0350632"/>
<trkpt lat="51.9159345" lon="6.0347466"/>
<trkpt lat="51.9160239" lon="6.0347509"/>
<trkpt lat="51.9162836" lon="6.0349331"/>
<trkpt lat="51.9168805" lon="6.0353571"/>
<trkpt lat="51.9174650" lon="6.0356363"/>
<trkpt lat="51.9185610" lon="6.0363074"/>
<trkpt lat="51.9192743" lon="6.0370254"/>
<trkpt lat="51.9193424" lon="6.0370941"/>
<trkpt lat="51.9192173" lon="6.0376923"/>
<trkpt lat="51.9190083" lon="6.0386677"/>
<trkpt lat="51.9189044" lon="6.0395707"/>
<trkpt lat="51.9188066" lon="6.0403877"/>
<trkpt lat="51.9186343" lon="6.0412714"/>
<trkpt lat="51.9184258" lon="6.0421452"/>
<trkpt lat="51.9180363" lon="6.0437641"/>
<trkpt lat="51.9181005" lon="6.0438388"/>
<trkpt lat="51.9185464" lon="6.0440577"/>
<trkpt lat="51.9186473" lon="6.0440560"/>
<trkpt lat="51.9197556" lon="6.0445584"/>
<trkpt lat="51.9200801" lon="6.0446985"/>
<trkpt lat="51.9201357" lon="6.0446255"/>
<trkpt lat="51.9204305" lon="6.0439560"/>
<trkpt lat="51.9207548" lon="6.0434715"/>
<trkpt lat="51.9208079" lon="6.0435030"/>
<trkpt lat="51.9208855" lon="6.0435688"/>
<trkpt lat="51.9217384" lon="6.0444951"/>
<trkpt lat="51.9222891" lon="6.0450201"/>
<trkpt lat="51.9223991" lon="6.0450863"/>
<trkpt lat="51.9226918" lon="6.0454753"/>
<trkpt lat="51.9230682" lon="6.0458716"/>
<trkpt lat="51.9232308" lon="6.0460463"/>
<trkpt lat="51.9232728" lon="6.0460284"/>
<trkpt lat="51.9234681" lon="6.0454682"/>
<trkpt lat="51.9235238" lon="6.0453674"/>
<trkpt lat="51.9236911" lon="6.0453945"/>
<trkpt lat="51.9237881" lon="6.0453959"/>
<trkpt lat="51.9240452" lon="6.0446766"/>
<trkpt lat="51.9245133" lon="6.0432956"/>
<trkpt lat="51.9248686" lon="6.0437347"/>
<trkpt lat="51.9251898" lon="6.0441363"/>
<trkpt lat="51.9253255" lon="6.0440245"/>
<trkpt lat="51.9257484" lon="6.0446092"/>
<trkpt lat="51.9267924" lon="6.0460524"/>
<trkpt lat="51.9268794" lon="6.0461398"/>
<trkpt lat="51.9270040" lon="6.0463251"/>
<trkpt lat="51.9269420" lon="6.0470469"/>
<trkpt lat="51.9270240" lon="6.0471819"/>
<trkpt lat="51.9273662" lon="6.0466516"/>
<trkpt lat="51.9273865" lon="6.0461300"/>
<trkpt lat="51.9273595" lon="6.0448464"/>
<trkpt lat="51.9273271" lon="6.0439965"/>
<trkpt lat="51.9273099" lon="6.0434931"/>
<trkpt lat="51.9272602" lon="6.0426846"/>
<trkpt lat="51.9271860" lon="6.0416726"/>
<trkpt lat="51.9271188" lon="6.0409192"/>
<trkpt lat="51.9270649" lon="6.0403460"/>
<trkpt lat="51.9268897" lon="6.0390048"/>
<trkpt lat="51.9267762" lon="6.0382122"/>
<trkpt lat="51.9267014" lon="6.0382780"/>
<trkpt lat="51.9264288" lon="6.0367084"/>
<trkpt lat="51.9263971" lon="6.0364536"/>
<trkpt lat="51.9262946" lon="6.0363546"/>
<trkpt lat="51.9262046" lon="6.0364641"/>
<trkpt lat="51.9259753" lon="6.0366515"/>
<trkpt lat="51.9257650" lon="6.0368331"/>
<trkpt lat="51.9254968" lon="6.0371554"/>
<trkpt lat="51.9254281" lon="6.0371944"/>
<trkpt lat="51.9253791" lon="6.0371076"/>
<trkpt lat="51.9257272" lon="6.0366107"/>
<trkpt lat="51.9259253" lon="6.0363920"/>
<trkpt lat="51.9264157" lon="6.0359652"/>
<trkpt lat="51.9265116" lon="6.0358957"/>
<trkpt lat="51.9265594" lon="6.0358579"/>
<trkpt lat="51.9266966" lon="6.0357477"/>
<trkpt lat="51.9269086" lon="6.0355985"/>
<trkpt lat="51.9271752" lon="6.0353807"/>
<trkpt lat="51.9274847" lon="6.0351359"/>
<trkpt lat="51.9282701" lon="6.0345241"/>
<trkpt lat="51.9299166" lon="6.0354273"/>
<trkpt lat="51.9299942" lon="6.0351224"/>
<trkpt lat="51.9301534" lon="6.0349951"/>
<trkpt lat="51.9303673" lon="6.0350901"/>
<trkpt lat="51.9305961" lon="6.0351113"/>
<trkpt lat="51.9310499" lon="6.0350234"/>
<trkpt lat="51.9313146" lon="6.0350659"/>
<trkpt lat="51.9313437" lon="6.0349235"/>
<trkpt lat="51.9327207" lon="6.0355184"/>
<trkpt lat="51.9327992" lon="6.0349722"/>
<trkpt lat="51.9345885" lon="6.0357184"/>
<trkpt lat="51.9347403" lon="6.0357738"/>
<trkpt lat="51.9347594" lon="6.0356305"/>
<trkpt lat="51.9349086" lon="6.0347955"/>
<trkpt lat="51.9349492" lon="6.0343190"/>
<trkpt lat="51.9349734" lon="6.0337376"/>
<trkpt lat="51.9349473" lon="6.0336357"/>
<trkpt lat="51.9347547" lon="6.0333620"/>
<trkpt lat="51.9344687" lon="6.0327947"/>
<trkpt lat="51.9342160" lon="6.0323817"/>
<trkpt lat="51.9343871" lon="6.0320610"/>
<trkpt lat="51.9346488" lon="6.0315199"/>
<trkpt lat="51.9346723" lon="6.0313910"/>
<trkpt lat="51.9346566" lon="6.0311322"/>
<trkpt lat="51.9346526" lon="6.0308305"/>
<trkpt lat="51.9346978" lon="6.0305634"/>
<trkpt lat="51.9348218" lon="6.0301466"/>
<trkpt lat="51.9349337" lon="6.0298743"/>
<trkpt lat="51.9349934" lon="6.0297274"/>
<trkpt lat="51.9351139" lon="6.0296183"/>
<trkpt lat="51.9352921" lon="6.0293869"/>
<trkpt lat="51.9353652" lon="6.0292464"/>
<trkpt lat="51.9348879" lon="6.0291934"/>
<trkpt lat="51.9340913" lon="6.0290989"/>
<trkpt lat="51.9337413" lon="6.0290724"/>
<trkpt lat="51.9331403" lon="6.0290330"/>
<trkpt lat="51.9328933" lon="6.0289864"/>
<trkpt lat="51.9326862" lon="6.0289188"/>
<trkpt lat="51.9326444" lon="6.0289182"/>
<trkpt lat="51.9326188" lon="6.0290809"/>
<trkpt lat="51.9320569" lon="6.0288390"/>
<trkpt lat="51.9319071" lon="6.0287507"/>
<trkpt lat="51.9315995" lon="6.0286355"/>
<trkpt lat="51.9314745" lon="6.0285414"/>
<trkpt lat="51.9312697" lon="6.0284030"/>
<trkpt lat="51.9312643" lon="6.0283506"/>
<trkpt lat="51.9310416" lon="6.0281959"/>
<trkpt lat="51.9308641" lon="6.0280364"/>
<trkpt lat="51.9307720" lon="6.0279266"/>
<trkpt lat="51.9306929" lon="6.0277800"/>
<trkpt lat="51.9304459" lon="6.0272826"/>
<trkpt lat="51.9302779" lon="6.0269455"/>
<trkpt lat="51.9301194" lon="6.0266986"/>
<trkpt lat="51.9299254" lon="6.0264211"/>
<trkpt lat="51.9297159" lon="6.0261273"/>
<trkpt lat="51.9295800" lon="6.0259130"/>
<trkpt lat="51.9294612" lon="6.0257313"/>
<trkpt lat="51.9294059" lon="6.0256543"/>
<trkpt lat="51.9293193" lon="6.0255862"/>
<trkpt lat="51.9292496" lon="6.0255413"/>
<trkpt lat="51.9290443" lon="6.0255130"/>
<trkpt lat="51.9289331" lon="6.0254953"/>
<trkpt lat="51.9288277" lon="6.0254522"/>
<trkpt lat="51.9287338" lon="6.0253955"/>
<trkpt lat="51.9286572" lon="6.0253090"/>
<trkpt lat="51.9285553" lon="6.0251552"/>
<trkpt lat="51.9284621" lon="6.0249808"/>
<trkpt lat="51.9284240" lon="6.0248972"/>
<trkpt lat="51.9284331" lon="6.0248050"/>
<trkpt lat="51.9284944" lon="6.0245473"/>
<trkpt lat="51.9285110" lon="6.0243837"/>
<trkpt lat="51.9285284" lon="6.0240654"/>
<trkpt lat="51.9285056" lon="6.0238089"/>
<trkpt lat="51.9284319" lon="6.0234409"/>
<trkpt lat="51.9283663" lon="6.0231676"/>
<trkpt lat="51.9283121" lon="6.0229153"/>
<trkpt lat="51.9282922" lon="6.0226241"/>
<trkpt lat="51.9282989" lon="6.0224511"/>
<trkpt lat="51.9283104" lon="6.0221605"/>
<trkpt lat="51.9283328" lon="6.0219831"/>
<trkpt lat="51.9283188" lon="6.0219413"/>
<trkpt lat="51.9282491" lon="6.0218850"/>
<trkpt lat="51.9282009" lon="6.0218358"/>
<trkpt lat="51.9281379" lon="6.0216133"/>
<trkpt lat="51.9279689" lon="6.0204038"/>
<trkpt lat="51.9278743" lon="6.0199478"/>
<trkpt lat="51.9277445" lon="6.0194197"/>
<trkpt lat="51.9276180" lon="6.0190602"/>
<trkpt lat="51.9275887" lon="6.0189259"/>
<trkpt lat="51.9273624" lon="6.0182903"/>
<trkpt lat="51.9270040" lon="6.0172744"/>
<trkpt lat="51.9266992" lon="6.0163769"/>
<trkpt lat="51.9261765" lon="6.0148579"/>
<trkpt lat="51.9259998" lon="6.0145415"/>
<trkpt lat="51.9257976" lon="6.0141948"/>
<trkpt lat="51.9252150" lon="6.0131920"/>
<trkpt lat="51.9250185" lon="6.0125845"/>
<trkpt lat="51.9244602" lon="6.0107697"/>
<trkpt lat="51.9244710" lon="6.0106268"/>
<trkpt lat="51.9242467" lon="6.0098759"/>
<trkpt lat="51.9241725" lon="6.0098749"/>
<trkpt lat="51.9241387" lon="6.0097913"/>
<trkpt lat="51.9241010" lon="6.0096223"/>
<trkpt lat="51.9240455" lon="6.0093308"/>
<trkpt lat="51.9239899" lon="6.0087784"/>
<trkpt lat="51.9239542" lon="6.0079863"/>
<trkpt lat="51.9239453" lon="6.0077646"/>
<trkpt lat="51.9239058" lon="6.0076810"/>
<trkpt lat="51.9237326" lon="6.0075217"/>
<trkpt lat="51.9234073" lon="6.0072356"/>
<trkpt lat="51.9224390" lon="6.0063107"/>
<trkpt lat="51.9216411" lon="6.0055520"/>
<trkpt lat="51.9216089" lon="6.0054362"/>
<trkpt lat="51.9215078" lon="6.0045717"/>
<trkpt lat="51.9213730" lon="6.0033490"/>
<trkpt lat="51.9212917" lon="6.0033341"/>
<trkpt lat="51.9208110" lon="6.0033159"/>
<trkpt lat="51.9205458" lon="6.0032684"/>
<trkpt lat="51.9204765" lon="6.0031567"/>
<trkpt lat="51.9203722" lon="6.0031853"/>
<trkpt lat="51.9202068" lon="6.0031530"/>
<trkpt lat="51.9197181" lon="6.0030079"/>
<trkpt lat="51.9196889" lon="6.0028621"/>
<trkpt lat="51.9196108" lon="6.0019864"/>
<trkpt lat="51.9195907" lon="6.0017323"/>
<trkpt lat="51.9195156" lon="6.0007990"/>
<trkpt lat="51.9194263" lon="6.0004147"/>
<trkpt lat="51.9193037" lon="6.0001269"/>
<trkpt lat="51.9191372" lon="5.9997600"/>
<trkpt lat="51.9190966" lon="5.9996164"/>
<trkpt lat="51.9190425" lon="5.9993272"/>
<trkpt lat="51.9190267" lon="5.9990616"/>
<trkpt lat="51.9190509" lon="5.9988104"/>
<trkpt lat="51.9191282" lon="5.9984769"/>
<trkpt lat="51.9192290" lon="5.9983052"/>
<trkpt lat="51.9194063" lon="5.9979660"/>
<trkpt lat="51.9194096" lon="5.9978784"/>
<trkpt lat="51.9192226" lon="5.9978874"/>
<trkpt lat="51.9187899" lon="5.9979920"/>
<trkpt lat="51.9184523" lon="5.9982668"/>
<trkpt lat="51.9182609" lon="5.9983633"/>
<trkpt lat="51.9181444" lon="5.9983036"/>
<trkpt lat="51.9179308" lon="5.9978235"/>
<trkpt lat="51.9178636" lon="5.9975555"/>
<trkpt lat="51.9178485" lon="5.9971885"/>
<trkpt lat="51.9178581" lon="5.9968071"/>
<trkpt lat="51.9177989" lon="5.9966909"/>
<trkpt lat="51.9177934" lon="5.9966193"/>
<trkpt lat="51.9177985" lon="5.9965975"/>
<trkpt lat="51.9175152" lon="5.9963568"/>
<trkpt lat="51.9172351" lon="5.9964268"/>
<trkpt lat="51.9166416" lon="5.9964363"/>
<trkpt lat="51.9162862" lon="5.9964513"/>
<trkpt lat="51.9155606" lon="5.9964949"/>
<trkpt lat="51.9155588" lon="5.9968329"/>
<trkpt lat="51.9154514" lon="5.9968572"/>
<trkpt lat="51.9154634" lon="5.9962585"/>
<trkpt lat="51.9155600" lon="5.9959312"/>
<trkpt lat="51.9158197" lon="5.9953703"/>
<trkpt lat="51.9159257" lon="5.9951539"/>
<trkpt lat="51.9160421" lon="5.9949161"/>
<trkpt lat="51.9162294" lon="5.9940842"/>
<trkpt lat="51.9163025" lon="5.9935866"/>
<trkpt lat="51.9163603" lon="5.9930430"/>
<trkpt lat="51.9163639" lon="5.9923521"/>
<trkpt lat="51.9163690" lon="5.9917630"/>
<trkpt lat="51.9163363" lon="5.9910582"/>
<trkpt lat="51.9163696" lon="5.9904162"/>
<trkpt lat="51.9163768" lon="5.9898404"/>
<trkpt lat="51.9163501" lon="5.9894924"/>
<trkpt lat="51.9161917" lon="5.9886818"/>
<trkpt lat="51.9160055" lon="5.9884110"/>
<trkpt lat="51.9155739" lon="5.9882147"/>
<trkpt lat="51.9153813" lon="5.9880826"/>
<trkpt lat="51.9151887" lon="5.9881601"/>
<trkpt lat="51.9148951" lon="5.9884662"/>
<trkpt lat="51.9145972" lon="5.9886847"/>
<trkpt lat="51.9142657" lon="5.9887727"/>
<trkpt lat="51.9141692" lon="5.9887941"/>
<trkpt lat="51.9141756" lon="5.9890029"/>
<trkpt lat="51.9140046" lon="5.9893656"/>
<trkpt lat="51.9138938" lon="5.9896018"/>
<trkpt lat="51.9138240" lon="5.9897508"/>
<trkpt lat="51.9138014" lon="5.9904581"/>
<trkpt lat="51.9138821" lon="5.9915385"/>
<trkpt lat="51.9138976" lon="5.9918150"/>
<trkpt lat="51.9136838" lon="5.9927241"/>
<trkpt lat="51.9132555" lon="5.9934799"/>
<trkpt lat="51.9129153" lon="5.9937691"/>
<trkpt lat="51.9128926" lon="5.9940299"/>
<trkpt lat="51.9129986" lon="5.9947319"/>
<trkpt lat="51.9130333" lon="5.9949610"/>
<trkpt lat="51.9133578" lon="5.9960335"/>
<trkpt lat="51.9134540" lon="5.9962651"/>
<trkpt lat="51.9135410" lon="5.9967971"/>
<trkpt lat="51.9135769" lon="5.9971349"/>
<trkpt lat="51.9136326" lon="5.9972917"/>
<trkpt lat="51.9138747" lon="5.9971913"/>
<trkpt lat="51.9146227" lon="5.9971012"/>
<trkpt lat="51.9154514" lon="5.9968572"/>
<trkpt lat="51.9154580" lon="5.9964450"/>
<trkpt lat="51.9154557" lon="5.9966043"/>
<trkpt lat="51.9154504" lon="5.9969163"/>
<trkpt lat="51.9153928" lon="5.9977136"/>
<trkpt lat="51.9148747" lon="5.9978422"/>
<trkpt lat="51.9145347" lon="5.9979265"/>
<trkpt lat="51.9141969" lon="5.9980512"/>
<trkpt lat="51.9140539" lon="5.9982849"/>
<trkpt lat="51.9140454" lon="5.9988355"/>
<trkpt lat="51.9140878" lon="6.0008144"/>
<trkpt lat="51.9141185" lon="6.0018399"/>
<trkpt lat="51.9143387" lon="6.0017381"/>
<trkpt lat="51.9144357" lon="6.0017685"/>
<trkpt lat="51.9145841" lon="6.0016250"/>
<trkpt lat="51.9147500" lon="6.0015632"/>
<trkpt lat="51.9148910" lon="6.0014545"/>
<trkpt lat="51.9150532" lon="6.0014335"/>
<trkpt lat="51.9152259" lon="6.0014475"/>
<trkpt lat="51.9153083" lon="6.0015359"/>
<trkpt lat="51.9154515" lon="6.0016951"/>
<trkpt lat="51.9155993" lon="6.0016564"/>
<trkpt lat="51.9158022" lon="6.0015510"/>
<trkpt lat="51.9163680" lon="6.0013867"/>
<trkpt lat="51.9166017" lon="6.0013840"/>
<trkpt lat="51.9167737" lon="6.0015566"/>
<trkpt lat="51.9168846" lon="6.0019504"/>
<trkpt lat="51.9169368" lon="6.0022011"/>
<trkpt lat="51.9170561" lon="6.0024530"/>
<trkpt lat="51.9171985" lon="6.0025381"/>
<trkpt lat="51.9173061" lon="6.0024113"/>
</trkseg></trk>
<trk><name>Kandiapad - shorteningRoute</name><type>shorteningRoute</type><trkseg>
<trkpt lat="51.9213800" lon="6.0212900"/>
<trkpt lat="51.9215000" lon="6.0216000"/>
<trkpt lat="51.9216100" lon="6.0222100"/>
<trkpt lat="51.9219600" lon="6.0225400"/>
<trkpt lat="51.9220900" lon="6.0226200"/>
<trkpt lat="51.9226100" lon="6.0228400"/>
<trkpt lat="51.9226600" lon="6.0229100"/>
<trkpt lat="51.9226800" lon="6.0230200"/>
<trkpt lat="51.9225600" lon="6.0233900"/>
<trkpt lat="51.9224500" lon="6.0238500"/>
<trkpt lat="51.9223900" lon="6.0239900"/>
<trkpt lat="51.9223200" lon="6.0240700"/>
<trkpt lat="51.9222700" lon="6.0241900"/>
<trkpt lat="51.9222500" lon="6.0242800"/>
<trkpt lat="51.9222700" lon="6.0244000"/>
<trkpt lat="51.9223200" lon="6.0244600"/>
<trkpt lat="51.9223900" lon="6.0245100"/>
<trkpt lat="51.9224500" lon="6.0244900"/>
<trkpt lat="51.9225000" lon="6.0244300"/>
<trkpt lat="51.9226000" lon="6.0239700"/>
<trkpt lat="51.9226700" lon="6.0237200"/>
<trkpt lat="51.9228500" lon="6.0232300"/>
<trkpt lat="51.9229800" lon="6.0229900"/>
<trkpt lat="51.9230900" lon="6.0228200"/>
<trkpt lat="51.9232600" lon="6.0226100"/>
<trkpt lat="51.9239200" lon="6.0219800"/>
<trkpt lat="51.9240900" lon="6.0224700"/>
<trkpt lat="51.9240500" lon="6.0225200"/>
<trkpt lat="51.9240300" lon="6.0226400"/>
<trkpt lat="51.9240800" lon="6.0228800"/>
<trkpt lat="51.9240800" lon="6.0229600"/>
<trkpt lat="51.9242500" lon="6.0238300"/>
<trkpt lat="51.9243500" lon="6.0238600"/>
<trkpt lat="51.9244000" lon="6.0239000"/>
<trkpt lat="51.9245200" lon="6.0239600"/>
<trkpt lat="51.9247400" lon="6.0240200"/>
<trkpt lat="51.9251700" lon="6.0240800"/>
<trkpt lat="51.9252800" lon="6.0240700"/>
<trkpt lat="51.9263600" lon="6.0242400"/>
<trkpt lat="51.9273000" lon="6.0242900"/>
<trkpt lat="51.9273600" lon="6.0243100"/>
<trkpt lat="51.9274500" lon="6.0243800"/>
<trkpt lat="51.9275600" lon="6.0245100"/>
<trkpt lat="51.9276400" lon="6.0245500"/>
<trkpt lat="51.9283700" lon="6.0248600"/>
<trkpt lat="51.9284200" lon="6.0249000"/>
</trkseg></trk>
<trk><name>Kandiapad - alternativeRoute</name><type>alternativeRoute</type><trkseg>
<trkpt lat="51.9160500" lon="5.9949100"/>
<trkpt lat="51.9164500" lon="5.9937200"/>
<trkpt lat="51.9165200" lon="5.9932800"/>
<trkpt lat="51.9164400" lon="5.9926700"/>
<trkpt lat="51.9165000" lon="5.9921900"/>
<trkpt lat="51.9165800" lon="5.9918200"/>
<trkpt lat="51.9166600" lon="5.9916500"/>
<trkpt lat="51.9167900" lon="5.9915200"/>
<trkpt lat="51.9167500" lon="5.9908600"/>
<trkpt lat="51.9166200" lon="5.9901200"/>
<trkpt lat="51.9166200" lon="5.9897200"/>
<trkpt lat="51.9166600" lon="5.9892700"/>
<trkpt lat="51.9166800" lon="5.9888700"/>
<trkpt lat="51.9166200" lon="5.9886500"/>
<trkpt lat="51.9166400" lon="5.9882900"/>
<trkpt lat="51.9166200" lon="5.9879100"/>
<trkpt lat="51.9164500" lon="5.9875600"/>
<trkpt lat="51.9162900" lon="5.9873300"/>
<trkpt lat="51.9160200" lon="5.9871000"/>
<trkpt lat="51.9158200" lon="5.9872800"/>
<trkpt lat="51.9157000" lon="5.9874400"/>
<trkpt lat="51.9153600" lon="5.9880700"/>
</trkseg></trk>
<trk><name>Kandiapad - approachRoute</name><type>approachRoute</type><trkseg>
<trkpt lat="51.9437300" lon="6.0140600"/>
<trkpt lat="51.9435000" lon="6.0138200"/>
<trkpt lat="51.9433100" lon="6.0143700"/>
<trkpt lat="51.9408900" lon="6.0204100"/>
<trkpt lat="51.9407300" lon="6.0205400"/>
<trkpt lat="51.9405100" lon="6.0210100"/>
<trkpt lat="51.9404700" lon="6.0214500"/>
<trkpt lat="51.9374400" lon="6.0290600"/>
<trkpt lat="51.9363100" lon="6.0292000"/>
<trkpt lat="51.9356500" lon="6.0292500"/>
<trkpt lat="51.9353600" lon="6.0292400"/>
</trkseg></trk>
<trk><name>Kandiapad - approachRoute</name><type>approachRoute</type><trkseg>
<trkpt lat="51.9194000" lon="5.9978800"/>
<trkpt lat="51.9198500" lon="5.9971300"/>
<trkpt lat="51.9199900" lon="5.9970400"/>
<trkpt lat="51.9201100" lon="5.9970000"/>
<trkpt lat="51.9203100" lon="5.9970300"/>
<trkpt lat="51.9212000" lon="5.9974000"/>
<trkpt lat="51.9216600" lon="5.9974000"/>
<trkpt lat="51.9225200" lon="5.9974200"/>
</trkseg></trk>
<trk><name>Kandiapad - approachRoute</name><type>approachRoute</type><trkseg>
<trkpt lat="51.9173100" lon="6.0024000"/>
<trkpt lat="51.9173400" lon="6.0022500"/>
<trkpt lat="51.9175000" lon="6.0012000"/>
<trkpt lat="51.9177300" lon="6.0002600"/>
<trkpt lat="51.9183800" lon="6.0015500"/>
<trkpt lat="51.9185500" lon="6.0019200"/>
<trkpt lat="51.9185500" lon="6.0023300"/>
<trkpt lat="51.9183700" lon="6.0022300"/>
<trkpt lat="51.9182700" lon="6.0021400"/>
<trkpt lat="51.9181900" lon="6.0020900"/>
</trkseg></trk>
</gpx>