<?xml version="1.0" encoding="UTF-8"?>
<gpx version="1.1" creator="klompenpaden.nl via Jimbo API" xmlns="http://www.topografix.com/GPX/1/1">
<metadata><name>Kelrepad</name><desc>Ontdek Kilder.  Loop over boerenland, door het bos en glooiend buitengebied van Kilder. Klompen aan, rugzak op en gaan!</desc><link href="https://www.klompenpaden.nl/klompenpaden/Kelrepad/e15879c7-7d19-40f9-9fe4-b2c706314dcc"><text>klompenpaden.nl</text></link></metadata>
<wpt lat="51.93592110717536" lon="6.2282341718673715"><name>Start Kilder</name></wpt>
<trk><name>Kelrepad - hoofdroute</name><type>mainRoute</type><trkseg>
<trkpt lat="51.9359097" lon="6.2283292"/>
<trkpt lat="51.9359103" lon="6.2282484"/>
<trkpt lat="51.9360876" lon="6.2284018"/>
<trkpt lat="51.9363417" lon="6.2277948"/>
<trkpt lat="51.9364448" lon="6.2279145"/>
<trkpt lat="51.9364808" lon="6.2277868"/>
<trkpt lat="51.9369251" lon="6.2281866"/>
<trkpt lat="51.9376743" lon="6.2290087"/>
<trkpt lat="51.9381172" lon="6.2289362"/>
<trkpt lat="51.9385448" lon="6.2290019"/>
<trkpt lat="51.9386725" lon="6.2290966"/>
<trkpt lat="51.9388560" lon="6.2293887"/>
<trkpt lat="51.9396049" lon="6.2284215"/>
<trkpt lat="51.9406872" lon="6.2267333"/>
<trkpt lat="51.9411939" lon="6.2257153"/>
<trkpt lat="51.9423916" lon="6.2228401"/>
<trkpt lat="51.9423044" lon="6.2227192"/>
<trkpt lat="51.9435355" lon="6.2206641"/>
<trkpt lat="51.9436154" lon="6.2205048"/>
<trkpt lat="51.9433202" lon="6.2197034"/>
<trkpt lat="51.9431659" lon="6.2191846"/>
<trkpt lat="51.9423335" lon="6.2187788"/>
<trkpt lat="51.9414261" lon="6.2181352"/>
<trkpt lat="51.9372906" lon="6.2187628"/>
<trkpt lat="51.9359960" lon="6.2202279"/>
<trkpt lat="51.9352159" lon="6.2195555"/>
<trkpt lat="51.9349925" lon="6.2193558"/>
<trkpt lat="51.9348464" lon="6.2193840"/>
<trkpt lat="51.9347741" lon="6.2195096"/>
<trkpt lat="51.9347529" lon="6.2195493"/>
<trkpt lat="51.9347159" lon="6.2195952"/>
<trkpt lat="51.9346290" lon="6.2200593"/>
<trkpt lat="51.9344965" lon="6.2203655"/>
<trkpt lat="51.9342685" lon="6.2207880"/>
<trkpt lat="51.9335444" lon="6.2218445"/>
<trkpt lat="51.9327372" lon="6.2229836"/>
<trkpt lat="51.9315663" lon="6.2191768"/>
<trkpt lat="51.9309478" lon="6.2198456"/>
<trkpt lat="51.9291452" lon="6.2174002"/>
<trkpt lat="51.9274691" lon="6.2152920"/>
<trkpt lat="51.9264488" lon="6.2142923"/>
<trkpt lat="51.9259504" lon="6.2141446"/>
<trkpt lat="51.9255390" lon="6.2137908"/>
<trkpt lat="51.9248591" lon="6.2130859"/>
<trkpt lat="51.9242575" lon="6.2121698"/>
<trkpt lat="51.9238056" lon="6.2115201"/>
<trkpt lat="51.9230846" lon="6.2107912"/>
<trkpt lat="51.9225493" lon="6.2103797"/>
<trkpt lat="51.9220449" lon="6.2099366"/>
<trkpt lat="51.9214512" lon="6.2096654"/>
<trkpt lat="51.9208145" lon="6.2093039"/>
<trkpt lat="51.9200073" lon="6.2090658"/>
<trkpt lat="51.9197991" lon="6.2089067"/>
<trkpt lat="51.9196543" lon="6.2087961"/>
<trkpt lat="51.9197077" lon="6.2090220"/>
<trkpt lat="51.9198867" lon="6.2094912"/>
<trkpt lat="51.9202763" lon="6.2103478"/>
<trkpt lat="51.9208264" lon="6.2112668"/>
<trkpt lat="51.9211825" lon="6.2116755"/>
<trkpt lat="51.9201777" lon="6.2152499"/>
<trkpt lat="51.9200035" lon="6.2158177"/>
<trkpt lat="51.9199428" lon="6.2161802"/>
<trkpt lat="51.9198366" lon="6.2170782"/>
<trkpt lat="51.9196576" lon="6.2181826"/>
<trkpt lat="51.9193963" lon="6.2188124"/>
<trkpt lat="51.9190967" lon="6.2198106"/>
<trkpt lat="51.9202820" lon="6.2206865"/>
<trkpt lat="51.9206971" lon="6.2215019"/>
<trkpt lat="51.9214423" lon="6.2230619"/>
<trkpt lat="51.9219689" lon="6.2242603"/>
<trkpt lat="51.9216283" lon="6.2250040"/>
<trkpt lat="51.9214048" lon="6.2253229"/>
<trkpt lat="51.9213523" lon="6.2256796"/>
<trkpt lat="51.9212559" lon="6.2261970"/>
<trkpt lat="51.9210374" lon="6.2268161"/>
<trkpt lat="51.9208525" lon="6.2270665"/>
<trkpt lat="51.9217411" lon="6.2278600"/>
<trkpt lat="51.9230251" lon="6.2288841"/>
<trkpt lat="51.9246292" lon="6.2303874"/>
<trkpt lat="51.9250942" lon="6.2308770"/>
<trkpt lat="51.9255898" lon="6.2314133"/>
<trkpt lat="51.9262505" lon="6.2318104"/>
<trkpt lat="51.9240740" lon="6.2353313"/>
<trkpt lat="51.9230721" lon="6.2368300"/>
<trkpt lat="51.9230772" lon="6.2368472"/>
<trkpt lat="51.9240865" lon="6.2373856"/>
<trkpt lat="51.9247193" lon="6.2376861"/>
<trkpt lat="51.9251539" lon="6.2377751"/>
<trkpt lat="51.9260164" lon="6.2378838"/>
<trkpt lat="51.9264578" lon="6.2380191"/>
<trkpt lat="51.9273268" lon="6.2385159"/>
<trkpt lat="51.9282135" lon="6.2396760"/>
<trkpt lat="51.9273992" lon="6.2410143"/>
<trkpt lat="51.9266327" lon="6.2424192"/>
<trkpt lat="51.9265340" lon="6.2422673"/>
<trkpt lat="51.9257711" lon="6.2431760"/>
<trkpt lat="51.9254474" lon="6.2425466"/>
<trkpt lat="51.9247210" lon="6.2433521"/>
<trkpt lat="51.9238458" lon="6.2440047"/>
<trkpt lat="51.9241484" lon="6.2445760"/>
<trkpt lat="51.9243017" lon="6.2450751"/>
<trkpt lat="51.9244344" lon="6.2454700"/>
<trkpt lat="51.9245614" lon="6.2456686"/>
<trkpt lat="51.9252306" lon="6.2468354"/>
<trkpt lat="51.9250293" lon="6.2470508"/>
<trkpt lat="51.9252130" lon="6.2472966"/>
<trkpt lat="51.9270099" lon="6.2493852"/>
<trkpt lat="51.9266469" lon="6.2502438"/>
<trkpt lat="51.9268992" lon="6.2506810"/>
<trkpt lat="51.9270862" lon="6.2509444"/>
<trkpt lat="51.9272331" lon="6.2513756"/>
<trkpt lat="51.9274315" lon="6.2522092"/>
<trkpt lat="51.9274638" lon="6.2526714"/>
<trkpt lat="51.9276644" lon="6.2535293"/>
<trkpt lat="51.9277961" lon="6.2536918"/>
<trkpt lat="51.9278863" lon="6.2537863"/>
<trkpt lat="51.9285482" lon="6.2546196"/>
<trkpt lat="51.9288022" lon="6.2550054"/>
<trkpt lat="51.9296718" lon="6.2560839"/>
<trkpt lat="51.9294051" lon="6.2574175"/>
<trkpt lat="51.9293112" lon="6.2579123"/>
<trkpt lat="51.9292290" lon="6.2581228"/>
<trkpt lat="51.9290906" lon="6.2584197"/>
<trkpt lat="51.9287179" lon="6.2591430"/>
<trkpt lat="51.9286209" lon="6.2592489"/>
<trkpt lat="51.9288636" lon="6.2598508"/>
<trkpt lat="51.9288723" lon="6.2599808"/>
<trkpt lat="51.9288570" lon="6.2601305"/>
<trkpt lat="51.9291068" lon="6.2607548"/>
<trkpt lat="51.9293664" lon="6.2607059"/>
<trkpt lat="51.9298555" lon="6.2601730"/>
<trkpt lat="51.9302003" lon="6.2598566"/>
<trkpt lat="51.9308641" lon="6.2596377"/>
<trkpt lat="51.9312348" lon="6.2592005"/>
<trkpt lat="51.9318930" lon="6.2594326"/>
<trkpt lat="51.9320830" lon="6.2593093"/>
<trkpt lat="51.9321652" lon="6.2592936"/>
<trkpt lat="51.9322763" lon="6.2589274"/>
<trkpt lat="51.9321495" lon="6.2585142"/>
<trkpt lat="51.9320122" lon="6.2582692"/>
<trkpt lat="51.9318888" lon="6.2580821"/>
<trkpt lat="51.9313874" lon="6.2575986"/>
<trkpt lat="51.9312790" lon="6.2574259"/>
<trkpt lat="51.9312258" lon="6.2572133"/>
<trkpt lat="51.9314156" lon="6.2564571"/>
<trkpt lat="51.9313910" lon="6.2561172"/>
<trkpt lat="51.9300741" lon="6.2537835"/>
<trkpt lat="51.9296347" lon="6.2524132"/>
<trkpt lat="51.9293187" lon="6.2517146"/>
<trkpt lat="51.9285114" lon="6.2508912"/>
<trkpt lat="51.9281011" lon="6.2504102"/>
<trkpt lat="51.9287691" lon="6.2488419"/>
<trkpt lat="51.9289939" lon="6.2483385"/>
<trkpt lat="51.9290980" lon="6.2477634"/>
<trkpt lat="51.9291958" lon="6.2470728"/>
<trkpt lat="51.9297491" lon="6.2455715"/>
<trkpt lat="51.9299745" lon="6.2448453"/>
<trkpt lat="51.9303998" lon="6.2442533"/>
<trkpt lat="51.9308784" lon="6.2437580"/>
<trkpt lat="51.9312453" lon="6.2434163"/>
<trkpt lat="51.9314602" lon="6.2433185"/>
<trkpt lat="51.9319209" lon="6.2436684"/>
<trkpt lat="51.9318644" lon="6.2421610"/>
<trkpt lat="51.9317513" lon="6.2390657"/>
<trkpt lat="51.9352891" lon="6.2342850"/>
<trkpt lat="51.9347700" lon="6.2333826"/>
<trkpt lat="51.9346864" lon="6.2327655"/>
<trkpt lat="51.9348832" lon="6.2321882"/>
<trkpt lat="51.9350412" lon="6.2313832"/>
<trkpt lat="51.9350710" lon="6.2308701"/>
<trkpt lat="51.9350754" lon="6.2305990"/>
<trkpt lat="51.9351038" lon="6.2302879"/>
<trkpt lat="51.9352916" lon="6.2299566"/>
<trkpt lat="51.9359097" lon="6.2283292"/>
</trkseg></trk>
<trk><name>Kelrepad - routeverkorter</name><type>shorteningRoute</type><trkseg>
<trkpt lat="51.9270099" lon="6.2493852"/>
<trkpt lat="51.9281011" lon="6.2504102"/>
</trkseg></trk>
<trk><name>Kelrepad - routeverlenger</name><type>extensionRoute</type><trkseg>
<trkpt lat="51.9310303" lon="6.2594416"/>
<trkpt lat="51.9311636" lon="6.2602361"/>
<trkpt lat="51.9317084" lon="6.2598889"/>
<trkpt lat="51.9320300" lon="6.2598259"/>
<trkpt lat="51.9325649" lon="6.2598479"/>
<trkpt lat="51.9327778" lon="6.2600021"/>
<trkpt lat="51.9326688" lon="6.2612234"/>
<trkpt lat="51.9328822" lon="6.2613199"/>
<trkpt lat="51.9326335" lon="6.2621345"/>
<trkpt lat="51.9325729" lon="6.2626065"/>
<trkpt lat="51.9323873" lon="6.2635839"/>
<trkpt lat="51.9323246" lon="6.2643329"/>
<trkpt lat="51.9323497" lon="6.2647951"/>
<trkpt lat="51.9324731" lon="6.2654669"/>
<trkpt lat="51.9325206" lon="6.2657910"/>
<trkpt lat="51.9324406" lon="6.2659972"/>
<trkpt lat="51.9324149" lon="6.2665738"/>
<trkpt lat="51.9326716" lon="6.2675368"/>
<trkpt lat="51.9329440" lon="6.2683270"/>
<trkpt lat="51.9329759" lon="6.2688239"/>
<trkpt lat="51.9338840" lon="6.2714156"/>
<trkpt lat="51.9341583" lon="6.2719404"/>
<trkpt lat="51.9344339" lon="6.2722921"/>
<trkpt lat="51.9348186" lon="6.2723690"/>
<trkpt lat="51.9351045" lon="6.2722938"/>
<trkpt lat="51.9361305" lon="6.2724872"/>
<trkpt lat="51.9367934" lon="6.2725695"/>
<trkpt lat="51.9373291" lon="6.2724877"/>
<trkpt lat="51.9377664" lon="6.2722193"/>
<trkpt lat="51.9377263" lon="6.2718607"/>
<trkpt lat="51.9376439" lon="6.2714319"/>
<trkpt lat="51.9377770" lon="6.2708112"/>
<trkpt lat="51.9373702" lon="6.2698798"/>
<trkpt lat="51.9373839" lon="6.2690028"/>
<trkpt lat="51.9378784" lon="6.2687124"/>
<trkpt lat="51.9384481" lon="6.2679040"/>
<trkpt lat="51.9385470" lon="6.2670748"/>
<trkpt lat="51.9382127" lon="6.2659947"/>
<trkpt lat="51.9380038" lon="6.2652981"/>
<trkpt lat="51.9380921" lon="6.2649419"/>
<trkpt lat="51.9377292" lon="6.2638613"/>
<trkpt lat="51.9372748" lon="6.2635524"/>
<trkpt lat="51.9369145" lon="6.2630836"/>
<trkpt lat="51.9363316" lon="6.2618256"/>
<trkpt lat="51.9360757" lon="6.2617052"/>
<trkpt lat="51.9357269" lon="6.2606365"/>
<trkpt lat="51.9356571" lon="6.2604274"/>
<trkpt lat="51.9342205" lon="6.2617268"/>
<trkpt lat="51.9342475" lon="6.2609242"/>
<trkpt lat="51.9341703" lon="6.2606160"/>
<trkpt lat="51.9337911" lon="6.2595322"/>
<trkpt lat="51.9332345" lon="6.2599878"/>
<trkpt lat="51.9314151" lon="6.2561438"/>
</trkseg></trk>
<trk><name>Kelrepad - alternatieve route</name><type>alternativeRoute</type><trkseg>
<trkpt lat="51.9414261" lon="6.2181352"/>
<trkpt lat="51.9404773" lon="6.2223793"/>
<trkpt lat="51.9403563" lon="6.2229453"/>
<trkpt lat="51.9403528" lon="6.2234274"/>
<trkpt lat="51.9403715" lon="6.2237893"/>
<trkpt lat="51.9400977" lon="6.2233882"/>
<trkpt lat="51.9395291" lon="6.2225339"/>
<trkpt lat="51.9391381" lon="6.2221478"/>
<trkpt lat="51.9377704" lon="6.2214164"/>
<trkpt lat="51.9370069" lon="6.2210235"/>
<trkpt lat="51.9364142" lon="6.2205648"/>
<trkpt lat="51.9359960" lon="6.2202279"/>
</trkseg></trk>
<trk><name>Kelrepad - overstaproute</name><type>connectionRoute</type><trkseg>
<trkpt lat="51.8922806" lon="6.2294913"/>
<trkpt lat="51.8939490" lon="6.2276544"/>
<trkpt lat="51.8952027" lon="6.2259480"/>
<trkpt lat="51.8961088" lon="6.2249500"/>
<trkpt lat="51.8971702" lon="6.2241856"/>
<trkpt lat="51.8981719" lon="6.2237891"/>
<trkpt lat="51.9008464" lon="6.2229392"/>
<trkpt lat="51.9018912" lon="6.2224973"/>
<trkpt lat="51.9024929" lon="6.2221625"/>
<trkpt lat="51.9047106" lon="6.2193200"/>
<trkpt lat="51.9054031" lon="6.2182486"/>
<trkpt lat="51.9077087" lon="6.2150613"/>
<trkpt lat="51.9085894" lon="6.2176615"/>
<trkpt lat="51.9088728" lon="6.2179436"/>
<trkpt lat="51.9093433" lon="6.2179985"/>
<trkpt lat="51.9112743" lon="6.2173420"/>
<trkpt lat="51.9116970" lon="6.2201185"/>
<trkpt lat="51.9129273" lon="6.2196799"/>
<trkpt lat="51.9136952" lon="6.2200633"/>
<trkpt lat="51.9144997" lon="6.2192937"/>
<trkpt lat="51.9152042" lon="6.2185453"/>
<trkpt lat="51.9161833" lon="6.2193249"/>
<trkpt lat="51.9167599" lon="6.2185048"/>
<trkpt lat="51.9178117" lon="6.2170705"/>
<trkpt lat="51.9191310" lon="6.2161487"/>
<trkpt lat="51.9200038" lon="6.2158187"/>
</trkseg></trk>
</gpx>