<?xml version="1.0" encoding="UTF-8"?>
<gpx version="1.1" creator="klompenpaden.nl via Jimbo API" xmlns="http://www.topografix.com/GPX/1/1">
<metadata><name>Klarenbeeksepad</name><desc>Ontdek het prachtige, cultuurhistorische landschap van Klarenbeek. Door weilanden en bossen, over landgoederen en langs beken en historische boerderijen. Klompen aan, rugzak op en gaan!</desc><link href="https://www.klompenpaden.nl/klompenpaden/Klarenbeeksepad/e8f27829-5dc5-45dc-9621-fa2aa1b8f2e3"><text>klompenpaden.nl</text></link></metadata>
<wpt lat="52.169161200944345" lon="6.067054867744446"><name>Start Klarenbeek</name></wpt>
<trk><name>Klarenbeeksepad - Geimporteerde shapefile</name><type>mainRoute</type><trkseg>
<trkpt lat="52.1604083" lon="6.0634881"/>
<trkpt lat="52.1605401" lon="6.0638421"/>
<trkpt lat="52.1606497" lon="6.0642367"/>
<trkpt lat="52.1606687" lon="6.0647075"/>
<trkpt lat="52.1607548" lon="6.0651019"/>
<trkpt lat="52.1609354" lon="6.0653736"/>
<trkpt lat="52.1612183" lon="6.0657299"/>
<trkpt lat="52.1613098" lon="6.0661930"/>
<trkpt lat="52.1611891" lon="6.0670503"/>
</trkseg></trk>
<trk><name>Klarenbeeksepad - Geimporteerde shapefile</name><type>mainRoute</type><trkseg>
<trkpt lat="52.1604073" lon="6.0634857"/>
<trkpt lat="52.1603575" lon="6.0633306"/>
<trkpt lat="52.1603272" lon="6.0632091"/>
<trkpt lat="52.1603303" lon="6.0631136"/>
<trkpt lat="52.1603795" lon="6.0628127"/>
<trkpt lat="52.1604053" lon="6.0624729"/>
<trkpt lat="52.1603899" lon="6.0622232"/>
<trkpt lat="52.1603465" lon="6.0619306"/>
<trkpt lat="52.1602759" lon="6.0617771"/>
<trkpt lat="52.1601738" lon="6.0616201"/>
<trkpt lat="52.1601239" lon="6.0613563"/>
<trkpt lat="52.1602837" lon="6.0605141"/>
<trkpt lat="52.1605172" lon="6.0592616"/>
<trkpt lat="52.1605633" lon="6.0589564"/>
<trkpt lat="52.1606022" lon="6.0587269"/>
<trkpt lat="52.1606475" lon="6.0585064"/>
<trkpt lat="52.1607048" lon="6.0581365"/>
<trkpt lat="52.1607774" lon="6.0576474"/>
<trkpt lat="52.1608877" lon="6.0570153"/>
<trkpt lat="52.1609900" lon="6.0564728"/>
<trkpt lat="52.1610691" lon="6.0561490"/>
<trkpt lat="52.1611708" lon="6.0557294"/>
<trkpt lat="52.1615361" lon="6.0533807"/>
<trkpt lat="52.1616997" lon="6.0523623"/>
<trkpt lat="52.1617955" lon="6.0519120"/>
<trkpt lat="52.1619888" lon="6.0506837"/>
<trkpt lat="52.1620068" lon="6.0505386"/>
<trkpt lat="52.1621716" lon="6.0496470"/>
<trkpt lat="52.1620859" lon="6.0496058"/>
<trkpt lat="52.1619727" lon="6.0494986"/>
<trkpt lat="52.1614521" lon="6.0479034"/>
<trkpt lat="52.1614980" lon="6.0477318"/>
<trkpt lat="52.1617900" lon="6.0466266"/>
<trkpt lat="52.1618575" lon="6.0463195"/>
<trkpt lat="52.1619386" lon="6.0458952"/>
<trkpt lat="52.1620009" lon="6.0450763"/>
<trkpt lat="52.1620209" lon="6.0435102"/>
<trkpt lat="52.1620222" lon="6.0432727"/>
<trkpt lat="52.1620133" lon="6.0428574"/>
<trkpt lat="52.1619853" lon="6.0424158"/>
<trkpt lat="52.1619375" lon="6.0417677"/>
<trkpt lat="52.1618659" lon="6.0407719"/>
<trkpt lat="52.1618091" lon="6.0400140"/>
<trkpt lat="52.1617137" lon="6.0386890"/>
<trkpt lat="52.1616091" lon="6.0372673"/>
<trkpt lat="52.1614791" lon="6.0355215"/>
<trkpt lat="52.1613921" lon="6.0344055"/>
<trkpt lat="52.1617158" lon="6.0344323"/>
<trkpt lat="52.1616268" lon="6.0333019"/>
<trkpt lat="52.1616959" lon="6.0333048"/>
<trkpt lat="52.1629453" lon="6.0335859"/>
<trkpt lat="52.1629334" lon="6.0322786"/>
<trkpt lat="52.1640964" lon="6.0326976"/>
<trkpt lat="52.1642913" lon="6.0327082"/>
<trkpt lat="52.1652892" lon="6.0328851"/>
<trkpt lat="52.1654045" lon="6.0328695"/>
<trkpt lat="52.1676197" lon="6.0333076"/>
<trkpt lat="52.1693953" lon="6.0336863"/>
<trkpt lat="52.1692183" lon="6.0371189"/>
<trkpt lat="52.1688939" lon="6.0431980"/>
<trkpt lat="52.1688923" lon="6.0436117"/>
<trkpt lat="52.1694134" lon="6.0465355"/>
<trkpt lat="52.1712441" lon="6.0449072"/>
<trkpt lat="52.1713393" lon="6.0449086"/>
<trkpt lat="52.1721206" lon="6.0455312"/>
<trkpt lat="52.1716013" lon="6.0482387"/>
<trkpt lat="52.1715296" lon="6.0482918"/>
<trkpt lat="52.1712882" lon="6.0480871"/>
<trkpt lat="52.1711538" lon="6.0491604"/>
<trkpt lat="52.1710192" lon="6.0502568"/>
<trkpt lat="52.1712374" lon="6.0503529"/>
<trkpt lat="52.1720249" lon="6.0507204"/>
<trkpt lat="52.1727355" lon="6.0509952"/>
<trkpt lat="52.1733039" lon="6.0508924"/>
<trkpt lat="52.1737533" lon="6.0507927"/>
<trkpt lat="52.1744224" lon="6.0507495"/>
<trkpt lat="52.1747502" lon="6.0507223"/>
<trkpt lat="52.1753295" lon="6.0517366"/>
<trkpt lat="52.1753677" lon="6.0518080"/>
<trkpt lat="52.1770219" lon="6.0547145"/>
<trkpt lat="52.1767371" lon="6.0551406"/>
<trkpt lat="52.1781249" lon="6.0573228"/>
<trkpt lat="52.1776504" lon="6.0581667"/>
<trkpt lat="52.1773867" lon="6.0585399"/>
<trkpt lat="52.1764894" lon="6.0594934"/>
<trkpt lat="52.1763071" lon="6.0596744"/>
<trkpt lat="52.1761726" lon="6.0598029"/>
<trkpt lat="52.1759993" lon="6.0599550"/>
<trkpt lat="52.1759007" lon="6.0600406"/>
<trkpt lat="52.1757991" lon="6.0601406"/>
<trkpt lat="52.1751376" lon="6.0606517"/>
<trkpt lat="52.1748498" lon="6.0608322"/>
<trkpt lat="52.1743606" lon="6.0611342"/>
<trkpt lat="52.1739310" lon="6.0613937"/>
<trkpt lat="52.1733343" lon="6.0617715"/>
<trkpt lat="52.1724849" lon="6.0621599"/>
<trkpt lat="52.1718352" lon="6.0624547"/>
<trkpt lat="52.1717110" lon="6.0624507"/>
<trkpt lat="52.1715709" lon="6.0625627"/>
<trkpt lat="52.1712581" lon="6.0627065"/>
<trkpt lat="52.1711929" lon="6.0627890"/>
<trkpt lat="52.1711600" lon="6.0628813"/>
<trkpt lat="52.1709890" lon="6.0656113"/>
<trkpt lat="52.1705918" lon="6.0685628"/>
<trkpt lat="52.1705053" lon="6.0687275"/>
<trkpt lat="52.1705638" lon="6.0688515"/>
<trkpt lat="52.1703710" lon="6.0691698"/>
<trkpt lat="52.1689824" lon="6.0712738"/>
<trkpt lat="52.1689106" lon="6.0713501"/>
<trkpt lat="52.1686314" lon="6.0702938"/>
<trkpt lat="52.1686326" lon="6.0702648"/>
</trkseg></trk>
<trk><name>Klarenbeeksepad - Geimporteerde shapefile</name><type>mainRoute</type><trkseg>
<trkpt lat="52.1611893" lon="6.0670485"/>
<trkpt lat="52.1611983" lon="6.0670659"/>
<trkpt lat="52.1615256" lon="6.0675458"/>
<trkpt lat="52.1616985" lon="6.0682445"/>
<trkpt lat="52.1632271" lon="6.0704972"/>
<trkpt lat="52.1633520" lon="6.0705158"/>
<trkpt lat="52.1635223" lon="6.0704399"/>
<trkpt lat="52.1636787" lon="6.0705351"/>
<trkpt lat="52.1650902" lon="6.0715467"/>
<trkpt lat="52.1654677" lon="6.0718043"/>
<trkpt lat="52.1656596" lon="6.0718474"/>
<trkpt lat="52.1658101" lon="6.0718126"/>
<trkpt lat="52.1659372" lon="6.0715485"/>
<trkpt lat="52.1660961" lon="6.0711522"/>
<trkpt lat="52.1662539" lon="6.0709999"/>
<trkpt lat="52.1668689" lon="6.0703283"/>
<trkpt lat="52.1669479" lon="6.0704873"/>
<trkpt lat="52.1672446" lon="6.0711571"/>
<trkpt lat="52.1682696" lon="6.0702477"/>
<trkpt lat="52.1684647" lon="6.0700712"/>
<trkpt lat="52.1685544" lon="6.0700107"/>
<trkpt lat="52.1686029" lon="6.0701754"/>
<trkpt lat="52.1686326" lon="6.0702648"/>
</trkseg></trk>
<trk><name>Klarenbeeksepad - Geimporteerde shapefile</name><type>mainRoute</type><trkseg>
<trkpt lat="52.1686326" lon="6.0702648"/>
<trkpt lat="52.1686329" lon="6.0702656"/>
</trkseg></trk>
<trk><name>Klarenbeeksepad - Geimporteerde shapefile</name><type>mainRoute</type><trkseg>
<trkpt lat="52.1693734" lon="6.0668859"/>
<trkpt lat="52.1698919" lon="6.0677106"/>
<trkpt lat="52.1693909" lon="6.0680854"/>
<trkpt lat="52.1696425" lon="6.0689866"/>
<trkpt lat="52.1694226" lon="6.0691766"/>
<trkpt lat="52.1689927" lon="6.0694949"/>
<trkpt lat="52.1689013" lon="6.0695798"/>
<trkpt lat="52.1688607" lon="6.0696905"/>
<trkpt lat="52.1687478" lon="6.0697971"/>
<trkpt lat="52.1686417" lon="6.0700430"/>
<trkpt lat="52.1686326" lon="6.0702648"/>
</trkseg></trk>
<trk><name>Klarenbeeksepad - Geimporteerde shapefile</name><type>extensionRoute</type><trkseg>
<trkpt lat="52.1689106" lon="6.0713501"/>
<trkpt lat="52.1693149" lon="6.0729807"/>
<trkpt lat="52.1694144" lon="6.0730595"/>
<trkpt lat="52.1702366" lon="6.0747972"/>
<trkpt lat="52.1709696" lon="6.0763401"/>
<trkpt lat="52.1726944" lon="6.0798788"/>
<trkpt lat="52.1727688" lon="6.0800699"/>
<trkpt lat="52.1727913" lon="6.0804509"/>
<trkpt lat="52.1728699" lon="6.0809874"/>
<trkpt lat="52.1724685" lon="6.0809935"/>
<trkpt lat="52.1721510" lon="6.0809576"/>
<trkpt lat="52.1719443" lon="6.0808338"/>
<trkpt lat="52.1718270" lon="6.0807329"/>
<trkpt lat="52.1713717" lon="6.0815755"/>
<trkpt lat="52.1713379" lon="6.0817186"/>
<trkpt lat="52.1699379" lon="6.0829684"/>
<trkpt lat="52.1696545" lon="6.0823143"/>
<trkpt lat="52.1695513" lon="6.0820651"/>
<trkpt lat="52.1694345" lon="6.0818161"/>
<trkpt lat="52.1693074" lon="6.0815821"/>
<trkpt lat="52.1681921" lon="6.0803658"/>
<trkpt lat="52.1680366" lon="6.0801159"/>
<trkpt lat="52.1675843" lon="6.0785773"/>
<trkpt lat="52.1672519" lon="6.0776749"/>
<trkpt lat="52.1672054" lon="6.0774886"/>
<trkpt lat="52.1679699" lon="6.0768893"/>
<trkpt lat="52.1689018" lon="6.0761380"/>
<trkpt lat="52.1693849" lon="6.0757289"/>
<trkpt lat="52.1685619" lon="6.0739681"/>
<trkpt lat="52.1687226" lon="6.0738097"/>
<trkpt lat="52.1693145" lon="6.0730580"/>
<trkpt lat="52.1693149" lon="6.0729884"/>
</trkseg></trk>
<trk><name>Klarenbeeksepad - Geimporteerde shapefile</name><type>connectionRoute</type><trkseg>
<trkpt lat="52.1587856" lon="6.0136819"/>
<trkpt lat="52.1580747" lon="6.0159457"/>
<trkpt lat="52.1578101" lon="6.0168260"/>
<trkpt lat="52.1576062" lon="6.0172482"/>
<trkpt lat="52.1573968" lon="6.0182364"/>
<trkpt lat="52.1575236" lon="6.0184250"/>
<trkpt lat="52.1582675" lon="6.0191347"/>
<trkpt lat="52.1591603" lon="6.0199881"/>
<trkpt lat="52.1604223" lon="6.0210301"/>
<trkpt lat="52.1608576" lon="6.0243359"/>
<trkpt lat="52.1609623" lon="6.0251624"/>
<trkpt lat="52.1610285" lon="6.0259619"/>
<trkpt lat="52.1610781" lon="6.0266356"/>
<trkpt lat="52.1611056" lon="6.0272914"/>
<trkpt lat="52.1611442" lon="6.0277316"/>
<trkpt lat="52.1612544" lon="6.0285311"/>
<trkpt lat="52.1613316" lon="6.0290072"/>
<trkpt lat="52.1613646" lon="6.0294204"/>
<trkpt lat="52.1615299" lon="6.0315853"/>
<trkpt lat="52.1616512" lon="6.0332921"/>
</trkseg></trk>
<trk><name>Klarenbeeksepad - Geimporteerde shapefile</name><type>connectionRoute</type><trkseg>
<trkpt lat="52.1775788" lon="6.1111222"/>
<trkpt lat="52.1774364" lon="6.1105590"/>
<trkpt lat="52.1771234" lon="6.1099428"/>
<trkpt lat="52.1767211" lon="6.1091959"/>
<trkpt lat="52.1763401" lon="6.1082796"/>
<trkpt lat="52.1759852" lon="6.1071752"/>
<trkpt lat="52.1728692" lon="6.0809863"/>
</trkseg></trk>
<trk><name>Klarenbeeksepad - Geimporteerde shapefile</name><type>approachRoute</type><trkseg>
<trkpt lat="52.1689086" lon="6.0713458"/>
<trkpt lat="52.1693106" lon="6.0729689"/>
<trkpt lat="52.1694143" lon="6.0730584"/>
<trkpt lat="52.1703391" lon="6.0750156"/>
<trkpt lat="52.1709787" lon="6.0763530"/>
<trkpt lat="52.1718399" lon="6.0781313"/>
<trkpt lat="52.1727177" lon="6.0780090"/>
<trkpt lat="52.1761638" lon="6.0775673"/>
<trkpt lat="52.1768414" lon="6.0788156"/>
<trkpt lat="52.1770930" lon="6.0797170"/>
<trkpt lat="52.1780643" lon="6.0843896"/>
<trkpt lat="52.1779672" lon="6.0847130"/>
</trkseg></trk>
</gpx>