<?xml version="1.0" encoding="UTF-8"?>
<gpx version="1.1" creator="klompenpaden.nl via Jimbo API" xmlns="http://www.topografix.com/GPX/1/1">
<metadata><name>Klompenmakerspad</name><desc>Ontdek het mooie buitengebied van Oene. Wandelen door agrarische gebied, met wijde blik in het Oener Broek, oude zandwegen en diverse nieuwe agrarische initiatieven. Rust, gevarieerde landschappen en fraaie cultuurhistorische elementen bepalen hier de sfeer. Dit Klompenpad is een ode aan Oene, van oudsher klompenmakersdorp. Klompen aan, rugzak op en gaan!
</desc><link href="https://www.klompenpaden.nl/klompenpaden/Klompenmakerspad/4cd3f513-0a88-4b67-9a36-19f2ba7d84bd"><text>klompenpaden.nl</text></link></metadata>
<wpt lat="52.34368045958613" lon="6.047260165214539"><name>Start Oene</name></wpt>
<trk><name>Klompenmakerspad - hoofdroute</name><type>mainRoute</type><trkseg>
<trkpt lat="52.3436500" lon="6.0473600"/>
<trkpt lat="52.3437700" lon="6.0471500"/>
<trkpt lat="52.3440000" lon="6.0470500"/>
<trkpt lat="52.3443700" lon="6.0471300"/>
<trkpt lat="52.3446100" lon="6.0472000"/>
<trkpt lat="52.3445600" lon="6.0482300"/>
<trkpt lat="52.3454200" lon="6.0488200"/>
<trkpt lat="52.3460300" lon="6.0492600"/>
<trkpt lat="52.3468200" lon="6.0498800"/>
<trkpt lat="52.3471000" lon="6.0500600"/>
<trkpt lat="52.3475600" lon="6.0502400"/>
<trkpt lat="52.3486000" lon="6.0505300"/>
<trkpt lat="52.3493100" lon="6.0507800"/>
<trkpt lat="52.3495600" lon="6.0509000"/>
<trkpt lat="52.3500600" lon="6.0528400"/>
<trkpt lat="52.3500900" lon="6.0531800"/>
<trkpt lat="52.3501000" lon="6.0540400"/>
<trkpt lat="52.3500700" lon="6.0549700"/>
<trkpt lat="52.3504900" lon="6.0555600"/>
<trkpt lat="52.3509000" lon="6.0562500"/>
<trkpt lat="52.3513300" lon="6.0571100"/>
<trkpt lat="52.3516400" lon="6.0576600"/>
<trkpt lat="52.3519700" lon="6.0584800"/>
<trkpt lat="52.3521500" lon="6.0591100"/>
<trkpt lat="52.3523800" lon="6.0604300"/>
<trkpt lat="52.3524200" lon="6.0610600"/>
<trkpt lat="52.3524700" lon="6.0613800"/>
<trkpt lat="52.3528700" lon="6.0626400"/>
<trkpt lat="52.3528200" lon="6.0629900"/>
<trkpt lat="52.3527700" lon="6.0635600"/>
<trkpt lat="52.3527200" lon="6.0638400"/>
<trkpt lat="52.3524800" lon="6.0646600"/>
<trkpt lat="52.3522100" lon="6.0650000"/>
<trkpt lat="52.3518500" lon="6.0674900"/>
<trkpt lat="52.3517300" lon="6.0682100"/>
<trkpt lat="52.3516200" lon="6.0686200"/>
<trkpt lat="52.3514700" lon="6.0686100"/>
<trkpt lat="52.3513400" lon="6.0684800"/>
<trkpt lat="52.3507300" lon="6.0686400"/>
<trkpt lat="52.3502300" lon="6.0687400"/>
<trkpt lat="52.3499800" lon="6.0687700"/>
<trkpt lat="52.3498800" lon="6.0687600"/>
<trkpt lat="52.3497800" lon="6.0686100"/>
<trkpt lat="52.3497200" lon="6.0667100"/>
<trkpt lat="52.3468800" lon="6.0636900"/>
<trkpt lat="52.3465600" lon="6.0633300"/>
<trkpt lat="52.3462600" lon="6.0630700"/>
<trkpt lat="52.3460900" lon="6.0629900"/>
<trkpt lat="52.3459100" lon="6.0629600"/>
<trkpt lat="52.3454700" lon="6.0631000"/>
<trkpt lat="52.3449400" lon="6.0635000"/>
<trkpt lat="52.3445800" lon="6.0636500"/>
<trkpt lat="52.3440000" lon="6.0637800"/>
<trkpt lat="52.3437100" lon="6.0637600"/>
<trkpt lat="52.3434400" lon="6.0636500"/>
<trkpt lat="52.3431800" lon="6.0634600"/>
<trkpt lat="52.3428500" lon="6.0630800"/>
<trkpt lat="52.3427300" lon="6.0629100"/>
<trkpt lat="52.3425800" lon="6.0628400"/>
<trkpt lat="52.3423300" lon="6.0626700"/>
<trkpt lat="52.3421000" lon="6.0624100"/>
<trkpt lat="52.3418000" lon="6.0622400"/>
<trkpt lat="52.3415200" lon="6.0622000"/>
<trkpt lat="52.3413300" lon="6.0622500"/>
<trkpt lat="52.3409000" lon="6.0624400"/>
<trkpt lat="52.3406500" lon="6.0625300"/>
<trkpt lat="52.3399700" lon="6.0624200"/>
<trkpt lat="52.3389600" lon="6.0622000"/>
<trkpt lat="52.3385300" lon="6.0621600"/>
<trkpt lat="52.3380800" lon="6.0620800"/>
<trkpt lat="52.3376800" lon="6.0620700"/>
<trkpt lat="52.3374100" lon="6.0620900"/>
<trkpt lat="52.3369300" lon="6.0627700"/>
<trkpt lat="52.3367200" lon="6.0632200"/>
<trkpt lat="52.3365700" lon="6.0634500"/>
<trkpt lat="52.3363400" lon="6.0634900"/>
<trkpt lat="52.3360500" lon="6.0632500"/>
<trkpt lat="52.3355000" lon="6.0628600"/>
<trkpt lat="52.3345800" lon="6.0623600"/>
<trkpt lat="52.3341400" lon="6.0620900"/>
<trkpt lat="52.3337000" lon="6.0619400"/>
<trkpt lat="52.3331300" lon="6.0615300"/>
<trkpt lat="52.3309000" lon="6.0601900"/>
<trkpt lat="52.3306900" lon="6.0602300"/>
<trkpt lat="52.3306700" lon="6.0599300"/>
<trkpt lat="52.3306800" lon="6.0597700"/>
<trkpt lat="52.3307600" lon="6.0597000"/>
<trkpt lat="52.3312300" lon="6.0600000"/>
<trkpt lat="52.3312900" lon="6.0596800"/>
<trkpt lat="52.3313400" lon="6.0546300"/>
<trkpt lat="52.3313800" lon="6.0530600"/>
<trkpt lat="52.3326800" lon="6.0531600"/>
<trkpt lat="52.3327200" lon="6.0528000"/>
<trkpt lat="52.3349100" lon="6.0531800"/>
<trkpt lat="52.3351500" lon="6.0478500"/>
<trkpt lat="52.3350000" lon="6.0477000"/>
<trkpt lat="52.3347200" lon="6.0474900"/>
<trkpt lat="52.3344800" lon="6.0472900"/>
<trkpt lat="52.3342500" lon="6.0470300"/>
<trkpt lat="52.3340700" lon="6.0467700"/>
<trkpt lat="52.3340500" lon="6.0466900"/>
<trkpt lat="52.3341400" lon="6.0464300"/>
<trkpt lat="52.3341500" lon="6.0460000"/>
<trkpt lat="52.3341300" lon="6.0442600"/>
<trkpt lat="52.3341100" lon="6.0436300"/>
<trkpt lat="52.3340400" lon="6.0429500"/>
<trkpt lat="52.3340300" lon="6.0426300"/>
<trkpt lat="52.3341500" lon="6.0424200"/>
<trkpt lat="52.3345300" lon="6.0420800"/>
<trkpt lat="52.3345000" lon="6.0417500"/>
<trkpt lat="52.3345600" lon="6.0415600"/>
<trkpt lat="52.3346600" lon="6.0413700"/>
<trkpt lat="52.3347400" lon="6.0410100"/>
<trkpt lat="52.3350500" lon="6.0391300"/>
<trkpt lat="52.3354600" lon="6.0370800"/>
<trkpt lat="52.3354700" lon="6.0369400"/>
<trkpt lat="52.3327800" lon="6.0358400"/>
<trkpt lat="52.3329700" lon="6.0334100"/>
<trkpt lat="52.3315100" lon="6.0327400"/>
<trkpt lat="52.3310500" lon="6.0325100"/>
<trkpt lat="52.3309700" lon="6.0323900"/>
<trkpt lat="52.3309400" lon="6.0321200"/>
<trkpt lat="52.3322100" lon="6.0305800"/>
<trkpt lat="52.3327900" lon="6.0299200"/>
<trkpt lat="52.3330600" lon="6.0295600"/>
<trkpt lat="52.3337900" lon="6.0282500"/>
<trkpt lat="52.3339400" lon="6.0284100"/>
<trkpt lat="52.3340700" lon="6.0280000"/>
<trkpt lat="52.3342300" lon="6.0276800"/>
<trkpt lat="52.3345800" lon="6.0271600"/>
<trkpt lat="52.3359300" lon="6.0256900"/>
<trkpt lat="52.3360300" lon="6.0259300"/>
<trkpt lat="52.3362600" lon="6.0268000"/>
<trkpt lat="52.3363100" lon="6.0271800"/>
<trkpt lat="52.3364400" lon="6.0285700"/>
<trkpt lat="52.3365200" lon="6.0296600"/>
<trkpt lat="52.3369900" lon="6.0296900"/>
<trkpt lat="52.3375400" lon="6.0296900"/>
<trkpt lat="52.3379700" lon="6.0296200"/>
<trkpt lat="52.3379800" lon="6.0295100"/>
<trkpt lat="52.3390000" lon="6.0293800"/>
<trkpt lat="52.3397800" lon="6.0293000"/>
<trkpt lat="52.3396600" lon="6.0283700"/>
<trkpt lat="52.3397200" lon="6.0283400"/>
<trkpt lat="52.3394100" lon="6.0258100"/>
<trkpt lat="52.3402800" lon="6.0256100"/>
<trkpt lat="52.3409700" lon="6.0295500"/>
<trkpt lat="52.3412300" lon="6.0311400"/>
<trkpt lat="52.3412100" lon="6.0314800"/>
<trkpt lat="52.3411200" lon="6.0318900"/>
<trkpt lat="52.3409000" lon="6.0325300"/>
<trkpt lat="52.3408400" lon="6.0327600"/>
<trkpt lat="52.3408900" lon="6.0340900"/>
<trkpt lat="52.3409800" lon="6.0358600"/>
<trkpt lat="52.3410400" lon="6.0376100"/>
<trkpt lat="52.3412000" lon="6.0393900"/>
<trkpt lat="52.3416300" lon="6.0429600"/>
<trkpt lat="52.3417400" lon="6.0440500"/>
<trkpt lat="52.3422800" lon="6.0442400"/>
<trkpt lat="52.3424400" lon="6.0443400"/>
<trkpt lat="52.3426100" lon="6.0446500"/>
<trkpt lat="52.3431900" lon="6.0456500"/>
<trkpt lat="52.3436000" lon="6.0460700"/>
<trkpt lat="52.3439300" lon="6.0463300"/>
<trkpt lat="52.3440500" lon="6.0464000"/>
<trkpt lat="52.3439700" lon="6.0467700"/>
<trkpt lat="52.3439400" lon="6.0470300"/>
<trkpt lat="52.3437300" lon="6.0471900"/>
<trkpt lat="52.3436500" lon="6.0473400"/>
</trkseg></trk>
<trk><name>Klompenmakerspad - routeverkorter</name><type>shorteningRoute</type><trkseg>
<trkpt lat="52.3445600" lon="6.0482500"/>
<trkpt lat="52.3444900" lon="6.0491700"/>
<trkpt lat="52.3444200" lon="6.0493300"/>
<trkpt lat="52.3445200" lon="6.0496600"/>
<trkpt lat="52.3445300" lon="6.0497400"/>
<trkpt lat="52.3444200" lon="6.0499200"/>
<trkpt lat="52.3443600" lon="6.0501900"/>
<trkpt lat="52.3441800" lon="6.0512800"/>
<trkpt lat="52.3440800" lon="6.0520000"/>
<trkpt lat="52.3439800" lon="6.0532400"/>
<trkpt lat="52.3435400" lon="6.0570300"/>
<trkpt lat="52.3434100" lon="6.0575600"/>
<trkpt lat="52.3433200" lon="6.0578600"/>
<trkpt lat="52.3432000" lon="6.0580700"/>
<trkpt lat="52.3431200" lon="6.0581600"/>
<trkpt lat="52.3430700" lon="6.0582900"/>
<trkpt lat="52.3430100" lon="6.0586800"/>
<trkpt lat="52.3429600" lon="6.0598900"/>
<trkpt lat="52.3427800" lon="6.0629900"/>
</trkseg></trk>
<trk><name>Klompenmakerspad - routeverkorter</name><type>shorteningRoute</type><trkseg>
<trkpt lat="52.3436500" lon="6.0473600"/>
<trkpt lat="52.3436400" lon="6.0476300"/>
<trkpt lat="52.3434400" lon="6.0483500"/>
<trkpt lat="52.3433200" lon="6.0486500"/>
<trkpt lat="52.3428900" lon="6.0482800"/>
<trkpt lat="52.3424000" lon="6.0479600"/>
<trkpt lat="52.3417000" lon="6.0474200"/>
<trkpt lat="52.3407700" lon="6.0461100"/>
<trkpt lat="52.3406000" lon="6.0451600"/>
<trkpt lat="52.3402400" lon="6.0451000"/>
<trkpt lat="52.3399200" lon="6.0450000"/>
<trkpt lat="52.3392500" lon="6.0446500"/>
<trkpt lat="52.3388800" lon="6.0445300"/>
<trkpt lat="52.3386800" lon="6.0444300"/>
<trkpt lat="52.3384000" lon="6.0444700"/>
<trkpt lat="52.3380800" lon="6.0445900"/>
<trkpt lat="52.3375400" lon="6.0446100"/>
<trkpt lat="52.3372900" lon="6.0444800"/>
<trkpt lat="52.3369100" lon="6.0442300"/>
<trkpt lat="52.3363100" lon="6.0437800"/>
<trkpt lat="52.3361100" lon="6.0435200"/>
<trkpt lat="52.3359400" lon="6.0432700"/>
<trkpt lat="52.3358200" lon="6.0429100"/>
<trkpt lat="52.3356600" lon="6.0426300"/>
<trkpt lat="52.3354600" lon="6.0424700"/>
<trkpt lat="52.3348600" lon="6.0421900"/>
<trkpt lat="52.3345300" lon="6.0420500"/>
</trkseg></trk>
<trk><name>Klompenmakerspad - routeverlenger</name><type>extensionRoute</type><trkseg>
<trkpt lat="52.3495600" lon="6.0508800"/>
<trkpt lat="52.3493600" lon="6.0495600"/>
<trkpt lat="52.3488500" lon="6.0465600"/>
<trkpt lat="52.3489800" lon="6.0465000"/>
<trkpt lat="52.3495200" lon="6.0466100"/>
<trkpt lat="52.3501300" lon="6.0467100"/>
<trkpt lat="52.3509900" lon="6.0469700"/>
<trkpt lat="52.3512900" lon="6.0469300"/>
<trkpt lat="52.3516300" lon="6.0468300"/>
<trkpt lat="52.3519600" lon="6.0467800"/>
<trkpt lat="52.3521600" lon="6.0467400"/>
<trkpt lat="52.3531700" lon="6.0463000"/>
<trkpt lat="52.3537600" lon="6.0460000"/>
<trkpt lat="52.3534300" lon="6.0442500"/>
<trkpt lat="52.3533800" lon="6.0438900"/>
<trkpt lat="52.3535000" lon="6.0430200"/>
<trkpt lat="52.3535000" lon="6.0428200"/>
<trkpt lat="52.3533000" lon="6.0419200"/>
<trkpt lat="52.3529500" lon="6.0410200"/>
<trkpt lat="52.3526900" lon="6.0406300"/>
<trkpt lat="52.3519200" lon="6.0396300"/>
<trkpt lat="52.3517300" lon="6.0393000"/>
<trkpt lat="52.3515900" lon="6.0390300"/>
<trkpt lat="52.3514500" lon="6.0382700"/>
<trkpt lat="52.3513300" lon="6.0379800"/>
<trkpt lat="52.3511700" lon="6.0377900"/>
<trkpt lat="52.3510700" lon="6.0374700"/>
<trkpt lat="52.3509500" lon="6.0369900"/>
<trkpt lat="52.3509100" lon="6.0366700"/>
<trkpt lat="52.3508800" lon="6.0347300"/>
<trkpt lat="52.3508500" lon="6.0342100"/>
<trkpt lat="52.3508100" lon="6.0338000"/>
<trkpt lat="52.3507400" lon="6.0336100"/>
<trkpt lat="52.3505700" lon="6.0333900"/>
<trkpt lat="52.3504000" lon="6.0332000"/>
<trkpt lat="52.3486100" lon="6.0318600"/>
<trkpt lat="52.3491200" lon="6.0296300"/>
<trkpt lat="52.3492600" lon="6.0289100"/>
<trkpt lat="52.3469000" lon="6.0255900"/>
<trkpt lat="52.3465000" lon="6.0253500"/>
<trkpt lat="52.3457500" lon="6.0249500"/>
<trkpt lat="52.3458300" lon="6.0253600"/>
<trkpt lat="52.3446000" lon="6.0267900"/>
<trkpt lat="52.3427100" lon="6.0290500"/>
<trkpt lat="52.3423700" lon="6.0294800"/>
<trkpt lat="52.3420000" lon="6.0298900"/>
<trkpt lat="52.3416900" lon="6.0302800"/>
<trkpt lat="52.3414500" lon="6.0305500"/>
<trkpt lat="52.3413200" lon="6.0308100"/>
<trkpt lat="52.3412300" lon="6.0311800"/>
</trkseg></trk>
<trk><name>Klompenmakerspad - overstaproute</name><type>connectionRoute</type><trkseg>
<trkpt lat="52.3338100" lon="6.0281900"/>
<trkpt lat="52.3333400" lon="6.0274100"/>
<trkpt lat="52.3332500" lon="6.0274000"/>
<trkpt lat="52.3329700" lon="6.0270400"/>
<trkpt lat="52.3324000" lon="6.0264400"/>
<trkpt lat="52.3316900" lon="6.0257800"/>
<trkpt lat="52.3313600" lon="6.0255200"/>
<trkpt lat="52.3312800" lon="6.0253800"/>
<trkpt lat="52.3313000" lon="6.0252300"/>
<trkpt lat="52.3315400" lon="6.0246600"/>
<trkpt lat="52.3318200" lon="6.0237600"/>
<trkpt lat="52.3324400" lon="6.0219800"/>
<trkpt lat="52.3325600" lon="6.0215500"/>
<trkpt lat="52.3326000" lon="6.0213100"/>
<trkpt lat="52.3327500" lon="6.0165700"/>
<trkpt lat="52.3328500" lon="6.0151700"/>
<trkpt lat="52.3328600" lon="6.0148000"/>
<trkpt lat="52.3327500" lon="6.0142900"/>
<trkpt lat="52.3325400" lon="6.0140500"/>
<trkpt lat="52.3316100" lon="6.0136400"/>
<trkpt lat="52.3315800" lon="6.0138700"/>
<trkpt lat="52.3315200" lon="6.0139800"/>
<trkpt lat="52.3314300" lon="6.0140600"/>
<trkpt lat="52.3313300" lon="6.0139900"/>
<trkpt lat="52.3311100" lon="6.0137000"/>
<trkpt lat="52.3306500" lon="6.0133200"/>
<trkpt lat="52.3302700" lon="6.0129000"/>
<trkpt lat="52.3299600" lon="6.0123900"/>
<trkpt lat="52.3298000" lon="6.0120000"/>
<trkpt lat="52.3296500" lon="6.0115800"/>
<trkpt lat="52.3294500" lon="6.0108300"/>
<trkpt lat="52.3291700" lon="6.0089600"/>
<trkpt lat="52.3291500" lon="6.0080500"/>
<trkpt lat="52.3292400" lon="6.0079800"/>
<trkpt lat="52.3293400" lon="6.0080200"/>
<trkpt lat="52.3293900" lon="6.0082500"/>
<trkpt lat="52.3294100" lon="6.0085600"/>
<trkpt lat="52.3294800" lon="6.0088000"/>
<trkpt lat="52.3297500" lon="6.0087200"/>
<trkpt lat="52.3298200" lon="6.0084100"/>
<trkpt lat="52.3300100" lon="6.0070500"/>
<trkpt lat="52.3298800" lon="6.0070200"/>
<trkpt lat="52.3297900" lon="6.0069800"/>
<trkpt lat="52.3297200" lon="6.0070600"/>
<trkpt lat="52.3295600" lon="6.0071100"/>
<trkpt lat="52.3292000" lon="6.0071100"/>
<trkpt lat="52.3290700" lon="6.0070400"/>
<trkpt lat="52.3289900" lon="6.0068900"/>
<trkpt lat="52.3289000" lon="6.0063500"/>
<trkpt lat="52.3287500" lon="6.0051100"/>
<trkpt lat="52.3286200" lon="6.0038700"/>
<trkpt lat="52.3285100" lon="6.0037300"/>
<trkpt lat="52.3283700" lon="6.0037000"/>
<trkpt lat="52.3281500" lon="6.0033000"/>
<trkpt lat="52.3280700" lon="6.0032900"/>
<trkpt lat="52.3275600" lon="6.0034300"/>
<trkpt lat="52.3273900" lon="6.0035000"/>
<trkpt lat="52.3273400" lon="6.0033900"/>
<trkpt lat="52.3269400" lon="6.0021000"/>
<trkpt lat="52.3268700" lon="6.0018000"/>
<trkpt lat="52.3267900" lon="6.0008500"/>
<trkpt lat="52.3267100" lon="5.9981600"/>
<trkpt lat="52.3264500" lon="5.9956600"/>
<trkpt lat="52.3262900" lon="5.9938200"/>
</trkseg></trk>
<trk><name>Klompenmakerspad - Overstaproute</name><type>connectionRoute</type><trkseg>
<trkpt lat="52.3299228" lon="5.9980716"/>
<trkpt lat="52.3295385" lon="5.9978800"/>
<trkpt lat="52.3292829" lon="5.9976436"/>
<trkpt lat="52.3289367" lon="5.9986555"/>
<trkpt lat="52.3281293" lon="6.0032994"/>
<trkpt lat="52.3283675" lon="6.0037033"/>
<trkpt lat="52.3286099" lon="6.0038593"/>
<trkpt lat="52.3286647" lon="6.0041043"/>
<trkpt lat="52.3289407" lon="6.0067797"/>
<trkpt lat="52.3289940" lon="6.0069949"/>
<trkpt lat="52.3291199" lon="6.0071030"/>
<trkpt lat="52.3292691" lon="6.0071363"/>
<trkpt lat="52.3297060" lon="6.0071049"/>
<trkpt lat="52.3297527" lon="6.0069680"/>
<trkpt lat="52.3300126" lon="6.0070547"/>
<trkpt lat="52.3297541" lon="6.0087298"/>
<trkpt lat="52.3294862" lon="6.0088037"/>
<trkpt lat="52.3294161" lon="6.0085601"/>
<trkpt lat="52.3293999" lon="6.0082591"/>
<trkpt lat="52.3293417" lon="6.0080254"/>
<trkpt lat="52.3292408" lon="6.0079852"/>
<trkpt lat="52.3291513" lon="6.0080518"/>
<trkpt lat="52.3291703" lon="6.0089643"/>
<trkpt lat="52.3291829" lon="6.0090525"/>
<trkpt lat="52.3292288" lon="6.0091732"/>
<trkpt lat="52.3294441" lon="6.0106689"/>
<trkpt lat="52.3296260" lon="6.0115039"/>
<trkpt lat="52.3298178" lon="6.0120588"/>
<trkpt lat="52.3300717" lon="6.0125876"/>
<trkpt lat="52.3303035" lon="6.0129473"/>
<trkpt lat="52.3305776" lon="6.0132764"/>
<trkpt lat="52.3307834" lon="6.0134669"/>
<trkpt lat="52.3311688" lon="6.0137662"/>
<trkpt lat="52.3312601" lon="6.0138800"/>
<trkpt lat="52.3313818" lon="6.0140568"/>
<trkpt lat="52.3314813" lon="6.0140708"/>
<trkpt lat="52.3315700" lon="6.0139469"/>
<trkpt lat="52.3316630" lon="6.0137482"/>
<trkpt lat="52.3324849" lon="6.0140787"/>
<trkpt lat="52.3327784" lon="6.0143705"/>
<trkpt lat="52.3328642" lon="6.0147907"/>
<trkpt lat="52.3327860" lon="6.0158214"/>
<trkpt lat="52.3325833" lon="6.0215028"/>
<trkpt lat="52.3319643" lon="6.0233324"/>
<trkpt lat="52.3313999" lon="6.0249877"/>
<trkpt lat="52.3312563" lon="6.0253296"/>
<trkpt lat="52.3313208" lon="6.0254646"/>
<trkpt lat="52.3322828" lon="6.0263320"/>
<trkpt lat="52.3324526" lon="6.0264981"/>
<trkpt lat="52.3332804" lon="6.0274000"/>
<trkpt lat="52.3333318" lon="6.0274035"/>
<trkpt lat="52.3338917" lon="6.0282658"/>
</trkseg></trk>
</gpx>