<?xml version="1.0" encoding="UTF-8"?>
<gpx version="1.1" creator="klompenpaden.nl via Jimbo API" xmlns="http://www.topografix.com/GPX/1/1">
<metadata><name>Kopermolenpad</name><desc>Ontdek het mooie buitengebied van Wenum Wiesel. Wandelen langs beken, over historische paden en enken, door weilanden en beekdalen. Laat je verrassen
door dit bijzondere afwisselende landschap. Klompen aan, rugzak op en gaan!</desc><link href="https://www.klompenpaden.nl/klompenpaden/Kopermolenpad/637a8f88-9245-43d3-a739-564feb7d50a3"><text>klompenpaden.nl</text></link></metadata>
<wpt lat="52.25772983179246" lon="5.964353084564209"><name>Start Wenum Wiesel</name></wpt>
<trk><name>Kopermolenpad - Geimporteerde shapefile</name><type>mainRoute</type><trkseg>
<trkpt lat="52.2577405" lon="5.9648182"/>
<trkpt lat="52.2571108" lon="5.9651788"/>
<trkpt lat="52.2570807" lon="5.9649592"/>
<trkpt lat="52.2565351" lon="5.9638827"/>
<trkpt lat="52.2565294" lon="5.9638153"/>
<trkpt lat="52.2568928" lon="5.9634460"/>
<trkpt lat="52.2566908" lon="5.9620580"/>
<trkpt lat="52.2566214" lon="5.9608031"/>
<trkpt lat="52.2566669" lon="5.9605633"/>
<trkpt lat="52.2567595" lon="5.9606437"/>
<trkpt lat="52.2573048" lon="5.9608004"/>
<trkpt lat="52.2573839" lon="5.9610367"/>
<trkpt lat="52.2574304" lon="5.9615972"/>
<trkpt lat="52.2574744" lon="5.9617818"/>
<trkpt lat="52.2575807" lon="5.9618701"/>
<trkpt lat="52.2582423" lon="5.9622736"/>
<trkpt lat="52.2584488" lon="5.9624930"/>
<trkpt lat="52.2588119" lon="5.9599150"/>
<trkpt lat="52.2589124" lon="5.9589716"/>
<trkpt lat="52.2587939" lon="5.9582859"/>
<trkpt lat="52.2576940" lon="5.9541758"/>
<trkpt lat="52.2570883" lon="5.9519124"/>
<trkpt lat="52.2572304" lon="5.9519453"/>
<trkpt lat="52.2587191" lon="5.9526391"/>
<trkpt lat="52.2588532" lon="5.9523790"/>
<trkpt lat="52.2587611" lon="5.9521615"/>
<trkpt lat="52.2587465" lon="5.9513088"/>
<trkpt lat="52.2586870" lon="5.9478379"/>
<trkpt lat="52.2585722" lon="5.9431027"/>
<trkpt lat="52.2558727" lon="5.9433994"/>
<trkpt lat="52.2558609" lon="5.9432188"/>
<trkpt lat="52.2544217" lon="5.9433956"/>
<trkpt lat="52.2543649" lon="5.9418879"/>
<trkpt lat="52.2540641" lon="5.9397873"/>
<trkpt lat="52.2540918" lon="5.9395799"/>
<trkpt lat="52.2549975" lon="5.9391370"/>
<trkpt lat="52.2556615" lon="5.9383764"/>
<trkpt lat="52.2557527" lon="5.9373538"/>
<trkpt lat="52.2558748" lon="5.9361304"/>
<trkpt lat="52.2557047" lon="5.9352303"/>
<trkpt lat="52.2557278" lon="5.9342100"/>
<trkpt lat="52.2558465" lon="5.9332686"/>
<trkpt lat="52.2558207" lon="5.9326408"/>
<trkpt lat="52.2558831" lon="5.9322026"/>
<trkpt lat="52.2558355" lon="5.9315062"/>
<trkpt lat="52.2557631" lon="5.9308706"/>
<trkpt lat="52.2555219" lon="5.9304924"/>
<trkpt lat="52.2554234" lon="5.9304359"/>
<trkpt lat="52.2558090" lon="5.9288814"/>
<trkpt lat="52.2559291" lon="5.9286370"/>
<trkpt lat="52.2564433" lon="5.9276519"/>
<trkpt lat="52.2567779" lon="5.9270716"/>
<trkpt lat="52.2568685" lon="5.9267721"/>
<trkpt lat="52.2569210" lon="5.9263079"/>
<trkpt lat="52.2569459" lon="5.9260005"/>
<trkpt lat="52.2569112" lon="5.9257268"/>
<trkpt lat="52.2568401" lon="5.9254625"/>
<trkpt lat="52.2564802" lon="5.9243472"/>
<trkpt lat="52.2562270" lon="5.9233873"/>
<trkpt lat="52.2551690" lon="5.9235481"/>
<trkpt lat="52.2555053" lon="5.9217542"/>
<trkpt lat="52.2555718" lon="5.9215422"/>
<trkpt lat="52.2558078" lon="5.9213250"/>
<trkpt lat="52.2559210" lon="5.9211764"/>
<trkpt lat="52.2561005" lon="5.9210230"/>
<trkpt lat="52.2565497" lon="5.9200762"/>
<trkpt lat="52.2570477" lon="5.9189413"/>
<trkpt lat="52.2571939" lon="5.9186831"/>
<trkpt lat="52.2574251" lon="5.9186537"/>
<trkpt lat="52.2576015" lon="5.9187407"/>
<trkpt lat="52.2576764" lon="5.9189189"/>
<trkpt lat="52.2579256" lon="5.9210192"/>
<trkpt lat="52.2580151" lon="5.9214915"/>
<trkpt lat="52.2582986" lon="5.9220335"/>
<trkpt lat="52.2586124" lon="5.9230075"/>
<trkpt lat="52.2589086" lon="5.9235029"/>
<trkpt lat="52.2589953" lon="5.9235821"/>
<trkpt lat="52.2593998" lon="5.9236934"/>
<trkpt lat="52.2595304" lon="5.9237732"/>
<trkpt lat="52.2595569" lon="5.9238435"/>
<trkpt lat="52.2598460" lon="5.9253963"/>
<trkpt lat="52.2598654" lon="5.9256234"/>
<trkpt lat="52.2598647" lon="5.9259224"/>
<trkpt lat="52.2596848" lon="5.9273252"/>
<trkpt lat="52.2596541" lon="5.9274335"/>
<trkpt lat="52.2591511" lon="5.9271806"/>
<trkpt lat="52.2590350" lon="5.9272345"/>
<trkpt lat="52.2589500" lon="5.9272418"/>
<trkpt lat="52.2588430" lon="5.9271890"/>
<trkpt lat="52.2587951" lon="5.9270563"/>
<trkpt lat="52.2577096" lon="5.9265406"/>
<trkpt lat="52.2569447" lon="5.9262529"/>
<trkpt lat="52.2568685" lon="5.9267721"/>
<trkpt lat="52.2567779" lon="5.9270716"/>
<trkpt lat="52.2564835" lon="5.9276438"/>
<trkpt lat="52.2563944" lon="5.9282151"/>
<trkpt lat="52.2565669" lon="5.9285736"/>
<trkpt lat="52.2565914" lon="5.9287022"/>
<trkpt lat="52.2566183" lon="5.9290769"/>
<trkpt lat="52.2566818" lon="5.9299627"/>
<trkpt lat="52.2566955" lon="5.9301539"/>
<trkpt lat="52.2568019" lon="5.9302106"/>
<trkpt lat="52.2573642" lon="5.9303063"/>
<trkpt lat="52.2583583" lon="5.9304753"/>
<trkpt lat="52.2585698" lon="5.9305113"/>
<trkpt lat="52.2585674" lon="5.9306458"/>
<trkpt lat="52.2584533" lon="5.9314947"/>
<trkpt lat="52.2583419" lon="5.9323538"/>
<trkpt lat="52.2583447" lon="5.9324346"/>
<trkpt lat="52.2583806" lon="5.9325088"/>
<trkpt lat="52.2584572" lon="5.9325661"/>
<trkpt lat="52.2586451" lon="5.9326944"/>
<trkpt lat="52.2586361" lon="5.9327691"/>
<trkpt lat="52.2583909" lon="5.9340577"/>
<trkpt lat="52.2582736" lon="5.9345568"/>
<trkpt lat="52.2576479" lon="5.9372023"/>
<trkpt lat="52.2575565" lon="5.9375258"/>
<trkpt lat="52.2574821" lon="5.9375775"/>
<trkpt lat="52.2572689" lon="5.9375084"/>
<trkpt lat="52.2571478" lon="5.9375246"/>
<trkpt lat="52.2570171" lon="5.9376152"/>
<trkpt lat="52.2569405" lon="5.9378197"/>
<trkpt lat="52.2569002" lon="5.9380569"/>
<trkpt lat="52.2568948" lon="5.9381742"/>
<trkpt lat="52.2568439" lon="5.9384353"/>
<trkpt lat="52.2569147" lon="5.9387778"/>
<trkpt lat="52.2569879" lon="5.9389675"/>
<trkpt lat="52.2571664" lon="5.9391930"/>
<trkpt lat="52.2574008" lon="5.9394801"/>
<trkpt lat="52.2586226" lon="5.9409606"/>
<trkpt lat="52.2587570" lon="5.9411312"/>
<trkpt lat="52.2588597" lon="5.9412653"/>
<trkpt lat="52.2597408" lon="5.9419473"/>
<trkpt lat="52.2600588" lon="5.9421934"/>
<trkpt lat="52.2602098" lon="5.9423104"/>
<trkpt lat="52.2603440" lon="5.9424246"/>
<trkpt lat="52.2604303" lon="5.9425108"/>
<trkpt lat="52.2608587" lon="5.9429786"/>
<trkpt lat="52.2610505" lon="5.9432058"/>
<trkpt lat="52.2611614" lon="5.9433590"/>
<trkpt lat="52.2612221" lon="5.9435433"/>
<trkpt lat="52.2620214" lon="5.9493935"/>
<trkpt lat="52.2622151" lon="5.9507410"/>
<trkpt lat="52.2622105" lon="5.9510111"/>
<trkpt lat="52.2621727" lon="5.9512927"/>
<trkpt lat="52.2616250" lon="5.9542118"/>
<trkpt lat="52.2613474" lon="5.9561600"/>
<trkpt lat="52.2613756" lon="5.9565784"/>
<trkpt lat="52.2614774" lon="5.9569895"/>
<trkpt lat="52.2618114" lon="5.9582950"/>
<trkpt lat="52.2618534" lon="5.9585664"/>
<trkpt lat="52.2618608" lon="5.9589828"/>
<trkpt lat="52.2618241" lon="5.9594791"/>
<trkpt lat="52.2617388" lon="5.9603980"/>
<trkpt lat="52.2616580" lon="5.9617642"/>
<trkpt lat="52.2615218" lon="5.9629878"/>
<trkpt lat="52.2612714" lon="5.9655137"/>
<trkpt lat="52.2613257" lon="5.9658242"/>
<trkpt lat="52.2614317" lon="5.9662732"/>
<trkpt lat="52.2614293" lon="5.9665444"/>
<trkpt lat="52.2614050" lon="5.9669296"/>
<trkpt lat="52.2613023" lon="5.9673952"/>
<trkpt lat="52.2611569" lon="5.9682099"/>
<trkpt lat="52.2610756" lon="5.9687389"/>
<trkpt lat="52.2609493" lon="5.9696618"/>
<trkpt lat="52.2608923" lon="5.9700007"/>
<trkpt lat="52.2608256" lon="5.9701903"/>
<trkpt lat="52.2607142" lon="5.9704939"/>
<trkpt lat="52.2606125" lon="5.9709548"/>
<trkpt lat="52.2605962" lon="5.9712844"/>
<trkpt lat="52.2606446" lon="5.9718250"/>
<trkpt lat="52.2606956" lon="5.9723900"/>
<trkpt lat="52.2604878" lon="5.9724745"/>
<trkpt lat="52.2598503" lon="5.9727353"/>
<trkpt lat="52.2594726" lon="5.9729004"/>
<trkpt lat="52.2591741" lon="5.9730309"/>
<trkpt lat="52.2590846" lon="5.9730534"/>
<trkpt lat="52.2589268" lon="5.9730443"/>
<trkpt lat="52.2583501" lon="5.9729010"/>
<trkpt lat="52.2582428" lon="5.9729028"/>
<trkpt lat="52.2581929" lon="5.9730034"/>
<trkpt lat="52.2580644" lon="5.9734374"/>
<trkpt lat="52.2579417" lon="5.9738252"/>
<trkpt lat="52.2577325" lon="5.9742452"/>
<trkpt lat="52.2574654" lon="5.9745096"/>
<trkpt lat="52.2573559" lon="5.9747627"/>
<trkpt lat="52.2573109" lon="5.9750545"/>
<trkpt lat="52.2573331" lon="5.9752675"/>
<trkpt lat="52.2573966" lon="5.9756783"/>
<trkpt lat="52.2575015" lon="5.9763570"/>
<trkpt lat="52.2575912" lon="5.9771138"/>
<trkpt lat="52.2572639" lon="5.9772330"/>
<trkpt lat="52.2570933" lon="5.9772617"/>
<trkpt lat="52.2569406" lon="5.9771896"/>
<trkpt lat="52.2564711" lon="5.9768442"/>
<trkpt lat="52.2564033" lon="5.9769000"/>
<trkpt lat="52.2562412" lon="5.9773461"/>
<trkpt lat="52.2557900" lon="5.9787330"/>
<trkpt lat="52.2553402" lon="5.9802190"/>
<trkpt lat="52.2552391" lon="5.9806642"/>
<trkpt lat="52.2552223" lon="5.9813739"/>
<trkpt lat="52.2551623" lon="5.9817675"/>
<trkpt lat="52.2551388" lon="5.9818295"/>
<trkpt lat="52.2549735" lon="5.9817285"/>
<trkpt lat="52.2548294" lon="5.9816324"/>
<trkpt lat="52.2547303" lon="5.9815168"/>
<trkpt lat="52.2546310" lon="5.9814493"/>
<trkpt lat="52.2541669" lon="5.9812372"/>
<trkpt lat="52.2538459" lon="5.9810507"/>
<trkpt lat="52.2529887" lon="5.9805416"/>
<trkpt lat="52.2526340" lon="5.9803653"/>
<trkpt lat="52.2524257" lon="5.9802557"/>
<trkpt lat="52.2525389" lon="5.9791802"/>
<trkpt lat="52.2530125" lon="5.9748114"/>
<trkpt lat="52.2528421" lon="5.9739904"/>
<trkpt lat="52.2523186" lon="5.9711540"/>
<trkpt lat="52.2521205" lon="5.9709971"/>
<trkpt lat="52.2521839" lon="5.9696559"/>
<trkpt lat="52.2522788" lon="5.9681877"/>
<trkpt lat="52.2525558" lon="5.9682935"/>
<trkpt lat="52.2526982" lon="5.9682533"/>
<trkpt lat="52.2532961" lon="5.9678462"/>
<trkpt lat="52.2531814" lon="5.9667325"/>
<trkpt lat="52.2530789" lon="5.9662704"/>
<trkpt lat="52.2529943" lon="5.9658373"/>
<trkpt lat="52.2529795" lon="5.9656860"/>
<trkpt lat="52.2530526" lon="5.9656944"/>
<trkpt lat="52.2536065" lon="5.9658240"/>
<trkpt lat="52.2542631" lon="5.9659676"/>
<trkpt lat="52.2553662" lon="5.9661911"/>
<trkpt lat="52.2554997" lon="5.9662669"/>
<trkpt lat="52.2561801" lon="5.9664189"/>
<trkpt lat="52.2568924" lon="5.9665801"/>
<trkpt lat="52.2586207" lon="5.9669632"/>
<trkpt lat="52.2585860" lon="5.9666231"/>
<trkpt lat="52.2585041" lon="5.9663585"/>
<trkpt lat="52.2584029" lon="5.9661363"/>
<trkpt lat="52.2577718" lon="5.9648648"/>
<trkpt lat="52.2577405" lon="5.9648182"/>
</trkseg></trk>
<trk><name>Kopermolenpad - Geimporteerde shapefile</name><type>shorteningRoute</type><trkseg>
<trkpt lat="52.2586207" lon="5.9669632"/>
<trkpt lat="52.2612776" lon="5.9675407"/>
</trkseg></trk>
<trk><name>Kopermolenpad - Geimporteerde shapefile</name><type>shorteningRoute</type><trkseg>
<trkpt lat="52.2585722" lon="5.9431027"/>
<trkpt lat="52.2586968" lon="5.9424573"/>
<trkpt lat="52.2588068" lon="5.9411830"/>
</trkseg></trk>
</gpx>