<?xml version="1.0" encoding="UTF-8"?>
<gpx version="1.1" creator="klompenpaden.nl via Jimbo API" xmlns="http://www.topografix.com/GPX/1/1">
<metadata><name>Kreelsepad</name><desc>Ontdek het prachtige buitengebied van Ede. Wandelen door een klein, oud landbouwgebied met vennen te midden van een groot heidegebied, oude zandverstuivingen, hoge stuifduinen, eeuwenoude grafheuvels en de stuwwallen van de westelijke Veluwe. Klompen aan, rugzak op en gaan!
</desc><link href="https://www.klompenpaden.nl/klompenpaden/Kreelsepad/3832dd9d-1136-4ca5-9e54-c68e6e10b015"><text>klompenpaden.nl</text></link></metadata>
<wpt lat="52.04272498632955" lon="5.730142593383789"><name>Start Ede</name></wpt>
<trk><name>Kreelsepad - Geimporteerde shapefile</name><type>mainRoute</type><trkseg>
<trkpt lat="52.0426857" lon="5.7302369"/>
<trkpt lat="52.0425947" lon="5.7302326"/>
<trkpt lat="52.0425124" lon="5.7302536"/>
<trkpt lat="52.0423991" lon="5.7302815"/>
<trkpt lat="52.0422924" lon="5.7303203"/>
<trkpt lat="52.0421745" lon="5.7304094"/>
<trkpt lat="52.0420519" lon="5.7305705"/>
<trkpt lat="52.0419628" lon="5.7306563"/>
<trkpt lat="52.0418430" lon="5.7306157"/>
<trkpt lat="52.0418288" lon="5.7309361"/>
<trkpt lat="52.0418196" lon="5.7310296"/>
<trkpt lat="52.0417614" lon="5.7311912"/>
<trkpt lat="52.0416343" lon="5.7313883"/>
<trkpt lat="52.0413692" lon="5.7316635"/>
<trkpt lat="52.0409975" lon="5.7319595"/>
<trkpt lat="52.0409063" lon="5.7320092"/>
<trkpt lat="52.0404438" lon="5.7323120"/>
<trkpt lat="52.0397953" lon="5.7328777"/>
<trkpt lat="52.0397280" lon="5.7331394"/>
<trkpt lat="52.0396975" lon="5.7337871"/>
<trkpt lat="52.0392073" lon="5.7355109"/>
<trkpt lat="52.0385778" lon="5.7360767"/>
<trkpt lat="52.0388413" lon="5.7370505"/>
<trkpt lat="52.0389152" lon="5.7377761"/>
<trkpt lat="52.0389948" lon="5.7397974"/>
<trkpt lat="52.0391023" lon="5.7419886"/>
<trkpt lat="52.0388808" lon="5.7429123"/>
<trkpt lat="52.0389369" lon="5.7432367"/>
<trkpt lat="52.0389936" lon="5.7433605"/>
<trkpt lat="52.0412830" lon="5.7412346"/>
<trkpt lat="52.0440870" lon="5.7387885"/>
<trkpt lat="52.0454792" lon="5.7376578"/>
<trkpt lat="52.0464882" lon="5.7370702"/>
<trkpt lat="52.0466905" lon="5.7366329"/>
<trkpt lat="52.0468830" lon="5.7401547"/>
<trkpt lat="52.0542239" lon="5.7425346"/>
<trkpt lat="52.0549415" lon="5.7408952"/>
<trkpt lat="52.0557934" lon="5.7435001"/>
<trkpt lat="52.0568293" lon="5.7469417"/>
<trkpt lat="52.0577295" lon="5.7500063"/>
<trkpt lat="52.0578478" lon="5.7501905"/>
<trkpt lat="52.0579724" lon="5.7502880"/>
<trkpt lat="52.0582581" lon="5.7501939"/>
<trkpt lat="52.0585135" lon="5.7502635"/>
<trkpt lat="52.0589525" lon="5.7505564"/>
<trkpt lat="52.0606641" lon="5.7546020"/>
<trkpt lat="52.0612427" lon="5.7559089"/>
<trkpt lat="52.0614548" lon="5.7565087"/>
<trkpt lat="52.0619690" lon="5.7593584"/>
<trkpt lat="52.0622005" lon="5.7613473"/>
<trkpt lat="52.0623488" lon="5.7614739"/>
<trkpt lat="52.0627465" lon="5.7616509"/>
<trkpt lat="52.0631151" lon="5.7616732"/>
<trkpt lat="52.0634605" lon="5.7615025"/>
<trkpt lat="52.0644065" lon="5.7612789"/>
<trkpt lat="52.0645077" lon="5.7612219"/>
<trkpt lat="52.0645911" lon="5.7593030"/>
<trkpt lat="52.0643224" lon="5.7577670"/>
<trkpt lat="52.0643053" lon="5.7575354"/>
<trkpt lat="52.0644010" lon="5.7573626"/>
<trkpt lat="52.0652238" lon="5.7566266"/>
<trkpt lat="52.0660999" lon="5.7559296"/>
<trkpt lat="52.0673205" lon="5.7553609"/>
<trkpt lat="52.0681424" lon="5.7548950"/>
<trkpt lat="52.0690306" lon="5.7541305"/>
<trkpt lat="52.0693702" lon="5.7538921"/>
<trkpt lat="52.0696332" lon="5.7534601"/>
<trkpt lat="52.0699149" lon="5.7527293"/>
<trkpt lat="52.0699872" lon="5.7524018"/>
<trkpt lat="52.0699763" lon="5.7520834"/>
<trkpt lat="52.0696270" lon="5.7516078"/>
<trkpt lat="52.0692703" lon="5.7516049"/>
<trkpt lat="52.0689790" lon="5.7516025"/>
<trkpt lat="52.0685990" lon="5.7514547"/>
<trkpt lat="52.0683684" lon="5.7510380"/>
<trkpt lat="52.0675743" lon="5.7502116"/>
<trkpt lat="52.0670941" lon="5.7497736"/>
<trkpt lat="52.0670602" lon="5.7491849"/>
<trkpt lat="52.0670344" lon="5.7479113"/>
<trkpt lat="52.0670785" lon="5.7470821"/>
<trkpt lat="52.0670325" lon="5.7465897"/>
<trkpt lat="52.0667081" lon="5.7457189"/>
<trkpt lat="52.0668365" lon="5.7445816"/>
<trkpt lat="52.0670749" lon="5.7443617"/>
<trkpt lat="52.0677386" lon="5.7431418"/>
<trkpt lat="52.0689479" lon="5.7403634"/>
<trkpt lat="52.0694322" lon="5.7394411"/>
<trkpt lat="52.0701965" lon="5.7383474"/>
<trkpt lat="52.0705965" lon="5.7377620"/>
<trkpt lat="52.0703367" lon="5.7371618"/>
<trkpt lat="52.0693351" lon="5.7381187"/>
<trkpt lat="52.0668127" lon="5.7406456"/>
<trkpt lat="52.0641230" lon="5.7434024"/>
<trkpt lat="52.0625747" lon="5.7383068"/>
<trkpt lat="52.0612442" lon="5.7338691"/>
<trkpt lat="52.0614004" lon="5.7313046"/>
<trkpt lat="52.0613472" lon="5.7312078"/>
<trkpt lat="52.0611034" lon="5.7312059"/>
<trkpt lat="52.0606218" lon="5.7312215"/>
<trkpt lat="52.0603550" lon="5.7309783"/>
<trkpt lat="52.0596093" lon="5.7277511"/>
<trkpt lat="52.0594265" lon="5.7272193"/>
<trkpt lat="52.0594049" lon="5.7264861"/>
<trkpt lat="52.0592683" lon="5.7264272"/>
<trkpt lat="52.0591441" lon="5.7261851"/>
<trkpt lat="52.0590612" lon="5.7260880"/>
<trkpt lat="52.0589363" lon="5.7260871"/>
<trkpt lat="52.0585797" lon="5.7260651"/>
<trkpt lat="52.0584790" lon="5.7259486"/>
<trkpt lat="52.0538835" lon="5.7258559"/>
<trkpt lat="52.0524247" lon="5.7266260"/>
<trkpt lat="52.0517804" lon="5.7232556"/>
<trkpt lat="52.0512096" lon="5.7203294"/>
<trkpt lat="52.0507144" lon="5.7188522"/>
<trkpt lat="52.0495324" lon="5.7197229"/>
<trkpt lat="52.0494897" lon="5.7196840"/>
<trkpt lat="52.0495092" lon="5.7194990"/>
<trkpt lat="52.0494811" lon="5.7193599"/>
<trkpt lat="52.0495063" lon="5.7188433"/>
<trkpt lat="52.0497160" lon="5.7186905"/>
<trkpt lat="52.0498930" lon="5.7183601"/>
<trkpt lat="52.0500369" lon="5.7178983"/>
<trkpt lat="52.0500421" lon="5.7177518"/>
<trkpt lat="52.0501990" lon="5.7177761"/>
<trkpt lat="52.0501854" lon="5.7175369"/>
<trkpt lat="52.0500485" lon="5.7171501"/>
<trkpt lat="52.0497462" lon="5.7164228"/>
<trkpt lat="52.0496996" lon="5.7160830"/>
<trkpt lat="52.0492043" lon="5.7145905"/>
<trkpt lat="52.0490443" lon="5.7139722"/>
<trkpt lat="52.0485514" lon="5.7133514"/>
<trkpt lat="52.0483324" lon="5.7134270"/>
<trkpt lat="52.0480942" lon="5.7135641"/>
<trkpt lat="52.0474837" lon="5.7141691"/>
<trkpt lat="52.0473499" lon="5.7144149"/>
<trkpt lat="52.0467595" lon="5.7163468"/>
<trkpt lat="52.0464474" lon="5.7174013"/>
<trkpt lat="52.0463228" lon="5.7177166"/>
<trkpt lat="52.0456005" lon="5.7191769"/>
<trkpt lat="52.0452132" lon="5.7199068"/>
<trkpt lat="52.0450908" lon="5.7201714"/>
<trkpt lat="52.0431545" lon="5.7166141"/>
<trkpt lat="52.0413307" lon="5.7220761"/>
<trkpt lat="52.0409951" lon="5.7230068"/>
<trkpt lat="52.0406981" lon="5.7237605"/>
<trkpt lat="52.0398075" lon="5.7258362"/>
<trkpt lat="52.0394390" lon="5.7266124"/>
<trkpt lat="52.0392526" lon="5.7269426"/>
<trkpt lat="52.0387610" lon="5.7275327"/>
<trkpt lat="52.0400463" lon="5.7287765"/>
<trkpt lat="52.0406782" lon="5.7290050"/>
<trkpt lat="52.0417086" lon="5.7295836"/>
<trkpt lat="52.0418281" lon="5.7296254"/>
<trkpt lat="52.0421097" lon="5.7297644"/>
<trkpt lat="52.0423598" lon="5.7297506"/>
<trkpt lat="52.0426162" lon="5.7296818"/>
<trkpt lat="52.0426958" lon="5.7298049"/>
<trkpt lat="52.0427218" lon="5.7298737"/>
<trkpt lat="52.0426857" lon="5.7302369"/>
</trkseg></trk>
<trk><name>Kreelsepad - Geimporteerde shapefile</name><type>shorteningRoute</type><trkseg>
<trkpt lat="52.0467455" lon="5.7365444"/>
<trkpt lat="52.0478501" lon="5.7344159"/>
<trkpt lat="52.0490251" lon="5.7325245"/>
<trkpt lat="52.0509402" lon="5.7317930"/>
<trkpt lat="52.0508364" lon="5.7302723"/>
<trkpt lat="52.0507610" lon="5.7288911"/>
<trkpt lat="52.0504211" lon="5.7283852"/>
<trkpt lat="52.0503260" lon="5.7276441"/>
<trkpt lat="52.0504182" lon="5.7268074"/>
<trkpt lat="52.0508166" lon="5.7262820"/>
<trkpt lat="52.0508588" lon="5.7261063"/>
<trkpt lat="52.0510771" lon="5.7246151"/>
<trkpt lat="52.0512853" lon="5.7241423"/>
<trkpt lat="52.0518019" lon="5.7232904"/>
</trkseg></trk>
<trk><name>Kreelsepad - Geimporteerde shapefile</name><type>connectionRoute</type><trkseg>
<trkpt lat="52.0490443" lon="5.7139722"/>
<trkpt lat="52.0491548" lon="5.7139265"/>
<trkpt lat="52.0490506" lon="5.7134165"/>
<trkpt lat="52.0489163" lon="5.7129874"/>
<trkpt lat="52.0488259" lon="5.7121304"/>
<trkpt lat="52.0488704" lon="5.7115175"/>
<trkpt lat="52.0491433" lon="5.7082679"/>
<trkpt lat="52.0499318" lon="5.6989006"/>
<trkpt lat="52.0501458" lon="5.6962059"/>
<trkpt lat="52.0501254" lon="5.6958355"/>
<trkpt lat="52.0507314" lon="5.6959785"/>
<trkpt lat="52.0526862" lon="5.6960152"/>
<trkpt lat="52.0567240" lon="5.6961009"/>
<trkpt lat="52.0587500" lon="5.6961380"/>
<trkpt lat="52.0586656" lon="5.6956861"/>
<trkpt lat="52.0585700" lon="5.6940304"/>
<trkpt lat="52.0577136" lon="5.6914089"/>
<trkpt lat="52.0572119" lon="5.6895421"/>
<trkpt lat="52.0570224" lon="5.6883025"/>
<trkpt lat="52.0569256" lon="5.6870866"/>
<trkpt lat="52.0565556" lon="5.6838899"/>
<trkpt lat="52.0562377" lon="5.6826495"/>
<trkpt lat="52.0556849" lon="5.6811761"/>
<trkpt lat="52.0554062" lon="5.6801774"/>
<trkpt lat="52.0547108" lon="5.6795793"/>
<trkpt lat="52.0547829" lon="5.6793553"/>
<trkpt lat="52.0548571" lon="5.6792822"/>
<trkpt lat="52.0550375" lon="5.6787105"/>
<trkpt lat="52.0550284" lon="5.6785402"/>
<trkpt lat="52.0551366" lon="5.6782118"/>
<trkpt lat="52.0556436" lon="5.6786059"/>
<trkpt lat="52.0559571" lon="5.6788920"/>
<trkpt lat="52.0562617" lon="5.6791999"/>
<trkpt lat="52.0564945" lon="5.6794563"/>
<trkpt lat="52.0566620" lon="5.6788893"/>
<trkpt lat="52.0565144" lon="5.6786699"/>
<trkpt lat="52.0562636" lon="5.6784206"/>
<trkpt lat="52.0562100" lon="5.6783038"/>
<trkpt lat="52.0559319" lon="5.6765253"/>
<trkpt lat="52.0557140" lon="5.6751814"/>
<trkpt lat="52.0556227" lon="5.6745791"/>
<trkpt lat="52.0555094" lon="5.6742543"/>
<trkpt lat="52.0555673" lon="5.6738959"/>
<trkpt lat="52.0552367" lon="5.6719495"/>
<trkpt lat="52.0545479" lon="5.6677413"/>
<trkpt lat="52.0544262" lon="5.6669982"/>
</trkseg></trk>
<trk><name>Kreelsepad - Geimporteerde shapefile</name><type>connectionRoute</type><trkseg>
<trkpt lat="52.0645077" lon="5.7612219"/>
<trkpt lat="52.0656227" lon="5.7604411"/>
<trkpt lat="52.0669679" lon="5.7592021"/>
<trkpt lat="52.0688139" lon="5.7574810"/>
<trkpt lat="52.0702549" lon="5.7575392"/>
<trkpt lat="52.0710686" lon="5.7574302"/>
<trkpt lat="52.0713675" lon="5.7576410"/>
<trkpt lat="52.0718949" lon="5.7578306"/>
<trkpt lat="52.0727935" lon="5.7579307"/>
<trkpt lat="52.0733634" lon="5.7581901"/>
<trkpt lat="52.0738766" lon="5.7583565"/>
<trkpt lat="52.0764246" lon="5.7602765"/>
<trkpt lat="52.0775781" lon="5.7609809"/>
<trkpt lat="52.0785490" lon="5.7607805"/>
<trkpt lat="52.0800057" lon="5.7603759"/>
<trkpt lat="52.0803473" lon="5.7606566"/>
<trkpt lat="52.0808318" lon="5.7608459"/>
<trkpt lat="52.0830813" lon="5.7623933"/>
<trkpt lat="52.0834054" lon="5.7636930"/>
<trkpt lat="52.0883093" lon="5.7650055"/>
</trkseg></trk>
<trk><name>Kreelsepad - Geimporteerde shapefile</name><type>connectionRoute</type><trkseg>
<trkpt lat="52.0372648" lon="5.7359733"/>
<trkpt lat="52.0369905" lon="5.7360424"/>
<trkpt lat="52.0368294" lon="5.7358596"/>
<trkpt lat="52.0368679" lon="5.7353933"/>
<trkpt lat="52.0367605" lon="5.7352633"/>
<trkpt lat="52.0365760" lon="5.7354012"/>
<trkpt lat="52.0361210" lon="5.7354144"/>
<trkpt lat="52.0357730" lon="5.7353726"/>
<trkpt lat="52.0351157" lon="5.7358588"/>
<trkpt lat="52.0345887" lon="5.7362917"/>
<trkpt lat="52.0342683" lon="5.7365422"/>
<trkpt lat="52.0330899" lon="5.7374244"/>
<trkpt lat="52.0312070" lon="5.7388363"/>
<trkpt lat="52.0298245" lon="5.7398895"/>
<trkpt lat="52.0245617" lon="5.7438418"/>
<trkpt lat="52.0214628" lon="5.7462534"/>
<trkpt lat="52.0205952" lon="5.7468940"/>
<trkpt lat="52.0204232" lon="5.7471393"/>
<trkpt lat="52.0142355" lon="5.7517299"/>
<trkpt lat="52.0137686" lon="5.7519882"/>
<trkpt lat="52.0134640" lon="5.7520474"/>
<trkpt lat="52.0123970" lon="5.7525474"/>
<trkpt lat="52.0093298" lon="5.7508268"/>
<trkpt lat="52.0073149" lon="5.7496835"/>
</trkseg></trk>
<trk><name>Kreelsepad - Geimporteerde shapefile</name><type>approachRoute</type><trkseg>
<trkpt lat="52.0373801" lon="5.7356199"/>
<trkpt lat="52.0377776" lon="5.7353962"/>
<trkpt lat="52.0379273" lon="5.7354159"/>
<trkpt lat="52.0379859" lon="5.7354024"/>
<trkpt lat="52.0381352" lon="5.7355679"/>
<trkpt lat="52.0384183" lon="5.7358593"/>
<trkpt lat="52.0385778" lon="5.7360767"/>
</trkseg></trk>
</gpx>