<?xml version="1.0" encoding="UTF-8"?>
<gpx version="1.1" creator="klompenpaden.nl via Jimbo API" xmlns="http://www.topografix.com/GPX/1/1">
<metadata><name>Kruishaarderpad</name><desc>Ontdek het mooie buitengebied van Nijkerk. Wandelen door het agrarische gebied, over landgoederen, langs boerenerven en beken. Rust, kleinschaligheid en de combinatie van cultuur en natuur bepalen hier de sfeer. Klompen aan, rugzak op en gaan! </desc><link href="https://www.klompenpaden.nl/klompenpaden/Kruishaarderpad/640bcd26-d5b8-4938-91b7-9ab76c8a3380"><text>klompenpaden.nl</text></link></metadata>
<wpt lat="52.22322530419261" lon="5.494859218597412"><name>Start Nijkerk</name></wpt>
<trk><name>Kruishaarderpad - Geimporteerde shapefile</name><type>mainRoute</type><trkseg>
<trkpt lat="52.2086228" lon="5.5114121"/>
<trkpt lat="52.2086988" lon="5.5114734"/>
<trkpt lat="52.2088617" lon="5.5116133"/>
<trkpt lat="52.2092217" lon="5.5112853"/>
<trkpt lat="52.2097543" lon="5.5108271"/>
<trkpt lat="52.2099069" lon="5.5106892"/>
<trkpt lat="52.2098723" lon="5.5105806"/>
<trkpt lat="52.2100048" lon="5.5104354"/>
<trkpt lat="52.2100466" lon="5.5105628"/>
<trkpt lat="52.2101814" lon="5.5104409"/>
<trkpt lat="52.2104358" lon="5.5100004"/>
<trkpt lat="52.2103074" lon="5.5098643"/>
<trkpt lat="52.2107348" lon="5.5087848"/>
<trkpt lat="52.2115429" lon="5.5068824"/>
<trkpt lat="52.2118432" lon="5.5061864"/>
<trkpt lat="52.2120217" lon="5.5061172"/>
<trkpt lat="52.2124149" lon="5.5052588"/>
<trkpt lat="52.2125439" lon="5.5046320"/>
<trkpt lat="52.2132806" lon="5.5027409"/>
<trkpt lat="52.2132808" lon="5.5025086"/>
<trkpt lat="52.2134734" lon="5.5025324"/>
<trkpt lat="52.2141514" lon="5.5022786"/>
<trkpt lat="52.2142728" lon="5.5021744"/>
<trkpt lat="52.2143015" lon="5.5019770"/>
<trkpt lat="52.2145442" lon="5.5019196"/>
<trkpt lat="52.2145583" lon="5.5020358"/>
<trkpt lat="52.2167058" lon="5.5019484"/>
<trkpt lat="52.2174762" lon="5.5019968"/>
<trkpt lat="52.2179829" lon="5.5018007"/>
<trkpt lat="52.2184968" lon="5.5016020"/>
<trkpt lat="52.2187614" lon="5.5009523"/>
<trkpt lat="52.2190826" lon="5.5008369"/>
<trkpt lat="52.2194249" lon="5.5009888"/>
<trkpt lat="52.2195963" lon="5.5008034"/>
<trkpt lat="52.2199678" lon="5.5001332"/>
<trkpt lat="52.2201535" lon="5.4999478"/>
<trkpt lat="52.2200537" lon="5.4998662"/>
<trkpt lat="52.2206039" lon="5.4989500"/>
<trkpt lat="52.2208324" lon="5.4986950"/>
<trkpt lat="52.2209830" lon="5.4978706"/>
<trkpt lat="52.2211342" lon="5.4963726"/>
<trkpt lat="52.2212573" lon="5.4943981"/>
<trkpt lat="52.2212869" lon="5.4932715"/>
<trkpt lat="52.2212228" lon="5.4930971"/>
<trkpt lat="52.2213660" lon="5.4924701"/>
<trkpt lat="52.2214874" lon="5.4923543"/>
<trkpt lat="52.2218438" lon="5.4927384"/>
<trkpt lat="52.2225919" lon="5.4938205"/>
<trkpt lat="52.2230193" lon="5.4945534"/>
<trkpt lat="52.2235110" lon="5.4951586"/>
<trkpt lat="52.2235179" lon="5.4954375"/>
<trkpt lat="52.2245938" lon="5.4968922"/>
<trkpt lat="52.2248862" lon="5.4970091"/>
<trkpt lat="52.2252143" lon="5.4970447"/>
<trkpt lat="52.2257637" lon="5.4969183"/>
<trkpt lat="52.2263276" lon="5.4966525"/>
<trkpt lat="52.2263989" lon="5.4966643"/>
<trkpt lat="52.2268892" lon="5.4987334"/>
<trkpt lat="52.2275300" lon="5.5000943"/>
<trkpt lat="52.2273078" lon="5.5011858"/>
<trkpt lat="52.2271862" lon="5.5015224"/>
<trkpt lat="52.2269295" lon="5.5013474"/>
<trkpt lat="52.2265585" lon="5.5014278"/>
<trkpt lat="52.2254667" lon="5.5016690"/>
<trkpt lat="52.2253741" lon="5.5015758"/>
<trkpt lat="52.2252818" lon="5.5010528"/>
<trkpt lat="52.2252113" lon="5.5002162"/>
<trkpt lat="52.2250977" lon="5.4996350"/>
<trkpt lat="52.2247628" lon="5.4992160"/>
<trkpt lat="52.2239501" lon="5.4985866"/>
<trkpt lat="52.2234439" lon="5.4982369"/>
<trkpt lat="52.2233797" lon="5.4982019"/>
<trkpt lat="52.2229716" lon="5.4997342"/>
<trkpt lat="52.2227354" lon="5.5006165"/>
<trkpt lat="52.2226210" lon="5.5008136"/>
<trkpt lat="52.2221999" lon="5.5009984"/>
<trkpt lat="52.2224132" lon="5.5017424"/>
<trkpt lat="52.2222128" lon="5.5024737"/>
<trkpt lat="52.2217621" lon="5.5037736"/>
<trkpt lat="52.2216833" lon="5.5040637"/>
<trkpt lat="52.2224109" lon="5.5041005"/>
<trkpt lat="52.2224465" lon="5.5041703"/>
<trkpt lat="52.2230885" lon="5.5042301"/>
<trkpt lat="52.2232383" lon="5.5042885"/>
<trkpt lat="52.2237947" lon="5.5043829"/>
<trkpt lat="52.2238945" lon="5.5044529"/>
<trkpt lat="52.2241937" lon="5.5048951"/>
<trkpt lat="52.2243718" lon="5.5050815"/>
<trkpt lat="52.2248206" lon="5.5058145"/>
<trkpt lat="52.2249060" lon="5.5060006"/>
<trkpt lat="52.2249699" lon="5.5062564"/>
<trkpt lat="52.2249909" lon="5.5066630"/>
<trkpt lat="52.2249764" lon="5.5069418"/>
<trkpt lat="52.2248473" lon="5.5075571"/>
<trkpt lat="52.2247613" lon="5.5079403"/>
<trkpt lat="52.2247247" lon="5.5088230"/>
<trkpt lat="52.2247457" lon="5.5092297"/>
<trkpt lat="52.2239669" lon="5.5103776"/>
<trkpt lat="52.2240024" lon="5.5105171"/>
<trkpt lat="52.2252007" lon="5.5107760"/>
<trkpt lat="52.2253573" lon="5.5111366"/>
<trkpt lat="52.2254567" lon="5.5115202"/>
<trkpt lat="52.2254563" lon="5.5119268"/>
<trkpt lat="52.2253119" lon="5.5135644"/>
<trkpt lat="52.2252470" lon="5.5141683"/>
<trkpt lat="52.2249965" lon="5.5149111"/>
<trkpt lat="52.2244740" lon="5.5164778"/>
<trkpt lat="52.2243229" lon="5.5177088"/>
<trkpt lat="52.2242864" lon="5.5184173"/>
<trkpt lat="52.2240640" lon="5.5195318"/>
<trkpt lat="52.2240135" lon="5.5200544"/>
<trkpt lat="52.2239699" lon="5.5207745"/>
<trkpt lat="52.2238979" lon="5.5213319"/>
<trkpt lat="52.2238605" lon="5.5228420"/>
<trkpt lat="52.2243742" lon="5.5227855"/>
<trkpt lat="52.2250023" lon="5.5225783"/>
<trkpt lat="52.2257588" lon="5.5223018"/>
<trkpt lat="52.2259943" lon="5.5222095"/>
<trkpt lat="52.2268267" lon="5.5242451"/>
<trkpt lat="52.2275164" lon="5.5261525"/>
<trkpt lat="52.2264104" lon="5.5263350"/>
<trkpt lat="52.2261035" lon="5.5264385"/>
<trkpt lat="52.2257538" lon="5.5265536"/>
<trkpt lat="52.2254543" lon="5.5264946"/>
<trkpt lat="52.2249476" lon="5.5266092"/>
<trkpt lat="52.2245837" lon="5.5266894"/>
<trkpt lat="52.2238702" lon="5.5267452"/>
<trkpt lat="52.2238060" lon="5.5267450"/>
<trkpt lat="52.2239325" lon="5.5283253"/>
<trkpt lat="52.2241376" lon="5.5298245"/>
<trkpt lat="52.2244286" lon="5.5310916"/>
<trkpt lat="52.2248476" lon="5.5326729"/>
<trkpt lat="52.2254446" lon="5.5344871"/>
<trkpt lat="52.2257147" lon="5.5352199"/>
<trkpt lat="52.2255853" lon="5.5360327"/>
<trkpt lat="52.2255917" lon="5.5366252"/>
<trkpt lat="52.2257053" lon="5.5370786"/>
<trkpt lat="52.2260970" lon="5.5375446"/>
<trkpt lat="52.2267389" lon="5.5377210"/>
<trkpt lat="52.2277875" lon="5.5378059"/>
<trkpt lat="52.2281085" lon="5.5378302"/>
<trkpt lat="52.2277935" lon="5.5386889"/>
<trkpt lat="52.2273640" lon="5.5397911"/>
<trkpt lat="52.2270561" lon="5.5406846"/>
<trkpt lat="52.2269627" lon="5.5411954"/>
<trkpt lat="52.2266339" lon="5.5416822"/>
<trkpt lat="52.2259119" lon="5.5428182"/>
<trkpt lat="52.2254615" lon="5.5435136"/>
<trkpt lat="52.2251328" lon="5.5438726"/>
<trkpt lat="52.2246832" lon="5.5440337"/>
<trkpt lat="52.2243907" lon="5.5440443"/>
<trkpt lat="52.2242054" lon="5.5438693"/>
<trkpt lat="52.2239418" lon="5.5436245"/>
<trkpt lat="52.2222784" lon="5.5444434"/>
<trkpt lat="52.2216930" lon="5.5448014"/>
<trkpt lat="52.2214993" lon="5.5455790"/>
<trkpt lat="52.2211908" lon="5.5468789"/>
<trkpt lat="52.2210976" lon="5.5471922"/>
<trkpt lat="52.2209906" lon="5.5472034"/>
<trkpt lat="52.2208908" lon="5.5471217"/>
<trkpt lat="52.2207265" lon="5.5472722"/>
<trkpt lat="52.2206407" lon="5.5474461"/>
<trkpt lat="52.2201982" lon="5.5476071"/>
<trkpt lat="52.2190559" lon="5.5481605"/>
<trkpt lat="52.2187562" lon="5.5482640"/>
<trkpt lat="52.2191089" lon="5.5511575"/>
</trkseg></trk>
<trk><name>Kruishaarderpad - Geimporteerde shapefile</name><type>mainRoute</type><trkseg>
<trkpt lat="52.2191101" lon="5.5511498"/>
<trkpt lat="52.2180148" lon="5.5521446"/>
<trkpt lat="52.2176766" lon="5.5524996"/>
<trkpt lat="52.2173764" lon="5.5528934"/>
<trkpt lat="52.2171190" lon="5.5533570"/>
<trkpt lat="52.2168621" lon="5.5533638"/>
<trkpt lat="52.2165766" lon="5.5535098"/>
<trkpt lat="52.2163575" lon="5.5537103"/>
<trkpt lat="52.2161526" lon="5.5539728"/>
<trkpt lat="52.2159810" lon="5.5542200"/>
<trkpt lat="52.2158001" lon="5.5543509"/>
<trkpt lat="52.2155669" lon="5.5544739"/>
<trkpt lat="52.2153574" lon="5.5546358"/>
<trkpt lat="52.2139474" lon="5.5528496"/>
<trkpt lat="52.2138274" lon="5.5502244"/>
<trkpt lat="52.2137065" lon="5.5481722"/>
<trkpt lat="52.2136498" lon="5.5470377"/>
<trkpt lat="52.2123012" lon="5.5472186"/>
<trkpt lat="52.2103818" lon="5.5474904"/>
<trkpt lat="52.2100759" lon="5.5414505"/>
<trkpt lat="52.2097408" lon="5.5357242"/>
<trkpt lat="52.2093628" lon="5.5356997"/>
<trkpt lat="52.2086634" lon="5.5301000"/>
<trkpt lat="52.2065514" lon="5.5303487"/>
<trkpt lat="52.2062731" lon="5.5303595"/>
<trkpt lat="52.2060095" lon="5.5301031"/>
<trkpt lat="52.2058597" lon="5.5300562"/>
<trkpt lat="52.2057030" lon="5.5298467"/>
<trkpt lat="52.2054035" lon="5.5297877"/>
<trkpt lat="52.2050898" lon="5.5296241"/>
<trkpt lat="52.2048977" lon="5.5291822"/>
<trkpt lat="52.2045563" lon="5.5283335"/>
<trkpt lat="52.2040650" lon="5.5275191"/>
<trkpt lat="52.2040375" lon="5.5273017"/>
<trkpt lat="52.2040662" lon="5.5271160"/>
<trkpt lat="52.2041853" lon="5.5269306"/>
<trkpt lat="52.2044948" lon="5.5266761"/>
<trkpt lat="52.2048082" lon="5.5271029"/>
<trkpt lat="52.2051832" lon="5.5276692"/>
<trkpt lat="52.2052879" lon="5.5276695"/>
<trkpt lat="52.2054739" lon="5.5272443"/>
<trkpt lat="52.2054838" lon="5.5269037"/>
<trkpt lat="52.2056791" lon="5.5261035"/>
<trkpt lat="52.2059605" lon="5.5259763"/>
<trkpt lat="52.2062035" lon="5.5255745"/>
<trkpt lat="52.2065895" lon="5.5249718"/>
<trkpt lat="52.2068565" lon="5.5243533"/>
<trkpt lat="52.2070514" lon="5.5244391"/>
<trkpt lat="52.2072661" lon="5.5238437"/>
<trkpt lat="52.2072858" lon="5.5233018"/>
<trkpt lat="52.2074307" lon="5.5228151"/>
<trkpt lat="52.2073254" lon="5.5213168"/>
<trkpt lat="52.2073046" lon="5.5207710"/>
<trkpt lat="52.2074696" lon="5.5199818"/>
<trkpt lat="52.2075127" lon="5.5196800"/>
<trkpt lat="52.2074060" lon="5.5194010"/>
<trkpt lat="52.2072563" lon="5.5192845"/>
<trkpt lat="52.2071637" lon="5.5192029"/>
<trkpt lat="52.2071426" lon="5.5189009"/>
<trkpt lat="52.2071102" lon="5.5187949"/>
</trkseg></trk>
<trk><name>Kruishaarderpad - Geimporteerde shapefile</name><type>mainRoute</type><trkseg>
<trkpt lat="52.2085780" lon="5.5113759"/>
<trkpt lat="52.2081663" lon="5.5121786"/>
<trkpt lat="52.2076748" lon="5.5137923"/>
<trkpt lat="52.2074272" lon="5.5144876"/>
<trkpt lat="52.2073711" lon="5.5163549"/>
<trkpt lat="52.2072554" lon="5.5173619"/>
<trkpt lat="52.2071102" lon="5.5187949"/>
</trkseg></trk>
<trk><name>Kruishaarderpad - shorteningRoute</name><type>shorteningRoute</type><trkseg>
<trkpt lat="52.2251300" lon="5.5335300"/>
<trkpt lat="52.2234500" lon="5.5349200"/>
<trkpt lat="52.2221600" lon="5.5361000"/>
<trkpt lat="52.2212200" lon="5.5369200"/>
<trkpt lat="52.2210600" lon="5.5369200"/>
<trkpt lat="52.2206400" lon="5.5372000"/>
<trkpt lat="52.2199500" lon="5.5377200"/>
<trkpt lat="52.2197500" lon="5.5378000"/>
<trkpt lat="52.2196600" lon="5.5377400"/>
<trkpt lat="52.2194600" lon="5.5360200"/>
<trkpt lat="52.2193200" lon="5.5352700"/>
<trkpt lat="52.2190100" lon="5.5346400"/>
<trkpt lat="52.2188100" lon="5.5343900"/>
<trkpt lat="52.2187400" lon="5.5342500"/>
<trkpt lat="52.2185600" lon="5.5336000"/>
<trkpt lat="52.2174900" lon="5.5346500"/>
<trkpt lat="52.2133500" lon="5.5352100"/>
<trkpt lat="52.2129800" lon="5.5352800"/>
<trkpt lat="52.2126800" lon="5.5295700"/>
<trkpt lat="52.2086600" lon="5.5301100"/>
</trkseg></trk>
<trk><name>Kruishaarderpad - connectionRoute</name><type>connectionRoute</type><trkseg>
<trkpt lat="52.2248300" lon="5.5597100"/>
<trkpt lat="52.2246800" lon="5.5593600"/>
<trkpt lat="52.2243700" lon="5.5591900"/>
<trkpt lat="52.2238800" lon="5.5592200"/>
<trkpt lat="52.2234100" lon="5.5593500"/>
<trkpt lat="52.2232000" lon="5.5594000"/>
<trkpt lat="52.2219000" lon="5.5585000"/>
<trkpt lat="52.2215300" lon="5.5581400"/>
<trkpt lat="52.2211900" lon="5.5576300"/>
<trkpt lat="52.2205600" lon="5.5565100"/>
<trkpt lat="52.2202400" lon="5.5557600"/>
<trkpt lat="52.2202300" lon="5.5553100"/>
<trkpt lat="52.2201300" lon="5.5547400"/>
<trkpt lat="52.2198100" lon="5.5538600"/>
<trkpt lat="52.2191800" lon="5.5520400"/>
<trkpt lat="52.2191400" lon="5.5517900"/>
<trkpt lat="52.2191100" lon="5.5511600"/>
</trkseg></trk>
<trk><name>Kruishaarderpad - connectionRoute</name><type>connectionRoute</type><trkseg>
<trkpt lat="52.2103800" lon="5.5474900"/>
<trkpt lat="52.2039600" lon="5.5483100"/>
<trkpt lat="52.2036400" lon="5.5484600"/>
<trkpt lat="52.2034100" lon="5.5484000"/>
<trkpt lat="52.2023200" lon="5.5485700"/>
<trkpt lat="52.2020800" lon="5.5489900"/>
<trkpt lat="52.1983900" lon="5.5566600"/>
<trkpt lat="52.1981200" lon="5.5550900"/>
<trkpt lat="52.1965900" lon="5.5558300"/>
<trkpt lat="52.1961600" lon="5.5559200"/>
<trkpt lat="52.1959500" lon="5.5559100"/>
<trkpt lat="52.1957700" lon="5.5560400"/>
<trkpt lat="52.1957000" lon="5.5561700"/>
<trkpt lat="52.1944700" lon="5.5567100"/>
<trkpt lat="52.1943800" lon="5.5566200"/>
<trkpt lat="52.1941400" lon="5.5559700"/>
<trkpt lat="52.1941000" lon="5.5559300"/>
<trkpt lat="52.1934400" lon="5.5560800"/>
<trkpt lat="52.1932100" lon="5.5585800"/>
<trkpt lat="52.1931400" lon="5.5585700"/>
<trkpt lat="52.1931300" lon="5.5588300"/>
<trkpt lat="52.1926500" lon="5.5589300"/>
<trkpt lat="52.1920700" lon="5.5590000"/>
<trkpt lat="52.1919700" lon="5.5591000"/>
<trkpt lat="52.1919200" lon="5.5597000"/>
<trkpt lat="52.1918100" lon="5.5602600"/>
<trkpt lat="52.1915500" lon="5.5612300"/>
<trkpt lat="52.1911500" lon="5.5625700"/>
<trkpt lat="52.1910700" lon="5.5625500"/>
<trkpt lat="52.1908100" lon="5.5626000"/>
<trkpt lat="52.1905600" lon="5.5625100"/>
<trkpt lat="52.1903000" lon="5.5624400"/>
<trkpt lat="52.1900800" lon="5.5624800"/>
<trkpt lat="52.1899100" lon="5.5624900"/>
<trkpt lat="52.1898400" lon="5.5624100"/>
</trkseg></trk>
</gpx>