<?xml version="1.0" encoding="UTF-8"?>
<gpx version="1.1" creator="klompenpaden.nl via Jimbo API" xmlns="http://www.topografix.com/GPX/1/1">
<metadata><name>Kuilenburgerpad</name><desc>Ontdek het mooie buitengebied van Culemborg. Wandelen over verschillende landgoederen, langs historische gebouwen en boomgaarden in het buitengebied van Culemborg. De afwisseling van cultuur en natuur bepaalt hier de sfeer. Klompen aan, rugzak op en gaan!</desc><link href="https://www.klompenpaden.nl/klompenpaden/Kuilenburgerpad/3458d2bc-ea4f-454a-b43c-47df0ee200f7"><text>klompenpaden.nl</text></link></metadata>
<wpt lat="51.96056432241719" lon="5.233118534088135"><name>Start Culemborg</name></wpt>
<trk><name>Kuilenburgerpad - mainRoute</name><type>mainRoute</type><trkseg>
<trkpt lat="51.9664500" lon="5.2505000"/>
<trkpt lat="51.9658000" lon="5.2511400"/>
<trkpt lat="51.9656100" lon="5.2512000"/>
<trkpt lat="51.9652900" lon="5.2515800"/>
<trkpt lat="51.9650200" lon="5.2517500"/>
<trkpt lat="51.9646500" lon="5.2515900"/>
<trkpt lat="51.9635000" lon="5.2495900"/>
<trkpt lat="51.9634800" lon="5.2491400"/>
<trkpt lat="51.9633600" lon="5.2488500"/>
<trkpt lat="51.9630900" lon="5.2484100"/>
<trkpt lat="51.9630200" lon="5.2481300"/>
<trkpt lat="51.9631200" lon="5.2475400"/>
<trkpt lat="51.9631500" lon="5.2469100"/>
<trkpt lat="51.9633900" lon="5.2466000"/>
<trkpt lat="51.9635500" lon="5.2465000"/>
<trkpt lat="51.9642100" lon="5.2476400"/>
<trkpt lat="51.9642700" lon="5.2481100"/>
<trkpt lat="51.9642300" lon="5.2490300"/>
<trkpt lat="51.9641400" lon="5.2492800"/>
<trkpt lat="51.9636800" lon="5.2499000"/>
</trkseg></trk>
<trk><name>Kuilenburgerpad - mainRoute</name><type>mainRoute</type><trkseg>
<trkpt lat="51.9664500" lon="5.2505000"/>
<trkpt lat="51.9659600" lon="5.2474600"/>
<trkpt lat="51.9678700" lon="5.2466900"/>
<trkpt lat="51.9673700" lon="5.2436000"/>
<trkpt lat="51.9666600" lon="5.2438800"/>
<trkpt lat="51.9652200" lon="5.2400400"/>
<trkpt lat="51.9635800" lon="5.2420800"/>
<trkpt lat="51.9617600" lon="5.2385200"/>
<trkpt lat="51.9622800" lon="5.2378300"/>
<trkpt lat="51.9619800" lon="5.2372000"/>
<trkpt lat="51.9616400" lon="5.2368800"/>
<trkpt lat="51.9614000" lon="5.2363000"/>
<trkpt lat="51.9620100" lon="5.2353600"/>
<trkpt lat="51.9620600" lon="5.2353800"/>
<trkpt lat="51.9622400" lon="5.2351400"/>
<trkpt lat="51.9622200" lon="5.2350200"/>
<trkpt lat="51.9620400" lon="5.2349800"/>
<trkpt lat="51.9618600" lon="5.2347700"/>
<trkpt lat="51.9615400" lon="5.2343000"/>
<trkpt lat="51.9611600" lon="5.2336100"/>
<trkpt lat="51.9609700" lon="5.2335400"/>
<trkpt lat="51.9608400" lon="5.2333600"/>
<trkpt lat="51.9609700" lon="5.2335000"/>
<trkpt lat="51.9611300" lon="5.2335700"/>
<trkpt lat="51.9614200" lon="5.2336600"/>
<trkpt lat="51.9616000" lon="5.2339200"/>
<trkpt lat="51.9618600" lon="5.2340100"/>
<trkpt lat="51.9621400" lon="5.2338200"/>
<trkpt lat="51.9620900" lon="5.2334600"/>
<trkpt lat="51.9624000" lon="5.2331600"/>
<trkpt lat="51.9625300" lon="5.2331200"/>
<trkpt lat="51.9626800" lon="5.2331500"/>
<trkpt lat="51.9629000" lon="5.2335400"/>
<trkpt lat="51.9632000" lon="5.2338400"/>
<trkpt lat="51.9634300" lon="5.2341400"/>
<trkpt lat="51.9645600" lon="5.2317500"/>
<trkpt lat="51.9642100" lon="5.2313800"/>
<trkpt lat="51.9634300" lon="5.2311900"/>
<trkpt lat="51.9631500" lon="5.2302700"/>
<trkpt lat="51.9628700" lon="5.2295600"/>
<trkpt lat="51.9600300" lon="5.2269900"/>
<trkpt lat="51.9598400" lon="5.2264100"/>
<trkpt lat="51.9604600" lon="5.2250100"/>
<trkpt lat="51.9600700" lon="5.2242400"/>
<trkpt lat="51.9601700" lon="5.2240700"/>
<trkpt lat="51.9604400" lon="5.2240700"/>
<trkpt lat="51.9609600" lon="5.2228300"/>
<trkpt lat="51.9615500" lon="5.2233200"/>
<trkpt lat="51.9622000" lon="5.2211800"/>
<trkpt lat="51.9625500" lon="5.2204200"/>
<trkpt lat="51.9627900" lon="5.2201600"/>
<trkpt lat="51.9630700" lon="5.2203600"/>
<trkpt lat="51.9633000" lon="5.2213600"/>
<trkpt lat="51.9639100" lon="5.2221300"/>
<trkpt lat="51.9644800" lon="5.2230500"/>
<trkpt lat="51.9652700" lon="5.2232900"/>
<trkpt lat="51.9658900" lon="5.2240300"/>
<trkpt lat="51.9672000" lon="5.2251900"/>
<trkpt lat="51.9676200" lon="5.2256600"/>
<trkpt lat="51.9697500" lon="5.2275900"/>
<trkpt lat="51.9705200" lon="5.2282100"/>
<trkpt lat="51.9717300" lon="5.2286800"/>
<trkpt lat="51.9715000" lon="5.2301100"/>
<trkpt lat="51.9714000" lon="5.2317300"/>
<trkpt lat="51.9712300" lon="5.2326800"/>
<trkpt lat="51.9709000" lon="5.2338400"/>
<trkpt lat="51.9703300" lon="5.2351700"/>
<trkpt lat="51.9709600" lon="5.2358200"/>
<trkpt lat="51.9711400" lon="5.2375400"/>
<trkpt lat="51.9712100" lon="5.2396200"/>
<trkpt lat="51.9698100" lon="5.2377700"/>
<trkpt lat="51.9691600" lon="5.2411200"/>
<trkpt lat="51.9694600" lon="5.2426200"/>
<trkpt lat="51.9692800" lon="5.2428200"/>
<trkpt lat="51.9702700" lon="5.2488900"/>
<trkpt lat="51.9679100" lon="5.2499100"/>
<trkpt lat="51.9664500" lon="5.2505000"/>
</trkseg></trk>
<trk><name>Kuilenburgerpad - overstaproute</name><type>connectionRoute</type><trkseg>
<trkpt lat="51.9554700" lon="5.2778600"/>
<trkpt lat="51.9556700" lon="5.2773100"/>
<trkpt lat="51.9560600" lon="5.2782600"/>
<trkpt lat="51.9564700" lon="5.2761700"/>
<trkpt lat="51.9569100" lon="5.2752200"/>
<trkpt lat="51.9576700" lon="5.2727000"/>
<trkpt lat="51.9581000" lon="5.2714600"/>
<trkpt lat="51.9589000" lon="5.2699900"/>
<trkpt lat="51.9594300" lon="5.2691400"/>
<trkpt lat="51.9624700" lon="5.2655700"/>
<trkpt lat="51.9630900" lon="5.2639100"/>
<trkpt lat="51.9631800" lon="5.2612000"/>
<trkpt lat="51.9642900" lon="5.2586300"/>
<trkpt lat="51.9644700" lon="5.2580600"/>
<trkpt lat="51.9646100" lon="5.2578700"/>
<trkpt lat="51.9651400" lon="5.2566300"/>
<trkpt lat="51.9673100" lon="5.2540700"/>
<trkpt lat="51.9663400" lon="5.2525700"/>
<trkpt lat="51.9664300" lon="5.2505200"/>
</trkseg></trk>
<trk><name>Kuilenburgerpad - overstaproute</name><type>connectionRoute</type><trkseg>
<trkpt lat="51.9598400" lon="5.2264100"/>
<trkpt lat="51.9594400" lon="5.2259900"/>
<trkpt lat="51.9592400" lon="5.2257400"/>
<trkpt lat="51.9591300" lon="5.2255400"/>
<trkpt lat="51.9586800" lon="5.2246100"/>
<trkpt lat="51.9587100" lon="5.2245200"/>
<trkpt lat="51.9588200" lon="5.2243100"/>
<trkpt lat="51.9592800" lon="5.2229400"/>
<trkpt lat="51.9595900" lon="5.2227000"/>
<trkpt lat="51.9596800" lon="5.2225800"/>
<trkpt lat="51.9600500" lon="5.2218900"/>
<trkpt lat="51.9603200" lon="5.2209200"/>
<trkpt lat="51.9610700" lon="5.2186100"/>
<trkpt lat="51.9612900" lon="5.2179400"/>
<trkpt lat="51.9613700" lon="5.2177500"/>
<trkpt lat="51.9613700" lon="5.2176100"/>
<trkpt lat="51.9612900" lon="5.2173400"/>
<trkpt lat="51.9612900" lon="5.2170500"/>
<trkpt lat="51.9613000" lon="5.2169400"/>
<trkpt lat="51.9615100" lon="5.2163600"/>
<trkpt lat="51.9618300" lon="5.2157700"/>
<trkpt lat="51.9622900" lon="5.2152700"/>
<trkpt lat="51.9625200" lon="5.2151000"/>
<trkpt lat="51.9626700" lon="5.2151000"/>
<trkpt lat="51.9627300" lon="5.2151200"/>
<trkpt lat="51.9630000" lon="5.2154900"/>
<trkpt lat="51.9631100" lon="5.2155700"/>
<trkpt lat="51.9631800" lon="5.2155700"/>
<trkpt lat="51.9635800" lon="5.2153300"/>
<trkpt lat="51.9638600" lon="5.2152200"/>
<trkpt lat="51.9641500" lon="5.2151300"/>
<trkpt lat="51.9643800" lon="5.2151200"/>
<trkpt lat="51.9645400" lon="5.2151800"/>
<trkpt lat="51.9650100" lon="5.2156700"/>
<trkpt lat="51.9653100" lon="5.2158800"/>
<trkpt lat="51.9655700" lon="5.2159800"/>
<trkpt lat="51.9660600" lon="5.2157500"/>
<trkpt lat="51.9662100" lon="5.2157400"/>
<trkpt lat="51.9664700" lon="5.2158400"/>
<trkpt lat="51.9671200" lon="5.2156700"/>
<trkpt lat="51.9676900" lon="5.2153400"/>
<trkpt lat="51.9677300" lon="5.2152400"/>
<trkpt lat="51.9673900" lon="5.2131400"/>
<trkpt lat="51.9671000" lon="5.2116100"/>
<trkpt lat="51.9671200" lon="5.2111400"/>
<trkpt lat="51.9672600" lon="5.2103200"/>
<trkpt lat="51.9672300" lon="5.2095800"/>
<trkpt lat="51.9674300" lon="5.2084900"/>
<trkpt lat="51.9676200" lon="5.2077100"/>
<trkpt lat="51.9676400" lon="5.2074200"/>
<trkpt lat="51.9675900" lon="5.2071700"/>
<trkpt lat="51.9668400" lon="5.2051000"/>
<trkpt lat="51.9666800" lon="5.2044400"/>
<trkpt lat="51.9656700" lon="5.2011300"/>
<trkpt lat="51.9653900" lon="5.1998800"/>
<trkpt lat="51.9653300" lon="5.1992100"/>
<trkpt lat="51.9653600" lon="5.1987500"/>
<trkpt lat="51.9655300" lon="5.1978200"/>
<trkpt lat="51.9657700" lon="5.1971300"/>
<trkpt lat="51.9662400" lon="5.1955100"/>
<trkpt lat="51.9668800" lon="5.1943900"/>
<trkpt lat="51.9671600" lon="5.1938300"/>
<trkpt lat="51.9672900" lon="5.1932900"/>
<trkpt lat="51.9676200" lon="5.1928000"/>
<trkpt lat="51.9680100" lon="5.1912400"/>
<trkpt lat="51.9681300" lon="5.1905700"/>
<trkpt lat="51.9681600" lon="5.1900500"/>
<trkpt lat="51.9682100" lon="5.1895300"/>
<trkpt lat="51.9688500" lon="5.1858000"/>
<trkpt lat="51.9691400" lon="5.1836900"/>
<trkpt lat="51.9692700" lon="5.1832300"/>
<trkpt lat="51.9694000" lon="5.1828100"/>
</trkseg></trk>
<trk><name>Kuilenburgerpad - overstaproute</name><type>connectionRoute</type><trkseg>
<trkpt lat="51.9627300" lon="5.2151200"/>
<trkpt lat="51.9627500" lon="5.2149500"/>
<trkpt lat="51.9624300" lon="5.2138300"/>
<trkpt lat="51.9621200" lon="5.2123200"/>
<trkpt lat="51.9619800" lon="5.2117600"/>
<trkpt lat="51.9613300" lon="5.2078200"/>
<trkpt lat="51.9612100" lon="5.2054900"/>
<trkpt lat="51.9612200" lon="5.2039500"/>
<trkpt lat="51.9617800" lon="5.1988200"/>
<trkpt lat="51.9637200" lon="5.1920700"/>
<trkpt lat="51.9640900" lon="5.1911700"/>
<trkpt lat="51.9647800" lon="5.1896800"/>
<trkpt lat="51.9649000" lon="5.1893600"/>
<trkpt lat="51.9648200" lon="5.1892400"/>
<trkpt lat="51.9649100" lon="5.1890100"/>
<trkpt lat="51.9651300" lon="5.1886100"/>
<trkpt lat="51.9658900" lon="5.1877900"/>
<trkpt lat="51.9665800" lon="5.1869800"/>
<trkpt lat="51.9669600" lon="5.1864300"/>
<trkpt lat="51.9671800" lon="5.1860200"/>
<trkpt lat="51.9674000" lon="5.1855200"/>
<trkpt lat="51.9678400" lon="5.1846800"/>
<trkpt lat="51.9682200" lon="5.1852000"/>
<trkpt lat="51.9683800" lon="5.1854800"/>
<trkpt lat="51.9687500" lon="5.1857500"/>
<trkpt lat="51.9688500" lon="5.1858000"/>
</trkseg></trk>
<trk><name>Kuilenburgerpad - overstaproute</name><type>connectionRoute</type><trkseg>
<trkpt lat="51.9613000" lon="5.2169400"/>
<trkpt lat="51.9611100" lon="5.2167000"/>
<trkpt lat="51.9608900" lon="5.2161800"/>
<trkpt lat="51.9607800" lon="5.2161600"/>
<trkpt lat="51.9605500" lon="5.2157000"/>
<trkpt lat="51.9601700" lon="5.2147100"/>
<trkpt lat="51.9600800" lon="5.2143500"/>
<trkpt lat="51.9600600" lon="5.2141000"/>
<trkpt lat="51.9600300" lon="5.2139300"/>
<trkpt lat="51.9591200" lon="5.2128700"/>
<trkpt lat="51.9589500" lon="5.2125700"/>
<trkpt lat="51.9585900" lon="5.2112400"/>
<trkpt lat="51.9583400" lon="5.2101200"/>
<trkpt lat="51.9580200" lon="5.2081800"/>
<trkpt lat="51.9578100" lon="5.2063800"/>
<trkpt lat="51.9578200" lon="5.2058200"/>
<trkpt lat="51.9581300" lon="5.2042000"/>
<trkpt lat="51.9581500" lon="5.2028100"/>
<trkpt lat="51.9581200" lon="5.2027300"/>
<trkpt lat="51.9580400" lon="5.2026500"/>
<trkpt lat="51.9579800" lon="5.2026300"/>
<trkpt lat="51.9565800" lon="5.2023400"/>
<trkpt lat="51.9564700" lon="5.2022900"/>
<trkpt lat="51.9564500" lon="5.2022300"/>
<trkpt lat="51.9565500" lon="5.2016400"/>
<trkpt lat="51.9568700" lon="5.2008700"/>
<trkpt lat="51.9571500" lon="5.2004000"/>
<trkpt lat="51.9573800" lon="5.2001300"/>
<trkpt lat="51.9577800" lon="5.1998300"/>
<trkpt lat="51.9579500" lon="5.1996500"/>
<trkpt lat="51.9581300" lon="5.1993500"/>
<trkpt lat="51.9583000" lon="5.1989600"/>
<trkpt lat="51.9584200" lon="5.1981900"/>
<trkpt lat="51.9585500" lon="5.1967100"/>
<trkpt lat="51.9589100" lon="5.1943000"/>
<trkpt lat="51.9589200" lon="5.1924800"/>
</trkseg></trk>
<trk><name>Kuilenburgerpad - approachRoute</name><type>approachRoute</type><trkseg>
<trkpt lat="51.9475600" lon="5.2272900"/>
<trkpt lat="51.9491000" lon="5.2258300"/>
<trkpt lat="51.9495100" lon="5.2255400"/>
<trkpt lat="51.9496700" lon="5.2254700"/>
<trkpt lat="51.9498600" lon="5.2254800"/>
<trkpt lat="51.9502200" lon="5.2259800"/>
<trkpt lat="51.9504600" lon="5.2263800"/>
<trkpt lat="51.9506500" lon="5.2268200"/>
<trkpt lat="51.9519800" lon="5.2288800"/>
<trkpt lat="51.9521900" lon="5.2292700"/>
<trkpt lat="51.9522300" lon="5.2292100"/>
<trkpt lat="51.9523300" lon="5.2291800"/>
<trkpt lat="51.9523900" lon="5.2292300"/>
<trkpt lat="51.9530500" lon="5.2288400"/>
<trkpt lat="51.9544700" lon="5.2277600"/>
<trkpt lat="51.9548500" lon="5.2271700"/>
<trkpt lat="51.9551800" lon="5.2263200"/>
<trkpt lat="51.9554200" lon="5.2262000"/>
<trkpt lat="51.9559600" lon="5.2261400"/>
<trkpt lat="51.9561800" lon="5.2261400"/>
<trkpt lat="51.9565200" lon="5.2258700"/>
<trkpt lat="51.9581100" lon="5.2249100"/>
<trkpt lat="51.9587100" lon="5.2245200"/>
<trkpt lat="51.9592000" lon="5.2256000"/>
<trkpt lat="51.9598400" lon="5.2264100"/>
</trkseg></trk>
<trk><name>Kuilenburgerpad - omleiding</name><type>detourRoute</type><trkseg>
<trkpt lat="51.9712169" lon="5.2396435"/>
<trkpt lat="51.9712430" lon="5.2398942"/>
<trkpt lat="51.9711614" lon="5.2407218"/>
<trkpt lat="51.9709721" lon="5.2420346"/>
<trkpt lat="51.9708254" lon="5.2445340"/>
<trkpt lat="51.9709035" lon="5.2450937"/>
<trkpt lat="51.9710281" lon="5.2456261"/>
<trkpt lat="51.9711156" lon="5.2463037"/>
<trkpt lat="51.9712064" lon="5.2479510"/>
<trkpt lat="51.9712793" lon="5.2484941"/>
<trkpt lat="51.9713571" lon="5.2488365"/>
<trkpt lat="51.9713687" lon="5.2499230"/>
<trkpt lat="51.9713028" lon="5.2509929"/>
<trkpt lat="51.9711177" lon="5.2515618"/>
<trkpt lat="51.9706895" lon="5.2518306"/>
<trkpt lat="51.9689304" lon="5.2527719"/>
<trkpt lat="51.9681463" lon="5.2532339"/>
<trkpt lat="51.9674535" lon="5.2539797"/>
<trkpt lat="51.9672195" lon="5.2539020"/>
<trkpt lat="51.9667347" lon="5.2531723"/>
<trkpt lat="51.9663824" lon="5.2526799"/>
<trkpt lat="51.9663718" lon="5.2520015"/>
<trkpt lat="51.9664184" lon="5.2505983"/>
<trkpt lat="51.9658822" lon="5.2470098"/>
<trkpt lat="51.9654741" lon="5.2444949"/>
<trkpt lat="51.9649075" lon="5.2446239"/>
<trkpt lat="51.9635803" lon="5.2420935"/>
</trkseg></trk>
</gpx>