<?xml version="1.0" encoding="UTF-8"?>
<gpx version="1.1" creator="klompenpaden.nl via Jimbo API" xmlns="http://www.topografix.com/GPX/1/1">
<metadata><name>Laaksepad</name><desc>Ontdek het mooie buitengebied van Hoevelaken en Nijkerkerveen. Wandelen door het lagenlandschap, één van de vijf historische landschappen van Nijkerk. Kenmerkend zijn hier de smalle kavels van soms wel anderhalve kilometer lang. Klompen aan, rugzak op en gaan!</desc><link href="https://www.klompenpaden.nl/klompenpaden/Laaksepad/8fcca24d-4b91-4e81-8805-71fb3ad920ca"><text>klompenpaden.nl</text></link></metadata>
<wpt lat="52.176349642959615" lon="5.455473661422729"><name>Start Hoevelaken</name></wpt>
<trk><name>Laaksepad - mainRoute</name><type>mainRoute</type><trkseg>
<trkpt lat="52.1926300" lon="5.4325300"/>
<trkpt lat="52.1925800" lon="5.4323800"/>
<trkpt lat="52.1924900" lon="5.4323800"/>
<trkpt lat="52.1924000" lon="5.4323000"/>
<trkpt lat="52.1923500" lon="5.4321600"/>
<trkpt lat="52.1922700" lon="5.4321600"/>
<trkpt lat="52.1922000" lon="5.4320900"/>
<trkpt lat="52.1921900" lon="5.4317900"/>
<trkpt lat="52.1921200" lon="5.4316100"/>
<trkpt lat="52.1914400" lon="5.4292000"/>
<trkpt lat="52.1911300" lon="5.4290700"/>
<trkpt lat="52.1909900" lon="5.4293200"/>
<trkpt lat="52.1908300" lon="5.4295300"/>
<trkpt lat="52.1907600" lon="5.4296000"/>
<trkpt lat="52.1906200" lon="5.4295600"/>
<trkpt lat="52.1903800" lon="5.4295900"/>
<trkpt lat="52.1903100" lon="5.4297200"/>
<trkpt lat="52.1901900" lon="5.4298700"/>
<trkpt lat="52.1893000" lon="5.4307900"/>
<trkpt lat="52.1890200" lon="5.4311200"/>
<trkpt lat="52.1880600" lon="5.4318000"/>
<trkpt lat="52.1869900" lon="5.4326200"/>
<trkpt lat="52.1866000" lon="5.4329600"/>
<trkpt lat="52.1863000" lon="5.4332600"/>
<trkpt lat="52.1860500" lon="5.4334200"/>
<trkpt lat="52.1858200" lon="5.4334700"/>
<trkpt lat="52.1858100" lon="5.4339800"/>
<trkpt lat="52.1851800" lon="5.4355400"/>
<trkpt lat="52.1848300" lon="5.4367000"/>
<trkpt lat="52.1842400" lon="5.4385800"/>
<trkpt lat="52.1843200" lon="5.4386800"/>
<trkpt lat="52.1843700" lon="5.4388700"/>
<trkpt lat="52.1842800" lon="5.4391100"/>
<trkpt lat="52.1842800" lon="5.4392600"/>
<trkpt lat="52.1841900" lon="5.4399400"/>
<trkpt lat="52.1841000" lon="5.4404400"/>
<trkpt lat="52.1837000" lon="5.4422600"/>
<trkpt lat="52.1838600" lon="5.4424000"/>
<trkpt lat="52.1836700" lon="5.4433500"/>
</trkseg></trk>
<trk><name>Laaksepad - Hoofdroute</name><type>mainRoute</type><trkseg>
<trkpt lat="52.1763461" lon="5.4550656"/>
<trkpt lat="52.1766970" lon="5.4558598"/>
<trkpt lat="52.1767602" lon="5.4566798"/>
<trkpt lat="52.1767930" lon="5.4587837"/>
<trkpt lat="52.1769881" lon="5.4589611"/>
<trkpt lat="52.1771974" lon="5.4589873"/>
<trkpt lat="52.1793805" lon="5.4588452"/>
<trkpt lat="52.1803799" lon="5.4588393"/>
<trkpt lat="52.1801571" lon="5.4597427"/>
<trkpt lat="52.1799557" lon="5.4609260"/>
<trkpt lat="52.1797803" lon="5.4617653"/>
<trkpt lat="52.1826268" lon="5.4616044"/>
<trkpt lat="52.1839219" lon="5.4615206"/>
<trkpt lat="52.1841597" lon="5.4615881"/>
<trkpt lat="52.1861744" lon="5.4614536"/>
<trkpt lat="52.1887517" lon="5.4612286"/>
<trkpt lat="52.1887964" lon="5.4611175"/>
<trkpt lat="52.1891629" lon="5.4597638"/>
<trkpt lat="52.1895741" lon="5.4581394"/>
<trkpt lat="52.1897796" lon="5.4574094"/>
<trkpt lat="52.1898570" lon="5.4571968"/>
<trkpt lat="52.1899107" lon="5.4568341"/>
<trkpt lat="52.1900714" lon="5.4566264"/>
<trkpt lat="52.1901845" lon="5.4563799"/>
<trkpt lat="52.1903632" lon="5.4556789"/>
<trkpt lat="52.1901850" lon="5.4555722"/>
<trkpt lat="52.1895490" lon="5.4552375"/>
<trkpt lat="52.1883540" lon="5.4553420"/>
<trkpt lat="52.1883215" lon="5.4550470"/>
<trkpt lat="52.1882565" lon="5.4542634"/>
<trkpt lat="52.1881677" lon="5.4537071"/>
<trkpt lat="52.1881441" lon="5.4533975"/>
<trkpt lat="52.1881947" lon="5.4532186"/>
<trkpt lat="52.1882156" lon="5.4530639"/>
<trkpt lat="52.1882009" lon="5.4527543"/>
<trkpt lat="52.1881563" lon="5.4527156"/>
<trkpt lat="52.1879750" lon="5.4527250"/>
<trkpt lat="52.1879275" lon="5.4526814"/>
<trkpt lat="52.1879129" lon="5.4521155"/>
<trkpt lat="52.1876602" lon="5.4521490"/>
<trkpt lat="52.1867773" lon="5.4522493"/>
<trkpt lat="52.1854098" lon="5.4524407"/>
<trkpt lat="52.1848093" lon="5.4525414"/>
<trkpt lat="52.1834359" lon="5.4526632"/>
<trkpt lat="52.1828937" lon="5.4527397"/>
<trkpt lat="52.1822373" lon="5.4527852"/>
<trkpt lat="52.1822326" lon="5.4526769"/>
<trkpt lat="52.1824331" lon="5.4512922"/>
<trkpt lat="52.1826763" lon="5.4501784"/>
<trkpt lat="52.1827287" lon="5.4500701"/>
<trkpt lat="52.1827763" lon="5.4500006"/>
<trkpt lat="52.1828478" lon="5.4497531"/>
<trkpt lat="52.1828669" lon="5.4495597"/>
<trkpt lat="52.1828576" lon="5.4490490"/>
<trkpt lat="52.1828346" lon="5.4476098"/>
<trkpt lat="52.1834767" lon="5.4475024"/>
<trkpt lat="52.1835816" lon="5.4470305"/>
<trkpt lat="52.1836345" lon="5.4458313"/>
<trkpt lat="52.1836535" lon="5.4457408"/>
<trkpt lat="52.1840200" lon="5.4457311"/>
<trkpt lat="52.1843307" lon="5.4457315"/>
<trkpt lat="52.1846227" lon="5.4457016"/>
<trkpt lat="52.1849706" lon="5.4456616"/>
<trkpt lat="52.1851197" lon="5.4456012"/>
<trkpt lat="52.1851944" lon="5.4453789"/>
<trkpt lat="52.1852196" lon="5.4446815"/>
<trkpt lat="52.1853520" lon="5.4447658"/>
<trkpt lat="52.1857562" lon="5.4450062"/>
<trkpt lat="52.1859416" lon="5.4450296"/>
<trkpt lat="52.1863004" lon="5.4450165"/>
<trkpt lat="52.1865457" lon="5.4449375"/>
<trkpt lat="52.1871640" lon="5.4449848"/>
<trkpt lat="52.1873162" lon="5.4449850"/>
<trkpt lat="52.1875430" lon="5.4449777"/>
<trkpt lat="52.1879583" lon="5.4449471"/>
<trkpt lat="52.1880914" lon="5.4449163"/>
<trkpt lat="52.1882009" lon="5.4448546"/>
<trkpt lat="52.1883009" lon="5.4449584"/>
<trkpt lat="52.1883672" lon="5.4450482"/>
<trkpt lat="52.1885051" lon="5.4451954"/>
<trkpt lat="52.1888040" lon="5.4451613"/>
<trkpt lat="52.1890277" lon="5.4450605"/>
<trkpt lat="52.1894564" lon="5.4450307"/>
<trkpt lat="52.1897608" lon="5.4450614"/>
<trkpt lat="52.1898654" lon="5.4449651"/>
<trkpt lat="52.1898871" lon="5.4450007"/>
<trkpt lat="52.1899686" lon="5.4451351"/>
<trkpt lat="52.1904107" lon="5.4450654"/>
<trkpt lat="52.1905125" lon="5.4448742"/>
<trkpt lat="52.1907362" lon="5.4450425"/>
<trkpt lat="52.1910531" lon="5.4450126"/>
<trkpt lat="52.1916157" lon="5.4448590"/>
<trkpt lat="52.1921592" lon="5.4444277"/>
<trkpt lat="52.1925943" lon="5.4440947"/>
<trkpt lat="52.1930193" lon="5.4438780"/>
<trkpt lat="52.1936138" lon="5.4438245"/>
<trkpt lat="52.1942345" lon="5.4439350"/>
<trkpt lat="52.1942782" lon="5.4434801"/>
<trkpt lat="52.1941604" lon="5.4428330"/>
<trkpt lat="52.1940053" lon="5.4423981"/>
<trkpt lat="52.1937714" lon="5.4423620"/>
<trkpt lat="52.1930486" lon="5.4423666"/>
<trkpt lat="52.1928679" lon="5.4420978"/>
<trkpt lat="52.1927539" lon="5.4418964"/>
<trkpt lat="52.1926921" lon="5.4416874"/>
<trkpt lat="52.1926685" lon="5.4414320"/>
<trkpt lat="52.1926114" lon="5.4413158"/>
<trkpt lat="52.1925259" lon="5.4412229"/>
<trkpt lat="52.1924093" lon="5.4411527"/>
<trkpt lat="52.1922913" lon="5.4409807"/>
<trkpt lat="52.1921235" lon="5.4410412"/>
<trkpt lat="52.1919061" lon="5.4410510"/>
<trkpt lat="52.1916887" lon="5.4409092"/>
<trkpt lat="52.1914796" lon="5.4409817"/>
<trkpt lat="52.1912351" lon="5.4411311"/>
<trkpt lat="52.1910797" lon="5.4413735"/>
<trkpt lat="52.1909305" lon="5.4415957"/>
<trkpt lat="52.1908371" lon="5.4418786"/>
<trkpt lat="52.1907624" lon="5.4422424"/>
<trkpt lat="52.1906609" lon="5.4424356"/>
<trkpt lat="52.1905510" lon="5.4425960"/>
<trkpt lat="52.1900616" lon="5.4426515"/>
<trkpt lat="52.1890199" lon="5.4427663"/>
<trkpt lat="52.1880829" lon="5.4428657"/>
<trkpt lat="52.1857951" lon="5.4431337"/>
<trkpt lat="52.1836119" lon="5.4433630"/>
<trkpt lat="52.1800114" lon="5.4437685"/>
<trkpt lat="52.1786701" lon="5.4439216"/>
<trkpt lat="52.1787454" lon="5.4455928"/>
<trkpt lat="52.1788357" lon="5.4457244"/>
<trkpt lat="52.1793018" lon="5.4457482"/>
<trkpt lat="52.1794873" lon="5.4457098"/>
<trkpt lat="52.1796585" lon="5.4456249"/>
<trkpt lat="52.1798536" lon="5.4455323"/>
<trkpt lat="52.1801723" lon="5.4454941"/>
<trkpt lat="52.1803577" lon="5.4455407"/>
<trkpt lat="52.1804529" lon="5.4454867"/>
<trkpt lat="52.1805765" lon="5.4455101"/>
<trkpt lat="52.1806764" lon="5.4455566"/>
<trkpt lat="52.1807398" lon="5.4456460"/>
<trkpt lat="52.1808143" lon="5.4457269"/>
<trkpt lat="52.1809509" lon="5.4458888"/>
<trkpt lat="52.1810876" lon="5.4459193"/>
<trkpt lat="52.1813547" lon="5.4459702"/>
<trkpt lat="52.1815038" lon="5.4459401"/>
<trkpt lat="52.1816597" lon="5.4459972"/>
<trkpt lat="52.1818131" lon="5.4460772"/>
<trkpt lat="52.1819909" lon="5.4460602"/>
<trkpt lat="52.1823145" lon="5.4460272"/>
<trkpt lat="52.1824886" lon="5.4460091"/>
<trkpt lat="52.1835994" lon="5.4458950"/>
<trkpt lat="52.1836324" lon="5.4458405"/>
<trkpt lat="52.1835994" lon="5.4458950"/>
<trkpt lat="52.1836324" lon="5.4458405"/>
<trkpt lat="52.1836294" lon="5.4464735"/>
<trkpt lat="52.1835816" lon="5.4470383"/>
<trkpt lat="52.1834815" lon="5.4475101"/>
<trkpt lat="52.1834719" lon="5.4475875"/>
<trkpt lat="52.1830153" lon="5.4476333"/>
<trkpt lat="52.1829011" lon="5.4477028"/>
<trkpt lat="52.1828915" lon="5.4480045"/>
<trkpt lat="52.1829146" lon="5.4492580"/>
<trkpt lat="52.1829096" lon="5.4496371"/>
<trkpt lat="52.1828667" lon="5.4499311"/>
<trkpt lat="52.1828238" lon="5.4500625"/>
<trkpt lat="52.1827477" lon="5.4501398"/>
<trkpt lat="52.1824813" lon="5.4501781"/>
<trkpt lat="52.1819819" lon="5.4502703"/>
<trkpt lat="52.1805027" lon="5.4503765"/>
<trkpt lat="52.1797607" lon="5.4504837"/>
<trkpt lat="52.1788569" lon="5.4505598"/>
<trkpt lat="52.1788850" lon="5.4514573"/>
<trkpt lat="52.1788555" lon="5.4516562"/>
<trkpt lat="52.1788250" lon="5.4518261"/>
<trkpt lat="52.1787991" lon="5.4519368"/>
<trkpt lat="52.1786658" lon="5.4521610"/>
<trkpt lat="52.1786229" lon="5.4523312"/>
<trkpt lat="52.1786180" lon="5.4526716"/>
<trkpt lat="52.1786320" lon="5.4531512"/>
<trkpt lat="52.1776284" lon="5.4532426"/>
<trkpt lat="52.1767723" lon="5.4532645"/>
<trkpt lat="52.1763395" lon="5.4532871"/>
<trkpt lat="52.1762823" lon="5.4534572"/>
<trkpt lat="52.1762203" lon="5.4536815"/>
<trkpt lat="52.1762010" lon="5.4542152"/>
<trkpt lat="52.1762436" lon="5.4545712"/>
<trkpt lat="52.1762592" lon="5.4548742"/>
<trkpt lat="52.1763418" lon="5.4550514"/>
</trkseg></trk>
<trk><name>Laaksepad - overstaproute</name><type>connectionRoute</type><trkseg>
<trkpt lat="52.1787900" lon="5.4456500"/>
<trkpt lat="52.1785500" lon="5.4457600"/>
<trkpt lat="52.1742200" lon="5.4462500"/>
<trkpt lat="52.1738600" lon="5.4440100"/>
<trkpt lat="52.1738400" lon="5.4436700"/>
<trkpt lat="52.1735700" lon="5.4417800"/>
<trkpt lat="52.1733900" lon="5.4401900"/>
<trkpt lat="52.1732000" lon="5.4387400"/>
<trkpt lat="52.1730500" lon="5.4382800"/>
<trkpt lat="52.1729500" lon="5.4380600"/>
<trkpt lat="52.1725300" lon="5.4368100"/>
<trkpt lat="52.1715500" lon="5.4356900"/>
<trkpt lat="52.1706600" lon="5.4347900"/>
<trkpt lat="52.1703300" lon="5.4340600"/>
<trkpt lat="52.1699500" lon="5.4340100"/>
<trkpt lat="52.1694400" lon="5.4341300"/>
<trkpt lat="52.1681300" lon="5.4347500"/>
<trkpt lat="52.1677600" lon="5.4347400"/>
<trkpt lat="52.1676000" lon="5.4347000"/>
<trkpt lat="52.1674300" lon="5.4351700"/>
<trkpt lat="52.1673700" lon="5.4356200"/>
<trkpt lat="52.1670500" lon="5.4360300"/>
<trkpt lat="52.1662400" lon="5.4367600"/>
<trkpt lat="52.1655000" lon="5.4371000"/>
</trkseg></trk>
<trk><name>Laaksepad - overstaproute</name><type>connectionRoute</type><trkseg>
<trkpt lat="52.1797700" lon="5.4617600"/>
<trkpt lat="52.1796600" lon="5.4619000"/>
<trkpt lat="52.1794400" lon="5.4626000"/>
<trkpt lat="52.1792600" lon="5.4634500"/>
<trkpt lat="52.1791900" lon="5.4636200"/>
<trkpt lat="52.1790200" lon="5.4644400"/>
<trkpt lat="52.1789300" lon="5.4657300"/>
<trkpt lat="52.1789600" lon="5.4699800"/>
<trkpt lat="52.1790600" lon="5.4716700"/>
<trkpt lat="52.1790000" lon="5.4745400"/>
<trkpt lat="52.1790000" lon="5.4761100"/>
<trkpt lat="52.1788600" lon="5.4776700"/>
<trkpt lat="52.1788500" lon="5.4779100"/>
<trkpt lat="52.1791000" lon="5.4792400"/>
<trkpt lat="52.1793800" lon="5.4802400"/>
<trkpt lat="52.1795300" lon="5.4805100"/>
<trkpt lat="52.1796200" lon="5.4805900"/>
<trkpt lat="52.1805500" lon="5.4806300"/>
<trkpt lat="52.1806600" lon="5.4807000"/>
<trkpt lat="52.1807500" lon="5.4809600"/>
<trkpt lat="52.1809000" lon="5.4821700"/>
<trkpt lat="52.1810100" lon="5.4834200"/>
<trkpt lat="52.1810800" lon="5.4839400"/>
<trkpt lat="52.1814600" lon="5.4854100"/>
<trkpt lat="52.1815500" lon="5.4855200"/>
<trkpt lat="52.1814200" lon="5.4927900"/>
</trkseg></trk>
<trk><name>Laaksepad - approachRoute</name><type>approachRoute</type><trkseg>
<trkpt lat="52.1895500" lon="5.4582000"/>
<trkpt lat="52.1923500" lon="5.4609600"/>
<trkpt lat="52.1940900" lon="5.4627200"/>
<trkpt lat="52.1937600" lon="5.4635400"/>
<trkpt lat="52.1939200" lon="5.4636700"/>
<trkpt lat="52.1940000" lon="5.4641600"/>
<trkpt lat="52.1941500" lon="5.4642000"/>
<trkpt lat="52.1948500" lon="5.4649000"/>
<trkpt lat="52.1949000" lon="5.4649800"/>
<trkpt lat="52.1948000" lon="5.4654200"/>
<trkpt lat="52.1946100" lon="5.4660200"/>
<trkpt lat="52.1946300" lon="5.4660900"/>
<trkpt lat="52.1951400" lon="5.4665600"/>
<trkpt lat="52.1951700" lon="5.4666200"/>
<trkpt lat="52.1956600" lon="5.4667900"/>
<trkpt lat="52.1957200" lon="5.4668500"/>
<trkpt lat="52.1957200" lon="5.4669300"/>
<trkpt lat="52.1958800" lon="5.4675600"/>
<trkpt lat="52.1955100" lon="5.4681100"/>
<trkpt lat="52.1952000" lon="5.4689100"/>
</trkseg></trk>
<trk><name>Laaksepad - ongemakeerde route</name><type>approachRoute</type><trkseg>
<trkpt lat="52.1664900" lon="5.4581400"/>
<trkpt lat="52.1669500" lon="5.4582100"/>
<trkpt lat="52.1671200" lon="5.4583100"/>
<trkpt lat="52.1671900" lon="5.4580900"/>
<trkpt lat="52.1672100" lon="5.4580900"/>
<trkpt lat="52.1672200" lon="5.4582400"/>
<trkpt lat="52.1682300" lon="5.4580700"/>
<trkpt lat="52.1682200" lon="5.4581400"/>
<trkpt lat="52.1683300" lon="5.4581700"/>
<trkpt lat="52.1693300" lon="5.4580200"/>
<trkpt lat="52.1693800" lon="5.4579300"/>
<trkpt lat="52.1694400" lon="5.4578600"/>
<trkpt lat="52.1695000" lon="5.4578100"/>
<trkpt lat="52.1697200" lon="5.4578200"/>
<trkpt lat="52.1697200" lon="5.4579500"/>
<trkpt lat="52.1697400" lon="5.4579900"/>
<trkpt lat="52.1698700" lon="5.4580000"/>
<trkpt lat="52.1711200" lon="5.4578500"/>
<trkpt lat="52.1722800" lon="5.4577800"/>
<trkpt lat="52.1747300" lon="5.4575100"/>
<trkpt lat="52.1748500" lon="5.4573900"/>
<trkpt lat="52.1747800" lon="5.4561300"/>
<trkpt lat="52.1749500" lon="5.4559800"/>
<trkpt lat="52.1754000" lon="5.4557100"/>
<trkpt lat="52.1755800" lon="5.4556300"/>
<trkpt lat="52.1757700" lon="5.4554400"/>
<trkpt lat="52.1760500" lon="5.4549800"/>
<trkpt lat="52.1761700" lon="5.4549200"/>
<trkpt lat="52.1763000" lon="5.4549600"/>
<trkpt lat="52.1763800" lon="5.4549600"/>
</trkseg></trk>
</gpx>