<?xml version="1.0" encoding="UTF-8"?>
<gpx version="1.1" creator="klompenpaden.nl via Jimbo API" xmlns="http://www.topografix.com/GPX/1/1">
<metadata><name>Laorns Enkenpad</name><desc>Ontdek Laren. Loop via akkers en weilanden over en langs eeuwenoude enken en over en langs oude en nieuwe landgoederen. Klompen aan, rugzak op en gaan</desc><link href="https://www.klompenpaden.nl/klompenpaden/Laorns_Enkenpad/4186135a-fd16-40d6-bfcb-19d485349cc5"><text>klompenpaden.nl</text></link></metadata>
<wpt lat="52.19376487117531" lon="6.364436745643616"><name>Start Laren</name></wpt>
<trk><name>Laorns Enkenpad - Geimporteerde shapefile</name><type>mainRoute</type><trkseg>
<trkpt lat="52.1937840" lon="6.3647169"/>
<trkpt lat="52.1938964" lon="6.3641307"/>
<trkpt lat="52.1946066" lon="6.3622426"/>
<trkpt lat="52.1950012" lon="6.3611699"/>
<trkpt lat="52.1953300" lon="6.3598612"/>
<trkpt lat="52.1957508" lon="6.3590673"/>
<trkpt lat="52.1957278" lon="6.3588796"/>
<trkpt lat="52.1954779" lon="6.3585899"/>
<trkpt lat="52.1953306" lon="6.3582424"/>
<trkpt lat="52.1951998" lon="6.3578470"/>
<trkpt lat="52.1950505" lon="6.3574260"/>
<trkpt lat="52.1948907" lon="6.3569593"/>
<trkpt lat="52.1948046" lon="6.3567802"/>
<trkpt lat="52.1946560" lon="6.3566537"/>
<trkpt lat="52.1944094" lon="6.3567019"/>
<trkpt lat="52.1938780" lon="6.3567759"/>
<trkpt lat="52.1932106" lon="6.3568671"/>
<trkpt lat="52.1931152" lon="6.3568081"/>
<trkpt lat="52.1930561" lon="6.3565721"/>
<trkpt lat="52.1928999" lon="6.3556683"/>
<trkpt lat="52.1927736" lon="6.3549673"/>
<trkpt lat="52.1923952" lon="6.3516208"/>
<trkpt lat="52.1922663" lon="6.3501404"/>
<trkpt lat="52.1923097" lon="6.3496405"/>
<trkpt lat="52.1923847" lon="6.3491405"/>
<trkpt lat="52.1925425" lon="6.3482008"/>
<trkpt lat="52.1925583" lon="6.3480164"/>
<trkpt lat="52.1925740" lon="6.3478447"/>
<trkpt lat="52.1922094" lon="6.3476705"/>
<trkpt lat="52.1918009" lon="6.3476967"/>
<trkpt lat="52.1909347" lon="6.3477598"/>
<trkpt lat="52.1903446" lon="6.3477084"/>
<trkpt lat="52.1893863" lon="6.3484939"/>
<trkpt lat="52.1890329" lon="6.3470551"/>
<trkpt lat="52.1887399" lon="6.3468116"/>
<trkpt lat="52.1889840" lon="6.3444944"/>
<trkpt lat="52.1891343" lon="6.3444987"/>
<trkpt lat="52.1893118" lon="6.3428513"/>
<trkpt lat="52.1895744" lon="6.3404065"/>
<trkpt lat="52.1894622" lon="6.3401021"/>
<trkpt lat="52.1883174" lon="6.3392003"/>
<trkpt lat="52.1881709" lon="6.3370169"/>
<trkpt lat="52.1881099" lon="6.3367173"/>
<trkpt lat="52.1881365" lon="6.3361459"/>
<trkpt lat="52.1880644" lon="6.3356654"/>
<trkpt lat="52.1880097" lon="6.3351706"/>
<trkpt lat="52.1881232" lon="6.3347505"/>
<trkpt lat="52.1882631" lon="6.3343732"/>
<trkpt lat="52.1885580" lon="6.3336153"/>
<trkpt lat="52.1889231" lon="6.3326447"/>
<trkpt lat="52.1888634" lon="6.3305664"/>
<trkpt lat="52.1887853" lon="6.3293878"/>
<trkpt lat="52.1887233" lon="6.3287118"/>
<trkpt lat="52.1886834" lon="6.3258319"/>
<trkpt lat="52.1885021" lon="6.3219100"/>
<trkpt lat="52.1875616" lon="6.3217436"/>
<trkpt lat="52.1866001" lon="6.3216803"/>
<trkpt lat="52.1846138" lon="6.3216910"/>
<trkpt lat="52.1838469" lon="6.3209401"/>
<trkpt lat="52.1834529" lon="6.3204959"/>
<trkpt lat="52.1832559" lon="6.3202739"/>
<trkpt lat="52.1830589" lon="6.3202235"/>
<trkpt lat="52.1830654" lon="6.3221222"/>
<trkpt lat="52.1828056" lon="6.3229686"/>
<trkpt lat="52.1826512" lon="6.3233347"/>
<trkpt lat="52.1826862" lon="6.3239411"/>
<trkpt lat="52.1828510" lon="6.3247075"/>
<trkpt lat="52.1828247" lon="6.3259305"/>
<trkpt lat="52.1822332" lon="6.3261476"/>
<trkpt lat="52.1820350" lon="6.3261583"/>
<trkpt lat="52.1818183" lon="6.3261886"/>
<trkpt lat="52.1817071" lon="6.3261809"/>
<trkpt lat="52.1816375" lon="6.3261814"/>
<trkpt lat="52.1814773" lon="6.3261890"/>
<trkpt lat="52.1814737" lon="6.3263031"/>
<trkpt lat="52.1811017" lon="6.3262823"/>
<trkpt lat="52.1809056" lon="6.3262694"/>
<trkpt lat="52.1805291" lon="6.3262930"/>
<trkpt lat="52.1801837" lon="6.3262480"/>
<trkpt lat="52.1800440" lon="6.3262984"/>
<trkpt lat="52.1799754" lon="6.3264158"/>
<trkpt lat="52.1799055" lon="6.3264260"/>
<trkpt lat="52.1798680" lon="6.3261370"/>
<trkpt lat="52.1797587" lon="6.3261474"/>
<trkpt lat="52.1797567" lon="6.3262115"/>
<trkpt lat="52.1796516" lon="6.3262107"/>
<trkpt lat="52.1795565" lon="6.3261865"/>
<trkpt lat="52.1794128" lon="6.3261461"/>
<trkpt lat="52.1789728" lon="6.3260292"/>
<trkpt lat="52.1787455" lon="6.3260070"/>
<trkpt lat="52.1787384" lon="6.3261238"/>
<trkpt lat="52.1778812" lon="6.3261008"/>
<trkpt lat="52.1776804" lon="6.3261164"/>
<trkpt lat="52.1774949" lon="6.3261224"/>
<trkpt lat="52.1773978" lon="6.3260956"/>
<trkpt lat="52.1773433" lon="6.3260891"/>
<trkpt lat="52.1771599" lon="6.3273367"/>
<trkpt lat="52.1770656" lon="6.3273620"/>
<trkpt lat="52.1769187" lon="6.3284986"/>
<trkpt lat="52.1766800" lon="6.3303083"/>
<trkpt lat="52.1765133" lon="6.3315929"/>
<trkpt lat="52.1764221" lon="6.3322759"/>
<trkpt lat="52.1763831" lon="6.3325981"/>
<trkpt lat="52.1758372" lon="6.3326562"/>
<trkpt lat="52.1755539" lon="6.3327025"/>
<trkpt lat="52.1754016" lon="6.3327342"/>
<trkpt lat="52.1752178" lon="6.3328345"/>
<trkpt lat="52.1750073" lon="6.3331564"/>
<trkpt lat="52.1747652" lon="6.3335898"/>
<trkpt lat="52.1744322" lon="6.3346625"/>
<trkpt lat="52.1742513" lon="6.3345424"/>
<trkpt lat="52.1742327" lon="6.3345799"/>
<trkpt lat="52.1742274" lon="6.3346127"/>
<trkpt lat="52.1742326" lon="6.3346432"/>
<trkpt lat="52.1741822" lon="6.3347548"/>
<trkpt lat="52.1740862" lon="6.3349629"/>
<trkpt lat="52.1739796" lon="6.3351624"/>
<trkpt lat="52.1739185" lon="6.3352686"/>
<trkpt lat="52.1738757" lon="6.3353683"/>
<trkpt lat="52.1737547" lon="6.3356028"/>
<trkpt lat="52.1736954" lon="6.3357243"/>
<trkpt lat="52.1736428" lon="6.3358393"/>
<trkpt lat="52.1735395" lon="6.3360404"/>
<trkpt lat="52.1734349" lon="6.3362437"/>
<trkpt lat="52.1730684" lon="6.3369903"/>
<trkpt lat="52.1729398" lon="6.3372553"/>
<trkpt lat="52.1728689" lon="6.3373899"/>
<trkpt lat="52.1728006" lon="6.3375288"/>
<trkpt lat="52.1726605" lon="6.3378100"/>
<trkpt lat="52.1725931" lon="6.3379505"/>
<trkpt lat="52.1725357" lon="6.3380839"/>
<trkpt lat="52.1724563" lon="6.3380206"/>
<trkpt lat="52.1724520" lon="6.3380912"/>
<trkpt lat="52.1725638" lon="6.3381618"/>
<trkpt lat="52.1724757" lon="6.3385652"/>
<trkpt lat="52.1723665" lon="6.3390683"/>
<trkpt lat="52.1723178" lon="6.3393153"/>
<trkpt lat="52.1722625" lon="6.3395408"/>
<trkpt lat="52.1721362" lon="6.3395368"/>
<trkpt lat="52.1720112" lon="6.3395220"/>
<trkpt lat="52.1719303" lon="6.3395124"/>
<trkpt lat="52.1718796" lon="6.3395113"/>
<trkpt lat="52.1718730" lon="6.3405755"/>
<trkpt lat="52.1718624" lon="6.3410775"/>
<trkpt lat="52.1715440" lon="6.3427811"/>
<trkpt lat="52.1717282" lon="6.3436607"/>
<trkpt lat="52.1717414" lon="6.3451840"/>
<trkpt lat="52.1718677" lon="6.3459714"/>
<trkpt lat="52.1719308" lon="6.3466730"/>
<trkpt lat="52.1718085" lon="6.3469541"/>
<trkpt lat="52.1714459" lon="6.3473435"/>
<trkpt lat="52.1703541" lon="6.3473493"/>
<trkpt lat="52.1699867" lon="6.3473633"/>
<trkpt lat="52.1699741" lon="6.3476811"/>
<trkpt lat="52.1699577" lon="6.3486676"/>
<trkpt lat="52.1699708" lon="6.3493204"/>
<trkpt lat="52.1699751" lon="6.3500246"/>
<trkpt lat="52.1699306" lon="6.3503041"/>
<trkpt lat="52.1699065" lon="6.3511706"/>
<trkpt lat="52.1699618" lon="6.3513415"/>
<trkpt lat="52.1698886" lon="6.3551715"/>
<trkpt lat="52.1698908" lon="6.3552588"/>
<trkpt lat="52.1701497" lon="6.3553019"/>
<trkpt lat="52.1704048" lon="6.3555323"/>
<trkpt lat="52.1703966" lon="6.3561202"/>
<trkpt lat="52.1703886" lon="6.3592070"/>
<trkpt lat="52.1704916" lon="6.3602383"/>
<trkpt lat="52.1709623" lon="6.3611680"/>
<trkpt lat="52.1710939" lon="6.3619898"/>
<trkpt lat="52.1710623" lon="6.3634809"/>
<trkpt lat="52.1711333" lon="6.3639228"/>
<trkpt lat="52.1717465" lon="6.3635495"/>
<trkpt lat="52.1722887" lon="6.3635323"/>
<trkpt lat="52.1726282" lon="6.3634379"/>
<trkpt lat="52.1728189" lon="6.3634336"/>
<trkpt lat="52.1732933" lon="6.3636289"/>
<trkpt lat="52.1735989" lon="6.3637694"/>
<trkpt lat="52.1734991" lon="6.3654960"/>
<trkpt lat="52.1733807" lon="6.3666425"/>
<trkpt lat="52.1733320" lon="6.3672673"/>
<trkpt lat="52.1732676" lon="6.3679435"/>
<trkpt lat="52.1728413" lon="6.3696814"/>
<trkpt lat="52.1727613" lon="6.3699956"/>
<trkpt lat="52.1726761" lon="6.3701984"/>
<trkpt lat="52.1724383" lon="6.3701093"/>
<trkpt lat="52.1721847" lon="6.3700117"/>
<trkpt lat="52.1719511" lon="6.3699538"/>
<trkpt lat="52.1721265" lon="6.3719201"/>
<trkpt lat="52.1721965" lon="6.3722044"/>
<trkpt lat="52.1723202" lon="6.3722860"/>
<trkpt lat="52.1723774" lon="6.3723010"/>
<trkpt lat="52.1724400" lon="6.3723417"/>
<trkpt lat="52.1723540" lon="6.3725791"/>
<trkpt lat="52.1722066" lon="6.3732536"/>
<trkpt lat="52.1719722" lon="6.3742022"/>
<trkpt lat="52.1717649" lon="6.3751272"/>
<trkpt lat="52.1716541" lon="6.3755325"/>
<trkpt lat="52.1715544" lon="6.3759397"/>
<trkpt lat="52.1714726" lon="6.3762574"/>
<trkpt lat="52.1714039" lon="6.3762149"/>
<trkpt lat="52.1713516" lon="6.3764224"/>
<trkpt lat="52.1713298" lon="6.3765482"/>
<trkpt lat="52.1713541" lon="6.3766152"/>
<trkpt lat="52.1714225" lon="6.3766020"/>
<trkpt lat="52.1728050" lon="6.3764414"/>
<trkpt lat="52.1730031" lon="6.3763967"/>
<trkpt lat="52.1731914" lon="6.3763876"/>
<trkpt lat="52.1732218" lon="6.3765759"/>
<trkpt lat="52.1733773" lon="6.3773558"/>
<trkpt lat="52.1736304" lon="6.3785122"/>
<trkpt lat="52.1737726" lon="6.3784795"/>
<trkpt lat="52.1739938" lon="6.3784467"/>
<trkpt lat="52.1743835" lon="6.3782955"/>
<trkpt lat="52.1746877" lon="6.3781292"/>
<trkpt lat="52.1748976" lon="6.3789043"/>
<trkpt lat="52.1751105" lon="6.3788027"/>
<trkpt lat="52.1753234" lon="6.3785980"/>
<trkpt lat="52.1751994" lon="6.3775188"/>
<trkpt lat="52.1750806" lon="6.3769460"/>
<trkpt lat="52.1747175" lon="6.3769782"/>
<trkpt lat="52.1746769" lon="6.3762686"/>
<trkpt lat="52.1768673" lon="6.3763644"/>
<trkpt lat="52.1769522" lon="6.3748911"/>
<trkpt lat="52.1769984" lon="6.3700094"/>
<trkpt lat="52.1769790" lon="6.3695858"/>
<trkpt lat="52.1769070" lon="6.3691793"/>
<trkpt lat="52.1769122" lon="6.3687374"/>
<trkpt lat="52.1776147" lon="6.3681409"/>
<trkpt lat="52.1774885" lon="6.3649334"/>
<trkpt lat="52.1774845" lon="6.3646867"/>
<trkpt lat="52.1774904" lon="6.3645300"/>
<trkpt lat="52.1774806" lon="6.3642104"/>
<trkpt lat="52.1774766" lon="6.3639873"/>
<trkpt lat="52.1789579" lon="6.3609508"/>
<trkpt lat="52.1791123" lon="6.3609386"/>
<trkpt lat="52.1799082" lon="6.3610095"/>
<trkpt lat="52.1802317" lon="6.3610298"/>
<trkpt lat="52.1804830" lon="6.3610533"/>
<trkpt lat="52.1806091" lon="6.3610346"/>
<trkpt lat="52.1806894" lon="6.3610579"/>
<trkpt lat="52.1808070" lon="6.3610597"/>
<trkpt lat="52.1809368" lon="6.3610457"/>
<trkpt lat="52.1810138" lon="6.3610353"/>
<trkpt lat="52.1810941" lon="6.3610198"/>
<trkpt lat="52.1813483" lon="6.3609637"/>
<trkpt lat="52.1815337" lon="6.3609210"/>
<trkpt lat="52.1815944" lon="6.3609130"/>
<trkpt lat="52.1816668" lon="6.3608958"/>
<trkpt lat="52.1816879" lon="6.3609321"/>
<trkpt lat="52.1817760" lon="6.3608923"/>
<trkpt lat="52.1817431" lon="6.3613265"/>
<trkpt lat="52.1817347" lon="6.3620909"/>
<trkpt lat="52.1817151" lon="6.3629536"/>
<trkpt lat="52.1816826" lon="6.3646009"/>
<trkpt lat="52.1816670" lon="6.3649710"/>
<trkpt lat="52.1816731" lon="6.3650307"/>
<trkpt lat="52.1833257" lon="6.3647897"/>
<trkpt lat="52.1841814" lon="6.3646588"/>
<trkpt lat="52.1846054" lon="6.3646020"/>
<trkpt lat="52.1847897" lon="6.3645628"/>
<trkpt lat="52.1849046" lon="6.3645228"/>
<trkpt lat="52.1849617" lon="6.3644061"/>
<trkpt lat="52.1850079" lon="6.3643112"/>
<trkpt lat="52.1850266" lon="6.3644379"/>
<trkpt lat="52.1851476" lon="6.3657981"/>
<trkpt lat="52.1851845" lon="6.3659656"/>
<trkpt lat="52.1854331" lon="6.3659075"/>
<trkpt lat="52.1857212" lon="6.3656995"/>
<trkpt lat="52.1861394" lon="6.3657509"/>
<trkpt lat="52.1883125" lon="6.3669439"/>
<trkpt lat="52.1908115" lon="6.3677206"/>
<trkpt lat="52.1922714" lon="6.3661544"/>
<trkpt lat="52.1937840" lon="6.3647169"/>
</trkseg></trk>
<trk><name>Laorns Enkenpad - Geimporteerde shapefile</name><type>extensionRoute</type><trkseg>
<trkpt lat="52.1937061" lon="6.3647909"/>
<trkpt lat="52.1946832" lon="6.3653799"/>
<trkpt lat="52.1961912" lon="6.3667745"/>
<trkpt lat="52.1954495" lon="6.3680467"/>
<trkpt lat="52.1952167" lon="6.3683770"/>
<trkpt lat="52.1951151" lon="6.3686442"/>
<trkpt lat="52.1949731" lon="6.3689135"/>
<trkpt lat="52.1947144" lon="6.3692612"/>
<trkpt lat="52.1946634" lon="6.3694157"/>
<trkpt lat="52.1944014" lon="6.3697303"/>
<trkpt lat="52.1942668" lon="6.3699819"/>
<trkpt lat="52.1939668" lon="6.3701982"/>
<trkpt lat="52.1941351" lon="6.3717377"/>
<trkpt lat="52.1941545" lon="6.3723642"/>
<trkpt lat="52.1942031" lon="6.3729950"/>
<trkpt lat="52.1940328" lon="6.3739799"/>
<trkpt lat="52.1939113" lon="6.3746465"/>
<trkpt lat="52.1938506" lon="6.3749713"/>
<trkpt lat="52.1937834" lon="6.3752539"/>
<trkpt lat="52.1936478" lon="6.3752360"/>
<trkpt lat="52.1932975" lon="6.3749759"/>
<trkpt lat="52.1930681" lon="6.3747329"/>
<trkpt lat="52.1928787" lon="6.3742738"/>
<trkpt lat="52.1927992" lon="6.3741890"/>
<trkpt lat="52.1927038" lon="6.3741643"/>
<trkpt lat="52.1925578" lon="6.3737802"/>
<trkpt lat="52.1921711" lon="6.3735399"/>
<trkpt lat="52.1917108" lon="6.3737116"/>
<trkpt lat="52.1916977" lon="6.3738832"/>
<trkpt lat="52.1914083" lon="6.3742265"/>
<trkpt lat="52.1909348" lon="6.3740549"/>
<trkpt lat="52.1891486" lon="6.3733769"/>
<trkpt lat="52.1887922" lon="6.3744711"/>
<trkpt lat="52.1885514" lon="6.3760802"/>
<trkpt lat="52.1883173" lon="6.3777966"/>
<trkpt lat="52.1881036" lon="6.3791225"/>
<trkpt lat="52.1887316" lon="6.3791268"/>
<trkpt lat="52.1901719" lon="6.3793756"/>
<trkpt lat="52.1908296" lon="6.3795474"/>
<trkpt lat="52.1914503" lon="6.3797576"/>
<trkpt lat="52.1926130" lon="6.3805472"/>
<trkpt lat="52.1938650" lon="6.3812852"/>
<trkpt lat="52.1942372" lon="6.3815384"/>
<trkpt lat="52.1943813" lon="6.3816178"/>
<trkpt lat="52.1945029" lon="6.3806851"/>
<trkpt lat="52.1945288" lon="6.3802216"/>
<trkpt lat="52.1945039" lon="6.3799036"/>
<trkpt lat="52.1944148" lon="6.3789106"/>
<trkpt lat="52.1941160" lon="6.3763649"/>
<trkpt lat="52.1939608" lon="6.3750647"/>
<trkpt lat="52.1941529" lon="6.3737575"/>
<trkpt lat="52.1942215" lon="6.3732013"/>
<trkpt lat="52.1944042" lon="6.3726665"/>
<trkpt lat="52.1954441" lon="6.3728771"/>
<trkpt lat="52.1965629" lon="6.3733166"/>
<trkpt lat="52.1967506" lon="6.3732268"/>
<trkpt lat="52.1976658" lon="6.3734156"/>
<trkpt lat="52.1980959" lon="6.3733909"/>
<trkpt lat="52.1984680" lon="6.3732375"/>
<trkpt lat="52.1991624" lon="6.3729007"/>
<trkpt lat="52.1991479" lon="6.3724352"/>
<trkpt lat="52.1991781" lon="6.3720038"/>
<trkpt lat="52.1992229" lon="6.3712015"/>
<trkpt lat="52.1991913" lon="6.3708796"/>
<trkpt lat="52.1992702" lon="6.3701501"/>
<trkpt lat="52.1994017" lon="6.3698712"/>
<trkpt lat="52.1993360" lon="6.3695065"/>
<trkpt lat="52.1993623" lon="6.3689702"/>
<trkpt lat="52.1989809" lon="6.3689272"/>
<trkpt lat="52.1993754" lon="6.3674040"/>
<trkpt lat="52.1993859" lon="6.3670177"/>
<trkpt lat="52.1993189" lon="6.3665907"/>
<trkpt lat="52.1992702" lon="6.3662024"/>
<trkpt lat="52.1989046" lon="6.3654301"/>
<trkpt lat="52.1986640" lon="6.3650010"/>
<trkpt lat="52.1985523" lon="6.3646620"/>
<trkpt lat="52.2010507" lon="6.3643531"/>
<trkpt lat="52.2002153" lon="6.3621860"/>
<trkpt lat="52.1994088" lon="6.3598074"/>
<trkpt lat="52.1987039" lon="6.3578950"/>
<trkpt lat="52.1985294" lon="6.3572736"/>
<trkpt lat="52.1983375" lon="6.3568380"/>
<trkpt lat="52.1982184" lon="6.3564586"/>
<trkpt lat="52.1980555" lon="6.3562794"/>
<trkpt lat="52.1977999" lon="6.3561643"/>
<trkpt lat="52.1974164" lon="6.3559848"/>
<trkpt lat="52.1985529" lon="6.3542788"/>
<trkpt lat="52.1986148" lon="6.3542625"/>
<trkpt lat="52.1992573" lon="6.3532389"/>
</trkseg></trk>
<trk><name>Laorns Enkenpad - Geimporteerde shapefile</name><type>extensionRoute</type><trkseg>
<trkpt lat="52.1987746" lon="6.3388633"/>
<trkpt lat="52.1987560" lon="6.3388210"/>
<trkpt lat="52.1986687" lon="6.3386906"/>
<trkpt lat="52.1987088" lon="6.3385920"/>
<trkpt lat="52.1986865" lon="6.3373100"/>
<trkpt lat="52.1986878" lon="6.3363012"/>
<trkpt lat="52.1986780" lon="6.3361764"/>
<trkpt lat="52.1986602" lon="6.3360604"/>
<trkpt lat="52.1984551" lon="6.3361515"/>
<trkpt lat="52.1984403" lon="6.3360927"/>
<trkpt lat="52.1985123" lon="6.3353601"/>
<trkpt lat="52.1985826" lon="6.3345687"/>
<trkpt lat="52.1986787" lon="6.3330331"/>
<trkpt lat="52.1976641" lon="6.3332626"/>
<trkpt lat="52.1975537" lon="6.3333211"/>
<trkpt lat="52.1975249" lon="6.3332463"/>
<trkpt lat="52.1973218" lon="6.3334857"/>
<trkpt lat="52.1972011" lon="6.3335742"/>
<trkpt lat="52.1970936" lon="6.3336971"/>
<trkpt lat="52.1967348" lon="6.3339507"/>
<trkpt lat="52.1965977" lon="6.3341235"/>
<trkpt lat="52.1965343" lon="6.3343994"/>
<trkpt lat="52.1965052" lon="6.3349418"/>
<trkpt lat="52.1963919" lon="6.3354627"/>
<trkpt lat="52.1963208" lon="6.3359321"/>
<trkpt lat="52.1962957" lon="6.3366989"/>
<trkpt lat="52.1961931" lon="6.3369974"/>
<trkpt lat="52.1959642" lon="6.3367468"/>
<trkpt lat="52.1957368" lon="6.3364111"/>
<trkpt lat="52.1955276" lon="6.3360968"/>
<trkpt lat="52.1953646" lon="6.3357277"/>
<trkpt lat="52.1952015" lon="6.3353716"/>
<trkpt lat="52.1951068" lon="6.3351914"/>
<trkpt lat="52.1949579" lon="6.3351941"/>
<trkpt lat="52.1947985" lon="6.3353340"/>
<trkpt lat="52.1944900" lon="6.3355968"/>
<trkpt lat="52.1939501" lon="6.3361119"/>
<trkpt lat="52.1939126" lon="6.3359363"/>
<trkpt lat="52.1938116" lon="6.3360168"/>
<trkpt lat="52.1934826" lon="6.3350017"/>
<trkpt lat="52.1931763" lon="6.3338705"/>
<trkpt lat="52.1924936" lon="6.3315795"/>
<trkpt lat="52.1916455" lon="6.3312743"/>
<trkpt lat="52.1912469" lon="6.3310072"/>
<trkpt lat="52.1909583" lon="6.3302582"/>
<trkpt lat="52.1905215" lon="6.3294471"/>
<trkpt lat="52.1900863" lon="6.3292549"/>
<trkpt lat="52.1898121" lon="6.3292141"/>
<trkpt lat="52.1892442" lon="6.3288657"/>
<trkpt lat="52.1887269" lon="6.3287513"/>
</trkseg></trk>
<trk><name>Laorns Enkenpad - Geimporteerde shapefile</name><type>extensionRoute</type><trkseg>
<trkpt lat="52.1992573" lon="6.3532389"/>
<trkpt lat="52.1997626" lon="6.3543433"/>
<trkpt lat="52.2000328" lon="6.3548884"/>
<trkpt lat="52.2002547" lon="6.3553262"/>
<trkpt lat="52.2004590" lon="6.3551102"/>
<trkpt lat="52.2008943" lon="6.3545910"/>
<trkpt lat="52.2012638" lon="6.3541190"/>
<trkpt lat="52.2013151" lon="6.3539452"/>
<trkpt lat="52.2014453" lon="6.3538745"/>
<trkpt lat="52.2019608" lon="6.3537458"/>
<trkpt lat="52.2023920" lon="6.3536299"/>
<trkpt lat="52.2025041" lon="6.3535451"/>
<trkpt lat="52.2025636" lon="6.3533231"/>
<trkpt lat="52.2025564" lon="6.3527417"/>
<trkpt lat="52.2025209" lon="6.3515101"/>
<trkpt lat="52.2025268" lon="6.3509844"/>
<trkpt lat="52.2026485" lon="6.3505274"/>
<trkpt lat="52.2028602" lon="6.3495276"/>
<trkpt lat="52.2030574" lon="6.3479085"/>
<trkpt lat="52.2032058" lon="6.3478721"/>
<trkpt lat="52.2033632" lon="6.3478325"/>
<trkpt lat="52.2033497" lon="6.3482433"/>
<trkpt lat="52.2038384" lon="6.3481460"/>
<trkpt lat="52.2040330" lon="6.3480773"/>
<trkpt lat="52.2042375" lon="6.3481782"/>
<trkpt lat="52.2045788" lon="6.3478499"/>
<trkpt lat="52.2049772" lon="6.3479315"/>
<trkpt lat="52.2051376" lon="6.3473157"/>
<trkpt lat="52.2052283" lon="6.3469992"/>
<trkpt lat="52.2053716" lon="6.3468544"/>
<trkpt lat="52.2055347" lon="6.3475109"/>
<trkpt lat="52.2062079" lon="6.3473822"/>
<trkpt lat="52.2060027" lon="6.3452538"/>
<trkpt lat="52.2057602" lon="6.3451691"/>
<trkpt lat="52.2056985" lon="6.3444338"/>
<trkpt lat="52.2054966" lon="6.3445136"/>
<trkpt lat="52.2048674" lon="6.3440971"/>
<trkpt lat="52.2045357" lon="6.3438902"/>
<trkpt lat="52.2044001" lon="6.3436294"/>
<trkpt lat="52.2043773" lon="6.3434160"/>
<trkpt lat="52.2042937" lon="6.3430729"/>
<trkpt lat="52.2042399" lon="6.3428609"/>
<trkpt lat="52.2042110" lon="6.3426293"/>
<trkpt lat="52.2041537" lon="6.3420758"/>
<trkpt lat="52.2041282" lon="6.3414226"/>
<trkpt lat="52.2039293" lon="6.3408461"/>
<trkpt lat="52.2034932" lon="6.3406058"/>
<trkpt lat="52.2030132" lon="6.3404650"/>
<trkpt lat="52.2026914" lon="6.3405786"/>
<trkpt lat="52.2022156" lon="6.3413283"/>
<trkpt lat="52.2021118" lon="6.3413142"/>
<trkpt lat="52.2020410" lon="6.3413361"/>
<trkpt lat="52.2020508" lon="6.3407381"/>
<trkpt lat="52.2020515" lon="6.3401186"/>
<trkpt lat="52.2009035" lon="6.3400189"/>
<trkpt lat="52.1997293" lon="6.3397334"/>
<trkpt lat="52.1994479" lon="6.3395928"/>
<trkpt lat="52.1991783" lon="6.3394587"/>
<trkpt lat="52.1988596" lon="6.3389089"/>
<trkpt lat="52.1988301" lon="6.3389900"/>
<trkpt lat="52.1987746" lon="6.3388633"/>
</trkseg></trk>
</gpx>