<?xml version="1.0" encoding="UTF-8"?>
<gpx version="1.1" creator="klompenpaden.nl via Jimbo API" xmlns="http://www.topografix.com/GPX/1/1">
<metadata><name>Lauwsepad</name><desc>Ontdek het mooie buitengebied van Beneden-Leeuwen. Wandel door het rivierenlandschap in het Land van Maas en Waal, over dijken en door de uiterwaarden. Wandel door de weilanden in een van de eerste ruilverkavelingsgebieden van Nederland en langs de boerenerven van de hedendaagse agrarische bedrijven. Klompen aan, rugzak op en gaan!</desc><link href="https://www.klompenpaden.nl/klompenpaden/Lauwsepad/6cea9d8e-814c-4e4a-8e7b-199895fc8a2a"><text>klompenpaden.nl</text></link></metadata>
<wpt lat="51.88215195312303" lon="5.514865033561994"><name>Start Beneden-Leeuwen</name></wpt>
<trk><name>Lauwsepad - Geimporteerde shapefile</name><type>mainRoute</type><trkseg>
<trkpt lat="51.8601368" lon="5.5054967"/>
<trkpt lat="51.8601381" lon="5.5054954"/>
</trkseg></trk>
<trk><name>Lauwsepad - Geimporteerde shapefile</name><type>mainRoute</type><trkseg>
<trkpt lat="51.8601368" lon="5.5054967"/>
<trkpt lat="51.8600940" lon="5.5060881"/>
<trkpt lat="51.8602700" lon="5.5093021"/>
<trkpt lat="51.8604660" lon="5.5126031"/>
<trkpt lat="51.8603700" lon="5.5128301"/>
<trkpt lat="51.8604421" lon="5.5133055"/>
<trkpt lat="51.8593805" lon="5.5141705"/>
<trkpt lat="51.8577995" lon="5.5156201"/>
<trkpt lat="51.8574812" lon="5.5161182"/>
<trkpt lat="51.8579450" lon="5.5177052"/>
<trkpt lat="51.8575039" lon="5.5181323"/>
<trkpt lat="51.8585026" lon="5.5210729"/>
<trkpt lat="51.8564180" lon="5.5230271"/>
<trkpt lat="51.8573590" lon="5.5264231"/>
<trkpt lat="51.8559520" lon="5.5275491"/>
<trkpt lat="51.8542865" lon="5.5238617"/>
<trkpt lat="51.8534285" lon="5.5216550"/>
<trkpt lat="51.8530242" lon="5.5201127"/>
<trkpt lat="51.8523040" lon="5.5177220"/>
<trkpt lat="51.8518165" lon="5.5155240"/>
<trkpt lat="51.8514102" lon="5.5135550"/>
<trkpt lat="51.8558453" lon="5.5097501"/>
<trkpt lat="51.8559435" lon="5.5092480"/>
<trkpt lat="51.8601368" lon="5.5054967"/>
</trkseg></trk>
<trk><name>Lauwsepad - Geimporteerde shapefile</name><type>mainRoute</type><trkseg>
<trkpt lat="51.8643002" lon="5.5060144"/>
<trkpt lat="51.8643483" lon="5.5060138"/>
</trkseg></trk>
<trk><name>Lauwsepad - Geimporteerde shapefile</name><type>mainRoute</type><trkseg>
<trkpt lat="51.8643483" lon="5.5060138"/>
<trkpt lat="51.8641607" lon="5.5045513"/>
<trkpt lat="51.8619248" lon="5.5051256"/>
<trkpt lat="51.8601376" lon="5.5054850"/>
<trkpt lat="51.8601368" lon="5.5054967"/>
</trkseg></trk>
<trk><name>Lauwsepad - Geimporteerde shapefile</name><type>mainRoute</type><trkseg>
<trkpt lat="51.8643483" lon="5.5060138"/>
<trkpt lat="51.8645735" lon="5.5060110"/>
<trkpt lat="51.8646395" lon="5.5065643"/>
<trkpt lat="51.8692437" lon="5.5061897"/>
<trkpt lat="51.8692095" lon="5.5047201"/>
<trkpt lat="51.8694256" lon="5.5026990"/>
<trkpt lat="51.8697002" lon="5.5015472"/>
<trkpt lat="51.8698701" lon="5.5010242"/>
<trkpt lat="51.8703856" lon="5.4997481"/>
<trkpt lat="51.8714970" lon="5.4981283"/>
<trkpt lat="51.8718687" lon="5.4981240"/>
<trkpt lat="51.8727304" lon="5.4973791"/>
<trkpt lat="51.8734525" lon="5.4970711"/>
<trkpt lat="51.8741068" lon="5.4968480"/>
<trkpt lat="51.8749754" lon="5.4967641"/>
<trkpt lat="51.8748309" lon="5.4978379"/>
<trkpt lat="51.8754942" lon="5.4980785"/>
<trkpt lat="51.8755883" lon="5.4974750"/>
<trkpt lat="51.8761445" lon="5.4964236"/>
<trkpt lat="51.8778966" lon="5.4962555"/>
<trkpt lat="51.8778563" lon="5.4969561"/>
<trkpt lat="51.8794406" lon="5.4971136"/>
<trkpt lat="51.8802551" lon="5.4971108"/>
<trkpt lat="51.8804682" lon="5.4969944"/>
<trkpt lat="51.8827920" lon="5.4969360"/>
<trkpt lat="51.8842238" lon="5.4968666"/>
<trkpt lat="51.8851332" lon="5.4968345"/>
<trkpt lat="51.8861955" lon="5.4967970"/>
<trkpt lat="51.8863008" lon="5.4970395"/>
<trkpt lat="51.8864651" lon="5.4973411"/>
<trkpt lat="51.8864856" lon="5.4977931"/>
<trkpt lat="51.8867949" lon="5.4983281"/>
<trkpt lat="51.8869294" lon="5.4979371"/>
<trkpt lat="51.8876753" lon="5.4979171"/>
<trkpt lat="51.8877847" lon="5.5015781"/>
<trkpt lat="51.8879550" lon="5.5037404"/>
<trkpt lat="51.8881896" lon="5.5069213"/>
<trkpt lat="51.8881714" lon="5.5073248"/>
<trkpt lat="51.8879453" lon="5.5074779"/>
<trkpt lat="51.8876407" lon="5.5076177"/>
<trkpt lat="51.8875192" lon="5.5078364"/>
<trkpt lat="51.8874386" lon="5.5072012"/>
<trkpt lat="51.8873533" lon="5.5082455"/>
<trkpt lat="51.8873090" lon="5.5094151"/>
<trkpt lat="51.8871690" lon="5.5098941"/>
<trkpt lat="51.8870690" lon="5.5101582"/>
<trkpt lat="51.8868832" lon="5.5099891"/>
<trkpt lat="51.8866289" lon="5.5097509"/>
<trkpt lat="51.8866874" lon="5.5100785"/>
<trkpt lat="51.8866180" lon="5.5104742"/>
<trkpt lat="51.8865622" lon="5.5108670"/>
<trkpt lat="51.8865623" lon="5.5114655"/>
<trkpt lat="51.8866618" lon="5.5117464"/>
<trkpt lat="51.8865866" lon="5.5118079"/>
<trkpt lat="51.8864012" lon="5.5116745"/>
<trkpt lat="51.8860795" lon="5.5115470"/>
<trkpt lat="51.8858357" lon="5.5115578"/>
<trkpt lat="51.8855662" lon="5.5116304"/>
<trkpt lat="51.8853286" lon="5.5116398"/>
<trkpt lat="51.8851187" lon="5.5115718"/>
<trkpt lat="51.8848704" lon="5.5115786"/>
<trkpt lat="51.8846885" lon="5.5116508"/>
<trkpt lat="51.8844650" lon="5.5115779"/>
<trkpt lat="51.8842436" lon="5.5114546"/>
<trkpt lat="51.8840312" lon="5.5113325"/>
<trkpt lat="51.8837578" lon="5.5117437"/>
<trkpt lat="51.8838687" lon="5.5121045"/>
<trkpt lat="51.8839780" lon="5.5121202"/>
<trkpt lat="51.8840947" lon="5.5119822"/>
<trkpt lat="51.8841755" lon="5.5120784"/>
<trkpt lat="51.8842179" lon="5.5123975"/>
<trkpt lat="51.8842059" lon="5.5125474"/>
<trkpt lat="51.8840436" lon="5.5128072"/>
<trkpt lat="51.8839751" lon="5.5130239"/>
<trkpt lat="51.8839693" lon="5.5132095"/>
<trkpt lat="51.8837450" lon="5.5133171"/>
<trkpt lat="51.8836070" lon="5.5131721"/>
<trkpt lat="51.8829070" lon="5.5138091"/>
<trkpt lat="51.8826843" lon="5.5141755"/>
<trkpt lat="51.8821318" lon="5.5145010"/>
<trkpt lat="51.8821521" lon="5.5148661"/>
</trkseg></trk>
<trk><name>Lauwsepad - Geimporteerde shapefile</name><type>mainRoute</type><trkseg>
<trkpt lat="51.8821520" lon="5.5148651"/>
<trkpt lat="51.8824084" lon="5.5165057"/>
<trkpt lat="51.8814183" lon="5.5170401"/>
<trkpt lat="51.8801390" lon="5.5176981"/>
<trkpt lat="51.8800002" lon="5.5175399"/>
<trkpt lat="51.8779116" lon="5.5187591"/>
<trkpt lat="51.8780403" lon="5.5195011"/>
<trkpt lat="51.8776564" lon="5.5198007"/>
<trkpt lat="51.8778681" lon="5.5205688"/>
<trkpt lat="51.8773749" lon="5.5209715"/>
<trkpt lat="51.8777088" lon="5.5218358"/>
<trkpt lat="51.8775966" lon="5.5219413"/>
<trkpt lat="51.8775470" lon="5.5220841"/>
<trkpt lat="51.8774880" lon="5.5221861"/>
<trkpt lat="51.8773320" lon="5.5223111"/>
<trkpt lat="51.8772380" lon="5.5223141"/>
<trkpt lat="51.8771180" lon="5.5220831"/>
<trkpt lat="51.8770341" lon="5.5218624"/>
<trkpt lat="51.8768800" lon="5.5219151"/>
<trkpt lat="51.8765152" lon="5.5220154"/>
<trkpt lat="51.8763606" lon="5.5220765"/>
<trkpt lat="51.8763036" lon="5.5219802"/>
<trkpt lat="51.8762681" lon="5.5218111"/>
<trkpt lat="51.8762088" lon="5.5216918"/>
<trkpt lat="51.8761304" lon="5.5216262"/>
<trkpt lat="51.8760163" lon="5.5215990"/>
<trkpt lat="51.8759259" lon="5.5216141"/>
<trkpt lat="51.8757190" lon="5.5216288"/>
<trkpt lat="51.8756096" lon="5.5216016"/>
<trkpt lat="51.8755622" lon="5.5215208"/>
<trkpt lat="51.8754934" lon="5.5215185"/>
<trkpt lat="51.8747549" lon="5.5215970"/>
<trkpt lat="51.8735918" lon="5.5218067"/>
<trkpt lat="51.8733456" lon="5.5218470"/>
<trkpt lat="51.8733734" lon="5.5222335"/>
<trkpt lat="51.8732640" lon="5.5225477"/>
<trkpt lat="51.8733103" lon="5.5232011"/>
<trkpt lat="51.8731422" lon="5.5235282"/>
<trkpt lat="51.8730410" lon="5.5233781"/>
<trkpt lat="51.8729110" lon="5.5234763"/>
<trkpt lat="51.8727680" lon="5.5235681"/>
<trkpt lat="51.8726900" lon="5.5235261"/>
<trkpt lat="51.8725607" lon="5.5235025"/>
<trkpt lat="51.8723129" lon="5.5236946"/>
<trkpt lat="51.8721751" lon="5.5234552"/>
<trkpt lat="51.8720388" lon="5.5231920"/>
<trkpt lat="51.8719333" lon="5.5227023"/>
<trkpt lat="51.8720542" lon="5.5224147"/>
<trkpt lat="51.8719757" lon="5.5221767"/>
<trkpt lat="51.8717986" lon="5.5219106"/>
<trkpt lat="51.8713939" lon="5.5187010"/>
<trkpt lat="51.8711879" lon="5.5170773"/>
<trkpt lat="51.8712370" lon="5.5166217"/>
<trkpt lat="51.8713763" lon="5.5162864"/>
<trkpt lat="51.8715161" lon="5.5159129"/>
<trkpt lat="51.8715049" lon="5.5155605"/>
<trkpt lat="51.8714312" lon="5.5152079"/>
<trkpt lat="51.8714756" lon="5.5147359"/>
<trkpt lat="51.8716693" lon="5.5144374"/>
<trkpt lat="51.8718464" lon="5.5142503"/>
<trkpt lat="51.8720321" lon="5.5141839"/>
<trkpt lat="51.8722156" lon="5.5141551"/>
<trkpt lat="51.8723148" lon="5.5139795"/>
<trkpt lat="51.8723381" lon="5.5135503"/>
<trkpt lat="51.8721782" lon="5.5135888"/>
<trkpt lat="51.8721519" lon="5.5133194"/>
<trkpt lat="51.8708188" lon="5.5136549"/>
<trkpt lat="51.8673840" lon="5.5143981"/>
<trkpt lat="51.8671143" lon="5.5142387"/>
<trkpt lat="51.8653516" lon="5.5146947"/>
<trkpt lat="51.8652493" lon="5.5146404"/>
<trkpt lat="51.8651182" lon="5.5131044"/>
<trkpt lat="51.8649143" lon="5.5111090"/>
<trkpt lat="51.8645941" lon="5.5090533"/>
<trkpt lat="51.8645097" lon="5.5072722"/>
<trkpt lat="51.8643483" lon="5.5060138"/>
</trkseg></trk>
<trk><name>Lauwsepad - Geimporteerde shapefile</name><type>alternativeRoute</type><trkseg>
<trkpt lat="51.8778563" lon="5.4969561"/>
<trkpt lat="51.8771510" lon="5.4968214"/>
<trkpt lat="51.8765084" lon="5.4966408"/>
<trkpt lat="51.8763550" lon="5.4964034"/>
</trkseg></trk>
<trk><name>Lauwsepad - overstaproute</name><type>connectionRoute</type><trkseg>
<trkpt lat="51.8601505" lon="5.5056152"/>
<trkpt lat="51.8597158" lon="5.4977866"/>
<trkpt lat="51.8592943" lon="5.4904669"/>
<trkpt lat="51.8590288" lon="5.4874189"/>
<trkpt lat="51.8583199" lon="5.4794230"/>
<trkpt lat="51.8582142" lon="5.4789843"/>
<trkpt lat="51.8576326" lon="5.4779500"/>
<trkpt lat="51.8563018" lon="5.4757883"/>
<trkpt lat="51.8550742" lon="5.4769427"/>
<trkpt lat="51.8548911" lon="5.4764835"/>
<trkpt lat="51.8545066" lon="5.4752364"/>
<trkpt lat="51.8542112" lon="5.4745018"/>
</trkseg></trk>
</gpx>