<?xml version="1.0" encoding="UTF-8"?>
<gpx version="1.1" creator="klompenpaden.nl via Jimbo API" xmlns="http://www.topografix.com/GPX/1/1">
<metadata><name>Leestensche Broekpad</name><desc>Ontdek het mooie buitengebied van Zutphen. U wandelt langs laken en boerenland in het broekgebied. Via de verlengde route van 9,5km loopt u langs de IJssel. Weilanden en water bepalen hier de sfeer. Klompen aan, rugzak op en gaan!</desc><link href="https://www.klompenpaden.nl/klompenpaden/Leestensche_Broekpad/88ee217b-7ba9-408b-bf7f-b2b4e50d6adb"><text>klompenpaden.nl</text></link></metadata>
<wpt lat="52.1213523908992" lon="6.243061423301697"><name>Start Zutphen</name></wpt>
<trk><name>Leestensche Broekpad - hoofdroute</name><type>mainRoute</type><trkseg>
<trkpt lat="52.1213825" lon="6.2487593"/>
<trkpt lat="52.1215040" lon="6.2487269"/>
<trkpt lat="52.1217620" lon="6.2485696"/>
<trkpt lat="52.1220986" lon="6.2483906"/>
<trkpt lat="52.1222777" lon="6.2483014"/>
<trkpt lat="52.1227279" lon="6.2481941"/>
<trkpt lat="52.1227489" lon="6.2482525"/>
<trkpt lat="52.1229214" lon="6.2489581"/>
<trkpt lat="52.1231574" lon="6.2499527"/>
<trkpt lat="52.1235243" lon="6.2514898"/>
<trkpt lat="52.1237041" lon="6.2522583"/>
<trkpt lat="52.1238220" lon="6.2527242"/>
<trkpt lat="52.1238850" lon="6.2528877"/>
<trkpt lat="52.1235988" lon="6.2539717"/>
<trkpt lat="52.1233347" lon="6.2549634"/>
<trkpt lat="52.1232544" lon="6.2552053"/>
<trkpt lat="52.1231748" lon="6.2553544"/>
<trkpt lat="52.1227953" lon="6.2555441"/>
<trkpt lat="52.1231618" lon="6.2571160"/>
<trkpt lat="52.1235774" lon="6.2588048"/>
<trkpt lat="52.1236680" lon="6.2600700"/>
<trkpt lat="52.1237445" lon="6.2613002"/>
<trkpt lat="52.1242442" lon="6.2631762"/>
<trkpt lat="52.1244728" lon="6.2640964"/>
<trkpt lat="52.1239142" lon="6.2653372"/>
<trkpt lat="52.1235651" lon="6.2662345"/>
<trkpt lat="52.1232544" lon="6.2677120"/>
<trkpt lat="52.1230853" lon="6.2683810"/>
<trkpt lat="52.1206924" lon="6.2668502"/>
<trkpt lat="52.1203193" lon="6.2688849"/>
<trkpt lat="52.1200947" lon="6.2701851"/>
<trkpt lat="52.1192478" lon="6.2714187"/>
<trkpt lat="52.1187266" lon="6.2721656"/>
<trkpt lat="52.1185248" lon="6.2724954"/>
<trkpt lat="52.1183981" lon="6.2729009"/>
<trkpt lat="52.1181352" lon="6.2744244"/>
<trkpt lat="52.1180544" lon="6.2749052"/>
<trkpt lat="52.1166990" lon="6.2742003"/>
<trkpt lat="52.1151431" lon="6.2733234"/>
<trkpt lat="52.1150938" lon="6.2732413"/>
<trkpt lat="52.1155670" lon="6.2719875"/>
<trkpt lat="52.1160192" lon="6.2706637"/>
<trkpt lat="52.1162090" lon="6.2700996"/>
<trkpt lat="52.1165017" lon="6.2691203"/>
<trkpt lat="52.1166280" lon="6.2684506"/>
<trkpt lat="52.1172212" lon="6.2644871"/>
<trkpt lat="52.1174270" lon="6.2646302"/>
<trkpt lat="52.1175766" lon="6.2646563"/>
<trkpt lat="52.1177191" lon="6.2646823"/>
<trkpt lat="52.1179675" lon="6.2648610"/>
<trkpt lat="52.1181019" lon="6.2650144"/>
<trkpt lat="52.1184785" lon="6.2652304"/>
<trkpt lat="52.1186050" lon="6.2654762"/>
<trkpt lat="52.1199113" lon="6.2663480"/>
<trkpt lat="52.1206924" lon="6.2668502"/>
<trkpt lat="52.1207275" lon="6.2666130"/>
<trkpt lat="52.1208544" lon="6.2658660"/>
<trkpt lat="52.1208570" lon="6.2651955"/>
<trkpt lat="52.1208094" lon="6.2641392"/>
<trkpt lat="52.1206981" lon="6.2620013"/>
<trkpt lat="52.1205810" lon="6.2597547"/>
<trkpt lat="52.1205280" lon="6.2587092"/>
<trkpt lat="52.1204792" lon="6.2579744"/>
<trkpt lat="52.1202238" lon="6.2569313"/>
<trkpt lat="52.1203212" lon="6.2568739"/>
<trkpt lat="52.1200354" lon="6.2555150"/>
<trkpt lat="52.1197547" lon="6.2541016"/>
<trkpt lat="52.1194973" lon="6.2527968"/>
<trkpt lat="52.1194274" lon="6.2524338"/>
<trkpt lat="52.1191089" lon="6.2511112"/>
<trkpt lat="52.1187792" lon="6.2498109"/>
<trkpt lat="52.1184042" lon="6.2482947"/>
<trkpt lat="52.1177232" lon="6.2451395"/>
<trkpt lat="52.1172161" lon="6.2428610"/>
<trkpt lat="52.1171103" lon="6.2423597"/>
<trkpt lat="52.1170787" lon="6.2422006"/>
<trkpt lat="52.1170334" lon="6.2417862"/>
<trkpt lat="52.1161165" lon="6.2419940"/>
<trkpt lat="52.1148592" lon="6.2422133"/>
<trkpt lat="52.1140449" lon="6.2423483"/>
<trkpt lat="52.1137245" lon="6.2422611"/>
<trkpt lat="52.1127776" lon="6.2410030"/>
<trkpt lat="52.1128946" lon="6.2406112"/>
<trkpt lat="52.1129641" lon="6.2398709"/>
<trkpt lat="52.1129835" lon="6.2391644"/>
<trkpt lat="52.1130171" lon="6.2384581"/>
<trkpt lat="52.1131298" lon="6.2376839"/>
<trkpt lat="52.1134229" lon="6.2366117"/>
<trkpt lat="52.1136718" lon="6.2357241"/>
<trkpt lat="52.1141264" lon="6.2340292"/>
<trkpt lat="52.1138991" lon="6.2338859"/>
<trkpt lat="52.1132805" lon="6.2335960"/>
<trkpt lat="52.1130881" lon="6.2335576"/>
<trkpt lat="52.1130091" lon="6.2336256"/>
<trkpt lat="52.1129659" lon="6.2336828"/>
<trkpt lat="52.1126825" lon="6.2334109"/>
<trkpt lat="52.1122579" lon="6.2329277"/>
<trkpt lat="52.1117058" lon="6.2323147"/>
<trkpt lat="52.1111112" lon="6.2316545"/>
<trkpt lat="52.1118920" lon="6.2302208"/>
<trkpt lat="52.1124054" lon="6.2292686"/>
<trkpt lat="52.1129118" lon="6.2282932"/>
<trkpt lat="52.1136431" lon="6.2267888"/>
<trkpt lat="52.1138026" lon="6.2264326"/>
<trkpt lat="52.1126167" lon="6.2246373"/>
<trkpt lat="52.1125278" lon="6.2245101"/>
<trkpt lat="52.1114517" lon="6.2228541"/>
<trkpt lat="52.1129417" lon="6.2210742"/>
<trkpt lat="52.1140093" lon="6.2224384"/>
<trkpt lat="52.1141431" lon="6.2226843"/>
<trkpt lat="52.1141914" lon="6.2229169"/>
<trkpt lat="52.1150396" lon="6.2240338"/>
<trkpt lat="52.1151540" lon="6.2240011"/>
<trkpt lat="52.1157692" lon="6.2247775"/>
<trkpt lat="52.1157478" lon="6.2248719"/>
<trkpt lat="52.1157878" lon="6.2250261"/>
<trkpt lat="52.1161468" lon="6.2254447"/>
<trkpt lat="52.1162745" lon="6.2256162"/>
<trkpt lat="52.1163305" lon="6.2256505"/>
<trkpt lat="52.1168026" lon="6.2261477"/>
<trkpt lat="52.1170279" lon="6.2264405"/>
<trkpt lat="52.1170789" lon="6.2265401"/>
<trkpt lat="52.1170124" lon="6.2268222"/>
<trkpt lat="52.1170366" lon="6.2269340"/>
<trkpt lat="52.1172399" lon="6.2269001"/>
<trkpt lat="52.1172967" lon="6.2268289"/>
<trkpt lat="52.1175200" lon="6.2269557"/>
<trkpt lat="52.1178839" lon="6.2273255"/>
<trkpt lat="52.1183592" lon="6.2278470"/>
<trkpt lat="52.1184235" lon="6.2277479"/>
<trkpt lat="52.1192664" lon="6.2286099"/>
<trkpt lat="52.1196555" lon="6.2290692"/>
<trkpt lat="52.1203034" lon="6.2302636"/>
<trkpt lat="52.1209996" lon="6.2316676"/>
<trkpt lat="52.1212460" lon="6.2321359"/>
<trkpt lat="52.1216346" lon="6.2326648"/>
<trkpt lat="52.1218390" lon="6.2330164"/>
<trkpt lat="52.1219083" lon="6.2332959"/>
<trkpt lat="52.1219201" lon="6.2336438"/>
<trkpt lat="52.1218673" lon="6.2340369"/>
<trkpt lat="52.1217155" lon="6.2343122"/>
<trkpt lat="52.1211884" lon="6.2351831"/>
<trkpt lat="52.1216112" lon="6.2359213"/>
<trkpt lat="52.1217795" lon="6.2363302"/>
<trkpt lat="52.1217964" lon="6.2369564"/>
<trkpt lat="52.1217533" lon="6.2379756"/>
<trkpt lat="52.1218012" lon="6.2382663"/>
<trkpt lat="52.1219617" lon="6.2387561"/>
<trkpt lat="52.1213714" lon="6.2394867"/>
<trkpt lat="52.1209894" lon="6.2400241"/>
<trkpt lat="52.1205129" lon="6.2408032"/>
<trkpt lat="52.1202669" lon="6.2412737"/>
<trkpt lat="52.1200739" lon="6.2413279"/>
<trkpt lat="52.1196454" lon="6.2413777"/>
<trkpt lat="52.1197547" lon="6.2418429"/>
<trkpt lat="52.1198891" lon="6.2424117"/>
<trkpt lat="52.1198783" lon="6.2426489"/>
<trkpt lat="52.1204026" lon="6.2448955"/>
<trkpt lat="52.1204526" lon="6.2451194"/>
<trkpt lat="52.1205474" lon="6.2453060"/>
<trkpt lat="52.1206837" lon="6.2458749"/>
<trkpt lat="52.1211928" lon="6.2480468"/>
<trkpt lat="52.1212975" lon="6.2484725"/>
<trkpt lat="52.1213825" lon="6.2487593"/>
</trkseg></trk>
<trk><name>Leestensche Broekpad - shorteningRoute</name><type>shorteningRoute</type><trkseg>
<trkpt lat="52.1186900" lon="6.2494900"/>
<trkpt lat="52.1209000" lon="6.2481200"/>
<trkpt lat="52.1211300" lon="6.2491100"/>
<trkpt lat="52.1212700" lon="6.2489800"/>
<trkpt lat="52.1213800" lon="6.2487500"/>
</trkseg></trk>
<trk><name>Leestensche Broekpad - extensionRoute</name><type>extensionRoute</type><trkseg>
<trkpt lat="52.1115800" lon="6.2227100"/>
<trkpt lat="52.1107200" lon="6.2236200"/>
<trkpt lat="52.1096200" lon="6.2246900"/>
<trkpt lat="52.1085300" lon="6.2251300"/>
<trkpt lat="52.1070000" lon="6.2248900"/>
<trkpt lat="52.1070100" lon="6.2245400"/>
<trkpt lat="52.1069600" lon="6.2244400"/>
<trkpt lat="52.1069300" lon="6.2237300"/>
<trkpt lat="52.1068000" lon="6.2227000"/>
<trkpt lat="52.1066900" lon="6.2220500"/>
<trkpt lat="52.1066600" lon="6.2215700"/>
<trkpt lat="52.1066900" lon="6.2213000"/>
<trkpt lat="52.1068000" lon="6.2211400"/>
<trkpt lat="52.1071700" lon="6.2209500"/>
<trkpt lat="52.1073300" lon="6.2204500"/>
<trkpt lat="52.1079700" lon="6.2198700"/>
<trkpt lat="52.1088000" lon="6.2189100"/>
<trkpt lat="52.1107600" lon="6.2162100"/>
<trkpt lat="52.1110900" lon="6.2162100"/>
<trkpt lat="52.1112600" lon="6.2156500"/>
<trkpt lat="52.1113800" lon="6.2154400"/>
<trkpt lat="52.1119500" lon="6.2148700"/>
<trkpt lat="52.1126700" lon="6.2141000"/>
<trkpt lat="52.1132500" lon="6.2131700"/>
<trkpt lat="52.1134700" lon="6.2127000"/>
<trkpt lat="52.1140000" lon="6.2112700"/>
<trkpt lat="52.1144400" lon="6.2097700"/>
<trkpt lat="52.1147300" lon="6.2090400"/>
<trkpt lat="52.1167600" lon="6.2051700"/>
<trkpt lat="52.1184200" lon="6.2020800"/>
<trkpt lat="52.1192700" lon="6.2005200"/>
<trkpt lat="52.1195500" lon="6.2002300"/>
<trkpt lat="52.1195800" lon="6.2000900"/>
<trkpt lat="52.1194700" lon="6.1998300"/>
<trkpt lat="52.1191400" lon="6.1996400"/>
<trkpt lat="52.1187400" lon="6.1995200"/>
<trkpt lat="52.1183000" lon="6.1994700"/>
<trkpt lat="52.1180000" lon="6.1993600"/>
<trkpt lat="52.1177800" lon="6.1990900"/>
<trkpt lat="52.1174700" lon="6.1982900"/>
<trkpt lat="52.1173000" lon="6.1977700"/>
<trkpt lat="52.1172400" lon="6.1974100"/>
<trkpt lat="52.1173400" lon="6.1969200"/>
<trkpt lat="52.1176000" lon="6.1965300"/>
<trkpt lat="52.1172900" lon="6.1959000"/>
<trkpt lat="52.1170000" lon="6.1953800"/>
<trkpt lat="52.1168500" lon="6.1954800"/>
<trkpt lat="52.1166400" lon="6.1957100"/>
<trkpt lat="52.1164700" lon="6.1957300"/>
<trkpt lat="52.1163700" lon="6.1956300"/>
<trkpt lat="52.1164000" lon="6.1954700"/>
<trkpt lat="52.1165100" lon="6.1952200"/>
<trkpt lat="52.1165000" lon="6.1951200"/>
<trkpt lat="52.1160300" lon="6.1945200"/>
<trkpt lat="52.1156700" lon="6.1941600"/>
<trkpt lat="52.1150400" lon="6.1934600"/>
<trkpt lat="52.1147600" lon="6.1930300"/>
<trkpt lat="52.1147500" lon="6.1925700"/>
<trkpt lat="52.1150500" lon="6.1915100"/>
<trkpt lat="52.1153500" lon="6.1907200"/>
<trkpt lat="52.1160400" lon="6.1890700"/>
<trkpt lat="52.1164300" lon="6.1886000"/>
<trkpt lat="52.1166400" lon="6.1882900"/>
<trkpt lat="52.1171600" lon="6.1876700"/>
<trkpt lat="52.1178900" lon="6.1870500"/>
<trkpt lat="52.1191000" lon="6.1866600"/>
<trkpt lat="52.1200400" lon="6.1864400"/>
<trkpt lat="52.1213600" lon="6.1862900"/>
<trkpt lat="52.1223200" lon="6.1863000"/>
<trkpt lat="52.1234800" lon="6.1864800"/>
<trkpt lat="52.1239700" lon="6.1868300"/>
<trkpt lat="52.1247700" lon="6.1872300"/>
<trkpt lat="52.1248200" lon="6.1873600"/>
<trkpt lat="52.1250800" lon="6.1877100"/>
<trkpt lat="52.1255000" lon="6.1881400"/>
<trkpt lat="52.1257000" lon="6.1882500"/>
<trkpt lat="52.1257800" lon="6.1889500"/>
<trkpt lat="52.1258800" lon="6.1896200"/>
<trkpt lat="52.1257800" lon="6.1897300"/>
<trkpt lat="52.1254400" lon="6.1896000"/>
<trkpt lat="52.1253000" lon="6.1896500"/>
<trkpt lat="52.1245400" lon="6.1894300"/>
<trkpt lat="52.1235400" lon="6.1895400"/>
<trkpt lat="52.1231800" lon="6.1896700"/>
<trkpt lat="52.1224200" lon="6.1902100"/>
<trkpt lat="52.1214200" lon="6.1914000"/>
<trkpt lat="52.1212800" lon="6.1915900"/>
<trkpt lat="52.1211100" lon="6.1921300"/>
<trkpt lat="52.1210000" lon="6.1925800"/>
<trkpt lat="52.1207400" lon="6.1929300"/>
<trkpt lat="52.1198300" lon="6.1940400"/>
<trkpt lat="52.1199000" lon="6.1949600"/>
<trkpt lat="52.1197500" lon="6.1949100"/>
<trkpt lat="52.1196800" lon="6.1947600"/>
<trkpt lat="52.1195700" lon="6.1938300"/>
<trkpt lat="52.1194400" lon="6.1932600"/>
<trkpt lat="52.1193200" lon="6.1931600"/>
<trkpt lat="52.1189600" lon="6.1933100"/>
<trkpt lat="52.1188200" lon="6.1934200"/>
<trkpt lat="52.1188100" lon="6.1938600"/>
<trkpt lat="52.1189600" lon="6.1947700"/>
<trkpt lat="52.1189000" lon="6.1948700"/>
<trkpt lat="52.1199500" lon="6.2017700"/>
<trkpt lat="52.1205900" lon="6.2066100"/>
<trkpt lat="52.1209700" lon="6.2100300"/>
<trkpt lat="52.1209600" lon="6.2107500"/>
<trkpt lat="52.1208600" lon="6.2108700"/>
<trkpt lat="52.1205800" lon="6.2108600"/>
<trkpt lat="52.1204000" lon="6.2107200"/>
<trkpt lat="52.1202900" lon="6.2104400"/>
<trkpt lat="52.1201900" lon="6.2101000"/>
<trkpt lat="52.1202000" lon="6.2098100"/>
<trkpt lat="52.1202700" lon="6.2094900"/>
<trkpt lat="52.1202600" lon="6.2092700"/>
<trkpt lat="52.1202200" lon="6.2088800"/>
<trkpt lat="52.1201700" lon="6.2086300"/>
<trkpt lat="52.1201500" lon="6.2081800"/>
<trkpt lat="52.1201500" lon="6.2077100"/>
<trkpt lat="52.1200900" lon="6.2072400"/>
<trkpt lat="52.1200000" lon="6.2067600"/>
<trkpt lat="52.1198200" lon="6.2066200"/>
<trkpt lat="52.1195300" lon="6.2067200"/>
<trkpt lat="52.1189600" lon="6.2069900"/>
<trkpt lat="52.1187500" lon="6.2070000"/>
<trkpt lat="52.1185900" lon="6.2070900"/>
<trkpt lat="52.1183300" lon="6.2073100"/>
<trkpt lat="52.1180100" lon="6.2076600"/>
<trkpt lat="52.1177300" lon="6.2081500"/>
<trkpt lat="52.1177500" lon="6.2085400"/>
<trkpt lat="52.1176600" lon="6.2090600"/>
<trkpt lat="52.1177400" lon="6.2094300"/>
<trkpt lat="52.1177800" lon="6.2102000"/>
<trkpt lat="52.1178100" lon="6.2104500"/>
<trkpt lat="52.1178400" lon="6.2108000"/>
<trkpt lat="52.1178500" lon="6.2110500"/>
<trkpt lat="52.1177800" lon="6.2113500"/>
<trkpt lat="52.1181700" lon="6.2122100"/>
<trkpt lat="52.1182500" lon="6.2126000"/>
<trkpt lat="52.1181900" lon="6.2129500"/>
<trkpt lat="52.1178800" lon="6.2140100"/>
<trkpt lat="52.1175700" lon="6.2153600"/>
<trkpt lat="52.1177000" lon="6.2154600"/>
<trkpt lat="52.1178400" lon="6.2154300"/>
<trkpt lat="52.1179600" lon="6.2166800"/>
<trkpt lat="52.1176000" lon="6.2167000"/>
<trkpt lat="52.1164600" lon="6.2170200"/>
<trkpt lat="52.1158500" lon="6.2172300"/>
<trkpt lat="52.1156000" lon="6.2174000"/>
<trkpt lat="52.1155700" lon="6.2176900"/>
<trkpt lat="52.1157000" lon="6.2181400"/>
<trkpt lat="52.1157500" lon="6.2184700"/>
<trkpt lat="52.1157200" lon="6.2186900"/>
<trkpt lat="52.1156200" lon="6.2189400"/>
<trkpt lat="52.1156000" lon="6.2196700"/>
<trkpt lat="52.1157600" lon="6.2203600"/>
<trkpt lat="52.1160800" lon="6.2219400"/>
<trkpt lat="52.1162000" lon="6.2226700"/>
<trkpt lat="52.1157600" lon="6.2247400"/>
</trkseg></trk>
<trk><name>Leestensche Broekpad - approachRoute</name><type>approachRoute</type><trkseg>
<trkpt lat="52.1198800" lon="6.2424900"/>
<trkpt lat="52.1199800" lon="6.2425300"/>
<trkpt lat="52.1208700" lon="6.2422000"/>
<trkpt lat="52.1209900" lon="6.2422100"/>
<trkpt lat="52.1213600" lon="6.2427300"/>
<trkpt lat="52.1214400" lon="6.2429500"/>
</trkseg></trk>
</gpx>