<?xml version="1.0" encoding="UTF-8"?>
<gpx version="1.1" creator="klompenpaden.nl via Jimbo API" xmlns="http://www.topografix.com/GPX/1/1">
<metadata><name>Leidschehoevenpad</name><desc>Ontdek het mooie landschap tussen Tricht en Beesd met oude dijken en kaden, reeën en ijsvogels, hoogstamfruitbomen en landgoederen met historie. Klompen aan, rugzak op en gaan! </desc><link href="https://www.klompenpaden.nl/klompenpaden/Leidschehoevenpad/f45141a7-e3d5-4659-94b8-bd715eafb7d2"><text>klompenpaden.nl</text></link></metadata>
<wpt lat="51.91597641488371" lon="5.249823331832887"><name>Start Tricht</name></wpt>
<trk><name>Leidschehoevenpad - hoofdroute</name><type>mainRoute</type><trkseg>
<trkpt lat="51.9128950" lon="5.2414834"/>
<trkpt lat="51.9143653" lon="5.2403627"/>
<trkpt lat="51.9158830" lon="5.2428091"/>
<trkpt lat="51.9160739" lon="5.2431837"/>
<trkpt lat="51.9163206" lon="5.2436328"/>
<trkpt lat="51.9165775" lon="5.2441106"/>
<trkpt lat="51.9176307" lon="5.2462890"/>
<trkpt lat="51.9169138" lon="5.2471876"/>
<trkpt lat="51.9171336" lon="5.2477642"/>
<trkpt lat="51.9162650" lon="5.2490131"/>
<trkpt lat="51.9160530" lon="5.2493121"/>
<trkpt lat="51.9160490" lon="5.2494611"/>
<trkpt lat="51.9160910" lon="5.2495911"/>
<trkpt lat="51.9160527" lon="5.2496788"/>
<trkpt lat="51.9159810" lon="5.2497741"/>
<trkpt lat="51.9162910" lon="5.2504421"/>
<trkpt lat="51.9163710" lon="5.2504321"/>
<trkpt lat="51.9164500" lon="5.2504509"/>
<trkpt lat="51.9166330" lon="5.2506601"/>
<trkpt lat="51.9168535" lon="5.2504362"/>
<trkpt lat="51.9197454" lon="5.2482579"/>
<trkpt lat="51.9220630" lon="5.2446940"/>
<trkpt lat="51.9217530" lon="5.2444360"/>
<trkpt lat="51.9190841" lon="5.2400217"/>
<trkpt lat="51.9189092" lon="5.2394955"/>
<trkpt lat="51.9184935" lon="5.2381529"/>
<trkpt lat="51.9183097" lon="5.2372397"/>
<trkpt lat="51.9181742" lon="5.2373209"/>
<trkpt lat="51.9179905" lon="5.2375010"/>
<trkpt lat="51.9179896" lon="5.2374976"/>
<trkpt lat="51.9179136" lon="5.2372111"/>
<trkpt lat="51.9182449" lon="5.2369018"/>
<trkpt lat="51.9198054" lon="5.2358198"/>
<trkpt lat="51.9186808" lon="5.2301948"/>
<trkpt lat="51.9187365" lon="5.2301211"/>
<trkpt lat="51.9190966" lon="5.2300218"/>
<trkpt lat="51.9183213" lon="5.2257368"/>
<trkpt lat="51.9176763" lon="5.2259136"/>
<trkpt lat="51.9176434" lon="5.2257842"/>
<trkpt lat="51.9173380" lon="5.2258541"/>
<trkpt lat="51.9173180" lon="5.2257054"/>
<trkpt lat="51.9175063" lon="5.2256429"/>
<trkpt lat="51.9166473" lon="5.2211319"/>
<trkpt lat="51.9158078" lon="5.2168340"/>
<trkpt lat="51.9131906" lon="5.2172777"/>
<trkpt lat="51.9115167" lon="5.2174993"/>
<trkpt lat="51.9082447" lon="5.2176962"/>
<trkpt lat="51.9052120" lon="5.2179391"/>
<trkpt lat="51.9053286" lon="5.2188694"/>
<trkpt lat="51.9057899" lon="5.2217708"/>
<trkpt lat="51.9060249" lon="5.2232431"/>
<trkpt lat="51.9061651" lon="5.2232142"/>
<trkpt lat="51.9064253" lon="5.2331601"/>
<trkpt lat="51.9014905" lon="5.2342171"/>
<trkpt lat="51.9015553" lon="5.2344290"/>
<trkpt lat="51.9015121" lon="5.2350797"/>
<trkpt lat="51.9019965" lon="5.2420366"/>
<trkpt lat="51.9021450" lon="5.2468032"/>
<trkpt lat="51.9029770" lon="5.2464931"/>
<trkpt lat="51.9039966" lon="5.2454777"/>
<trkpt lat="51.9054310" lon="5.2451580"/>
<trkpt lat="51.9070723" lon="5.2444472"/>
<trkpt lat="51.9073325" lon="5.2443504"/>
<trkpt lat="51.9073775" lon="5.2446586"/>
<trkpt lat="51.9085691" lon="5.2440206"/>
<trkpt lat="51.9091756" lon="5.2437018"/>
<trkpt lat="51.9102403" lon="5.2431109"/>
<trkpt lat="51.9114751" lon="5.2423779"/>
<trkpt lat="51.9118315" lon="5.2421306"/>
<trkpt lat="51.9128385" lon="5.2415284"/>
<trkpt lat="51.9128950" lon="5.2414834"/>
</trkseg></trk>
<trk><name>Leidschehoevenpad - verkorter</name><type>shorteningRoute</type><trkseg>
<trkpt lat="51.9143600" lon="5.2403600"/>
<trkpt lat="51.9179800" lon="5.2374900"/>
</trkseg></trk>
<trk><name>Leidschehoevenpad - verlenger</name><type>extensionRoute</type><trkseg>
<trkpt lat="51.9014900" lon="5.2342100"/>
<trkpt lat="51.9008700" lon="5.2343000"/>
<trkpt lat="51.9013900" lon="5.2442600"/>
<trkpt lat="51.9012100" lon="5.2445800"/>
<trkpt lat="51.8993500" lon="5.2454400"/>
<trkpt lat="51.8985300" lon="5.2453500"/>
<trkpt lat="51.8973300" lon="5.2450800"/>
<trkpt lat="51.8966300" lon="5.2446700"/>
<trkpt lat="51.8962500" lon="5.2460500"/>
<trkpt lat="51.8954700" lon="5.2457000"/>
<trkpt lat="51.8953200" lon="5.2462900"/>
<trkpt lat="51.8947400" lon="5.2461200"/>
<trkpt lat="51.8941900" lon="5.2462700"/>
<trkpt lat="51.8938700" lon="5.2458600"/>
<trkpt lat="51.8939100" lon="5.2455000"/>
<trkpt lat="51.8937000" lon="5.2447300"/>
<trkpt lat="51.8943400" lon="5.2435900"/>
<trkpt lat="51.8946300" lon="5.2428800"/>
<trkpt lat="51.8966200" lon="5.2403900"/>
<trkpt lat="51.8973200" lon="5.2394700"/>
<trkpt lat="51.8979400" lon="5.2381400"/>
<trkpt lat="51.8982100" lon="5.2369400"/>
<trkpt lat="51.8983400" lon="5.2361100"/>
<trkpt lat="51.8984200" lon="5.2349200"/>
<trkpt lat="51.9014900" lon="5.2342100"/>
</trkseg></trk>
<trk><name>Leidschehoevenpad - overstaproute Engelroderpad</name><type>connectionRoute</type><trkseg>
<trkpt lat="51.9220600" lon="5.2446900"/>
<trkpt lat="51.9226600" lon="5.2455900"/>
<trkpt lat="51.9228300" lon="5.2456400"/>
<trkpt lat="51.9239200" lon="5.2449800"/>
<trkpt lat="51.9250800" lon="5.2440400"/>
<trkpt lat="51.9254500" lon="5.2434700"/>
<trkpt lat="51.9264000" lon="5.2417900"/>
<trkpt lat="51.9267700" lon="5.2413500"/>
<trkpt lat="51.9272700" lon="5.2425700"/>
<trkpt lat="51.9275200" lon="5.2431100"/>
<trkpt lat="51.9293000" lon="5.2457800"/>
<trkpt lat="51.9289000" lon="5.2464900"/>
</trkseg></trk>
<trk><name>Leidschehoevenpad - Overstaproute Leidschehoevenpad</name><type>connectionRoute</type><trkseg>
<trkpt lat="51.8834953" lon="5.1992609"/>
<trkpt lat="51.8835400" lon="5.1992015"/>
<trkpt lat="51.8836145" lon="5.1990852"/>
<trkpt lat="51.8838343" lon="5.1987815"/>
<trkpt lat="51.8840407" lon="5.1985684"/>
<trkpt lat="51.8845004" lon="5.1982644"/>
<trkpt lat="51.8847822" lon="5.1981365"/>
<trkpt lat="51.8849826" lon="5.1980779"/>
<trkpt lat="51.8854674" lon="5.1977130"/>
<trkpt lat="51.8855425" lon="5.1978438"/>
<trkpt lat="51.8857379" lon="5.1977788"/>
<trkpt lat="51.8858776" lon="5.1977381"/>
<trkpt lat="51.8863022" lon="5.1978111"/>
<trkpt lat="51.8868488" lon="5.1978328"/>
<trkpt lat="51.8870358" lon="5.1980317"/>
<trkpt lat="51.8873112" lon="5.1983020"/>
<trkpt lat="51.8874525" lon="5.1983677"/>
<trkpt lat="51.8875946" lon="5.1983582"/>
<trkpt lat="51.8877534" lon="5.1982151"/>
<trkpt lat="51.8879583" lon="5.1980991"/>
<trkpt lat="51.8880783" lon="5.1982358"/>
<trkpt lat="51.8882636" lon="5.1988205"/>
<trkpt lat="51.8884756" lon="5.1992517"/>
<trkpt lat="51.8884871" lon="5.1994741"/>
<trkpt lat="51.8888975" lon="5.2009397"/>
<trkpt lat="51.8891019" lon="5.2011089"/>
<trkpt lat="51.8895215" lon="5.2010786"/>
<trkpt lat="51.8896560" lon="5.2011903"/>
<trkpt lat="51.8899857" lon="5.2012242"/>
<trkpt lat="51.8903701" lon="5.2011396"/>
<trkpt lat="51.8906704" lon="5.2011702"/>
<trkpt lat="51.8913459" lon="5.2013931"/>
<trkpt lat="51.8924833" lon="5.2017613"/>
<trkpt lat="51.8934437" lon="5.2020374"/>
<trkpt lat="51.8939843" lon="5.2022073"/>
<trkpt lat="51.8945373" lon="5.2024029"/>
<trkpt lat="51.8949987" lon="5.2025890"/>
</trkseg></trk>
<trk><name>Leidschehoevenpad - aanlooproute gmalsen</name><type>approachRoute</type><trkseg>
<trkpt lat="51.8826000" lon="5.2718200"/>
<trkpt lat="51.8826900" lon="5.2720300"/>
<trkpt lat="51.8827800" lon="5.2718600"/>
<trkpt lat="51.8852200" lon="5.2708800"/>
<trkpt lat="51.8858000" lon="5.2708100"/>
<trkpt lat="51.8870300" lon="5.2702800"/>
<trkpt lat="51.8874200" lon="5.2696100"/>
<trkpt lat="51.8875300" lon="5.2694900"/>
<trkpt lat="51.8881200" lon="5.2692200"/>
<trkpt lat="51.8883000" lon="5.2692300"/>
<trkpt lat="51.8883600" lon="5.2691500"/>
<trkpt lat="51.8882300" lon="5.2678400"/>
<trkpt lat="51.8876600" lon="5.2669000"/>
<trkpt lat="51.8867400" lon="5.2657300"/>
<trkpt lat="51.8866000" lon="5.2652000"/>
<trkpt lat="51.8862300" lon="5.2647400"/>
<trkpt lat="51.8858500" lon="5.2638200"/>
<trkpt lat="51.8856200" lon="5.2632300"/>
<trkpt lat="51.8855000" lon="5.2627600"/>
<trkpt lat="51.8855100" lon="5.2624700"/>
<trkpt lat="51.8855800" lon="5.2621000"/>
<trkpt lat="51.8856700" lon="5.2618000"/>
<trkpt lat="51.8857200" lon="5.2614500"/>
<trkpt lat="51.8857300" lon="5.2610700"/>
<trkpt lat="51.8857200" lon="5.2608700"/>
<trkpt lat="51.8854900" lon="5.2603400"/>
<trkpt lat="51.8854600" lon="5.2600700"/>
<trkpt lat="51.8854600" lon="5.2594800"/>
<trkpt lat="51.8856300" lon="5.2589200"/>
<trkpt lat="51.8857400" lon="5.2574300"/>
<trkpt lat="51.8857000" lon="5.2563200"/>
<trkpt lat="51.8857500" lon="5.2559800"/>
<trkpt lat="51.8858500" lon="5.2557500"/>
<trkpt lat="51.8860000" lon="5.2555800"/>
<trkpt lat="51.8862000" lon="5.2554400"/>
<trkpt lat="51.8877800" lon="5.2547100"/>
<trkpt lat="51.8879900" lon="5.2545500"/>
<trkpt lat="51.8882600" lon="5.2542600"/>
<trkpt lat="51.8884900" lon="5.2539300"/>
<trkpt lat="51.8887200" lon="5.2535100"/>
<trkpt lat="51.8888100" lon="5.2532900"/>
<trkpt lat="51.8889900" lon="5.2530400"/>
<trkpt lat="51.8892900" lon="5.2527100"/>
<trkpt lat="51.8899500" lon="5.2509100"/>
<trkpt lat="51.8900200" lon="5.2504900"/>
<trkpt lat="51.8900700" lon="5.2500600"/>
<trkpt lat="51.8901200" lon="5.2498000"/>
<trkpt lat="51.8904000" lon="5.2492200"/>
<trkpt lat="51.8908400" lon="5.2484200"/>
<trkpt lat="51.8911800" lon="5.2479000"/>
<trkpt lat="51.8914100" lon="5.2477300"/>
<trkpt lat="51.8916300" lon="5.2476600"/>
<trkpt lat="51.8917300" lon="5.2475900"/>
<trkpt lat="51.8918000" lon="5.2474800"/>
<trkpt lat="51.8919100" lon="5.2471100"/>
<trkpt lat="51.8919900" lon="5.2469300"/>
<trkpt lat="51.8921400" lon="5.2467100"/>
<trkpt lat="51.8923300" lon="5.2465400"/>
<trkpt lat="51.8925000" lon="5.2465300"/>
<trkpt lat="51.8927900" lon="5.2466500"/>
<trkpt lat="51.8929300" lon="5.2466700"/>
<trkpt lat="51.8932900" lon="5.2466600"/>
<trkpt lat="51.8934100" lon="5.2466000"/>
<trkpt lat="51.8935600" lon="5.2463300"/>
<trkpt lat="51.8938700" lon="5.2458600"/>
<trkpt lat="51.8938800" lon="5.2457400"/>
</trkseg></trk>
<trk><name>Leidschehoevenpad - aanlooproute cborg</name><type>approachRoute</type><trkseg>
<trkpt lat="51.9475300" lon="5.2273300"/>
<trkpt lat="51.9469200" lon="5.2278900"/>
<trkpt lat="51.9462500" lon="5.2285700"/>
<trkpt lat="51.9455900" lon="5.2287600"/>
<trkpt lat="51.9446800" lon="5.2295000"/>
<trkpt lat="51.9442400" lon="5.2299100"/>
<trkpt lat="51.9439600" lon="5.2302100"/>
<trkpt lat="51.9435500" lon="5.2304600"/>
<trkpt lat="51.9424400" lon="5.2313900"/>
<trkpt lat="51.9416400" lon="5.2322600"/>
<trkpt lat="51.9411600" lon="5.2327300"/>
<trkpt lat="51.9408300" lon="5.2332500"/>
<trkpt lat="51.9405400" lon="5.2335500"/>
<trkpt lat="51.9394100" lon="5.2345400"/>
<trkpt lat="51.9391700" lon="5.2338400"/>
<trkpt lat="51.9388900" lon="5.2340900"/>
<trkpt lat="51.9369900" lon="5.2355900"/>
<trkpt lat="51.9357500" lon="5.2364900"/>
<trkpt lat="51.9346800" lon="5.2373200"/>
<trkpt lat="51.9328900" lon="5.2386400"/>
<trkpt lat="51.9310800" lon="5.2400300"/>
<trkpt lat="51.9296600" lon="5.2410700"/>
<trkpt lat="51.9287000" lon="5.2418200"/>
<trkpt lat="51.9279100" lon="5.2424100"/>
<trkpt lat="51.9276400" lon="5.2426400"/>
<trkpt lat="51.9275300" lon="5.2425900"/>
<trkpt lat="51.9275000" lon="5.2423700"/>
<trkpt lat="51.9272500" lon="5.2425800"/>
<trkpt lat="51.9267600" lon="5.2413200"/>
<trkpt lat="51.9264300" lon="5.2417500"/>
<trkpt lat="51.9250800" lon="5.2440400"/>
<trkpt lat="51.9247300" lon="5.2442900"/>
<trkpt lat="51.9238700" lon="5.2450300"/>
<trkpt lat="51.9228200" lon="5.2456300"/>
<trkpt lat="51.9226500" lon="5.2455800"/>
<trkpt lat="51.9220400" lon="5.2446700"/>
</trkseg></trk>
<trk><name>Leidschehoevenpad - aanlooproute beesd</name><type>approachRoute</type><trkseg>
<trkpt lat="51.8992000" lon="5.1957900"/>
<trkpt lat="51.8965800" lon="5.2007100"/>
<trkpt lat="51.8952000" lon="5.2003300"/>
<trkpt lat="51.8949900" lon="5.2025800"/>
<trkpt lat="51.8964300" lon="5.2034400"/>
<trkpt lat="51.8976900" lon="5.2047500"/>
<trkpt lat="51.8988700" lon="5.2064800"/>
<trkpt lat="51.8992300" lon="5.2072400"/>
<trkpt lat="51.8998000" lon="5.2090000"/>
<trkpt lat="51.9001600" lon="5.2161800"/>
<trkpt lat="51.8996600" lon="5.2171100"/>
<trkpt lat="51.9004800" lon="5.2172500"/>
<trkpt lat="51.9009200" lon="5.2174200"/>
<trkpt lat="51.9018100" lon="5.2179200"/>
<trkpt lat="51.9024700" lon="5.2179900"/>
<trkpt lat="51.9052200" lon="5.2180100"/>
</trkseg></trk>
</gpx>