<?xml version="1.0" encoding="UTF-8"?>
<gpx version="1.1" creator="klompenpaden.nl via Jimbo API" xmlns="http://www.topografix.com/GPX/1/1">
<metadata><name>Leuvenschepad</name><desc>Ontdek het prachtige buitengebied van Leuvenheim. Wandelen over de winterdijk met uitzicht over de uiterwaarden, over onverharde paden in het bos en langs fraaie landgoederen. Rust, kleinschaligheid en de combinatie van natuur en landschap bepalen hier de sfeer. Klompen aan, rugzak op en gaan!</desc><link href="https://www.klompenpaden.nl/klompenpaden/Leuvenschepad/65477b1e-6ba9-42aa-acb7-2fc968c2596f"><text>klompenpaden.nl</text></link></metadata>
<wpt lat="52.074745175819665" lon="6.143202781677246"><name>Start Leuvenheim</name></wpt>
<trk><name>Leuvenschepad - mainRoute</name><type>mainRoute</type><trkseg>
<trkpt lat="52.0747500" lon="6.1431600"/>
<trkpt lat="52.0745900" lon="6.1436800"/>
<trkpt lat="52.0744900" lon="6.1444100"/>
<trkpt lat="52.0735400" lon="6.1430700"/>
<trkpt lat="52.0732500" lon="6.1446700"/>
<trkpt lat="52.0732200" lon="6.1450200"/>
<trkpt lat="52.0731300" lon="6.1454100"/>
<trkpt lat="52.0730300" lon="6.1457200"/>
<trkpt lat="52.0727300" lon="6.1460600"/>
<trkpt lat="52.0723700" lon="6.1452000"/>
<trkpt lat="52.0710700" lon="6.1423100"/>
<trkpt lat="52.0709300" lon="6.1417100"/>
<trkpt lat="52.0699600" lon="6.1400400"/>
<trkpt lat="52.0699700" lon="6.1398500"/>
<trkpt lat="52.0706000" lon="6.1381200"/>
<trkpt lat="52.0706000" lon="6.1378900"/>
<trkpt lat="52.0676100" lon="6.1339800"/>
<trkpt lat="52.0663300" lon="6.1323700"/>
<trkpt lat="52.0653300" lon="6.1310200"/>
<trkpt lat="52.0644400" lon="6.1299400"/>
<trkpt lat="52.0641600" lon="6.1293600"/>
<trkpt lat="52.0638800" lon="6.1292400"/>
<trkpt lat="52.0635800" lon="6.1288100"/>
<trkpt lat="52.0631000" lon="6.1282900"/>
<trkpt lat="52.0618000" lon="6.1265200"/>
<trkpt lat="52.0615400" lon="6.1260600"/>
<trkpt lat="52.0595800" lon="6.1235900"/>
<trkpt lat="52.0568000" lon="6.1199500"/>
<trkpt lat="52.0565400" lon="6.1196500"/>
<trkpt lat="52.0567000" lon="6.1194100"/>
<trkpt lat="52.0567800" lon="6.1193200"/>
<trkpt lat="52.0576000" lon="6.1189700"/>
<trkpt lat="52.0578800" lon="6.1187700"/>
<trkpt lat="52.0585300" lon="6.1182500"/>
<trkpt lat="52.0589400" lon="6.1181100"/>
<trkpt lat="52.0598500" lon="6.1177100"/>
<trkpt lat="52.0602300" lon="6.1176500"/>
<trkpt lat="52.0607700" lon="6.1177100"/>
<trkpt lat="52.0610600" lon="6.1178000"/>
<trkpt lat="52.0634300" lon="6.1178900"/>
<trkpt lat="52.0637900" lon="6.1178800"/>
<trkpt lat="52.0644400" lon="6.1175400"/>
<trkpt lat="52.0654900" lon="6.1169600"/>
<trkpt lat="52.0690800" lon="6.1151500"/>
<trkpt lat="52.0698300" lon="6.1178200"/>
<trkpt lat="52.0702300" lon="6.1192000"/>
<trkpt lat="52.0707800" lon="6.1174800"/>
<trkpt lat="52.0741400" lon="6.1186700"/>
<trkpt lat="52.0783600" lon="6.1202000"/>
<trkpt lat="52.0798700" lon="6.1092000"/>
<trkpt lat="52.0809500" lon="6.1096500"/>
<trkpt lat="52.0820600" lon="6.1102800"/>
<trkpt lat="52.0825600" lon="6.1070600"/>
<trkpt lat="52.0813200" lon="6.1059900"/>
<trkpt lat="52.0825300" lon="6.0991700"/>
<trkpt lat="52.0852900" lon="6.1007000"/>
<trkpt lat="52.0834800" lon="6.1110500"/>
<trkpt lat="52.0842800" lon="6.1115300"/>
<trkpt lat="52.0822600" lon="6.1254900"/>
<trkpt lat="52.0813600" lon="6.1325200"/>
<trkpt lat="52.0809000" lon="6.1356200"/>
<trkpt lat="52.0781800" lon="6.1348200"/>
<trkpt lat="52.0777900" lon="6.1355600"/>
<trkpt lat="52.0775600" lon="6.1355300"/>
<trkpt lat="52.0773600" lon="6.1360400"/>
<trkpt lat="52.0774000" lon="6.1362400"/>
<trkpt lat="52.0774100" lon="6.1364400"/>
<trkpt lat="52.0773900" lon="6.1365300"/>
<trkpt lat="52.0767100" lon="6.1378700"/>
<trkpt lat="52.0772100" lon="6.1385100"/>
<trkpt lat="52.0773100" lon="6.1386200"/>
<trkpt lat="52.0773800" lon="6.1388700"/>
<trkpt lat="52.0773900" lon="6.1390900"/>
<trkpt lat="52.0772600" lon="6.1395700"/>
<trkpt lat="52.0770900" lon="6.1400300"/>
<trkpt lat="52.0770000" lon="6.1402200"/>
<trkpt lat="52.0777400" lon="6.1409100"/>
<trkpt lat="52.0778400" lon="6.1409700"/>
<trkpt lat="52.0787300" lon="6.1417600"/>
<trkpt lat="52.0789600" lon="6.1420100"/>
<trkpt lat="52.0790500" lon="6.1431900"/>
<trkpt lat="52.0791200" lon="6.1446400"/>
<trkpt lat="52.0792100" lon="6.1452000"/>
<trkpt lat="52.0792000" lon="6.1454500"/>
<trkpt lat="52.0790300" lon="6.1461000"/>
<trkpt lat="52.0789600" lon="6.1466300"/>
<trkpt lat="52.0789100" lon="6.1467900"/>
<trkpt lat="52.0785100" lon="6.1469800"/>
<trkpt lat="52.0782700" lon="6.1471300"/>
<trkpt lat="52.0782000" lon="6.1471500"/>
<trkpt lat="52.0780300" lon="6.1472900"/>
<trkpt lat="52.0779100" lon="6.1475000"/>
<trkpt lat="52.0778900" lon="6.1482100"/>
<trkpt lat="52.0779900" lon="6.1497000"/>
<trkpt lat="52.0778200" lon="6.1504800"/>
<trkpt lat="52.0773500" lon="6.1513000"/>
<trkpt lat="52.0771900" lon="6.1511800"/>
<trkpt lat="52.0768600" lon="6.1507700"/>
<trkpt lat="52.0766700" lon="6.1504800"/>
<trkpt lat="52.0764400" lon="6.1502400"/>
<trkpt lat="52.0758800" lon="6.1494500"/>
<trkpt lat="52.0756600" lon="6.1491000"/>
<trkpt lat="52.0754000" lon="6.1490000"/>
<trkpt lat="52.0751400" lon="6.1489600"/>
<trkpt lat="52.0744400" lon="6.1483000"/>
<trkpt lat="52.0730700" lon="6.1468100"/>
<trkpt lat="52.0727300" lon="6.1461100"/>
</trkseg></trk>
<trk><name>Leuvenschepad - shorteningRoute</name><type>shorteningRoute</type><trkseg>
<trkpt lat="52.0702300" lon="6.1191500"/>
<trkpt lat="52.0735100" lon="6.1205200"/>
<trkpt lat="52.0725900" lon="6.1267500"/>
<trkpt lat="52.0759700" lon="6.1281900"/>
<trkpt lat="52.0753400" lon="6.1321400"/>
<trkpt lat="52.0750500" lon="6.1333200"/>
<trkpt lat="52.0762400" lon="6.1346000"/>
<trkpt lat="52.0773800" lon="6.1360000"/>
</trkseg></trk>
<trk><name>Leuvenschepad - alternativeRoute</name><type>alternativeRoute</type><trkseg>
<trkpt lat="52.0641700" lon="6.1293800"/>
<trkpt lat="52.0637900" lon="6.1307500"/>
<trkpt lat="52.0635700" lon="6.1312100"/>
<trkpt lat="52.0632200" lon="6.1316800"/>
<trkpt lat="52.0628600" lon="6.1319100"/>
<trkpt lat="52.0615000" lon="6.1324300"/>
<trkpt lat="52.0609800" lon="6.1326100"/>
<trkpt lat="52.0593200" lon="6.1232200"/>
</trkseg></trk>
<trk><name>Leuvenschepad - Overstaproute</name><type>connectionRoute</type><trkseg>
<trkpt lat="52.0902726" lon="6.1376498"/>
<trkpt lat="52.0900445" lon="6.1375582"/>
<trkpt lat="52.0896876" lon="6.1401227"/>
<trkpt lat="52.0896076" lon="6.1401719"/>
<trkpt lat="52.0896198" lon="6.1409766"/>
<trkpt lat="52.0895416" lon="6.1418786"/>
<trkpt lat="52.0894213" lon="6.1418328"/>
</trkseg></trk>
<trk><name>Leuvenschepad - approachRoute</name><type>approachRoute</type><trkseg>
<trkpt lat="52.0908500" lon="6.1472700"/>
<trkpt lat="52.0898900" lon="6.1469500"/>
<trkpt lat="52.0887800" lon="6.1465400"/>
<trkpt lat="52.0890500" lon="6.1443900"/>
<trkpt lat="52.0893000" lon="6.1427400"/>
<trkpt lat="52.0894200" lon="6.1417900"/>
<trkpt lat="52.0893900" lon="6.1415000"/>
<trkpt lat="52.0892400" lon="6.1409900"/>
<trkpt lat="52.0890300" lon="6.1408300"/>
<trkpt lat="52.0874500" lon="6.1400700"/>
<trkpt lat="52.0864000" lon="6.1396800"/>
<trkpt lat="52.0863500" lon="6.1396500"/>
<trkpt lat="52.0867900" lon="6.1367900"/>
<trkpt lat="52.0857600" lon="6.1364200"/>
<trkpt lat="52.0836900" lon="6.1357200"/>
<trkpt lat="52.0810200" lon="6.1347200"/>
</trkseg></trk>
</gpx>