<?xml version="1.0" encoding="UTF-8"?>
<gpx version="1.1" creator="klompenpaden.nl via Jimbo API" xmlns="http://www.topografix.com/GPX/1/1">
<metadata><name>Lint en Liniepad</name><desc>Ontdek het mooie buitengebied van Schalkwijk. Wandelen door het weidelandschap, langs forten en door de uiterwaarden van de Lek. Geniet van weidse uitzichten, de rust en ontdek de Nieuwe Hollandse Waterlinie. Klompen aan, rugzak op en gaan! </desc><link href="https://www.klompenpaden.nl/klompenpaden/Lint_en_Liniepad/124f1a46-5927-4ff0-aa3b-481bb809b119"><text>klompenpaden.nl</text></link></metadata>
<wpt lat="51.99215117146803" lon="5.19254207611084"><name>Start Schalkwijk</name></wpt>
<trk><name>Lint en Liniepad - Geimporteerde shapefile</name><type>mainRoute</type><trkseg>
<trkpt lat="51.9916781" lon="5.1931438"/>
<trkpt lat="51.9919211" lon="5.1923829"/>
<trkpt lat="51.9921650" lon="5.1920810"/>
<trkpt lat="51.9921644" lon="5.1917169"/>
<trkpt lat="51.9925640" lon="5.1904938"/>
<trkpt lat="51.9928382" lon="5.1896528"/>
<trkpt lat="51.9931958" lon="5.1885358"/>
<trkpt lat="51.9930847" lon="5.1883657"/>
<trkpt lat="51.9934097" lon="5.1872060"/>
<trkpt lat="51.9936577" lon="5.1863789"/>
<trkpt lat="51.9938836" lon="5.1855518"/>
<trkpt lat="51.9940434" lon="5.1849944"/>
<trkpt lat="51.9943356" lon="5.1840862"/>
<trkpt lat="51.9943988" lon="5.1838323"/>
<trkpt lat="51.9941163" lon="5.1834747"/>
<trkpt lat="51.9939446" lon="5.1831819"/>
<trkpt lat="51.9933386" lon="5.1821082"/>
<trkpt lat="51.9925811" lon="5.1807742"/>
<trkpt lat="51.9919044" lon="5.1796030"/>
<trkpt lat="51.9910559" lon="5.1780575"/>
<trkpt lat="51.9904095" lon="5.1769352"/>
<trkpt lat="51.9890458" lon="5.1744952"/>
<trkpt lat="51.9884499" lon="5.1734380"/>
<trkpt lat="51.9870761" lon="5.1710146"/>
<trkpt lat="51.9862535" lon="5.1696232"/>
<trkpt lat="51.9864809" lon="5.1688811"/>
<trkpt lat="51.9868094" lon="5.1678710"/>
<trkpt lat="51.9866160" lon="5.1663901"/>
<trkpt lat="51.9864487" lon="5.1652280"/>
<trkpt lat="51.9865895" lon="5.1652262"/>
<trkpt lat="51.9865533" lon="5.1649721"/>
<trkpt lat="51.9860940" lon="5.1635185"/>
<trkpt lat="51.9853058" lon="5.1607479"/>
<trkpt lat="51.9837326" lon="5.1604866"/>
<trkpt lat="51.9831938" lon="5.1603854"/>
<trkpt lat="51.9826835" lon="5.1602955"/>
<trkpt lat="51.9815838" lon="5.1601225"/>
<trkpt lat="51.9805711" lon="5.1599798"/>
<trkpt lat="51.9791630" lon="5.1598252"/>
<trkpt lat="51.9781306" lon="5.1596995"/>
<trkpt lat="51.9771186" lon="5.1596061"/>
<trkpt lat="51.9771150" lon="5.1592642"/>
<trkpt lat="51.9770202" lon="5.1587066"/>
<trkpt lat="51.9766109" lon="5.1585701"/>
<trkpt lat="51.9762394" lon="5.1582908"/>
<trkpt lat="51.9758227" lon="5.1580388"/>
<trkpt lat="51.9758311" lon="5.1574644"/>
<trkpt lat="51.9758343" lon="5.1566788"/>
<trkpt lat="51.9758969" lon="5.1564287"/>
<trkpt lat="51.9759649" lon="5.1561942"/>
<trkpt lat="51.9759722" lon="5.1560032"/>
<trkpt lat="51.9759621" lon="5.1557476"/>
<trkpt lat="51.9759257" lon="5.1555814"/>
<trkpt lat="51.9757957" lon="5.1552740"/>
<trkpt lat="51.9756007" lon="5.1547790"/>
<trkpt lat="51.9755274" lon="5.1545824"/>
<trkpt lat="51.9754291" lon="5.1546043"/>
<trkpt lat="51.9750339" lon="5.1548836"/>
<trkpt lat="51.9746500" lon="5.1551739"/>
<trkpt lat="51.9745703" lon="5.1552505"/>
<trkpt lat="51.9743718" lon="5.1559146"/>
<trkpt lat="51.9743206" lon="5.1559773"/>
<trkpt lat="51.9742436" lon="5.1560401"/>
<trkpt lat="51.9739959" lon="5.1562479"/>
<trkpt lat="51.9736566" lon="5.1564841"/>
<trkpt lat="51.9734401" lon="5.1565915"/>
<trkpt lat="51.9731976" lon="5.1565985"/>
<trkpt lat="51.9729728" lon="5.1565939"/>
<trkpt lat="51.9728338" lon="5.1566524"/>
<trkpt lat="51.9727484" lon="5.1567453"/>
<trkpt lat="51.9726737" lon="5.1568843"/>
<trkpt lat="51.9726420" lon="5.1570577"/>
<trkpt lat="51.9726280" lon="5.1572253"/>
<trkpt lat="51.9726426" lon="5.1573927"/>
<trkpt lat="51.9727143" lon="5.1575540"/>
<trkpt lat="51.9727930" lon="5.1576634"/>
<trkpt lat="51.9728372" lon="5.1577062"/>
<trkpt lat="51.9728924" lon="5.1577398"/>
<trkpt lat="51.9729476" lon="5.1577549"/>
<trkpt lat="51.9730066" lon="5.1577577"/>
<trkpt lat="51.9730523" lon="5.1577575"/>
<trkpt lat="51.9731190" lon="5.1578187"/>
<trkpt lat="51.9732805" lon="5.1579848"/>
<trkpt lat="51.9732775" lon="5.1580760"/>
<trkpt lat="51.9733325" lon="5.1590283"/>
<trkpt lat="51.9732946" lon="5.1591147"/>
<trkpt lat="51.9731692" lon="5.1591924"/>
<trkpt lat="51.9731433" lon="5.1595621"/>
<trkpt lat="51.9731436" lon="5.1597316"/>
<trkpt lat="51.9731499" lon="5.1600396"/>
<trkpt lat="51.9731906" lon="5.1604368"/>
<trkpt lat="51.9732510" lon="5.1611850"/>
<trkpt lat="51.9732686" lon="5.1614314"/>
<trkpt lat="51.9732920" lon="5.1617023"/>
<trkpt lat="51.9733059" lon="5.1620011"/>
<trkpt lat="51.9733088" lon="5.1625124"/>
<trkpt lat="51.9732923" lon="5.1628513"/>
<trkpt lat="51.9732341" lon="5.1632983"/>
<trkpt lat="51.9730338" lon="5.1639801"/>
<trkpt lat="51.9727990" lon="5.1645604"/>
<trkpt lat="51.9724256" lon="5.1653231"/>
<trkpt lat="51.9721326" lon="5.1658328"/>
<trkpt lat="51.9720398" lon="5.1660643"/>
<trkpt lat="51.9719474" lon="5.1664898"/>
<trkpt lat="51.9718989" lon="5.1670199"/>
<trkpt lat="51.9718754" lon="5.1676391"/>
<trkpt lat="51.9718553" lon="5.1681136"/>
<trkpt lat="51.9718318" lon="5.1687421"/>
<trkpt lat="51.9717965" lon="5.1692382"/>
<trkpt lat="51.9717366" lon="5.1697683"/>
<trkpt lat="51.9716441" lon="5.1701261"/>
<trkpt lat="51.9715344" lon="5.1705148"/>
<trkpt lat="51.9713398" lon="5.1712088"/>
<trkpt lat="51.9711677" lon="5.1717672"/>
<trkpt lat="51.9710884" lon="5.1720971"/>
<trkpt lat="51.9710452" lon="5.1724177"/>
<trkpt lat="51.9710042" lon="5.1728707"/>
<trkpt lat="51.9709612" lon="5.1733145"/>
<trkpt lat="51.9709107" lon="5.1737675"/>
<trkpt lat="51.9708109" lon="5.1743625"/>
<trkpt lat="51.9706822" lon="5.1752791"/>
<trkpt lat="51.9705450" lon="5.1763540"/>
<trkpt lat="51.9704253" lon="5.1771920"/>
<trkpt lat="51.9702632" lon="5.1783478"/>
<trkpt lat="51.9701224" lon="5.1793881"/>
<trkpt lat="51.9700308" lon="5.1800585"/>
<trkpt lat="51.9699532" lon="5.1805728"/>
<trkpt lat="51.9697404" lon="5.1812495"/>
<trkpt lat="51.9695843" lon="5.1817469"/>
<trkpt lat="51.9694281" lon="5.1822039"/>
<trkpt lat="51.9692329" lon="5.1827708"/>
<trkpt lat="51.9693115" lon="5.1828339"/>
<trkpt lat="51.9694584" lon="5.1828788"/>
<trkpt lat="51.9695298" lon="5.1828609"/>
<trkpt lat="51.9695546" lon="5.1828045"/>
<trkpt lat="51.9696198" lon="5.1826408"/>
<trkpt lat="51.9696737" lon="5.1825277"/>
<trkpt lat="51.9697050" lon="5.1824311"/>
<trkpt lat="51.9697429" lon="5.1823770"/>
<trkpt lat="51.9698047" lon="5.1823420"/>
<trkpt lat="51.9698731" lon="5.1823417"/>
<trkpt lat="51.9698764" lon="5.1825150"/>
<trkpt lat="51.9699153" lon="5.1826592"/>
<trkpt lat="51.9699958" lon="5.1828080"/>
<trkpt lat="51.9701000" lon="5.1829375"/>
<trkpt lat="51.9702132" lon="5.1830477"/>
<trkpt lat="51.9703174" lon="5.1831531"/>
<trkpt lat="51.9702049" lon="5.1834087"/>
<trkpt lat="51.9700954" lon="5.1836643"/>
<trkpt lat="51.9700308" lon="5.1838765"/>
<trkpt lat="51.9699986" lon="5.1840441"/>
<trkpt lat="51.9700050" lon="5.1841995"/>
<trkpt lat="51.9700233" lon="5.1843758"/>
<trkpt lat="51.9701179" lon="5.1846412"/>
<trkpt lat="51.9702162" lon="5.1847659"/>
<trkpt lat="51.9703353" lon="5.1848712"/>
<trkpt lat="51.9704246" lon="5.1849382"/>
<trkpt lat="51.9705577" lon="5.1849925"/>
<trkpt lat="51.9707135" lon="5.1850055"/>
<trkpt lat="51.9709806" lon="5.1850031"/>
<trkpt lat="51.9711647" lon="5.1849349"/>
<trkpt lat="51.9712717" lon="5.1849296"/>
<trkpt lat="51.9713727" lon="5.1848858"/>
<trkpt lat="51.9714946" lon="5.1848708"/>
<trkpt lat="51.9715865" lon="5.1847164"/>
<trkpt lat="51.9716456" lon="5.1845188"/>
<trkpt lat="51.9717317" lon="5.1844654"/>
<trkpt lat="51.9718499" lon="5.1844474"/>
<trkpt lat="51.9720395" lon="5.1845130"/>
<trkpt lat="51.9723184" lon="5.1845849"/>
<trkpt lat="51.9725002" lon="5.1846151"/>
<trkpt lat="51.9728617" lon="5.1846866"/>
<trkpt lat="51.9731031" lon="5.1846918"/>
<trkpt lat="51.9733225" lon="5.1846941"/>
<trkpt lat="51.9735455" lon="5.1847075"/>
<trkpt lat="51.9738755" lon="5.1847349"/>
<trkpt lat="51.9742500" lon="5.1847588"/>
<trkpt lat="51.9745831" lon="5.1847943"/>
<trkpt lat="51.9748000" lon="5.1847644"/>
<trkpt lat="51.9749516" lon="5.1847349"/>
<trkpt lat="51.9751315" lon="5.1846330"/>
<trkpt lat="51.9755664" lon="5.1852674"/>
<trkpt lat="51.9759803" lon="5.1859233"/>
<trkpt lat="51.9763138" lon="5.1864921"/>
<trkpt lat="51.9766092" lon="5.1870780"/>
<trkpt lat="51.9769457" lon="5.1876927"/>
<trkpt lat="51.9771608" lon="5.1880864"/>
<trkpt lat="51.9772936" lon="5.1888422"/>
<trkpt lat="51.9775403" lon="5.1892786"/>
<trkpt lat="51.9778028" lon="5.1897877"/>
<trkpt lat="51.9778006" lon="5.1902251"/>
<trkpt lat="51.9780639" lon="5.1907231"/>
<trkpt lat="51.9785249" lon="5.1915914"/>
<trkpt lat="51.9795388" lon="5.1935070"/>
<trkpt lat="51.9797905" lon="5.1939787"/>
<trkpt lat="51.9803585" lon="5.1946963"/>
<trkpt lat="51.9807219" lon="5.1951521"/>
<trkpt lat="51.9808706" lon="5.1951900"/>
<trkpt lat="51.9811053" lon="5.1951167"/>
<trkpt lat="51.9814648" lon="5.1949949"/>
<trkpt lat="51.9822075" lon="5.1947076"/>
<trkpt lat="51.9827779" lon="5.1945078"/>
<trkpt lat="51.9829321" lon="5.1944884"/>
<trkpt lat="51.9835860" lon="5.1942299"/>
<trkpt lat="51.9844803" lon="5.1939276"/>
<trkpt lat="51.9846556" lon="5.1938450"/>
<trkpt lat="51.9851547" lon="5.1936743"/>
<trkpt lat="51.9852853" lon="5.1935871"/>
<trkpt lat="51.9854634" lon="5.1934275"/>
<trkpt lat="51.9858734" lon="5.1932957"/>
<trkpt lat="51.9861557" lon="5.1931885"/>
<trkpt lat="51.9867974" lon="5.1929691"/>
<trkpt lat="51.9873767" lon="5.1927644"/>
<trkpt lat="51.9880274" lon="5.1925353"/>
<trkpt lat="51.9883601" lon="5.1924038"/>
<trkpt lat="51.9891801" lon="5.1921114"/>
<trkpt lat="51.9900921" lon="5.1917944"/>
<trkpt lat="51.9913755" lon="5.1913218"/>
<trkpt lat="51.9919906" lon="5.1911265"/>
<trkpt lat="51.9920571" lon="5.1908969"/>
<trkpt lat="51.9921507" lon="5.1909043"/>
<trkpt lat="51.9923709" lon="5.1910911"/>
<trkpt lat="51.9921965" lon="5.1916119"/>
<trkpt lat="51.9921611" lon="5.1917902"/>
<trkpt lat="51.9921600" lon="5.1920313"/>
<trkpt lat="51.9921302" lon="5.1921240"/>
<trkpt lat="51.9919510" lon="5.1923449"/>
<trkpt lat="51.9919006" lon="5.1924462"/>
<trkpt lat="51.9916758" lon="5.1931502"/>
</trkseg></trk>
</gpx>