<?xml version="1.0" encoding="UTF-8"?>
<gpx version="1.1" creator="klompenpaden.nl via Jimbo API" xmlns="http://www.topografix.com/GPX/1/1">
<metadata><name>Loenense Enkenpad</name><desc>Ontdek het mooie buitengebied van Loenen op de overgang van het Veluwemassief naar de IJsselvallei. Wandelen in glooiend landschap over enken, langs sprengbeken, over historische landgoederen en door een natuurtuin. Klompen aan, rugzak op en gaan!</desc><link href="https://www.klompenpaden.nl/klompenpaden/Loenense_Enkenpad/131296d8-7377-4c26-9bfd-b914b838d1d3"><text>klompenpaden.nl</text></link></metadata>
<wpt lat="52.1250313073951" lon="6.021151542663574"><name>Start Loenen</name></wpt>
<trk><name>Loenense Enkenpad - mainRoute</name><type>mainRoute</type><trkseg>
<trkpt lat="52.1255800" lon="6.0201500"/>
<trkpt lat="52.1261400" lon="6.0206700"/>
<trkpt lat="52.1263100" lon="6.0208600"/>
<trkpt lat="52.1264000" lon="6.0209300"/>
<trkpt lat="52.1264700" lon="6.0210800"/>
<trkpt lat="52.1265600" lon="6.0211100"/>
<trkpt lat="52.1268100" lon="6.0207000"/>
<trkpt lat="52.1292200" lon="6.0237100"/>
<trkpt lat="52.1270200" lon="6.0274200"/>
<trkpt lat="52.1263300" lon="6.0279200"/>
<trkpt lat="52.1268500" lon="6.0281700"/>
<trkpt lat="52.1274000" lon="6.0285700"/>
<trkpt lat="52.1277100" lon="6.0289500"/>
<trkpt lat="52.1279600" lon="6.0293900"/>
<trkpt lat="52.1292600" lon="6.0324200"/>
<trkpt lat="52.1258400" lon="6.0372700"/>
<trkpt lat="52.1247800" lon="6.0358600"/>
<trkpt lat="52.1244700" lon="6.0363500"/>
<trkpt lat="52.1238500" lon="6.0365100"/>
<trkpt lat="52.1224300" lon="6.0363300"/>
<trkpt lat="52.1201900" lon="6.0286200"/>
<trkpt lat="52.1198900" lon="6.0291300"/>
<trkpt lat="52.1190200" lon="6.0298600"/>
<trkpt lat="52.1184400" lon="6.0307100"/>
<trkpt lat="52.1182000" lon="6.0309200"/>
<trkpt lat="52.1173700" lon="6.0310800"/>
<trkpt lat="52.1169200" lon="6.0313200"/>
<trkpt lat="52.1145400" lon="6.0331500"/>
<trkpt lat="52.1141100" lon="6.0334200"/>
<trkpt lat="52.1124900" lon="6.0336600"/>
<trkpt lat="52.1119900" lon="6.0339500"/>
<trkpt lat="52.1097400" lon="6.0340000"/>
<trkpt lat="52.1094600" lon="6.0336900"/>
<trkpt lat="52.1091100" lon="6.0334400"/>
<trkpt lat="52.1090400" lon="6.0337200"/>
<trkpt lat="52.1089100" lon="6.0340900"/>
<trkpt lat="52.1085200" lon="6.0349800"/>
<trkpt lat="52.1084200" lon="6.0348200"/>
<trkpt lat="52.1082800" lon="6.0347200"/>
<trkpt lat="52.1077300" lon="6.0345200"/>
<trkpt lat="52.1075300" lon="6.0344300"/>
<trkpt lat="52.1074200" lon="6.0343400"/>
<trkpt lat="52.1072500" lon="6.0340300"/>
<trkpt lat="52.1071500" lon="6.0335000"/>
<trkpt lat="52.1069400" lon="6.0336300"/>
<trkpt lat="52.1062600" lon="6.0341800"/>
<trkpt lat="52.1061200" lon="6.0341900"/>
<trkpt lat="52.1055400" lon="6.0340100"/>
<trkpt lat="52.1049000" lon="6.0339800"/>
<trkpt lat="52.1043000" lon="6.0338900"/>
<trkpt lat="52.1039600" lon="6.0338300"/>
<trkpt lat="52.1037300" lon="6.0336200"/>
<trkpt lat="52.1035000" lon="6.0331000"/>
<trkpt lat="52.1031000" lon="6.0317400"/>
<trkpt lat="52.1029800" lon="6.0315500"/>
<trkpt lat="52.1028100" lon="6.0306900"/>
<trkpt lat="52.1029600" lon="6.0304800"/>
<trkpt lat="52.1029900" lon="6.0303000"/>
<trkpt lat="52.1029200" lon="6.0295000"/>
<trkpt lat="52.1029500" lon="6.0294500"/>
<trkpt lat="52.1029700" lon="6.0292500"/>
<trkpt lat="52.1030000" lon="6.0276400"/>
<trkpt lat="52.1025000" lon="6.0276400"/>
<trkpt lat="52.1020100" lon="6.0276100"/>
<trkpt lat="52.1016000" lon="6.0275600"/>
<trkpt lat="52.1014100" lon="6.0274200"/>
<trkpt lat="52.1010100" lon="6.0269000"/>
<trkpt lat="52.1007200" lon="6.0264700"/>
<trkpt lat="52.1007100" lon="6.0263900"/>
<trkpt lat="52.1006300" lon="6.0262500"/>
<trkpt lat="52.1003800" lon="6.0258900"/>
<trkpt lat="52.1015600" lon="6.0251200"/>
<trkpt lat="52.1018200" lon="6.0247500"/>
<trkpt lat="52.1021400" lon="6.0244200"/>
<trkpt lat="52.1022900" lon="6.0243000"/>
<trkpt lat="52.1026400" lon="6.0238100"/>
<trkpt lat="52.1028100" lon="6.0232500"/>
<trkpt lat="52.1029700" lon="6.0229300"/>
<trkpt lat="52.1031200" lon="6.0228000"/>
<trkpt lat="52.1040500" lon="6.0227200"/>
<trkpt lat="52.1041300" lon="6.0227000"/>
<trkpt lat="52.1041500" lon="6.0219900"/>
<trkpt lat="52.1042300" lon="6.0210600"/>
<trkpt lat="52.1043500" lon="6.0206700"/>
<trkpt lat="52.1044600" lon="6.0205000"/>
<trkpt lat="52.1047800" lon="6.0201300"/>
<trkpt lat="52.1050900" lon="6.0201100"/>
<trkpt lat="52.1051700" lon="6.0200700"/>
<trkpt lat="52.1052800" lon="6.0199200"/>
<trkpt lat="52.1057600" lon="6.0190200"/>
<trkpt lat="52.1059700" lon="6.0188600"/>
<trkpt lat="52.1062000" lon="6.0187600"/>
<trkpt lat="52.1065800" lon="6.0184400"/>
<trkpt lat="52.1070800" lon="6.0183100"/>
<trkpt lat="52.1074700" lon="6.0181700"/>
<trkpt lat="52.1081500" lon="6.0177000"/>
<trkpt lat="52.1084400" lon="6.0175800"/>
<trkpt lat="52.1091000" lon="6.0174700"/>
<trkpt lat="52.1091700" lon="6.0175200"/>
<trkpt lat="52.1093200" lon="6.0172600"/>
<trkpt lat="52.1094400" lon="6.0171200"/>
<trkpt lat="52.1104100" lon="6.0164600"/>
<trkpt lat="52.1109500" lon="6.0165400"/>
<trkpt lat="52.1111000" lon="6.0164800"/>
<trkpt lat="52.1119000" lon="6.0165000"/>
<trkpt lat="52.1119400" lon="6.0164400"/>
<trkpt lat="52.1125700" lon="6.0163300"/>
<trkpt lat="52.1128000" lon="6.0161400"/>
<trkpt lat="52.1129200" lon="6.0158200"/>
<trkpt lat="52.1129800" lon="6.0144700"/>
<trkpt lat="52.1126800" lon="6.0115000"/>
<trkpt lat="52.1139300" lon="6.0134400"/>
<trkpt lat="52.1143400" lon="6.0141700"/>
<trkpt lat="52.1146500" lon="6.0151900"/>
<trkpt lat="52.1148300" lon="6.0156600"/>
<trkpt lat="52.1151900" lon="6.0162900"/>
<trkpt lat="52.1151300" lon="6.0168700"/>
<trkpt lat="52.1152000" lon="6.0171000"/>
<trkpt lat="52.1156700" lon="6.0173900"/>
<trkpt lat="52.1158300" lon="6.0176300"/>
<trkpt lat="52.1160100" lon="6.0174700"/>
<trkpt lat="52.1161800" lon="6.0172200"/>
<trkpt lat="52.1164000" lon="6.0172900"/>
<trkpt lat="52.1163300" lon="6.0169500"/>
<trkpt lat="52.1162200" lon="6.0158000"/>
<trkpt lat="52.1162100" lon="6.0154000"/>
<trkpt lat="52.1161500" lon="6.0146700"/>
<trkpt lat="52.1159800" lon="6.0132800"/>
<trkpt lat="52.1180700" lon="6.0136400"/>
<trkpt lat="52.1181300" lon="6.0135900"/>
<trkpt lat="52.1182200" lon="6.0134300"/>
<trkpt lat="52.1183200" lon="6.0131300"/>
<trkpt lat="52.1184100" lon="6.0129200"/>
<trkpt lat="52.1184800" lon="6.0127100"/>
<trkpt lat="52.1184500" lon="6.0124800"/>
<trkpt lat="52.1184800" lon="6.0119700"/>
<trkpt lat="52.1183900" lon="6.0117100"/>
<trkpt lat="52.1183700" lon="6.0114900"/>
<trkpt lat="52.1183800" lon="6.0113000"/>
<trkpt lat="52.1184500" lon="6.0110800"/>
<trkpt lat="52.1188200" lon="6.0111200"/>
<trkpt lat="52.1189700" lon="6.0111800"/>
<trkpt lat="52.1189700" lon="6.0129000"/>
<trkpt lat="52.1194600" lon="6.0129500"/>
<trkpt lat="52.1194800" lon="6.0126400"/>
<trkpt lat="52.1201900" lon="6.0127800"/>
<trkpt lat="52.1202600" lon="6.0134400"/>
<trkpt lat="52.1202700" lon="6.0138000"/>
<trkpt lat="52.1202100" lon="6.0149900"/>
<trkpt lat="52.1201000" lon="6.0164900"/>
<trkpt lat="52.1201500" lon="6.0166600"/>
<trkpt lat="52.1202100" lon="6.0166100"/>
<trkpt lat="52.1204900" lon="6.0175400"/>
<trkpt lat="52.1206600" lon="6.0174300"/>
<trkpt lat="52.1208500" lon="6.0174000"/>
<trkpt lat="52.1212500" lon="6.0174000"/>
<trkpt lat="52.1212000" lon="6.0194600"/>
<trkpt lat="52.1213100" lon="6.0197900"/>
<trkpt lat="52.1231100" lon="6.0203000"/>
<trkpt lat="52.1232800" lon="6.0203200"/>
<trkpt lat="52.1235000" lon="6.0200200"/>
<trkpt lat="52.1236700" lon="6.0197200"/>
<trkpt lat="52.1238300" lon="6.0189500"/>
<trkpt lat="52.1239700" lon="6.0182200"/>
<trkpt lat="52.1240500" lon="6.0172900"/>
<trkpt lat="52.1246200" lon="6.0174600"/>
<trkpt lat="52.1246200" lon="6.0171900"/>
<trkpt lat="52.1247400" lon="6.0169100"/>
<trkpt lat="52.1253600" lon="6.0164500"/>
<trkpt lat="52.1255200" lon="6.0161600"/>
<trkpt lat="52.1264600" lon="6.0182400"/>
<trkpt lat="52.1255800" lon="6.0201500"/>
</trkseg></trk>
<trk><name>Loenense Enkenpad - shorteningRoute</name><type>shorteningRoute</type><trkseg>
<trkpt lat="52.1092300" lon="6.0174200"/>
<trkpt lat="52.1091700" lon="6.0179800"/>
<trkpt lat="52.1102300" lon="6.0187700"/>
<trkpt lat="52.1103100" lon="6.0188700"/>
<trkpt lat="52.1103800" lon="6.0191000"/>
<trkpt lat="52.1110700" lon="6.0200500"/>
<trkpt lat="52.1131600" lon="6.0216000"/>
<trkpt lat="52.1132300" lon="6.0217300"/>
<trkpt lat="52.1123900" lon="6.0227900"/>
<trkpt lat="52.1126300" lon="6.0239600"/>
<trkpt lat="52.1126100" lon="6.0241500"/>
<trkpt lat="52.1132100" lon="6.0243400"/>
<trkpt lat="52.1141000" lon="6.0240400"/>
<trkpt lat="52.1147400" lon="6.0237900"/>
<trkpt lat="52.1147400" lon="6.0244300"/>
<trkpt lat="52.1160600" lon="6.0283700"/>
<trkpt lat="52.1160800" lon="6.0285800"/>
<trkpt lat="52.1160300" lon="6.0287600"/>
<trkpt lat="52.1159700" lon="6.0289000"/>
<trkpt lat="52.1159300" lon="6.0289500"/>
<trkpt lat="52.1156900" lon="6.0289000"/>
<trkpt lat="52.1155800" lon="6.0289600"/>
<trkpt lat="52.1154300" lon="6.0291400"/>
<trkpt lat="52.1153200" lon="6.0292100"/>
<trkpt lat="52.1151600" lon="6.0293400"/>
<trkpt lat="52.1151900" lon="6.0294200"/>
<trkpt lat="52.1151600" lon="6.0295600"/>
<trkpt lat="52.1151700" lon="6.0297000"/>
<trkpt lat="52.1152200" lon="6.0298100"/>
<trkpt lat="52.1154700" lon="6.0297200"/>
<trkpt lat="52.1155400" lon="6.0296400"/>
<trkpt lat="52.1156100" lon="6.0296500"/>
<trkpt lat="52.1156500" lon="6.0297900"/>
<trkpt lat="52.1163900" lon="6.0291900"/>
<trkpt lat="52.1165900" lon="6.0290100"/>
<trkpt lat="52.1178600" lon="6.0281000"/>
<trkpt lat="52.1186300" lon="6.0304200"/>
</trkseg></trk>
<trk><name>Loenense Enkenpad - overstaproute</name><type>connectionRoute</type><trkseg>
<trkpt lat="52.1078400" lon="6.0372200"/>
<trkpt lat="52.1081600" lon="6.0366300"/>
<trkpt lat="52.1082700" lon="6.0362800"/>
<trkpt lat="52.1083200" lon="6.0357500"/>
<trkpt lat="52.1084600" lon="6.0352200"/>
<trkpt lat="52.1086100" lon="6.0348000"/>
<trkpt lat="52.1086100" lon="6.0348400"/>
</trkseg></trk>
</gpx>