<?xml version="1.0" encoding="UTF-8"?>
<gpx version="1.1" creator="klompenpaden.nl via Jimbo API" xmlns="http://www.topografix.com/GPX/1/1">
<metadata><name>Loobrinkerpad</name><desc>Ontdek het agrarisch cultuurlandschap en de natuur van Emst. Wandelen over de Emsterenk, langs beken en vijvers over onverharde paden langs weilanden, landbouwgronden en boerenerven. Beleef het natuurgebied Het Vossenbroek in al haar facetten. Klompen aan, rugzak op en gaan!</desc><link href="https://www.klompenpaden.nl/klompenpaden/Loobrinkerpad/fdc409e2-e8f9-4b6b-a704-de2fc82084c0"><text>klompenpaden.nl</text></link></metadata>
<wpt lat="52.31754331779276" lon="5.974112426483603"><name>Start Emst</name></wpt>
<trk><name>Loobrinkerpad - Hoofdroute</name><type>mainRoute</type><trkseg>
<trkpt lat="52.3175433" lon="5.9741125"/>
<trkpt lat="52.3175532" lon="5.9741442"/>
<trkpt lat="52.3175981" lon="5.9743044"/>
<trkpt lat="52.3172982" lon="5.9742792"/>
<trkpt lat="52.3171350" lon="5.9756284"/>
<trkpt lat="52.3174085" lon="5.9757065"/>
<trkpt lat="52.3177796" lon="5.9758391"/>
<trkpt lat="52.3183199" lon="5.9760165"/>
<trkpt lat="52.3181271" lon="5.9767406"/>
<trkpt lat="52.3179457" lon="5.9774918"/>
<trkpt lat="52.3178666" lon="5.9776879"/>
<trkpt lat="52.3175604" lon="5.9778229"/>
<trkpt lat="52.3171262" lon="5.9779679"/>
<trkpt lat="52.3167846" lon="5.9780909"/>
<trkpt lat="52.3165280" lon="5.9782498"/>
<trkpt lat="52.3162351" lon="5.9785705"/>
<trkpt lat="52.3159628" lon="5.9790306"/>
<trkpt lat="52.3145343" lon="5.9790927"/>
<trkpt lat="52.3142216" lon="5.9791118"/>
<trkpt lat="52.3141837" lon="5.9795866"/>
<trkpt lat="52.3138283" lon="5.9796050"/>
<trkpt lat="52.3135298" lon="5.9796126"/>
<trkpt lat="52.3131681" lon="5.9794919"/>
<trkpt lat="52.3129196" lon="5.9794422"/>
<trkpt lat="52.3124510" lon="5.9793780"/>
<trkpt lat="52.3120461" lon="5.9793610"/>
<trkpt lat="52.3116467" lon="5.9796571"/>
<trkpt lat="52.3101403" lon="5.9810976"/>
<trkpt lat="52.3094549" lon="5.9817376"/>
<trkpt lat="52.3096341" lon="5.9828413"/>
<trkpt lat="52.3097943" lon="5.9834810"/>
<trkpt lat="52.3103170" lon="5.9855051"/>
<trkpt lat="52.3106800" lon="5.9867736"/>
<trkpt lat="52.3075428" lon="5.9861285"/>
<trkpt lat="52.3082239" lon="5.9877258"/>
<trkpt lat="52.3086446" lon="5.9888211"/>
<trkpt lat="52.3062156" lon="5.9886259"/>
<trkpt lat="52.3038016" lon="5.9884162"/>
<trkpt lat="52.3038993" lon="5.9897568"/>
<trkpt lat="52.3039414" lon="5.9901135"/>
<trkpt lat="52.3039505" lon="5.9901781"/>
<trkpt lat="52.3039478" lon="5.9902541"/>
<trkpt lat="52.3038050" lon="5.9906362"/>
<trkpt lat="52.3037531" lon="5.9908612"/>
<trkpt lat="52.3037520" lon="5.9910722"/>
<trkpt lat="52.3038242" lon="5.9910658"/>
<trkpt lat="52.3046475" lon="5.9909924"/>
<trkpt lat="52.3046999" lon="5.9909997"/>
<trkpt lat="52.3047199" lon="5.9936597"/>
<trkpt lat="52.3047099" lon="5.9937597"/>
<trkpt lat="52.3046499" lon="5.9938097"/>
<trkpt lat="52.3040699" lon="5.9939097"/>
<trkpt lat="52.3043199" lon="5.9986797"/>
<trkpt lat="52.3043199" lon="5.9989297"/>
<trkpt lat="52.3058362" lon="5.9982003"/>
<trkpt lat="52.3059098" lon="5.9983817"/>
<trkpt lat="52.3060785" lon="6.0000995"/>
<trkpt lat="52.3062139" lon="6.0013880"/>
<trkpt lat="52.3063837" lon="6.0015411"/>
<trkpt lat="52.3069295" lon="6.0017804"/>
<trkpt lat="52.3071917" lon="6.0019116"/>
<trkpt lat="52.3071904" lon="6.0021666"/>
<trkpt lat="52.3072032" lon="6.0024450"/>
<trkpt lat="52.3072726" lon="6.0027589"/>
<trkpt lat="52.3073855" lon="6.0028996"/>
<trkpt lat="52.3077749" lon="6.0031832"/>
<trkpt lat="52.3080363" lon="6.0034650"/>
<trkpt lat="52.3083470" lon="6.0038402"/>
<trkpt lat="52.3085664" lon="6.0040056"/>
<trkpt lat="52.3087438" lon="6.0040428"/>
<trkpt lat="52.3090414" lon="6.0041977"/>
<trkpt lat="52.3094023" lon="6.0044925"/>
<trkpt lat="52.3097026" lon="6.0041257"/>
<trkpt lat="52.3103328" lon="6.0031723"/>
<trkpt lat="52.3110560" lon="6.0021158"/>
<trkpt lat="52.3112551" lon="6.0020722"/>
<trkpt lat="52.3114260" lon="6.0020050"/>
<trkpt lat="52.3114982" lon="6.0017857"/>
<trkpt lat="52.3115083" lon="6.0012062"/>
<trkpt lat="52.3114818" lon="6.0008465"/>
<trkpt lat="52.3117111" lon="6.0004671"/>
<trkpt lat="52.3119885" lon="6.0004129"/>
<trkpt lat="52.3122231" lon="6.0003814"/>
<trkpt lat="52.3122254" lon="5.9999409"/>
<trkpt lat="52.3121989" lon="5.9995811"/>
<trkpt lat="52.3121150" lon="5.9993018"/>
<trkpt lat="52.3120341" lon="5.9984660"/>
<trkpt lat="52.3118903" lon="5.9974206"/>
<trkpt lat="52.3119279" lon="5.9970270"/>
<trkpt lat="52.3120577" lon="5.9966578"/>
<trkpt lat="52.3121086" lon="5.9964266"/>
<trkpt lat="52.3120540" lon="5.9959969"/>
<trkpt lat="52.3122389" lon="5.9959647"/>
<trkpt lat="52.3120896" lon="5.9945831"/>
<trkpt lat="52.3125818" lon="5.9942072"/>
<trkpt lat="52.3131385" lon="5.9937279"/>
<trkpt lat="52.3133108" lon="5.9933941"/>
<trkpt lat="52.3135323" lon="5.9931421"/>
<trkpt lat="52.3138102" lon="5.9929951"/>
<trkpt lat="52.3139668" lon="5.9929393"/>
<trkpt lat="52.3146617" lon="5.9932154"/>
<trkpt lat="52.3146821" lon="5.9933896"/>
<trkpt lat="52.3146524" lon="5.9936327"/>
<trkpt lat="52.3147005" lon="5.9939580"/>
<trkpt lat="52.3148115" lon="5.9944812"/>
<trkpt lat="52.3148590" lon="5.9949108"/>
<trkpt lat="52.3147996" lon="5.9954085"/>
<trkpt lat="52.3147332" lon="5.9958829"/>
<trkpt lat="52.3147027" lon="5.9962999"/>
<trkpt lat="52.3147149" lon="5.9966827"/>
<trkpt lat="52.3147768" lon="5.9970777"/>
<trkpt lat="52.3148051" lon="5.9971129"/>
<trkpt lat="52.3145901" lon="5.9974693"/>
<trkpt lat="52.3146661" lon="5.9978761"/>
<trkpt lat="52.3147643" lon="5.9981325"/>
<trkpt lat="52.3150823" lon="5.9984615"/>
<trkpt lat="52.3156123" lon="5.9990253"/>
<trkpt lat="52.3161423" lon="5.9995892"/>
<trkpt lat="52.3153859" lon="6.0015729"/>
<trkpt lat="52.3152132" lon="6.0019994"/>
<trkpt lat="52.3152736" lon="6.0026843"/>
<trkpt lat="52.3154166" lon="6.0038689"/>
<trkpt lat="52.3154504" lon="6.0041940"/>
<trkpt lat="52.3162318" lon="6.0042396"/>
<trkpt lat="52.3171920" lon="6.0040442"/>
<trkpt lat="52.3175118" lon="6.0040255"/>
<trkpt lat="52.3175976" lon="6.0025774"/>
<trkpt lat="52.3176982" lon="6.0023585"/>
<trkpt lat="52.3178344" lon="6.0021285"/>
<trkpt lat="52.3181769" lon="6.0018434"/>
<trkpt lat="52.3185330" lon="6.0016860"/>
<trkpt lat="52.3187400" lon="6.0015033"/>
<trkpt lat="52.3188199" lon="6.0011682"/>
<trkpt lat="52.3190639" lon="6.0006962"/>
<trkpt lat="52.3194434" lon="6.0001333"/>
<trkpt lat="52.3195937" lon="5.9999266"/>
<trkpt lat="52.3204977" lon="5.9996144"/>
<trkpt lat="52.3206832" lon="5.9994663"/>
<trkpt lat="52.3220576" lon="6.0002389"/>
<trkpt lat="52.3224166" lon="5.9995250"/>
<trkpt lat="52.3231925" lon="5.9978659"/>
<trkpt lat="52.3234154" lon="5.9973703"/>
<trkpt lat="52.3235224" lon="5.9972790"/>
<trkpt lat="52.3237306" lon="5.9968644"/>
<trkpt lat="52.3238860" lon="5.9970405"/>
<trkpt lat="52.3240421" lon="5.9970774"/>
<trkpt lat="52.3242336" lon="5.9971496"/>
<trkpt lat="52.3243260" lon="5.9971509"/>
<trkpt lat="52.3242316" lon="5.9961523"/>
<trkpt lat="52.3245985" lon="5.9952877"/>
<trkpt lat="52.3250953" lon="5.9940073"/>
<trkpt lat="52.3252951" lon="5.9938360"/>
<trkpt lat="52.3255230" lon="5.9937464"/>
<trkpt lat="52.3260843" lon="5.9937425"/>
<trkpt lat="52.3262973" lon="5.9937802"/>
<trkpt lat="52.3263769" lon="5.9934913"/>
<trkpt lat="52.3264001" lon="5.9931206"/>
<trkpt lat="52.3263525" lon="5.9927140"/>
<trkpt lat="52.3261260" lon="5.9925370"/>
<trkpt lat="52.3245238" lon="5.9918426"/>
<trkpt lat="52.3244976" lon="5.9918392"/>
<trkpt lat="52.3244797" lon="5.9920841"/>
<trkpt lat="52.3244567" lon="5.9921817"/>
<trkpt lat="52.3244471" lon="5.9922505"/>
<trkpt lat="52.3244315" lon="5.9922933"/>
<trkpt lat="52.3244141" lon="5.9923134"/>
<trkpt lat="52.3243359" lon="5.9922890"/>
<trkpt lat="52.3243049" lon="5.9922922"/>
<trkpt lat="52.3241153" lon="5.9924445"/>
<trkpt lat="52.3240509" lon="5.9923191"/>
<trkpt lat="52.3240316" lon="5.9921967"/>
<trkpt lat="52.3239957" lon="5.9920880"/>
<trkpt lat="52.3239398" lon="5.9920342"/>
<trkpt lat="52.3238983" lon="5.9920242"/>
<trkpt lat="52.3238840" lon="5.9920432"/>
<trkpt lat="52.3238300" lon="5.9921069"/>
<trkpt lat="52.3237700" lon="5.9921032"/>
<trkpt lat="52.3237454" lon="5.9920727"/>
<trkpt lat="52.3237239" lon="5.9920494"/>
<trkpt lat="52.3237027" lon="5.9920093"/>
<trkpt lat="52.3236864" lon="5.9919881"/>
<trkpt lat="52.3236601" lon="5.9919866"/>
<trkpt lat="52.3236355" lon="5.9919931"/>
<trkpt lat="52.3236194" lon="5.9919921"/>
<trkpt lat="52.3235908" lon="5.9919897"/>
<trkpt lat="52.3235110" lon="5.9918540"/>
<trkpt lat="52.3234964" lon="5.9917296"/>
<trkpt lat="52.3234408" lon="5.9917214"/>
<trkpt lat="52.3234059" lon="5.9917120"/>
<trkpt lat="52.3233706" lon="5.9917371"/>
<trkpt lat="52.3233287" lon="5.9917488"/>
<trkpt lat="52.3232946" lon="5.9917322"/>
<trkpt lat="52.3215995" lon="5.9915682"/>
<trkpt lat="52.3216085" lon="5.9908520"/>
<trkpt lat="52.3215328" lon="5.9903872"/>
<trkpt lat="52.3210678" lon="5.9903168"/>
<trkpt lat="52.3200789" lon="5.9901201"/>
<trkpt lat="52.3203190" lon="5.9892420"/>
<trkpt lat="52.3204075" lon="5.9882090"/>
<trkpt lat="52.3196897" lon="5.9881359"/>
<trkpt lat="52.3191714" lon="5.9880593"/>
<trkpt lat="52.3179575" lon="5.9878574"/>
<trkpt lat="52.3175453" lon="5.9878634"/>
<trkpt lat="52.3175847" lon="5.9871103"/>
<trkpt lat="52.3175608" lon="5.9862172"/>
<trkpt lat="52.3175506" lon="5.9854171"/>
<trkpt lat="52.3174760" lon="5.9847088"/>
<trkpt lat="52.3173937" lon="5.9841396"/>
<trkpt lat="52.3173682" lon="5.9835479"/>
<trkpt lat="52.3173719" lon="5.9828176"/>
<trkpt lat="52.3174408" lon="5.9818330"/>
<trkpt lat="52.3175170" lon="5.9808021"/>
<trkpt lat="52.3176733" lon="5.9793897"/>
<trkpt lat="52.3178735" lon="5.9777227"/>
<trkpt lat="52.3179674" lon="5.9774109"/>
<trkpt lat="52.3180545" lon="5.9770527"/>
<trkpt lat="52.3181273" lon="5.9767058"/>
<trkpt lat="52.3182645" lon="5.9762554"/>
<trkpt lat="52.3183134" lon="5.9760164"/>
<trkpt lat="52.3180659" lon="5.9759493"/>
<trkpt lat="52.3175192" lon="5.9757505"/>
<trkpt lat="52.3171154" lon="5.9756387"/>
<trkpt lat="52.3171562" lon="5.9752988"/>
<trkpt lat="52.3172033" lon="5.9750121"/>
<trkpt lat="52.3172642" lon="5.9745767"/>
<trkpt lat="52.3172917" lon="5.9742791"/>
<trkpt lat="52.3176064" lon="5.9742988"/>
<trkpt lat="52.3175433" lon="5.9741125"/>
</trkseg></trk>
<trk><name>Loobrinkerpad - routeverkorter</name><type>shorteningRoute</type><trkseg>
<trkpt lat="52.3146800" lon="5.9932600"/>
<trkpt lat="52.3148400" lon="5.9929800"/>
<trkpt lat="52.3150000" lon="5.9927600"/>
<trkpt lat="52.3151600" lon="5.9924800"/>
<trkpt lat="52.3152700" lon="5.9921300"/>
<trkpt lat="52.3152800" lon="5.9915400"/>
<trkpt lat="52.3154400" lon="5.9909500"/>
<trkpt lat="52.3161400" lon="5.9888700"/>
<trkpt lat="52.3162100" lon="5.9885000"/>
<trkpt lat="52.3162500" lon="5.9880600"/>
<trkpt lat="52.3162500" lon="5.9877100"/>
<trkpt lat="52.3175500" lon="5.9878500"/>
</trkseg></trk>
<trk><name>Loobrinkerpad - overstaproute</name><type>connectionRoute</type><trkseg>
<trkpt lat="52.3338100" lon="6.0281900"/>
<trkpt lat="52.3333400" lon="6.0274100"/>
<trkpt lat="52.3332500" lon="6.0274000"/>
<trkpt lat="52.3329700" lon="6.0270400"/>
<trkpt lat="52.3324000" lon="6.0264400"/>
<trkpt lat="52.3316900" lon="6.0257800"/>
<trkpt lat="52.3313600" lon="6.0255200"/>
<trkpt lat="52.3312800" lon="6.0253800"/>
<trkpt lat="52.3313000" lon="6.0252300"/>
<trkpt lat="52.3315400" lon="6.0246600"/>
<trkpt lat="52.3318200" lon="6.0237600"/>
<trkpt lat="52.3324400" lon="6.0219800"/>
<trkpt lat="52.3325600" lon="6.0215500"/>
<trkpt lat="52.3326000" lon="6.0213100"/>
<trkpt lat="52.3327500" lon="6.0165700"/>
<trkpt lat="52.3328500" lon="6.0151700"/>
<trkpt lat="52.3328600" lon="6.0148000"/>
<trkpt lat="52.3327500" lon="6.0142900"/>
<trkpt lat="52.3325400" lon="6.0140500"/>
<trkpt lat="52.3316100" lon="6.0136400"/>
<trkpt lat="52.3315800" lon="6.0138700"/>
<trkpt lat="52.3315200" lon="6.0139800"/>
<trkpt lat="52.3314300" lon="6.0140600"/>
<trkpt lat="52.3313300" lon="6.0139900"/>
<trkpt lat="52.3311100" lon="6.0137000"/>
<trkpt lat="52.3306500" lon="6.0133200"/>
<trkpt lat="52.3302700" lon="6.0129000"/>
<trkpt lat="52.3299600" lon="6.0123900"/>
<trkpt lat="52.3298000" lon="6.0120000"/>
<trkpt lat="52.3296500" lon="6.0115800"/>
<trkpt lat="52.3294500" lon="6.0108300"/>
<trkpt lat="52.3291700" lon="6.0089600"/>
<trkpt lat="52.3291500" lon="6.0080500"/>
<trkpt lat="52.3292400" lon="6.0079800"/>
<trkpt lat="52.3293400" lon="6.0080200"/>
<trkpt lat="52.3293900" lon="6.0082500"/>
<trkpt lat="52.3294100" lon="6.0085600"/>
<trkpt lat="52.3294800" lon="6.0088000"/>
<trkpt lat="52.3297500" lon="6.0087200"/>
<trkpt lat="52.3298200" lon="6.0084100"/>
<trkpt lat="52.3300100" lon="6.0070500"/>
<trkpt lat="52.3298800" lon="6.0070200"/>
<trkpt lat="52.3297900" lon="6.0069800"/>
<trkpt lat="52.3297200" lon="6.0070700"/>
<trkpt lat="52.3295600" lon="6.0071100"/>
<trkpt lat="52.3292000" lon="6.0071100"/>
<trkpt lat="52.3290700" lon="6.0070400"/>
<trkpt lat="52.3289900" lon="6.0068900"/>
<trkpt lat="52.3289000" lon="6.0063500"/>
<trkpt lat="52.3287500" lon="6.0051100"/>
<trkpt lat="52.3286200" lon="6.0038700"/>
<trkpt lat="52.3285100" lon="6.0037300"/>
<trkpt lat="52.3283700" lon="6.0037000"/>
<trkpt lat="52.3281500" lon="6.0033000"/>
<trkpt lat="52.3280700" lon="6.0032900"/>
<trkpt lat="52.3275600" lon="6.0034300"/>
<trkpt lat="52.3273900" lon="6.0035000"/>
<trkpt lat="52.3273400" lon="6.0033900"/>
<trkpt lat="52.3269400" lon="6.0021000"/>
<trkpt lat="52.3268700" lon="6.0018000"/>
<trkpt lat="52.3267900" lon="6.0008500"/>
<trkpt lat="52.3267100" lon="5.9981600"/>
<trkpt lat="52.3264500" lon="5.9956600"/>
<trkpt lat="52.3262900" lon="5.9938200"/>
</trkseg></trk>
<trk><name>Loobrinkerpad - overstaproute</name><type>connectionRoute</type><trkseg>
<trkpt lat="52.3299228" lon="5.9980716"/>
<trkpt lat="52.3295385" lon="5.9978800"/>
<trkpt lat="52.3292829" lon="5.9976436"/>
<trkpt lat="52.3289367" lon="5.9986555"/>
<trkpt lat="52.3281293" lon="6.0032994"/>
<trkpt lat="52.3273677" lon="6.0035215"/>
<trkpt lat="52.3268712" lon="6.0018813"/>
<trkpt lat="52.3268032" lon="6.0010307"/>
<trkpt lat="52.3267502" lon="5.9986915"/>
<trkpt lat="52.3262973" lon="5.9937802"/>
</trkseg></trk>
</gpx>