<?xml version="1.0" encoding="UTF-8"?>
<gpx version="1.1" creator="klompenpaden.nl via Jimbo API" xmlns="http://www.topografix.com/GPX/1/1">
<metadata><name>Markluiderpad</name><desc>Wandelen langs weteringen en IJsselhoeven over nieuwe dijken en door natuurontwikkeling in het prachtige buitengebied van Markluiden. Klompen aan, rugzak op en gaan!</desc><link href="https://www.klompenpaden.nl/klompenpaden/Markluiderpad/041b76de-7d00-4567-a6ff-efcdbecef2dd"><text>klompenpaden.nl</text></link></metadata>
<wpt lat="52.36520019758977" lon="6.069211363792419"><name>Start Veessen</name></wpt>
<trk><name>Markluiderpad - Markluiderpad kort ivm werkzaamheden</name><type>mainRoute</type><trkseg>
<trkpt lat="52.3652096" lon="6.0692022"/>
<trkpt lat="52.3652466" lon="6.0689794"/>
<trkpt lat="52.3658108" lon="6.0690657"/>
<trkpt lat="52.3655884" lon="6.0705191"/>
<trkpt lat="52.3656169" lon="6.0707332"/>
<trkpt lat="52.3656755" lon="6.0708797"/>
<trkpt lat="52.3657161" lon="6.0710649"/>
<trkpt lat="52.3657273" lon="6.0711816"/>
<trkpt lat="52.3658451" lon="6.0713777"/>
<trkpt lat="52.3659272" lon="6.0715732"/>
<trkpt lat="52.3659375" lon="6.0718453"/>
<trkpt lat="52.3658407" lon="6.0721254"/>
<trkpt lat="52.3657439" lon="6.0724250"/>
<trkpt lat="52.3657239" lon="6.0727937"/>
<trkpt lat="52.3655976" lon="6.0730540"/>
<trkpt lat="52.3660542" lon="6.0732553"/>
<trkpt lat="52.3666603" lon="6.0732938"/>
<trkpt lat="52.3669276" lon="6.0733465"/>
<trkpt lat="52.3672299" lon="6.0734968"/>
<trkpt lat="52.3673149" lon="6.0731874"/>
<trkpt lat="52.3675648" lon="6.0731524"/>
<trkpt lat="52.3677207" lon="6.0729217"/>
<trkpt lat="52.3678144" lon="6.0725537"/>
<trkpt lat="52.3678434" lon="6.0722632"/>
<trkpt lat="52.3687595" lon="6.0691180"/>
<trkpt lat="52.3691485" lon="6.0676116"/>
<trkpt lat="52.3686801" lon="6.0673810"/>
<trkpt lat="52.3693874" lon="6.0632640"/>
<trkpt lat="52.3699235" lon="6.0630780"/>
<trkpt lat="52.3713522" lon="6.0627501"/>
<trkpt lat="52.3718400" lon="6.0626992"/>
<trkpt lat="52.3719465" lon="6.0627883"/>
<trkpt lat="52.3717400" lon="6.0645918"/>
<trkpt lat="52.3719243" lon="6.0646043"/>
<trkpt lat="52.3721067" lon="6.0628393"/>
<trkpt lat="52.3729646" lon="6.0635711"/>
<trkpt lat="52.3734310" lon="6.0638568"/>
<trkpt lat="52.3735393" lon="6.0629594"/>
<trkpt lat="52.3736277" lon="6.0624475"/>
<trkpt lat="52.3737323" lon="6.0624426"/>
<trkpt lat="52.3737682" lon="6.0621884"/>
<trkpt lat="52.3739543" lon="6.0610230"/>
<trkpt lat="52.3741603" lon="6.0598394"/>
<trkpt lat="52.3743130" lon="6.0590207"/>
<trkpt lat="52.3745328" lon="6.0579006"/>
<trkpt lat="52.3747476" lon="6.0568249"/>
<trkpt lat="52.3749656" lon="6.0555891"/>
<trkpt lat="52.3750551" lon="6.0551394"/>
<trkpt lat="52.3751544" lon="6.0546283"/>
<trkpt lat="52.3752895" lon="6.0539150"/>
<trkpt lat="52.3754340" lon="6.0531468"/>
<trkpt lat="52.3755741" lon="6.0524175"/>
<trkpt lat="52.3756475" lon="6.0520716"/>
<trkpt lat="52.3757217" lon="6.0518552"/>
<trkpt lat="52.3756623" lon="6.0517989"/>
<trkpt lat="52.3757662" lon="6.0515637"/>
<trkpt lat="52.3753270" lon="6.0514260"/>
<trkpt lat="52.3747335" lon="6.0512520"/>
<trkpt lat="52.3749561" lon="6.0502451"/>
<trkpt lat="52.3753102" lon="6.0485990"/>
<trkpt lat="52.3759058" lon="6.0457374"/>
<trkpt lat="52.3750028" lon="6.0456171"/>
<trkpt lat="52.3733571" lon="6.0454178"/>
<trkpt lat="52.3732288" lon="6.0454985"/>
<trkpt lat="52.3731027" lon="6.0473227"/>
<trkpt lat="52.3728364" lon="6.0508253"/>
<trkpt lat="52.3720285" lon="6.0507161"/>
<trkpt lat="52.3715596" lon="6.0505828"/>
<trkpt lat="52.3709966" lon="6.0502587"/>
<trkpt lat="52.3703104" lon="6.0496414"/>
<trkpt lat="52.3701858" lon="6.0501397"/>
<trkpt lat="52.3697395" lon="6.0528526"/>
<trkpt lat="52.3692904" lon="6.0555411"/>
<trkpt lat="52.3691571" lon="6.0565006"/>
<trkpt lat="52.3680042" lon="6.0559102"/>
<trkpt lat="52.3674944" lon="6.0556403"/>
<trkpt lat="52.3659582" lon="6.0550101"/>
<trkpt lat="52.3645878" lon="6.0544845"/>
<trkpt lat="52.3644400" lon="6.0543414"/>
<trkpt lat="52.3643314" lon="6.0541019"/>
<trkpt lat="52.3642450" lon="6.0541394"/>
<trkpt lat="52.3641848" lon="6.0542599"/>
<trkpt lat="52.3640973" lon="6.0545014"/>
<trkpt lat="52.3638897" lon="6.0559841"/>
<trkpt lat="52.3640416" lon="6.0569964"/>
<trkpt lat="52.3642174" lon="6.0574360"/>
<trkpt lat="52.3644288" lon="6.0594738"/>
<trkpt lat="52.3644781" lon="6.0612663"/>
<trkpt lat="52.3641806" lon="6.0628593"/>
<trkpt lat="52.3638581" lon="6.0646753"/>
<trkpt lat="52.3639410" lon="6.0652592"/>
<trkpt lat="52.3634378" lon="6.0654069"/>
<trkpt lat="52.3628879" lon="6.0653937"/>
<trkpt lat="52.3623030" lon="6.0652827"/>
<trkpt lat="52.3615398" lon="6.0651473"/>
<trkpt lat="52.3615154" lon="6.0652489"/>
<trkpt lat="52.3616643" lon="6.0683101"/>
<trkpt lat="52.3616743" lon="6.0685290"/>
<trkpt lat="52.3623156" lon="6.0686554"/>
<trkpt lat="52.3636225" lon="6.0688309"/>
<trkpt lat="52.3650959" lon="6.0690089"/>
<trkpt lat="52.3652084" lon="6.0691997"/>
</trkseg></trk>
<trk><name>Markluiderpad - alternativeRoute</name><type>alternativeRoute</type><trkseg>
<trkpt lat="52.3734500" lon="6.0636200"/>
<trkpt lat="52.3730800" lon="6.0657100"/>
<trkpt lat="52.3730200" lon="6.0657800"/>
<trkpt lat="52.3727700" lon="6.0657900"/>
<trkpt lat="52.3726400" lon="6.0657000"/>
<trkpt lat="52.3708700" lon="6.0655800"/>
<trkpt lat="52.3706000" lon="6.0656300"/>
<trkpt lat="52.3704000" lon="6.0657000"/>
<trkpt lat="52.3700300" lon="6.0659200"/>
<trkpt lat="52.3697700" lon="6.0661900"/>
<trkpt lat="52.3695300" lon="6.0665200"/>
<trkpt lat="52.3693500" lon="6.0669500"/>
<trkpt lat="52.3691400" lon="6.0676300"/>
</trkseg></trk>
<trk><name>Markluiderpad - overstaproute</name><type>connectionRoute</type><trkseg>
<trkpt lat="52.3669900" lon="6.0733800"/>
<trkpt lat="52.3669700" lon="6.0735600"/>
<trkpt lat="52.3670400" lon="6.0736800"/>
<trkpt lat="52.3689700" lon="6.0746400"/>
<trkpt lat="52.3698000" lon="6.0748900"/>
<trkpt lat="52.3714500" lon="6.0753300"/>
<trkpt lat="52.3718100" lon="6.0755100"/>
<trkpt lat="52.3722700" lon="6.0759000"/>
<trkpt lat="52.3732100" lon="6.0770200"/>
<trkpt lat="52.3734900" lon="6.0775300"/>
<trkpt lat="52.3738300" lon="6.0784400"/>
<trkpt lat="52.3740700" lon="6.0791700"/>
<trkpt lat="52.3741900" lon="6.0791600"/>
<trkpt lat="52.3743000" lon="6.0797900"/>
<trkpt lat="52.3744800" lon="6.0804400"/>
<trkpt lat="52.3750700" lon="6.0812300"/>
<trkpt lat="52.3751700" lon="6.0815600"/>
<trkpt lat="52.3752000" lon="6.0818900"/>
<trkpt lat="52.3751800" lon="6.0823100"/>
<trkpt lat="52.3750800" lon="6.0833600"/>
<trkpt lat="52.3750900" lon="6.0837600"/>
<trkpt lat="52.3751400" lon="6.0840200"/>
<trkpt lat="52.3755400" lon="6.0848300"/>
<trkpt lat="52.3755900" lon="6.0852700"/>
<trkpt lat="52.3755600" lon="6.0859100"/>
<trkpt lat="52.3753900" lon="6.0871400"/>
<trkpt lat="52.3750800" lon="6.0887800"/>
<trkpt lat="52.3751100" lon="6.0891800"/>
<trkpt lat="52.3752200" lon="6.0895500"/>
<trkpt lat="52.3754000" lon="6.0902300"/>
<trkpt lat="52.3755600" lon="6.0909900"/>
<trkpt lat="52.3758300" lon="6.0929300"/>
</trkseg></trk>
<trk><name>Markluiderpad - overstaproute</name><type>connectionRoute</type><trkseg>
<trkpt lat="52.3616700" lon="6.0685400"/>
<trkpt lat="52.3616000" lon="6.0687500"/>
<trkpt lat="52.3600500" lon="6.0693200"/>
<trkpt lat="52.3597900" lon="6.0693200"/>
<trkpt lat="52.3597300" lon="6.0691000"/>
<trkpt lat="52.3595100" lon="6.0691900"/>
<trkpt lat="52.3594800" lon="6.0689600"/>
<trkpt lat="52.3575700" lon="6.0699000"/>
<trkpt lat="52.3567400" lon="6.0703400"/>
<trkpt lat="52.3549900" lon="6.0710700"/>
<trkpt lat="52.3541900" lon="6.0713000"/>
<trkpt lat="52.3524800" lon="6.0717400"/>
<trkpt lat="52.3515500" lon="6.0720000"/>
<trkpt lat="52.3515400" lon="6.0697000"/>
<trkpt lat="52.3516200" lon="6.0686200"/>
</trkseg></trk>
<trk><name>Markluiderpad - overstaproute</name><type>connectionRoute</type><trkseg>
<trkpt lat="52.3732200" lon="6.0454900"/>
<trkpt lat="52.3724700" lon="6.0455400"/>
<trkpt lat="52.3706200" lon="6.0447800"/>
<trkpt lat="52.3714200" lon="6.0440300"/>
<trkpt lat="52.3716200" lon="6.0436200"/>
<trkpt lat="52.3720600" lon="6.0417800"/>
<trkpt lat="52.3721700" lon="6.0410600"/>
<trkpt lat="52.3723000" lon="6.0404400"/>
<trkpt lat="52.3727800" lon="6.0389500"/>
<trkpt lat="52.3730600" lon="6.0383300"/>
</trkseg></trk>
<trk><name>Markluiderpad - Geimporteerde shapefile</name><type>connectionRoute</type><trkseg>
<trkpt lat="52.3849861" lon="6.0611847"/>
<trkpt lat="52.3853568" lon="6.0600859"/>
<trkpt lat="52.3856793" lon="6.0585673"/>
<trkpt lat="52.3860372" lon="6.0575311"/>
<trkpt lat="52.3864258" lon="6.0560912"/>
<trkpt lat="52.3868986" lon="6.0549013"/>
<trkpt lat="52.3877726" lon="6.0534065"/>
<trkpt lat="52.3880059" lon="6.0525238"/>
<trkpt lat="52.3882948" lon="6.0518907"/>
<trkpt lat="52.3880967" lon="6.0515924"/>
<trkpt lat="52.3882259" lon="6.0513331"/>
</trkseg></trk>
<trk><name>Markluiderpad - Geimporteerde shapefile</name><type>connectionRoute</type><trkseg>
<trkpt lat="52.3860462" lon="6.0490940"/>
<trkpt lat="52.3861190" lon="6.0489976"/>
<trkpt lat="52.3861885" lon="6.0488972"/>
<trkpt lat="52.3863621" lon="6.0489021"/>
<trkpt lat="52.3867477" lon="6.0488320"/>
<trkpt lat="52.3867963" lon="6.0490718"/>
<trkpt lat="52.3872330" lon="6.0495141"/>
<trkpt lat="52.3873528" lon="6.0496472"/>
<trkpt lat="52.3873570" lon="6.0497221"/>
<trkpt lat="52.3874222" lon="6.0498229"/>
<trkpt lat="52.3874728" lon="6.0500040"/>
<trkpt lat="52.3875095" lon="6.0501657"/>
<trkpt lat="52.3875583" lon="6.0502662"/>
<trkpt lat="52.3876425" lon="6.0503097"/>
<trkpt lat="52.3877196" lon="6.0503799"/>
<trkpt lat="52.3877615" lon="6.0504496"/>
<trkpt lat="52.3878457" lon="6.0505123"/>
<trkpt lat="52.3879251" lon="6.0505864"/>
<trkpt lat="52.3880116" lon="6.0506453"/>
<trkpt lat="52.3880815" lon="6.0507423"/>
<trkpt lat="52.3881398" lon="6.0508237"/>
<trkpt lat="52.3881842" lon="6.0508628"/>
<trkpt lat="52.3882189" lon="6.0509477"/>
<trkpt lat="52.3882232" lon="6.0510207"/>
<trkpt lat="52.3881901" lon="6.0510701"/>
<trkpt lat="52.3881731" lon="6.0511696"/>
<trkpt lat="52.3884574" lon="6.0510361"/>
<trkpt lat="52.3900610" lon="6.0504420"/>
<trkpt lat="52.3904606" lon="6.0519876"/>
<trkpt lat="52.3919398" lon="6.0521206"/>
<trkpt lat="52.3919760" lon="6.0542913"/>
<trkpt lat="52.3911997" lon="6.0552356"/>
<trkpt lat="52.3910089" lon="6.0554484"/>
</trkseg></trk>
</gpx>