<?xml version="1.0" encoding="UTF-8"?>
<gpx version="1.1" creator="klompenpaden.nl via Jimbo API" xmlns="http://www.topografix.com/GPX/1/1">
<metadata><name>Marspad</name><desc>Ontdek het mooie buitengebied van Kesteren. Wandelen langs oeverwallen, oude stroombeddingen en dijken in het prachtige buitengebied van de gemeenten Neder-Betuwe, Buren en Rhenen. Klompen aan, rugzak op en gaan!</desc><link href="https://www.klompenpaden.nl/klompenpaden/Marspad/9d55931d-08fc-4130-a633-111b86228298"><text>klompenpaden.nl</text></link></metadata>
<wpt lat="51.93599717710667" lon="5.573093891143799"><name>Start Kesteren</name></wpt>
<trk><name>Marspad - mainRoute</name><type>mainRoute</type><trkseg>
<trkpt lat="51.9352800" lon="5.5695600"/>
<trkpt lat="51.9360300" lon="5.5693900"/>
<trkpt lat="51.9365200" lon="5.5692500"/>
<trkpt lat="51.9371500" lon="5.5689900"/>
<trkpt lat="51.9371800" lon="5.5691200"/>
<trkpt lat="51.9373000" lon="5.5692800"/>
<trkpt lat="51.9374300" lon="5.5692100"/>
<trkpt lat="51.9374800" lon="5.5690000"/>
<trkpt lat="51.9374500" lon="5.5688300"/>
<trkpt lat="51.9377000" lon="5.5687500"/>
<trkpt lat="51.9378900" lon="5.5688100"/>
<trkpt lat="51.9382100" lon="5.5688800"/>
<trkpt lat="51.9385200" lon="5.5686300"/>
<trkpt lat="51.9391400" lon="5.5679900"/>
<trkpt lat="51.9398200" lon="5.5674000"/>
<trkpt lat="51.9401800" lon="5.5672800"/>
<trkpt lat="51.9407700" lon="5.5673500"/>
<trkpt lat="51.9410100" lon="5.5673300"/>
<trkpt lat="51.9410700" lon="5.5672200"/>
<trkpt lat="51.9412300" lon="5.5673200"/>
<trkpt lat="51.9413600" lon="5.5675400"/>
<trkpt lat="51.9417200" lon="5.5680700"/>
<trkpt lat="51.9429600" lon="5.5701200"/>
<trkpt lat="51.9434800" lon="5.5710800"/>
<trkpt lat="51.9435600" lon="5.5713500"/>
<trkpt lat="51.9437100" lon="5.5719500"/>
<trkpt lat="51.9440200" lon="5.5724600"/>
<trkpt lat="51.9444000" lon="5.5727800"/>
<trkpt lat="51.9446800" lon="5.5729900"/>
<trkpt lat="51.9448200" lon="5.5732200"/>
<trkpt lat="51.9449400" lon="5.5736000"/>
<trkpt lat="51.9449500" lon="5.5739500"/>
<trkpt lat="51.9449300" lon="5.5743400"/>
<trkpt lat="51.9449500" lon="5.5749600"/>
<trkpt lat="51.9450500" lon="5.5761000"/>
<trkpt lat="51.9451600" lon="5.5767500"/>
<trkpt lat="51.9453400" lon="5.5774300"/>
<trkpt lat="51.9455000" lon="5.5779500"/>
<trkpt lat="51.9455200" lon="5.5787200"/>
<trkpt lat="51.9456100" lon="5.5793800"/>
<trkpt lat="51.9459000" lon="5.5801700"/>
<trkpt lat="51.9463800" lon="5.5812600"/>
<trkpt lat="51.9472300" lon="5.5834700"/>
<trkpt lat="51.9473600" lon="5.5839700"/>
<trkpt lat="51.9478700" lon="5.5873500"/>
<trkpt lat="51.9479100" lon="5.5878300"/>
<trkpt lat="51.9478600" lon="5.5882000"/>
<trkpt lat="51.9477500" lon="5.5884400"/>
<trkpt lat="51.9476300" lon="5.5886400"/>
<trkpt lat="51.9475500" lon="5.5892600"/>
<trkpt lat="51.9475100" lon="5.5902500"/>
<trkpt lat="51.9473800" lon="5.5911100"/>
<trkpt lat="51.9473000" lon="5.5917800"/>
<trkpt lat="51.9472900" lon="5.5922800"/>
<trkpt lat="51.9471900" lon="5.5927000"/>
<trkpt lat="51.9476300" lon="5.5930000"/>
<trkpt lat="51.9478700" lon="5.5926600"/>
<trkpt lat="51.9480500" lon="5.5923100"/>
<trkpt lat="51.9482100" lon="5.5918500"/>
<trkpt lat="51.9490300" lon="5.5891200"/>
<trkpt lat="51.9491400" lon="5.5884800"/>
<trkpt lat="51.9497900" lon="5.5852100"/>
<trkpt lat="51.9506200" lon="5.5807100"/>
<trkpt lat="51.9507700" lon="5.5803600"/>
<trkpt lat="51.9509000" lon="5.5801100"/>
<trkpt lat="51.9510000" lon="5.5797800"/>
<trkpt lat="51.9511900" lon="5.5779700"/>
<trkpt lat="51.9512200" lon="5.5771300"/>
<trkpt lat="51.9514000" lon="5.5760000"/>
<trkpt lat="51.9514300" lon="5.5755400"/>
<trkpt lat="51.9512400" lon="5.5753200"/>
<trkpt lat="51.9506700" lon="5.5751300"/>
<trkpt lat="51.9504200" lon="5.5750600"/>
<trkpt lat="51.9503100" lon="5.5751700"/>
<trkpt lat="51.9502300" lon="5.5751600"/>
<trkpt lat="51.9502100" lon="5.5750400"/>
<trkpt lat="51.9501200" lon="5.5749800"/>
<trkpt lat="51.9499900" lon="5.5749800"/>
<trkpt lat="51.9498400" lon="5.5750500"/>
<trkpt lat="51.9496700" lon="5.5751800"/>
<trkpt lat="51.9496600" lon="5.5753300"/>
<trkpt lat="51.9496000" lon="5.5756700"/>
<trkpt lat="51.9494200" lon="5.5757800"/>
<trkpt lat="51.9492400" lon="5.5757800"/>
<trkpt lat="51.9487700" lon="5.5756300"/>
<trkpt lat="51.9485600" lon="5.5754700"/>
<trkpt lat="51.9492200" lon="5.5755500"/>
<trkpt lat="51.9517600" lon="5.5763200"/>
<trkpt lat="51.9538800" lon="5.5768400"/>
<trkpt lat="51.9552300" lon="5.5773400"/>
<trkpt lat="51.9554700" lon="5.5774600"/>
<trkpt lat="51.9554400" lon="5.5776900"/>
<trkpt lat="51.9542700" lon="5.5773900"/>
<trkpt lat="51.9541800" lon="5.5772800"/>
<trkpt lat="51.9541700" lon="5.5770800"/>
<trkpt lat="51.9542400" lon="5.5766300"/>
<trkpt lat="51.9544400" lon="5.5748500"/>
<trkpt lat="51.9544600" lon="5.5745100"/>
<trkpt lat="51.9542800" lon="5.5718700"/>
<trkpt lat="51.9543500" lon="5.5703000"/>
<trkpt lat="51.9558800" lon="5.5709300"/>
<trkpt lat="51.9560000" lon="5.5703300"/>
<trkpt lat="51.9560600" lon="5.5698200"/>
<trkpt lat="51.9560600" lon="5.5694100"/>
<trkpt lat="51.9560400" lon="5.5689600"/>
<trkpt lat="51.9559400" lon="5.5687000"/>
<trkpt lat="51.9556500" lon="5.5684000"/>
<trkpt lat="51.9554800" lon="5.5680300"/>
<trkpt lat="51.9553700" lon="5.5676100"/>
<trkpt lat="51.9554500" lon="5.5666800"/>
<trkpt lat="51.9556500" lon="5.5651300"/>
<trkpt lat="51.9558700" lon="5.5642100"/>
<trkpt lat="51.9560600" lon="5.5639500"/>
<trkpt lat="51.9563900" lon="5.5635900"/>
<trkpt lat="51.9565800" lon="5.5634200"/>
<trkpt lat="51.9567700" lon="5.5630700"/>
<trkpt lat="51.9568900" lon="5.5628800"/>
<trkpt lat="51.9572100" lon="5.5625300"/>
<trkpt lat="51.9573900" lon="5.5624000"/>
<trkpt lat="51.9568300" lon="5.5621200"/>
<trkpt lat="51.9559300" lon="5.5617700"/>
<trkpt lat="51.9555500" lon="5.5615800"/>
<trkpt lat="51.9552700" lon="5.5612400"/>
<trkpt lat="51.9538800" lon="5.5607100"/>
<trkpt lat="51.9535000" lon="5.5606400"/>
<trkpt lat="51.9530300" lon="5.5604700"/>
<trkpt lat="51.9527100" lon="5.5602900"/>
<trkpt lat="51.9524300" lon="5.5606400"/>
<trkpt lat="51.9523400" lon="5.5606400"/>
<trkpt lat="51.9519600" lon="5.5603500"/>
<trkpt lat="51.9519100" lon="5.5602000"/>
<trkpt lat="51.9519400" lon="5.5598500"/>
<trkpt lat="51.9520600" lon="5.5594400"/>
<trkpt lat="51.9523100" lon="5.5583500"/>
<trkpt lat="51.9525000" lon="5.5574400"/>
<trkpt lat="51.9528100" lon="5.5561100"/>
<trkpt lat="51.9529400" lon="5.5551300"/>
<trkpt lat="51.9532500" lon="5.5519800"/>
<trkpt lat="51.9532400" lon="5.5516300"/>
<trkpt lat="51.9530600" lon="5.5514300"/>
<trkpt lat="51.9527500" lon="5.5513100"/>
<trkpt lat="51.9517000" lon="5.5505900"/>
<trkpt lat="51.9517700" lon="5.5503500"/>
<trkpt lat="51.9515800" lon="5.5502200"/>
<trkpt lat="51.9515200" lon="5.5500000"/>
<trkpt lat="51.9513900" lon="5.5498000"/>
<trkpt lat="51.9512800" lon="5.5497700"/>
<trkpt lat="51.9509800" lon="5.5496400"/>
<trkpt lat="51.9507400" lon="5.5494200"/>
<trkpt lat="51.9504600" lon="5.5492400"/>
<trkpt lat="51.9501900" lon="5.5490300"/>
<trkpt lat="51.9500700" lon="5.5495000"/>
<trkpt lat="51.9498500" lon="5.5493200"/>
<trkpt lat="51.9497900" lon="5.5495200"/>
<trkpt lat="51.9477400" lon="5.5472100"/>
<trkpt lat="51.9476500" lon="5.5470700"/>
<trkpt lat="51.9467700" lon="5.5487100"/>
<trkpt lat="51.9466200" lon="5.5491100"/>
<trkpt lat="51.9466400" lon="5.5493500"/>
<trkpt lat="51.9463500" lon="5.5501500"/>
<trkpt lat="51.9444800" lon="5.5486300"/>
<trkpt lat="51.9443900" lon="5.5484700"/>
<trkpt lat="51.9441900" lon="5.5483200"/>
<trkpt lat="51.9424200" lon="5.5479600"/>
<trkpt lat="51.9423100" lon="5.5479700"/>
<trkpt lat="51.9422300" lon="5.5475600"/>
<trkpt lat="51.9422900" lon="5.5470500"/>
<trkpt lat="51.9425400" lon="5.5459600"/>
<trkpt lat="51.9419800" lon="5.5461700"/>
<trkpt lat="51.9415100" lon="5.5463300"/>
<trkpt lat="51.9410900" lon="5.5464000"/>
<trkpt lat="51.9406600" lon="5.5479600"/>
<trkpt lat="51.9401200" lon="5.5477400"/>
<trkpt lat="51.9375800" lon="5.5461500"/>
<trkpt lat="51.9363600" lon="5.5444300"/>
<trkpt lat="51.9361500" lon="5.5442600"/>
<trkpt lat="51.9356500" lon="5.5437500"/>
<trkpt lat="51.9353000" lon="5.5433300"/>
<trkpt lat="51.9349700" lon="5.5446100"/>
<trkpt lat="51.9346800" lon="5.5460200"/>
<trkpt lat="51.9345900" lon="5.5462700"/>
<trkpt lat="51.9344100" lon="5.5464300"/>
<trkpt lat="51.9343300" lon="5.5465600"/>
<trkpt lat="51.9343100" lon="5.5471200"/>
<trkpt lat="51.9340100" lon="5.5481300"/>
<trkpt lat="51.9331800" lon="5.5506700"/>
<trkpt lat="51.9329300" lon="5.5512400"/>
<trkpt lat="51.9327900" lon="5.5516300"/>
<trkpt lat="51.9327200" lon="5.5522800"/>
<trkpt lat="51.9327200" lon="5.5527000"/>
<trkpt lat="51.9328000" lon="5.5535200"/>
<trkpt lat="51.9328500" lon="5.5546200"/>
<trkpt lat="51.9327800" lon="5.5549700"/>
<trkpt lat="51.9327400" lon="5.5552700"/>
<trkpt lat="51.9328100" lon="5.5555100"/>
<trkpt lat="51.9329500" lon="5.5557400"/>
<trkpt lat="51.9330200" lon="5.5561800"/>
<trkpt lat="51.9330100" lon="5.5566100"/>
<trkpt lat="51.9331500" lon="5.5574100"/>
<trkpt lat="51.9331500" lon="5.5577800"/>
<trkpt lat="51.9331800" lon="5.5582300"/>
<trkpt lat="51.9335100" lon="5.5589700"/>
<trkpt lat="51.9338700" lon="5.5600700"/>
<trkpt lat="51.9339300" lon="5.5603200"/>
<trkpt lat="51.9339100" lon="5.5606400"/>
<trkpt lat="51.9338400" lon="5.5610700"/>
<trkpt lat="51.9338000" lon="5.5619300"/>
<trkpt lat="51.9337600" lon="5.5624100"/>
<trkpt lat="51.9336900" lon="5.5628500"/>
<trkpt lat="51.9334200" lon="5.5629900"/>
<trkpt lat="51.9329700" lon="5.5631500"/>
<trkpt lat="51.9323500" lon="5.5634400"/>
<trkpt lat="51.9323000" lon="5.5636000"/>
<trkpt lat="51.9321800" lon="5.5636400"/>
<trkpt lat="51.9321300" lon="5.5644300"/>
<trkpt lat="51.9329700" lon="5.5640300"/>
<trkpt lat="51.9335400" lon="5.5638600"/>
<trkpt lat="51.9336700" lon="5.5639200"/>
<trkpt lat="51.9338700" lon="5.5648000"/>
<trkpt lat="51.9341900" lon="5.5661200"/>
<trkpt lat="51.9345500" lon="5.5669500"/>
<trkpt lat="51.9349100" lon="5.5678600"/>
<trkpt lat="51.9352300" lon="5.5690100"/>
<trkpt lat="51.9352700" lon="5.5692500"/>
<trkpt lat="51.9352800" lon="5.5695600"/>
</trkseg></trk>
<trk><name>Marspad - shorteningRoute</name><type>shorteningRoute</type><trkseg>
<trkpt lat="51.9496600" lon="5.5753300"/>
<trkpt lat="51.9493700" lon="5.5751300"/>
<trkpt lat="51.9486800" lon="5.5748700"/>
<trkpt lat="51.9485700" lon="5.5747800"/>
<trkpt lat="51.9485200" lon="5.5745300"/>
<trkpt lat="51.9486100" lon="5.5733300"/>
<trkpt lat="51.9487000" lon="5.5719800"/>
<trkpt lat="51.9486700" lon="5.5713400"/>
<trkpt lat="51.9487100" lon="5.5689800"/>
<trkpt lat="51.9487900" lon="5.5683100"/>
<trkpt lat="51.9494900" lon="5.5658700"/>
<trkpt lat="51.9499200" lon="5.5644900"/>
<trkpt lat="51.9507300" lon="5.5626300"/>
<trkpt lat="51.9516800" lon="5.5614100"/>
<trkpt lat="51.9522500" lon="5.5608200"/>
<trkpt lat="51.9523400" lon="5.5606400"/>
</trkseg></trk>
<trk><name>Marspad - overstaproute</name><type>connectionRoute</type><trkseg>
<trkpt lat="51.9471300" lon="5.5929000"/>
<trkpt lat="51.9467100" lon="5.5941000"/>
<trkpt lat="51.9463500" lon="5.5949200"/>
<trkpt lat="51.9459600" lon="5.5957000"/>
<trkpt lat="51.9457300" lon="5.5959300"/>
<trkpt lat="51.9451900" lon="5.5962400"/>
<trkpt lat="51.9444900" lon="5.5966900"/>
<trkpt lat="51.9439600" lon="5.5970600"/>
<trkpt lat="51.9434300" lon="5.5974800"/>
<trkpt lat="51.9427500" lon="5.5981800"/>
<trkpt lat="51.9421300" lon="5.5988900"/>
<trkpt lat="51.9415100" lon="5.5997700"/>
</trkseg></trk>
<trk><name>Marspad - approachRoute</name><type>approachRoute</type><trkseg>
<trkpt lat="51.9579400" lon="5.5787300"/>
<trkpt lat="51.9579300" lon="5.5789400"/>
<trkpt lat="51.9588500" lon="5.5793100"/>
<trkpt lat="51.9590000" lon="5.5819700"/>
<trkpt lat="51.9590300" lon="5.5821900"/>
<trkpt lat="51.9594100" lon="5.5827000"/>
<trkpt lat="51.9603900" lon="5.5854300"/>
<trkpt lat="51.9606200" lon="5.5857600"/>
<trkpt lat="51.9606600" lon="5.5858500"/>
<trkpt lat="51.9611800" lon="5.5858200"/>
<trkpt lat="51.9620900" lon="5.5858100"/>
<trkpt lat="51.9627500" lon="5.5860400"/>
</trkseg></trk>
<trk><name>Marspad - approachRoute</name><type>approachRoute</type><trkseg>
<trkpt lat="51.9360000" lon="5.5728700"/>
<trkpt lat="51.9358500" lon="5.5729300"/>
<trkpt lat="51.9356300" lon="5.5729000"/>
<trkpt lat="51.9351300" lon="5.5726000"/>
<trkpt lat="51.9351300" lon="5.5721200"/>
<trkpt lat="51.9353000" lon="5.5708000"/>
<trkpt lat="51.9353200" lon="5.5705000"/>
<trkpt lat="51.9352800" lon="5.5701400"/>
<trkpt lat="51.9352800" lon="5.5695600"/>
</trkseg></trk>
<trk><name>Marspad - approachRoute</name><type>approachRoute</type><trkseg>
<trkpt lat="51.9554300" lon="5.5776600"/>
<trkpt lat="51.9561500" lon="5.5780400"/>
<trkpt lat="51.9573500" lon="5.5787800"/>
<trkpt lat="51.9578200" lon="5.5788900"/>
<trkpt lat="51.9578400" lon="5.5787100"/>
</trkseg></trk>
</gpx>