<?xml version="1.0" encoding="UTF-8"?>
<gpx version="1.1" creator="klompenpaden.nl via Jimbo API" xmlns="http://www.topografix.com/GPX/1/1">
<metadata><name>Mauderick en Wielepad</name><desc>Ontdek het prachtige buitengebied van Maurik en wandel langs de uiterwaarden van de Nederrijn, het eeuwenoude Eck en Wiel, over oude wegen en door het historische rivierenlandschap met haar fruit- en bomenteelt! Klompen aan, rugzak op en gaan!</desc><link href="https://www.klompenpaden.nl/klompenpaden/Mauderick_en_Wielepad/fecf8b7a-2250-4e10-be58-d9c536e38d72"><text>klompenpaden.nl</text></link></metadata>
<wpt lat="51.95864700913325" lon="5.4363441467285165"><name>Start Maurik</name></wpt>
<trk><name>Mauderick en Wielepad - Geimporteerde shapefile</name><type>mainRoute</type><trkseg>
<trkpt lat="51.9726045" lon="5.4341269"/>
<trkpt lat="51.9724127" lon="5.4335797"/>
<trkpt lat="51.9720022" lon="5.4328227"/>
<trkpt lat="51.9715179" lon="5.4320321"/>
<trkpt lat="51.9703720" lon="5.4303329"/>
<trkpt lat="51.9702382" lon="5.4300435"/>
<trkpt lat="51.9701657" lon="5.4296742"/>
<trkpt lat="51.9699702" lon="5.4295561"/>
<trkpt lat="51.9697673" lon="5.4292850"/>
<trkpt lat="51.9695911" lon="5.4290090"/>
<trkpt lat="51.9692277" lon="5.4280637"/>
<trkpt lat="51.9690478" lon="5.4276247"/>
<trkpt lat="51.9686064" lon="5.4268711"/>
<trkpt lat="51.9680458" lon="5.4261021"/>
<trkpt lat="51.9675795" lon="5.4255369"/>
<trkpt lat="51.9673670" lon="5.4251993"/>
<trkpt lat="51.9672160" lon="5.4248597"/>
<trkpt lat="51.9670157" lon="5.4249879"/>
<trkpt lat="51.9670983" lon="5.4252725"/>
<trkpt lat="51.9672953" lon="5.4256345"/>
<trkpt lat="51.9672930" lon="5.4259208"/>
<trkpt lat="51.9661414" lon="5.4260112"/>
<trkpt lat="51.9647117" lon="5.4262285"/>
<trkpt lat="51.9641977" lon="5.4266333"/>
<trkpt lat="51.9641466" lon="5.4268106"/>
<trkpt lat="51.9644666" lon="5.4278205"/>
<trkpt lat="51.9651851" lon="5.4291093"/>
<trkpt lat="51.9658138" lon="5.4304926"/>
<trkpt lat="51.9662382" lon="5.4308688"/>
<trkpt lat="51.9663914" lon="5.4314749"/>
<trkpt lat="51.9658769" lon="5.4314813"/>
<trkpt lat="51.9653733" lon="5.4314456"/>
<trkpt lat="51.9646735" lon="5.4312000"/>
<trkpt lat="51.9643839" lon="5.4310466"/>
<trkpt lat="51.9638992" lon="5.4305224"/>
<trkpt lat="51.9633436" lon="5.4301865"/>
<trkpt lat="51.9618443" lon="5.4296925"/>
<trkpt lat="51.9612301" lon="5.4306249"/>
<trkpt lat="51.9610659" lon="5.4310879"/>
<trkpt lat="51.9610631" lon="5.4317483"/>
<trkpt lat="51.9611790" lon="5.4333095"/>
<trkpt lat="51.9614526" lon="5.4354163"/>
<trkpt lat="51.9606759" lon="5.4353916"/>
<trkpt lat="51.9596348" lon="5.4352310"/>
<trkpt lat="51.9595094" lon="5.4354425"/>
<trkpt lat="51.9593536" lon="5.4356301"/>
<trkpt lat="51.9593199" lon="5.4359757"/>
<trkpt lat="51.9592663" lon="5.4363620"/>
<trkpt lat="51.9591002" lon="5.4363079"/>
<trkpt lat="51.9588985" lon="5.4362515"/>
<trkpt lat="51.9590198" lon="5.4363480"/>
<trkpt lat="51.9591086" lon="5.4364202"/>
<trkpt lat="51.9589023" lon="5.4379130"/>
<trkpt lat="51.9586775" lon="5.4395309"/>
<trkpt lat="51.9559529" lon="5.4384987"/>
<trkpt lat="51.9554926" lon="5.4382651"/>
<trkpt lat="51.9551406" lon="5.4387512"/>
<trkpt lat="51.9549535" lon="5.4391044"/>
<trkpt lat="51.9547325" lon="5.4396708"/>
<trkpt lat="51.9544472" lon="5.4404256"/>
<trkpt lat="51.9542766" lon="5.4407113"/>
<trkpt lat="51.9538630" lon="5.4414702"/>
<trkpt lat="51.9536487" lon="5.4420119"/>
<trkpt lat="51.9535477" lon="5.4429815"/>
<trkpt lat="51.9535187" lon="5.4433997"/>
<trkpt lat="51.9536062" lon="5.4436515"/>
<trkpt lat="51.9534819" lon="5.4448558"/>
<trkpt lat="51.9534368" lon="5.4450342"/>
<trkpt lat="51.9531936" lon="5.4460504"/>
<trkpt lat="51.9540527" lon="5.4463749"/>
<trkpt lat="51.9548905" lon="5.4467431"/>
<trkpt lat="51.9572104" lon="5.4476224"/>
<trkpt lat="51.9573593" lon="5.4480326"/>
<trkpt lat="51.9581184" lon="5.4483267"/>
<trkpt lat="51.9589639" lon="5.4486502"/>
<trkpt lat="51.9588287" lon="5.4496427"/>
<trkpt lat="51.9587254" lon="5.4505158"/>
<trkpt lat="51.9586548" lon="5.4517807"/>
<trkpt lat="51.9593347" lon="5.4519323"/>
<trkpt lat="51.9615402" lon="5.4528287"/>
<trkpt lat="51.9618125" lon="5.4534743"/>
<trkpt lat="51.9620086" lon="5.4536555"/>
<trkpt lat="51.9630678" lon="5.4541086"/>
<trkpt lat="51.9627100" lon="5.4553056"/>
<trkpt lat="51.9625838" lon="5.4556294"/>
<trkpt lat="51.9622355" lon="5.4565435"/>
<trkpt lat="51.9619297" lon="5.4576264"/>
<trkpt lat="51.9614897" lon="5.4574995"/>
<trkpt lat="51.9610551" lon="5.4572707"/>
<trkpt lat="51.9590028" lon="5.4564353"/>
<trkpt lat="51.9582617" lon="5.4560555"/>
<trkpt lat="51.9574858" lon="5.4557854"/>
<trkpt lat="51.9565873" lon="5.4553935"/>
<trkpt lat="51.9560302" lon="5.4551699"/>
<trkpt lat="51.9555862" lon="5.4549986"/>
<trkpt lat="51.9550380" lon="5.4547810"/>
<trkpt lat="51.9546253" lon="5.4546250"/>
<trkpt lat="51.9545922" lon="5.4546056"/>
<trkpt lat="51.9541496" lon="5.4544037"/>
<trkpt lat="51.9544444" lon="5.4555740"/>
<trkpt lat="51.9545349" lon="5.4565141"/>
<trkpt lat="51.9545954" lon="5.4575017"/>
<trkpt lat="51.9545954" lon="5.4581831"/>
<trkpt lat="51.9545493" lon="5.4591443"/>
<trkpt lat="51.9546585" lon="5.4601432"/>
<trkpt lat="51.9547837" lon="5.4616208"/>
<trkpt lat="51.9554633" lon="5.4619354"/>
<trkpt lat="51.9562245" lon="5.4623235"/>
<trkpt lat="51.9569393" lon="5.4627153"/>
<trkpt lat="51.9574125" lon="5.4629324"/>
<trkpt lat="51.9579535" lon="5.4632117"/>
<trkpt lat="51.9582656" lon="5.4633808"/>
<trkpt lat="51.9583305" lon="5.4632210"/>
<trkpt lat="51.9607069" lon="5.4643838"/>
<trkpt lat="51.9631374" lon="5.4657049"/>
<trkpt lat="51.9636003" lon="5.4644693"/>
<trkpt lat="51.9638283" lon="5.4636230"/>
<trkpt lat="51.9639694" lon="5.4628377"/>
<trkpt lat="51.9630917" lon="5.4611843"/>
<trkpt lat="51.9623737" lon="5.4609310"/>
<trkpt lat="51.9616276" lon="5.4606679"/>
<trkpt lat="51.9614205" lon="5.4600690"/>
<trkpt lat="51.9619721" lon="5.4576676"/>
<trkpt lat="51.9622285" lon="5.4567433"/>
<trkpt lat="51.9624244" lon="5.4561644"/>
<trkpt lat="51.9626208" lon="5.4556802"/>
<trkpt lat="51.9629089" lon="5.4548690"/>
<trkpt lat="51.9630338" lon="5.4544169"/>
<trkpt lat="51.9631175" lon="5.4540927"/>
<trkpt lat="51.9632069" lon="5.4537987"/>
<trkpt lat="51.9633245" lon="5.4535316"/>
<trkpt lat="51.9645551" lon="5.4526706"/>
<trkpt lat="51.9653567" lon="5.4527789"/>
<trkpt lat="51.9686803" lon="5.4555519"/>
<trkpt lat="51.9698244" lon="5.4560451"/>
<trkpt lat="51.9703412" lon="5.4568126"/>
<trkpt lat="51.9704878" lon="5.4568677"/>
<trkpt lat="51.9715329" lon="5.4571396"/>
<trkpt lat="51.9715451" lon="5.4569791"/>
<trkpt lat="51.9716986" lon="5.4568572"/>
<trkpt lat="51.9719714" lon="5.4548024"/>
<trkpt lat="51.9754191" lon="5.4561058"/>
<trkpt lat="51.9771198" lon="5.4567768"/>
<trkpt lat="51.9769973" lon="5.4578032"/>
<trkpt lat="51.9767479" lon="5.4585978"/>
<trkpt lat="51.9761858" lon="5.4603588"/>
<trkpt lat="51.9772819" lon="5.4613917"/>
<trkpt lat="51.9778164" lon="5.4594805"/>
<trkpt lat="51.9776712" lon="5.4592889"/>
<trkpt lat="51.9777164" lon="5.4591144"/>
<trkpt lat="51.9793825" lon="5.4600298"/>
<trkpt lat="51.9796566" lon="5.4576939"/>
<trkpt lat="51.9804328" lon="5.4579629"/>
<trkpt lat="51.9805987" lon="5.4581996"/>
<trkpt lat="51.9806848" lon="5.4581368"/>
<trkpt lat="51.9807856" lon="5.4575101"/>
<trkpt lat="51.9807607" lon="5.4564836"/>
<trkpt lat="51.9807838" lon="5.4560149"/>
<trkpt lat="51.9809096" lon="5.4553900"/>
<trkpt lat="51.9814727" lon="5.4544214"/>
<trkpt lat="51.9816578" lon="5.4540163"/>
<trkpt lat="51.9816978" lon="5.4533628"/>
<trkpt lat="51.9816635" lon="5.4529344"/>
<trkpt lat="51.9815248" lon="5.4526406"/>
<trkpt lat="51.9812915" lon="5.4524149"/>
<trkpt lat="51.9810666" lon="5.4521827"/>
<trkpt lat="51.9806268" lon="5.4510335"/>
<trkpt lat="51.9804555" lon="5.4506394"/>
<trkpt lat="51.9804490" lon="5.4502179"/>
<trkpt lat="51.9800197" lon="5.4492433"/>
<trkpt lat="51.9794898" lon="5.4481404"/>
<trkpt lat="51.9793319" lon="5.4476245"/>
<trkpt lat="51.9792092" lon="5.4460515"/>
<trkpt lat="51.9791982" lon="5.4453612"/>
<trkpt lat="51.9793775" lon="5.4439419"/>
<trkpt lat="51.9794417" lon="5.4435410"/>
<trkpt lat="51.9790119" lon="5.4429612"/>
<trkpt lat="51.9783720" lon="5.4422277"/>
<trkpt lat="51.9776363" lon="5.4414900"/>
<trkpt lat="51.9771235" lon="5.4408313"/>
<trkpt lat="51.9768289" lon="5.4404285"/>
<trkpt lat="51.9765967" lon="5.4403660"/>
<trkpt lat="51.9765409" lon="5.4398845"/>
<trkpt lat="51.9764614" lon="5.4395016"/>
<trkpt lat="51.9761380" lon="5.4389612"/>
<trkpt lat="51.9757782" lon="5.4384432"/>
<trkpt lat="51.9752035" lon="5.4376667"/>
<trkpt lat="51.9751261" lon="5.4377320"/>
<trkpt lat="51.9744560" lon="5.4370243"/>
<trkpt lat="51.9740025" lon="5.4363730"/>
<trkpt lat="51.9736000" lon="5.4356161"/>
<trkpt lat="51.9733075" lon="5.4350772"/>
<trkpt lat="51.9726045" lon="5.4341269"/>
</trkseg></trk>
</gpx>