<?xml version="1.0" encoding="UTF-8"?>
<gpx version="1.1" creator="klompenpaden.nl via Jimbo API" xmlns="http://www.topografix.com/GPX/1/1">
<metadata><name>Merckenburgsepad</name><desc>Ontdek de prachtige buitengebieden van Heukelum en Asperen. De route gaat over dijken, door het oeverwallenlandschap van de Linge en de Nieuwe Hollandse Waterlinie. Klompen aan, rugzak op en gaan!</desc><link href="https://www.klompenpaden.nl/klompenpaden/Merckenburgsepad/4558b667-fb17-4022-bc2e-7acfd82ab101"><text>klompenpaden.nl</text></link></metadata>
<wpt lat="51.88432428057492" lon="5.1043108105659485"><name>Start Asperen</name></wpt>
<trk><name>Merckenburgsepad - hoofdroute</name><type>mainRoute</type><trkseg>
<trkpt lat="51.8569225" lon="5.0638577"/>
<trkpt lat="51.8569558" lon="5.0637644"/>
<trkpt lat="51.8570431" lon="5.0636926"/>
<trkpt lat="51.8571294" lon="5.0635707"/>
<trkpt lat="51.8571932" lon="5.0635042"/>
<trkpt lat="51.8572438" lon="5.0634909"/>
<trkpt lat="51.8572713" lon="5.0635569"/>
<trkpt lat="51.8573179" lon="5.0635630"/>
<trkpt lat="51.8574720" lon="5.0634703"/>
<trkpt lat="51.8577717" lon="5.0634292"/>
<trkpt lat="51.8583825" lon="5.0629623"/>
<trkpt lat="51.8584864" lon="5.0629743"/>
<trkpt lat="51.8585826" lon="5.0630052"/>
<trkpt lat="51.8589031" lon="5.0636760"/>
<trkpt lat="51.8592361" lon="5.0642790"/>
<trkpt lat="51.8593516" lon="5.0644275"/>
<trkpt lat="51.8596661" lon="5.0647163"/>
<trkpt lat="51.8598610" lon="5.0648727"/>
<trkpt lat="51.8600196" lon="5.0650154"/>
<trkpt lat="51.8601636" lon="5.0652707"/>
<trkpt lat="51.8602794" lon="5.0655005"/>
<trkpt lat="51.8603608" lon="5.0656618"/>
<trkpt lat="51.8604490" lon="5.0658186"/>
<trkpt lat="51.8608148" lon="5.0656185"/>
<trkpt lat="51.8608632" lon="5.0656201"/>
<trkpt lat="51.8609018" lon="5.0656534"/>
<trkpt lat="51.8609403" lon="5.0657939"/>
<trkpt lat="51.8610069" lon="5.0659578"/>
<trkpt lat="51.8610319" lon="5.0659180"/>
<trkpt lat="51.8610218" lon="5.0656821"/>
<trkpt lat="51.8610368" lon="5.0655591"/>
<trkpt lat="51.8610457" lon="5.0655259"/>
<trkpt lat="51.8610234" lon="5.0654102"/>
<trkpt lat="51.8610042" lon="5.0653518"/>
<trkpt lat="51.8607807" lon="5.0646029"/>
<trkpt lat="51.8606252" lon="5.0643974"/>
<trkpt lat="51.8608243" lon="5.0642434"/>
<trkpt lat="51.8610481" lon="5.0642226"/>
<trkpt lat="51.8613997" lon="5.0642080"/>
<trkpt lat="51.8616909" lon="5.0640126"/>
<trkpt lat="51.8620228" lon="5.0636780"/>
<trkpt lat="51.8623994" lon="5.0632766"/>
<trkpt lat="51.8627687" lon="5.0628933"/>
<trkpt lat="51.8629710" lon="5.0626851"/>
<trkpt lat="51.8630322" lon="5.0626090"/>
<trkpt lat="51.8630979" lon="5.0625927"/>
<trkpt lat="51.8631675" lon="5.0625875"/>
<trkpt lat="51.8632756" lon="5.0625814"/>
<trkpt lat="51.8633206" lon="5.0625381"/>
<trkpt lat="51.8632981" lon="5.0624274"/>
<trkpt lat="51.8632874" lon="5.0623540"/>
<trkpt lat="51.8632599" lon="5.0622592"/>
<trkpt lat="51.8632540" lon="5.0622246"/>
<trkpt lat="51.8632451" lon="5.0621649"/>
<trkpt lat="51.8632234" lon="5.0621019"/>
<trkpt lat="51.8631939" lon="5.0620044"/>
<trkpt lat="51.8631848" lon="5.0619096"/>
<trkpt lat="51.8631233" lon="5.0616994"/>
<trkpt lat="51.8631309" lon="5.0614204"/>
<trkpt lat="51.8631873" lon="5.0612867"/>
<trkpt lat="51.8633449" lon="5.0607371"/>
<trkpt lat="51.8634000" lon="5.0605794"/>
<trkpt lat="51.8634408" lon="5.0604293"/>
<trkpt lat="51.8634625" lon="5.0603023"/>
<trkpt lat="51.8634626" lon="5.0602317"/>
<trkpt lat="51.8635099" lon="5.0600735"/>
<trkpt lat="51.8636188" lon="5.0598057"/>
<trkpt lat="51.8637491" lon="5.0594072"/>
<trkpt lat="51.8640177" lon="5.0585621"/>
<trkpt lat="51.8640834" lon="5.0583119"/>
<trkpt lat="51.8641344" lon="5.0581800"/>
<trkpt lat="51.8641816" lon="5.0580637"/>
<trkpt lat="51.8642514" lon="5.0578972"/>
<trkpt lat="51.8642887" lon="5.0577279"/>
<trkpt lat="51.8643589" lon="5.0575261"/>
<trkpt lat="51.8644311" lon="5.0573435"/>
<trkpt lat="51.8644570" lon="5.0572133"/>
<trkpt lat="51.8644727" lon="5.0571257"/>
<trkpt lat="51.8645216" lon="5.0569961"/>
<trkpt lat="51.8645724" lon="5.0568594"/>
<trkpt lat="51.8646094" lon="5.0567805"/>
<trkpt lat="51.8646809" lon="5.0566216"/>
<trkpt lat="51.8647656" lon="5.0564000"/>
<trkpt lat="51.8648833" lon="5.0561005"/>
<trkpt lat="51.8649059" lon="5.0560053"/>
<trkpt lat="51.8650296" lon="5.0556961"/>
<trkpt lat="51.8651228" lon="5.0554405"/>
<trkpt lat="51.8651619" lon="5.0552994"/>
<trkpt lat="51.8651697" lon="5.0552254"/>
<trkpt lat="51.8654911" lon="5.0547337"/>
<trkpt lat="51.8654973" lon="5.0546773"/>
<trkpt lat="51.8655223" lon="5.0546098"/>
<trkpt lat="51.8656439" lon="5.0544288"/>
<trkpt lat="51.8657920" lon="5.0541717"/>
<trkpt lat="51.8657631" lon="5.0540560"/>
<trkpt lat="51.8657596" lon="5.0539401"/>
<trkpt lat="51.8657517" lon="5.0538609"/>
<trkpt lat="51.8657627" lon="5.0537957"/>
<trkpt lat="51.8658432" lon="5.0536415"/>
<trkpt lat="51.8659049" lon="5.0535500"/>
<trkpt lat="51.8659423" lon="5.0534589"/>
<trkpt lat="51.8660055" lon="5.0533369"/>
<trkpt lat="51.8662214" lon="5.0531819"/>
<trkpt lat="51.8662781" lon="5.0531599"/>
<trkpt lat="51.8663206" lon="5.0531796"/>
<trkpt lat="51.8663687" lon="5.0531878"/>
<trkpt lat="51.8664071" lon="5.0531634"/>
<trkpt lat="51.8664337" lon="5.0531066"/>
<trkpt lat="51.8664304" lon="5.0530595"/>
<trkpt lat="51.8664892" lon="5.0528983"/>
<trkpt lat="51.8665348" lon="5.0527962"/>
<trkpt lat="51.8666625" lon="5.0526536"/>
<trkpt lat="51.8669759" lon="5.0525367"/>
<trkpt lat="51.8671371" lon="5.0524877"/>
<trkpt lat="51.8674319" lon="5.0523470"/>
<trkpt lat="51.8676674" lon="5.0523092"/>
<trkpt lat="51.8678835" lon="5.0522817"/>
<trkpt lat="51.8682927" lon="5.0522792"/>
<trkpt lat="51.8683804" lon="5.0522818"/>
<trkpt lat="51.8684861" lon="5.0522916"/>
<trkpt lat="51.8685915" lon="5.0523062"/>
<trkpt lat="51.8686805" lon="5.0523123"/>
<trkpt lat="51.8687510" lon="5.0523138"/>
<trkpt lat="51.8688924" lon="5.0523386"/>
<trkpt lat="51.8689984" lon="5.0523393"/>
<trkpt lat="51.8691216" lon="5.0523755"/>
<trkpt lat="51.8692121" lon="5.0524185"/>
<trkpt lat="51.8693417" lon="5.0524592"/>
<trkpt lat="51.8694078" lon="5.0524940"/>
<trkpt lat="51.8695242" lon="5.0525622"/>
<trkpt lat="51.8696324" lon="5.0526248"/>
<trkpt lat="51.8698026" lon="5.0527143"/>
<trkpt lat="51.8698786" lon="5.0527563"/>
<trkpt lat="51.8700005" lon="5.0527881"/>
<trkpt lat="51.8701507" lon="5.0528762"/>
<trkpt lat="51.8703159" lon="5.0529537"/>
<trkpt lat="51.8707960" lon="5.0532303"/>
<trkpt lat="51.8709420" lon="5.0533468"/>
<trkpt lat="51.8710973" lon="5.0534784"/>
<trkpt lat="51.8712161" lon="5.0535791"/>
<trkpt lat="51.8712452" lon="5.0537633"/>
<trkpt lat="51.8712391" lon="5.0541206"/>
<trkpt lat="51.8712181" lon="5.0541777"/>
<trkpt lat="51.8710222" lon="5.0541258"/>
<trkpt lat="51.8709414" lon="5.0542373"/>
<trkpt lat="51.8706712" lon="5.0542629"/>
<trkpt lat="51.8705794" lon="5.0542711"/>
<trkpt lat="51.8704942" lon="5.0542757"/>
<trkpt lat="51.8703778" lon="5.0542852"/>
<trkpt lat="51.8702361" lon="5.0542842"/>
<trkpt lat="51.8702625" lon="5.0543457"/>
<trkpt lat="51.8702282" lon="5.0543988"/>
<trkpt lat="51.8702062" lon="5.0545231"/>
<trkpt lat="51.8702510" lon="5.0546334"/>
<trkpt lat="51.8702170" lon="5.0546702"/>
<trkpt lat="51.8701737" lon="5.0546934"/>
<trkpt lat="51.8700912" lon="5.0549288"/>
<trkpt lat="51.8700587" lon="5.0549854"/>
<trkpt lat="51.8700575" lon="5.0550545"/>
<trkpt lat="51.8700510" lon="5.0551458"/>
<trkpt lat="51.8700496" lon="5.0552444"/>
<trkpt lat="51.8700364" lon="5.0553020"/>
<trkpt lat="51.8700020" lon="5.0553490"/>
<trkpt lat="51.8699966" lon="5.0553855"/>
<trkpt lat="51.8700414" lon="5.0554224"/>
<trkpt lat="51.8702254" lon="5.0553167"/>
<trkpt lat="51.8702543" lon="5.0553574"/>
<trkpt lat="51.8702639" lon="5.0554724"/>
<trkpt lat="51.8703008" lon="5.0555743"/>
<trkpt lat="51.8702837" lon="5.0556486"/>
<trkpt lat="51.8701117" lon="5.0557767"/>
<trkpt lat="51.8699126" lon="5.0559933"/>
<trkpt lat="51.8698717" lon="5.0561398"/>
<trkpt lat="51.8699071" lon="5.0563987"/>
<trkpt lat="51.8698893" lon="5.0564515"/>
<trkpt lat="51.8698854" lon="5.0565139"/>
<trkpt lat="51.8698645" lon="5.0566571"/>
<trkpt lat="51.8698557" lon="5.0568303"/>
<trkpt lat="51.8698308" lon="5.0569842"/>
<trkpt lat="51.8698276" lon="5.0572348"/>
<trkpt lat="51.8698173" lon="5.0573602"/>
<trkpt lat="51.8698115" lon="5.0574592"/>
<trkpt lat="51.8698072" lon="5.0576203"/>
<trkpt lat="51.8698151" lon="5.0577951"/>
<trkpt lat="51.8698121" lon="5.0579038"/>
<trkpt lat="51.8697131" lon="5.0582045"/>
<trkpt lat="51.8697189" lon="5.0583561"/>
<trkpt lat="51.8697162" lon="5.0586034"/>
<trkpt lat="51.8697195" lon="5.0588109"/>
<trkpt lat="51.8696793" lon="5.0589542"/>
<trkpt lat="51.8696757" lon="5.0595822"/>
<trkpt lat="51.8696676" lon="5.0597984"/>
<trkpt lat="51.8696683" lon="5.0600275"/>
<trkpt lat="51.8696685" lon="5.0603275"/>
<trkpt lat="51.8696837" lon="5.0604875"/>
<trkpt lat="51.8696937" lon="5.0606519"/>
<trkpt lat="51.8698738" lon="5.0606679"/>
<trkpt lat="51.8700188" lon="5.0606362"/>
<trkpt lat="51.8702215" lon="5.0605559"/>
<trkpt lat="51.8704229" lon="5.0604390"/>
<trkpt lat="51.8709688" lon="5.0600064"/>
<trkpt lat="51.8712576" lon="5.0608826"/>
<trkpt lat="51.8713648" lon="5.0611324"/>
<trkpt lat="51.8715961" lon="5.0616700"/>
<trkpt lat="51.8716978" lon="5.0619387"/>
<trkpt lat="51.8717491" lon="5.0619351"/>
<trkpt lat="51.8717910" lon="5.0619703"/>
<trkpt lat="51.8719917" lon="5.0624298"/>
<trkpt lat="51.8721717" lon="5.0628515"/>
<trkpt lat="51.8722113" lon="5.0629899"/>
<trkpt lat="51.8722176" lon="5.0630995"/>
<trkpt lat="51.8722105" lon="5.0631749"/>
<trkpt lat="51.8721718" lon="5.0633773"/>
<trkpt lat="51.8721375" lon="5.0635055"/>
<trkpt lat="51.8720404" lon="5.0637729"/>
<trkpt lat="51.8719076" lon="5.0641298"/>
<trkpt lat="51.8720173" lon="5.0642004"/>
<trkpt lat="51.8720635" lon="5.0642518"/>
<trkpt lat="51.8724038" lon="5.0647378"/>
<trkpt lat="51.8726778" lon="5.0650459"/>
<trkpt lat="51.8727739" lon="5.0652237"/>
<trkpt lat="51.8731353" lon="5.0656444"/>
<trkpt lat="51.8734001" lon="5.0661009"/>
<trkpt lat="51.8734857" lon="5.0661149"/>
<trkpt lat="51.8737273" lon="5.0661193"/>
<trkpt lat="51.8737399" lon="5.0662979"/>
<trkpt lat="51.8737643" lon="5.0667971"/>
<trkpt lat="51.8737749" lon="5.0671746"/>
<trkpt lat="51.8737675" lon="5.0675286"/>
<trkpt lat="51.8737207" lon="5.0679917"/>
<trkpt lat="51.8736639" lon="5.0685653"/>
<trkpt lat="51.8736261" lon="5.0690531"/>
<trkpt lat="51.8735080" lon="5.0695778"/>
<trkpt lat="51.8733753" lon="5.0703517"/>
<trkpt lat="51.8732140" lon="5.0712130"/>
<trkpt lat="51.8731311" lon="5.0716369"/>
<trkpt lat="51.8731039" lon="5.0719687"/>
<trkpt lat="51.8731691" lon="5.0728651"/>
<trkpt lat="51.8731780" lon="5.0729649"/>
<trkpt lat="51.8731896" lon="5.0731402"/>
<trkpt lat="51.8731896" lon="5.0733148"/>
<trkpt lat="51.8731832" lon="5.0734519"/>
<trkpt lat="51.8731732" lon="5.0735350"/>
<trkpt lat="51.8731487" lon="5.0736244"/>
<trkpt lat="51.8731175" lon="5.0737077"/>
<trkpt lat="51.8730895" lon="5.0737533"/>
<trkpt lat="51.8729890" lon="5.0738973"/>
<trkpt lat="51.8728049" lon="5.0741053"/>
<trkpt lat="51.8727199" lon="5.0742061"/>
<trkpt lat="51.8725669" lon="5.0744531"/>
<trkpt lat="51.8725170" lon="5.0746324"/>
<trkpt lat="51.8725104" lon="5.0746880"/>
<trkpt lat="51.8725096" lon="5.0748285"/>
<trkpt lat="51.8725154" lon="5.0748982"/>
<trkpt lat="51.8725404" lon="5.0750293"/>
<trkpt lat="51.8725940" lon="5.0751399"/>
<trkpt lat="51.8727967" lon="5.0752780"/>
<trkpt lat="51.8730821" lon="5.0749051"/>
<trkpt lat="51.8731315" lon="5.0747977"/>
<trkpt lat="51.8731534" lon="5.0745816"/>
<trkpt lat="51.8731805" lon="5.0745164"/>
<trkpt lat="51.8733287" lon="5.0743175"/>
<trkpt lat="51.8737612" lon="5.0738334"/>
<trkpt lat="51.8738169" lon="5.0739785"/>
<trkpt lat="51.8740010" lon="5.0746980"/>
<trkpt lat="51.8740984" lon="5.0751647"/>
<trkpt lat="51.8740943" lon="5.0753369"/>
<trkpt lat="51.8741054" lon="5.0753777"/>
<trkpt lat="51.8741740" lon="5.0755927"/>
<trkpt lat="51.8743260" lon="5.0760823"/>
<trkpt lat="51.8743958" lon="5.0763109"/>
<trkpt lat="51.8744296" lon="5.0764314"/>
<trkpt lat="51.8745589" lon="5.0769879"/>
<trkpt lat="51.8745794" lon="5.0770975"/>
<trkpt lat="51.8745879" lon="5.0771581"/>
<trkpt lat="51.8746109" lon="5.0772967"/>
<trkpt lat="51.8746438" lon="5.0774850"/>
<trkpt lat="51.8746770" lon="5.0777509"/>
<trkpt lat="51.8747317" lon="5.0780532"/>
<trkpt lat="51.8747786" lon="5.0782979"/>
<trkpt lat="51.8748256" lon="5.0785813"/>
<trkpt lat="51.8748704" lon="5.0788882"/>
<trkpt lat="51.8749381" lon="5.0792531"/>
<trkpt lat="51.8749966" lon="5.0795524"/>
<trkpt lat="51.8750512" lon="5.0797936"/>
<trkpt lat="51.8751221" lon="5.0801089"/>
<trkpt lat="51.8751120" lon="5.0801521"/>
<trkpt lat="51.8750417" lon="5.0802212"/>
<trkpt lat="51.8749560" lon="5.0802925"/>
<trkpt lat="51.8749731" lon="5.0803486"/>
<trkpt lat="51.8750152" lon="5.0804980"/>
<trkpt lat="51.8750112" lon="5.0806232"/>
<trkpt lat="51.8750821" lon="5.0808304"/>
<trkpt lat="51.8751912" lon="5.0810241"/>
<trkpt lat="51.8752924" lon="5.0813051"/>
<trkpt lat="51.8754170" lon="5.0816599"/>
<trkpt lat="51.8755314" lon="5.0820216"/>
<trkpt lat="51.8757406" lon="5.0827064"/>
<trkpt lat="51.8757448" lon="5.0827318"/>
<trkpt lat="51.8758776" lon="5.0833802"/>
<trkpt lat="51.8759401" lon="5.0837079"/>
<trkpt lat="51.8760093" lon="5.0841691"/>
<trkpt lat="51.8761252" lon="5.0847039"/>
<trkpt lat="51.8761649" lon="5.0848346"/>
<trkpt lat="51.8762776" lon="5.0852059"/>
<trkpt lat="51.8765743" lon="5.0858573"/>
<trkpt lat="51.8768857" lon="5.0865000"/>
<trkpt lat="51.8770316" lon="5.0868793"/>
<trkpt lat="51.8771389" lon="5.0871836"/>
<trkpt lat="51.8772523" lon="5.0874080"/>
<trkpt lat="51.8775884" lon="5.0879307"/>
<trkpt lat="51.8777332" lon="5.0880985"/>
<trkpt lat="51.8778186" lon="5.0882167"/>
<trkpt lat="51.8779397" lon="5.0883379"/>
<trkpt lat="51.8786977" lon="5.0885623"/>
<trkpt lat="51.8790296" lon="5.0885320"/>
<trkpt lat="51.8791521" lon="5.0885341"/>
<trkpt lat="51.8791893" lon="5.0886892"/>
<trkpt lat="51.8792062" lon="5.0887781"/>
<trkpt lat="51.8792555" lon="5.0889509"/>
<trkpt lat="51.8792839" lon="5.0890852"/>
<trkpt lat="51.8793460" lon="5.0893671"/>
<trkpt lat="51.8793929" lon="5.0894172"/>
<trkpt lat="51.8796616" lon="5.0895364"/>
<trkpt lat="51.8801186" lon="5.0892243"/>
<trkpt lat="51.8804835" lon="5.0889383"/>
<trkpt lat="51.8811417" lon="5.0889523"/>
<trkpt lat="51.8820030" lon="5.0889072"/>
<trkpt lat="51.8829795" lon="5.0888351"/>
<trkpt lat="51.8843349" lon="5.0888681"/>
<trkpt lat="51.8853737" lon="5.0889899"/>
<trkpt lat="51.8860251" lon="5.0891654"/>
<trkpt lat="51.8864141" lon="5.0894271"/>
<trkpt lat="51.8867743" lon="5.0898220"/>
<trkpt lat="51.8869847" lon="5.0901229"/>
<trkpt lat="51.8871820" lon="5.0904555"/>
<trkpt lat="51.8872549" lon="5.0906547"/>
<trkpt lat="51.8871652" lon="5.0906973"/>
<trkpt lat="51.8871799" lon="5.0907867"/>
<trkpt lat="51.8871906" lon="5.0908984"/>
<trkpt lat="51.8872132" lon="5.0910026"/>
<trkpt lat="51.8872421" lon="5.0910383"/>
<trkpt lat="51.8873164" lon="5.0911910"/>
<trkpt lat="51.8873739" lon="5.0914590"/>
<trkpt lat="51.8875509" lon="5.0920062"/>
<trkpt lat="51.8878435" lon="5.0933385"/>
<trkpt lat="51.8878392" lon="5.0935644"/>
<trkpt lat="51.8877664" lon="5.0937067"/>
<trkpt lat="51.8877037" lon="5.0939933"/>
<trkpt lat="51.8875967" lon="5.0947425"/>
<trkpt lat="51.8871634" lon="5.0969026"/>
<trkpt lat="51.8870662" lon="5.0975553"/>
<trkpt lat="51.8870596" lon="5.0978428"/>
<trkpt lat="51.8870082" lon="5.0983376"/>
<trkpt lat="51.8871022" lon="5.0985549"/>
<trkpt lat="51.8871310" lon="5.0987271"/>
<trkpt lat="51.8871089" lon="5.0990287"/>
<trkpt lat="51.8870718" lon="5.0992091"/>
<trkpt lat="51.8870295" lon="5.0994664"/>
<trkpt lat="51.8869998" lon="5.0996572"/>
<trkpt lat="51.8869856" lon="5.0998109"/>
<trkpt lat="51.8869809" lon="5.0999873"/>
<trkpt lat="51.8869991" lon="5.1001358"/>
<trkpt lat="51.8871037" lon="5.1002652"/>
<trkpt lat="51.8872165" lon="5.1004358"/>
<trkpt lat="51.8872260" lon="5.1005731"/>
<trkpt lat="51.8872165" lon="5.1007889"/>
<trkpt lat="51.8872091" lon="5.1011553"/>
<trkpt lat="51.8872606" lon="5.1012761"/>
<trkpt lat="51.8875202" lon="5.1016482"/>
<trkpt lat="51.8876872" lon="5.1018983"/>
<trkpt lat="51.8878486" lon="5.1021071"/>
<trkpt lat="51.8879240" lon="5.1022794"/>
<trkpt lat="51.8879721" lon="5.1025066"/>
<trkpt lat="51.8880415" lon="5.1028829"/>
<trkpt lat="51.8880916" lon="5.1031544"/>
<trkpt lat="51.8881148" lon="5.1033256"/>
<trkpt lat="51.8881170" lon="5.1034571"/>
<trkpt lat="51.8881156" lon="5.1036565"/>
<trkpt lat="51.8881143" lon="5.1038693"/>
<trkpt lat="51.8881057" lon="5.1040835"/>
<trkpt lat="51.8881005" lon="5.1042254"/>
<trkpt lat="51.8880179" lon="5.1045730"/>
<trkpt lat="51.8879364" lon="5.1048729"/>
<trkpt lat="51.8879124" lon="5.1049723"/>
<trkpt lat="51.8878556" lon="5.1051389"/>
<trkpt lat="51.8878358" lon="5.1052013"/>
<trkpt lat="51.8877247" lon="5.1053244"/>
<trkpt lat="51.8875336" lon="5.1054779"/>
<trkpt lat="51.8871199" lon="5.1056606"/>
<trkpt lat="51.8867038" lon="5.1057914"/>
<trkpt lat="51.8865766" lon="5.1058639"/>
<trkpt lat="51.8864365" lon="5.1060494"/>
<trkpt lat="51.8860800" lon="5.1065475"/>
<trkpt lat="51.8858150" lon="5.1069231"/>
<trkpt lat="51.8856821" lon="5.1071290"/>
<trkpt lat="51.8855031" lon="5.1072932"/>
<trkpt lat="51.8851768" lon="5.1075022"/>
<trkpt lat="51.8850060" lon="5.1076422"/>
<trkpt lat="51.8849155" lon="5.1077687"/>
<trkpt lat="51.8846385" lon="5.1081898"/>
<trkpt lat="51.8844760" lon="5.1084349"/>
<trkpt lat="51.8844077" lon="5.1084327"/>
<trkpt lat="51.8842815" lon="5.1083802"/>
<trkpt lat="51.8841471" lon="5.1082941"/>
<trkpt lat="51.8840698" lon="5.1082167"/>
<trkpt lat="51.8840483" lon="5.1083038"/>
<trkpt lat="51.8840557" lon="5.1083933"/>
<trkpt lat="51.8840183" lon="5.1085750"/>
<trkpt lat="51.8839793" lon="5.1087028"/>
<trkpt lat="51.8838261" lon="5.1088141"/>
<trkpt lat="51.8837236" lon="5.1089264"/>
<trkpt lat="51.8835522" lon="5.1091520"/>
<trkpt lat="51.8834455" lon="5.1092436"/>
<trkpt lat="51.8831223" lon="5.1094728"/>
<trkpt lat="51.8830036" lon="5.1095735"/>
<trkpt lat="51.8828666" lon="5.1097288"/>
<trkpt lat="51.8827185" lon="5.1099842"/>
<trkpt lat="51.8827019" lon="5.1100829"/>
<trkpt lat="51.8826967" lon="5.1102544"/>
<trkpt lat="51.8826784" lon="5.1103194"/>
<trkpt lat="51.8826199" lon="5.1103859"/>
<trkpt lat="51.8823657" lon="5.1109574"/>
<trkpt lat="51.8822806" lon="5.1110482"/>
<trkpt lat="51.8822913" lon="5.1110890"/>
<trkpt lat="51.8822706" lon="5.1111567"/>
<trkpt lat="51.8821158" lon="5.1112796"/>
<trkpt lat="51.8821004" lon="5.1112421"/>
<trkpt lat="51.8820748" lon="5.1112500"/>
<trkpt lat="51.8820154" lon="5.1112958"/>
<trkpt lat="51.8819302" lon="5.1112821"/>
<trkpt lat="51.8818035" lon="5.1114010"/>
<trkpt lat="51.8816272" lon="5.1115851"/>
<trkpt lat="51.8814934" lon="5.1117288"/>
<trkpt lat="51.8814359" lon="5.1118144"/>
<trkpt lat="51.8813106" lon="5.1119650"/>
<trkpt lat="51.8814788" lon="5.1123559"/>
<trkpt lat="51.8812088" lon="5.1126834"/>
<trkpt lat="51.8808579" lon="5.1131178"/>
<trkpt lat="51.8805836" lon="5.1134551"/>
<trkpt lat="51.8803460" lon="5.1137532"/>
<trkpt lat="51.8802442" lon="5.1138810"/>
<trkpt lat="51.8798714" lon="5.1142831"/>
<trkpt lat="51.8795052" lon="5.1146410"/>
<trkpt lat="51.8792513" lon="5.1149866"/>
<trkpt lat="51.8790423" lon="5.1152812"/>
<trkpt lat="51.8788924" lon="5.1154107"/>
<trkpt lat="51.8787898" lon="5.1155359"/>
<trkpt lat="51.8787017" lon="5.1156533"/>
<trkpt lat="51.8785863" lon="5.1157903"/>
<trkpt lat="51.8784629" lon="5.1159364"/>
<trkpt lat="51.8783651" lon="5.1160045"/>
<trkpt lat="51.8783704" lon="5.1162135"/>
<trkpt lat="51.8783804" lon="5.1167378"/>
<trkpt lat="51.8783942" lon="5.1174803"/>
<trkpt lat="51.8780674" lon="5.1175128"/>
<trkpt lat="51.8780029" lon="5.1174852"/>
<trkpt lat="51.8779721" lon="5.1173439"/>
<trkpt lat="51.8779602" lon="5.1170727"/>
<trkpt lat="51.8779852" lon="5.1167623"/>
<trkpt lat="51.8779372" lon="5.1165642"/>
<trkpt lat="51.8778275" lon="5.1162150"/>
<trkpt lat="51.8776582" lon="5.1164648"/>
<trkpt lat="51.8774167" lon="5.1167948"/>
<trkpt lat="51.8773714" lon="5.1166807"/>
<trkpt lat="51.8770868" lon="5.1160873"/>
<trkpt lat="51.8769454" lon="5.1158852"/>
<trkpt lat="51.8766871" lon="5.1154561"/>
<trkpt lat="51.8766516" lon="5.1153450"/>
<trkpt lat="51.8764900" lon="5.1148760"/>
<trkpt lat="51.8757550" lon="5.1129166"/>
<trkpt lat="51.8750592" lon="5.1111223"/>
<trkpt lat="51.8748342" lon="5.1105470"/>
<trkpt lat="51.8744226" lon="5.1094765"/>
<trkpt lat="51.8743799" lon="5.1095534"/>
<trkpt lat="51.8742301" lon="5.1097499"/>
<trkpt lat="51.8738093" lon="5.1105065"/>
<trkpt lat="51.8735791" lon="5.1104272"/>
<trkpt lat="51.8733659" lon="5.1102707"/>
<trkpt lat="51.8729840" lon="5.1108983"/>
<trkpt lat="51.8729285" lon="5.1108670"/>
<trkpt lat="51.8725587" lon="5.1103074"/>
<trkpt lat="51.8723659" lon="5.1099717"/>
<trkpt lat="51.8719819" lon="5.1092831"/>
<trkpt lat="51.8715353" lon="5.1085359"/>
<trkpt lat="51.8713853" lon="5.1084561"/>
<trkpt lat="51.8712465" lon="5.1085984"/>
<trkpt lat="51.8710988" lon="5.1088370"/>
<trkpt lat="51.8707241" lon="5.1095408"/>
<trkpt lat="51.8706004" lon="5.1094800"/>
<trkpt lat="51.8694073" lon="5.1074518"/>
<trkpt lat="51.8693863" lon="5.1072716"/>
<trkpt lat="51.8694899" lon="5.1069255"/>
<trkpt lat="51.8697426" lon="5.1062189"/>
<trkpt lat="51.8698196" lon="5.1058915"/>
<trkpt lat="51.8698060" lon="5.1057596"/>
<trkpt lat="51.8697517" lon="5.1055503"/>
<trkpt lat="51.8696959" lon="5.1053914"/>
<trkpt lat="51.8695879" lon="5.1052327"/>
<trkpt lat="51.8701905" lon="5.1034299"/>
<trkpt lat="51.8703995" lon="5.1029754"/>
<trkpt lat="51.8711544" lon="5.1013421"/>
<trkpt lat="51.8712359" lon="5.1012101"/>
<trkpt lat="51.8713829" lon="5.1010683"/>
<trkpt lat="51.8715321" lon="5.1014477"/>
<trkpt lat="51.8714831" lon="5.1010143"/>
<trkpt lat="51.8714153" lon="5.1008381"/>
<trkpt lat="51.8714304" lon="5.1007594"/>
<trkpt lat="51.8719009" lon="5.0996790"/>
<trkpt lat="51.8727195" lon="5.0978283"/>
<trkpt lat="51.8727061" lon="5.0978074"/>
<trkpt lat="51.8726423" lon="5.0977300"/>
<trkpt lat="51.8725463" lon="5.0979270"/>
<trkpt lat="51.8724808" lon="5.0978573"/>
<trkpt lat="51.8712878" lon="5.0975547"/>
<trkpt lat="51.8712767" lon="5.0975298"/>
<trkpt lat="51.8712828" lon="5.0974112"/>
<trkpt lat="51.8712062" lon="5.0973932"/>
<trkpt lat="51.8711362" lon="5.0974060"/>
<trkpt lat="51.8710833" lon="5.0974277"/>
<trkpt lat="51.8705725" lon="5.0978962"/>
<trkpt lat="51.8703809" lon="5.0980614"/>
<trkpt lat="51.8695486" lon="5.0960088"/>
<trkpt lat="51.8694512" lon="5.0961022"/>
<trkpt lat="51.8690282" lon="5.0955688"/>
<trkpt lat="51.8688026" lon="5.0949608"/>
<trkpt lat="51.8684129" lon="5.0938904"/>
<trkpt lat="51.8681052" lon="5.0930688"/>
<trkpt lat="51.8678894" lon="5.0924684"/>
<trkpt lat="51.8677564" lon="5.0916145"/>
<trkpt lat="51.8672491" lon="5.0900212"/>
<trkpt lat="51.8672234" lon="5.0897318"/>
<trkpt lat="51.8663909" lon="5.0898518"/>
<trkpt lat="51.8658569" lon="5.0899414"/>
<trkpt lat="51.8654086" lon="5.0900016"/>
<trkpt lat="51.8651875" lon="5.0900261"/>
<trkpt lat="51.8651003" lon="5.0894102"/>
<trkpt lat="51.8643577" lon="5.0863386"/>
<trkpt lat="51.8623386" lon="5.0779411"/>
<trkpt lat="51.8615384" lon="5.0747897"/>
<trkpt lat="51.8597796" lon="5.0704825"/>
<trkpt lat="51.8579492" lon="5.0660656"/>
<trkpt lat="51.8577244" lon="5.0655711"/>
<trkpt lat="51.8574311" lon="5.0649081"/>
<trkpt lat="51.8569865" lon="5.0640183"/>
<trkpt lat="51.8569225" lon="5.0638577"/>
</trkseg></trk>
<trk><name>Merckenburgsepad - routeverkorter</name><type>shorteningRoute</type><trkseg>
<trkpt lat="51.8796700" lon="5.0895262"/>
<trkpt lat="51.8796262" lon="5.0895023"/>
<trkpt lat="51.8796256" lon="5.0895891"/>
<trkpt lat="51.8795707" lon="5.0898369"/>
<trkpt lat="51.8793183" lon="5.0906378"/>
<trkpt lat="51.8792325" lon="5.0909378"/>
<trkpt lat="51.8790931" lon="5.0912300"/>
<trkpt lat="51.8789508" lon="5.0914067"/>
<trkpt lat="51.8787085" lon="5.0917018"/>
<trkpt lat="51.8783444" lon="5.0920807"/>
<trkpt lat="51.8777855" lon="5.0926496"/>
<trkpt lat="51.8773720" lon="5.0931389"/>
<trkpt lat="51.8774400" lon="5.0935494"/>
<trkpt lat="51.8774603" lon="5.0936561"/>
<trkpt lat="51.8774593" lon="5.0937452"/>
<trkpt lat="51.8774216" lon="5.0938773"/>
<trkpt lat="51.8774324" lon="5.0939414"/>
<trkpt lat="51.8774682" lon="5.0941677"/>
<trkpt lat="51.8775502" lon="5.0942626"/>
<trkpt lat="51.8776429" lon="5.0943742"/>
<trkpt lat="51.8777904" lon="5.0949450"/>
<trkpt lat="51.8780085" lon="5.0958656"/>
<trkpt lat="51.8786066" lon="5.0984255"/>
<trkpt lat="51.8784391" lon="5.0985205"/>
<trkpt lat="51.8781690" lon="5.0987354"/>
<trkpt lat="51.8778430" lon="5.0991259"/>
<trkpt lat="51.8775410" lon="5.0995860"/>
<trkpt lat="51.8768230" lon="5.1006264"/>
<trkpt lat="51.8762256" lon="5.1015100"/>
<trkpt lat="51.8753885" lon="5.1027408"/>
<trkpt lat="51.8749650" lon="5.1033677"/>
<trkpt lat="51.8741442" lon="5.1045762"/>
<trkpt lat="51.8740448" lon="5.1047169"/>
<trkpt lat="51.8737089" lon="5.1052232"/>
<trkpt lat="51.8737777" lon="5.1054035"/>
<trkpt lat="51.8737187" lon="5.1055104"/>
<trkpt lat="51.8736299" lon="5.1055588"/>
<trkpt lat="51.8734079" lon="5.1051852"/>
<trkpt lat="51.8733574" lon="5.1051543"/>
<trkpt lat="51.8732988" lon="5.1050684"/>
<trkpt lat="51.8732484" lon="5.1049192"/>
<trkpt lat="51.8731852" lon="5.1048089"/>
<trkpt lat="51.8731507" lon="5.1046334"/>
<trkpt lat="51.8731383" lon="5.1044499"/>
<trkpt lat="51.8730812" lon="5.1043387"/>
<trkpt lat="51.8729532" lon="5.1041105"/>
<trkpt lat="51.8728285" lon="5.1039618"/>
<trkpt lat="51.8727154" lon="5.1038567"/>
<trkpt lat="51.8725936" lon="5.1040664"/>
<trkpt lat="51.8714831" lon="5.1010143"/>
</trkseg></trk>
<trk><name>Merckenburgsepad - Hoogwaterroute</name><type>alternativeRoute</type><trkseg>
<trkpt lat="51.8632858" lon="5.0625716"/>
<trkpt lat="51.8639194" lon="5.0621063"/>
<trkpt lat="51.8642966" lon="5.0618546"/>
<trkpt lat="51.8645215" lon="5.0617612"/>
<trkpt lat="51.8651087" lon="5.0616215"/>
<trkpt lat="51.8657822" lon="5.0613943"/>
<trkpt lat="51.8663645" lon="5.0612754"/>
<trkpt lat="51.8670743" lon="5.0612117"/>
<trkpt lat="51.8677476" lon="5.0611638"/>
<trkpt lat="51.8682125" lon="5.0611809"/>
<trkpt lat="51.8685761" lon="5.0611270"/>
<trkpt lat="51.8689934" lon="5.0609508"/>
<trkpt lat="51.8694855" lon="5.0607696"/>
<trkpt lat="51.8696921" lon="5.0606546"/>
</trkseg></trk>
<trk><name>Merckenburgsepad - overstaproute Rhenoijschepad</name><type>connectionRoute</type><trkseg>
<trkpt lat="51.8774116" lon="5.1167941"/>
<trkpt lat="51.8778647" lon="5.1183532"/>
<trkpt lat="51.8781570" lon="5.1183696"/>
<trkpt lat="51.8783151" lon="5.1186956"/>
<trkpt lat="51.8784399" lon="5.1192033"/>
<trkpt lat="51.8786201" lon="5.1193657"/>
</trkseg></trk>
<trk><name>Merckenburgsepad - Overstaproute Vurensche Polderpad</name><type>connectionRoute</type><trkseg>
<trkpt lat="51.8606252" lon="5.0643974"/>
<trkpt lat="51.8604694" lon="5.0642597"/>
<trkpt lat="51.8597382" lon="5.0637442"/>
<trkpt lat="51.8590535" lon="5.0628174"/>
<trkpt lat="51.8581058" lon="5.0602999"/>
<trkpt lat="51.8577809" lon="5.0605265"/>
<trkpt lat="51.8575610" lon="5.0606479"/>
<trkpt lat="51.8574313" lon="5.0604865"/>
<trkpt lat="51.8571344" lon="5.0596111"/>
<trkpt lat="51.8570395" lon="5.0579178"/>
<trkpt lat="51.8567488" lon="5.0561117"/>
<trkpt lat="51.8564152" lon="5.0545188"/>
</trkseg></trk>
<trk><name>Merckenburgsepad - overstaproute Engelenburgerpad</name><type>connectionRoute</type><trkseg>
<trkpt lat="51.8774116" lon="5.1167941"/>
<trkpt lat="51.8772540" lon="5.1168175"/>
<trkpt lat="51.8770983" lon="5.1169204"/>
<trkpt lat="51.8767644" lon="5.1170184"/>
<trkpt lat="51.8764901" lon="5.1172000"/>
<trkpt lat="51.8760639" lon="5.1174904"/>
<trkpt lat="51.8756115" lon="5.1177151"/>
<trkpt lat="51.8749514" lon="5.1180129"/>
<trkpt lat="51.8743467" lon="5.1182024"/>
<trkpt lat="51.8737496" lon="5.1184759"/>
<trkpt lat="51.8729895" lon="5.1188703"/>
<trkpt lat="51.8725744" lon="5.1191666"/>
<trkpt lat="51.8720742" lon="5.1196014"/>
<trkpt lat="51.8715890" lon="5.1200601"/>
<trkpt lat="51.8710781" lon="5.1206928"/>
<trkpt lat="51.8706343" lon="5.1214390"/>
<trkpt lat="51.8704229" lon="5.1215777"/>
<trkpt lat="51.8700570" lon="5.1216029"/>
<trkpt lat="51.8696107" lon="5.1217514"/>
<trkpt lat="51.8692313" lon="5.1220991"/>
<trkpt lat="51.8690868" lon="5.1222688"/>
<trkpt lat="51.8689616" lon="5.1225958"/>
<trkpt lat="51.8688982" lon="5.1229108"/>
<trkpt lat="51.8688534" lon="5.1230723"/>
<trkpt lat="51.8687349" lon="5.1232073"/>
<trkpt lat="51.8684733" lon="5.1231014"/>
<trkpt lat="51.8678834" lon="5.1228055"/>
<trkpt lat="51.8674441" lon="5.1226254"/>
<trkpt lat="51.8668360" lon="5.1226855"/>
<trkpt lat="51.8665410" lon="5.1226504"/>
<trkpt lat="51.8661119" lon="5.1225129"/>
<trkpt lat="51.8654863" lon="5.1222488"/>
<trkpt lat="51.8647849" lon="5.1219952"/>
<trkpt lat="51.8641530" lon="5.1256799"/>
<trkpt lat="51.8618393" lon="5.1260119"/>
<trkpt lat="51.8598329" lon="5.1262764"/>
<trkpt lat="51.8564238" lon="5.1267358"/>
<trkpt lat="51.8531674" lon="5.1270748"/>
<trkpt lat="51.8519249" lon="5.1272173"/>
<trkpt lat="51.8514184" lon="5.1276886"/>
<trkpt lat="51.8510860" lon="5.1290369"/>
<trkpt lat="51.8506993" lon="5.1304002"/>
<trkpt lat="51.8502571" lon="5.1312808"/>
<trkpt lat="51.8495602" lon="5.1317530"/>
<trkpt lat="51.8489259" lon="5.1317859"/>
<trkpt lat="51.8480192" lon="5.1316447"/>
<trkpt lat="51.8454809" lon="5.1313957"/>
<trkpt lat="51.8439218" lon="5.1312875"/>
<trkpt lat="51.8437324" lon="5.1275719"/>
<trkpt lat="51.8437475" lon="5.1262110"/>
<trkpt lat="51.8433800" lon="5.1239890"/>
<trkpt lat="51.8430405" lon="5.1221473"/>
<trkpt lat="51.8409826" lon="5.1219399"/>
<trkpt lat="51.8390329" lon="5.1214539"/>
<trkpt lat="51.8369471" lon="5.1209249"/>
<trkpt lat="51.8343904" lon="5.1205596"/>
<trkpt lat="51.8319692" lon="5.1199888"/>
<trkpt lat="51.8296296" lon="5.1194468"/>
<trkpt lat="51.8282419" lon="5.1189870"/>
<trkpt lat="51.8266669" lon="5.1182252"/>
</trkseg></trk>
<trk><name>Merckenburgsepad - aanlooproute</name><type>approachRoute</type><trkseg>
<trkpt lat="51.8865924" lon="5.1058474"/>
<trkpt lat="51.8864558" lon="5.1055023"/>
<trkpt lat="51.8861663" lon="5.1052654"/>
<trkpt lat="51.8858027" lon="5.1049906"/>
<trkpt lat="51.8858350" lon="5.1047170"/>
<trkpt lat="51.8857954" lon="5.1045558"/>
<trkpt lat="51.8857381" lon="5.1044467"/>
<trkpt lat="51.8856167" lon="5.1043927"/>
<trkpt lat="51.8854705" lon="5.1044195"/>
<trkpt lat="51.8854505" lon="5.1044361"/>
<trkpt lat="51.8853659" lon="5.1048429"/>
<trkpt lat="51.8843219" lon="5.1043255"/>
</trkseg></trk>
</gpx>