<?xml version="1.0" encoding="UTF-8"?>
<gpx version="1.1" creator="klompenpaden.nl via Jimbo API" xmlns="http://www.topografix.com/GPX/1/1">
<metadata><name>Meulunterenpad</name><desc>Ontdek het mooie buitengebied van Lunteren. Wandelen over zandwegen, door weilanden, langs beken en oude akkergronden. De combinatie van natuur en cultuur bepalen hier de sfeer. Klompen aan, rugzak op en gaan!</desc><link href="https://www.klompenpaden.nl/klompenpaden/Meulunterenpad/4b029393-71d6-41f2-9e29-8cf15d3e1dcd"><text>klompenpaden.nl</text></link></metadata>
<wpt lat="52.09256600036364" lon="5.618176460266113"><name>Start Lunteren</name></wpt>
<trk><name>Meulunterenpad - Geimporteerde shapefile</name><type>mainRoute</type><trkseg>
<trkpt lat="52.0926034" lon="5.6180528"/>
<trkpt lat="52.0925854" lon="5.6178959"/>
<trkpt lat="52.0922170" lon="5.6180306"/>
<trkpt lat="52.0919342" lon="5.6181334"/>
<trkpt lat="52.0913459" lon="5.6183713"/>
<trkpt lat="52.0909433" lon="5.6184781"/>
<trkpt lat="52.0905964" lon="5.6185620"/>
<trkpt lat="52.0903681" lon="5.6186002"/>
<trkpt lat="52.0903465" lon="5.6186603"/>
<trkpt lat="52.0903505" lon="5.6188433"/>
<trkpt lat="52.0904140" lon="5.6191610"/>
<trkpt lat="52.0905130" lon="5.6196433"/>
<trkpt lat="52.0907317" lon="5.6206378"/>
<trkpt lat="52.0911590" lon="5.6225222"/>
<trkpt lat="52.0913096" lon="5.6230345"/>
<trkpt lat="52.0914332" lon="5.6236529"/>
<trkpt lat="52.0916005" lon="5.6246720"/>
<trkpt lat="52.0918118" lon="5.6260293"/>
<trkpt lat="52.0918886" lon="5.6263048"/>
<trkpt lat="52.0919862" lon="5.6265273"/>
<trkpt lat="52.0920778" lon="5.6268028"/>
<trkpt lat="52.0921071" lon="5.6270347"/>
<trkpt lat="52.0921154" lon="5.6273339"/>
<trkpt lat="52.0921030" lon="5.6275800"/>
<trkpt lat="52.0920936" lon="5.6277874"/>
<trkpt lat="52.0920574" lon="5.6280430"/>
<trkpt lat="52.0921456" lon="5.6285164"/>
<trkpt lat="52.0922310" lon="5.6289271"/>
<trkpt lat="52.0923165" lon="5.6292509"/>
<trkpt lat="52.0924054" lon="5.6294107"/>
<trkpt lat="52.0924862" lon="5.6294179"/>
<trkpt lat="52.0926823" lon="5.6295873"/>
<trkpt lat="52.0929383" lon="5.6300056"/>
<trkpt lat="52.0931084" lon="5.6305278"/>
<trkpt lat="52.0931860" lon="5.6309799"/>
<trkpt lat="52.0912863" lon="5.6319193"/>
<trkpt lat="52.0909866" lon="5.6319408"/>
<trkpt lat="52.0920773" lon="5.6357574"/>
<trkpt lat="52.0927151" lon="5.6377763"/>
<trkpt lat="52.0939133" lon="5.6445591"/>
<trkpt lat="52.0939614" lon="5.6449085"/>
<trkpt lat="52.0938205" lon="5.6449890"/>
<trkpt lat="52.0936899" lon="5.6451272"/>
<trkpt lat="52.0935208" lon="5.6450783"/>
<trkpt lat="52.0934476" lon="5.6449966"/>
<trkpt lat="52.0933034" lon="5.6451944"/>
<trkpt lat="52.0931807" lon="5.6454189"/>
<trkpt lat="52.0931416" lon="5.6454942"/>
<trkpt lat="52.0931513" lon="5.6457208"/>
<trkpt lat="52.0931113" lon="5.6459418"/>
<trkpt lat="52.0930394" lon="5.6461986"/>
<trkpt lat="52.0929259" lon="5.6463669"/>
<trkpt lat="52.0928597" lon="5.6466150"/>
<trkpt lat="52.0927147" lon="5.6465520"/>
<trkpt lat="52.0925501" lon="5.6466122"/>
<trkpt lat="52.0924070" lon="5.6467909"/>
<trkpt lat="52.0922691" lon="5.6467028"/>
<trkpt lat="52.0919896" lon="5.6465711"/>
<trkpt lat="52.0918892" lon="5.6465281"/>
<trkpt lat="52.0914499" lon="5.6466067"/>
<trkpt lat="52.0912659" lon="5.6464635"/>
<trkpt lat="52.0910613" lon="5.6464388"/>
<trkpt lat="52.0912326" lon="5.6474395"/>
<trkpt lat="52.0910611" lon="5.6475890"/>
<trkpt lat="52.0909184" lon="5.6475882"/>
<trkpt lat="52.0907397" lon="5.6477377"/>
<trkpt lat="52.0905328" lon="5.6477713"/>
<trkpt lat="52.0903898" lon="5.6478863"/>
<trkpt lat="52.0902043" lon="5.6478736"/>
<trkpt lat="52.0900471" lon="5.6480117"/>
<trkpt lat="52.0898759" lon="5.6480107"/>
<trkpt lat="52.0897685" lon="5.6481606"/>
<trkpt lat="52.0896115" lon="5.6481944"/>
<trkpt lat="52.0895326" lon="5.6483909"/>
<trkpt lat="52.0895026" lon="5.6490393"/>
<trkpt lat="52.0883045" lon="5.6488354"/>
<trkpt lat="52.0884617" lon="5.6550671"/>
<trkpt lat="52.0885273" lon="5.6575691"/>
<trkpt lat="52.0920151" lon="5.6548220"/>
<trkpt lat="52.0924218" lon="5.6543840"/>
<trkpt lat="52.0948334" lon="5.6510973"/>
<trkpt lat="52.0950198" lon="5.6507277"/>
<trkpt lat="52.0952516" lon="5.6523507"/>
<trkpt lat="52.0953926" lon="5.6532874"/>
<trkpt lat="52.0957166" lon="5.6531377"/>
<trkpt lat="52.0957627" lon="5.6537293"/>
<trkpt lat="52.0959206" lon="5.6544131"/>
<trkpt lat="52.0959149" lon="5.6546144"/>
<trkpt lat="52.0959144" lon="5.6548225"/>
<trkpt lat="52.0959780" lon="5.6550310"/>
<trkpt lat="52.0960687" lon="5.6551554"/>
<trkpt lat="52.0962110" lon="5.6553531"/>
<trkpt lat="52.0962529" lon="5.6557472"/>
<trkpt lat="52.0962786" lon="5.6569521"/>
<trkpt lat="52.0963690" lon="5.6579951"/>
<trkpt lat="52.0964674" lon="5.6586444"/>
<trkpt lat="52.0966267" lon="5.6594017"/>
<trkpt lat="52.0967778" lon="5.6601406"/>
<trkpt lat="52.0968738" lon="5.6604921"/>
<trkpt lat="52.0969156" lon="5.6609441"/>
<trkpt lat="52.0968792" lon="5.6612451"/>
<trkpt lat="52.0978549" lon="5.6609328"/>
<trkpt lat="52.0980180" lon="5.6610141"/>
<trkpt lat="52.0985593" lon="5.6606543"/>
<trkpt lat="52.0987219" lon="5.6607293"/>
<trkpt lat="52.0990462" lon="5.6605305"/>
<trkpt lat="52.0995505" lon="5.6603213"/>
<trkpt lat="52.0997505" lon="5.6601990"/>
<trkpt lat="52.0999398" lon="5.6599674"/>
<trkpt lat="52.0999766" lon="5.6597115"/>
<trkpt lat="52.1001508" lon="5.6597517"/>
<trkpt lat="52.1002534" lon="5.6596980"/>
<trkpt lat="52.1002935" lon="5.6593957"/>
<trkpt lat="52.1003886" lon="5.6594549"/>
<trkpt lat="52.1006410" lon="5.6609881"/>
<trkpt lat="52.1008371" lon="5.6621491"/>
<trkpt lat="52.1011345" lon="5.6638928"/>
<trkpt lat="52.1013650" lon="5.6637431"/>
<trkpt lat="52.1014216" lon="5.6638264"/>
<trkpt lat="52.1016212" lon="5.6652482"/>
<trkpt lat="52.1017297" lon="5.6651702"/>
<trkpt lat="52.1028042" lon="5.6644407"/>
<trkpt lat="52.1036387" lon="5.6637724"/>
<trkpt lat="52.1039939" lon="5.6635416"/>
<trkpt lat="52.1041619" lon="5.6634499"/>
<trkpt lat="52.1040737" lon="5.6623770"/>
<trkpt lat="52.1039905" lon="5.6621874"/>
<trkpt lat="52.1039628" lon="5.6609414"/>
<trkpt lat="52.1039380" lon="5.6595650"/>
<trkpt lat="52.1039132" lon="5.6581886"/>
<trkpt lat="52.1039113" lon="5.6580805"/>
<trkpt lat="52.1041583" lon="5.6579888"/>
<trkpt lat="52.1061284" lon="5.6572707"/>
<trkpt lat="52.1071296" lon="5.6569050"/>
<trkpt lat="52.1070367" lon="5.6562278"/>
<trkpt lat="52.1068997" lon="5.6552148"/>
<trkpt lat="52.1066543" lon="5.6534918"/>
<trkpt lat="52.1065557" lon="5.6527505"/>
<trkpt lat="52.1064507" lon="5.6520547"/>
<trkpt lat="52.1061054" lon="5.6499075"/>
<trkpt lat="52.1057338" lon="5.6475118"/>
<trkpt lat="52.1059346" lon="5.6459297"/>
<trkpt lat="52.1062158" lon="5.6440084"/>
<trkpt lat="52.1062371" lon="5.6438521"/>
<trkpt lat="52.1062160" lon="5.6438446"/>
<trkpt lat="52.1061455" lon="5.6438765"/>
<trkpt lat="52.1054775" lon="5.6441787"/>
<trkpt lat="52.1046347" lon="5.6445598"/>
<trkpt lat="52.1041586" lon="5.6448095"/>
<trkpt lat="52.1040199" lon="5.6448823"/>
<trkpt lat="52.1037710" lon="5.6451920"/>
<trkpt lat="52.1036466" lon="5.6452701"/>
<trkpt lat="52.1034946" lon="5.6453337"/>
<trkpt lat="52.1028420" lon="5.6454521"/>
<trkpt lat="52.1025260" lon="5.6455821"/>
<trkpt lat="52.1019006" lon="5.6458698"/>
<trkpt lat="52.1014864" lon="5.6460450"/>
<trkpt lat="52.1009360" lon="5.6461695"/>
<trkpt lat="52.1010755" lon="5.6458861"/>
<trkpt lat="52.1011778" lon="5.6452411"/>
<trkpt lat="52.1010885" lon="5.6451695"/>
<trkpt lat="52.1009561" lon="5.6448166"/>
<trkpt lat="52.1009013" lon="5.6446556"/>
<trkpt lat="52.1004769" lon="5.6438407"/>
<trkpt lat="52.1001977" lon="5.6436228"/>
<trkpt lat="52.0998845" lon="5.6433090"/>
<trkpt lat="52.0996489" lon="5.6431625"/>
<trkpt lat="52.0994323" lon="5.6430500"/>
<trkpt lat="52.0993620" lon="5.6429848"/>
<trkpt lat="52.0993147" lon="5.6428548"/>
<trkpt lat="52.1000225" lon="5.6419413"/>
<trkpt lat="52.0999544" lon="5.6417865"/>
<trkpt lat="52.0999758" lon="5.6415796"/>
<trkpt lat="52.0999740" lon="5.6414931"/>
<trkpt lat="52.1003056" lon="5.6412540"/>
<trkpt lat="52.1005441" lon="5.6409310"/>
<trkpt lat="52.1007140" lon="5.6406385"/>
<trkpt lat="52.1007503" lon="5.6405862"/>
<trkpt lat="52.1006659" lon="5.6400266"/>
<trkpt lat="52.1005563" lon="5.6396676"/>
<trkpt lat="52.1005166" lon="5.6395562"/>
<trkpt lat="52.1003579" lon="5.6390394"/>
<trkpt lat="52.1003753" lon="5.6389252"/>
<trkpt lat="52.1003375" lon="5.6388076"/>
<trkpt lat="52.0999250" lon="5.6377425"/>
<trkpt lat="52.0996639" lon="5.6370429"/>
<trkpt lat="52.0993987" lon="5.6365317"/>
<trkpt lat="52.0990310" lon="5.6358810"/>
<trkpt lat="52.0988112" lon="5.6354596"/>
<trkpt lat="52.0977318" lon="5.6339956"/>
<trkpt lat="52.0973013" lon="5.6333322"/>
<trkpt lat="52.0971457" lon="5.6331182"/>
<trkpt lat="52.0969103" lon="5.6328821"/>
<trkpt lat="52.0966635" lon="5.6326213"/>
<trkpt lat="52.0964509" lon="5.6324162"/>
<trkpt lat="52.0962176" lon="5.6320505"/>
<trkpt lat="52.0960261" lon="5.6317560"/>
<trkpt lat="52.0959270" lon="5.6315716"/>
<trkpt lat="52.0960524" lon="5.6312634"/>
<trkpt lat="52.0961541" lon="5.6309599"/>
<trkpt lat="52.0962803" lon="5.6303525"/>
<trkpt lat="52.0963137" lon="5.6300003"/>
<trkpt lat="52.0963104" lon="5.6295563"/>
<trkpt lat="52.0959576" lon="5.6276624"/>
<trkpt lat="52.0960342" lon="5.6273925"/>
<trkpt lat="52.0961774" lon="5.6271462"/>
<trkpt lat="52.0965583" lon="5.6269629"/>
<trkpt lat="52.0970920" lon="5.6264870"/>
<trkpt lat="52.0971967" lon="5.6264180"/>
<trkpt lat="52.0979397" lon="5.6259355"/>
<trkpt lat="52.0975429" lon="5.6245665"/>
<trkpt lat="52.0971689" lon="5.6237382"/>
<trkpt lat="52.0968604" lon="5.6234045"/>
<trkpt lat="52.0962523" lon="5.6230460"/>
<trkpt lat="52.0957536" lon="5.6227191"/>
<trkpt lat="52.0955874" lon="5.6225792"/>
<trkpt lat="52.0948665" lon="5.6215329"/>
<trkpt lat="52.0948333" lon="5.6214941"/>
<trkpt lat="52.0955161" lon="5.6201695"/>
<trkpt lat="52.0953882" lon="5.6198908"/>
<trkpt lat="52.0949285" lon="5.6190313"/>
<trkpt lat="52.0954625" lon="5.6183854"/>
<trkpt lat="52.0955485" lon="5.6181850"/>
<trkpt lat="52.0957450" lon="5.6174061"/>
<trkpt lat="52.0951086" lon="5.6169395"/>
<trkpt lat="52.0949233" lon="5.6168382"/>
<trkpt lat="52.0946995" lon="5.6169914"/>
<trkpt lat="52.0944994" lon="5.6171835"/>
<trkpt lat="52.0942328" lon="5.6172825"/>
<trkpt lat="52.0938473" lon="5.6174040"/>
<trkpt lat="52.0934999" lon="5.6175181"/>
<trkpt lat="52.0930430" lon="5.6176856"/>
<trkpt lat="52.0926812" lon="5.6178382"/>
<trkpt lat="52.0925967" lon="5.6178922"/>
<trkpt lat="52.0926034" lon="5.6180528"/>
</trkseg></trk>
<trk><name>Meulunterenpad - Geimporteerde shapefile</name><type>shorteningRoute</type><trkseg>
<trkpt lat="52.0950239" lon="5.6507564"/>
<trkpt lat="52.0993456" lon="5.6429397"/>
</trkseg></trk>
<trk><name>Meulunterenpad - Geimporteerde shapefile</name><type>connectionRoute</type><trkseg>
<trkpt lat="52.0702061" lon="5.6442230"/>
<trkpt lat="52.0715390" lon="5.6437290"/>
<trkpt lat="52.0720626" lon="5.6435390"/>
<trkpt lat="52.0735112" lon="5.6444350"/>
<trkpt lat="52.0741769" lon="5.6445546"/>
<trkpt lat="52.0744587" lon="5.6444661"/>
<trkpt lat="52.0749296" lon="5.6442158"/>
<trkpt lat="52.0753392" lon="5.6438775"/>
<trkpt lat="52.0761159" lon="5.6430393"/>
<trkpt lat="52.0766080" lon="5.6422969"/>
<trkpt lat="52.0771511" lon="5.6414833"/>
<trkpt lat="52.0779101" lon="5.6407632"/>
<trkpt lat="52.0789666" lon="5.6400277"/>
<trkpt lat="52.0799666" lon="5.6394930"/>
<trkpt lat="52.0810390" lon="5.6384569"/>
<trkpt lat="52.0818022" lon="5.6373804"/>
<trkpt lat="52.0842310" lon="5.6359272"/>
<trkpt lat="52.0859211" lon="5.6351259"/>
<trkpt lat="52.0867545" lon="5.6346287"/>
<trkpt lat="52.0876364" lon="5.6336685"/>
<trkpt lat="52.0889224" lon="5.6327876"/>
<trkpt lat="52.0902079" lon="5.6321384"/>
<trkpt lat="52.0909866" lon="5.6319408"/>
</trkseg></trk>
<trk><name>Meulunterenpad - Geimporteerde shapefile</name><type>connectionRoute</type><trkseg>
<trkpt lat="52.0946446" lon="5.6170455"/>
<trkpt lat="52.0941421" lon="5.6136467"/>
<trkpt lat="52.0920767" lon="5.6128746"/>
<trkpt lat="52.0952387" lon="5.6013678"/>
<trkpt lat="52.0951930" lon="5.6012103"/>
<trkpt lat="52.0950517" lon="5.6011086"/>
<trkpt lat="52.0966175" lon="5.5952620"/>
<trkpt lat="52.0967450" lon="5.5953602"/>
<trkpt lat="52.0968147" lon="5.5952715"/>
<trkpt lat="52.0971013" lon="5.5929911"/>
<trkpt lat="52.0949531" lon="5.5944901"/>
<trkpt lat="52.0935423" lon="5.5951939"/>
<trkpt lat="52.0921413" lon="5.5957037"/>
<trkpt lat="52.0907107" lon="5.5962454"/>
<trkpt lat="52.0899286" lon="5.5971920"/>
<trkpt lat="52.0895381" lon="5.5974219"/>
<trkpt lat="52.0892158" lon="5.5973034"/>
<trkpt lat="52.0885445" lon="5.5968915"/>
<trkpt lat="52.0876512" lon="5.5970532"/>
<trkpt lat="52.0873530" lon="5.5934440"/>
<trkpt lat="52.0882868" lon="5.5931971"/>
<trkpt lat="52.0888325" lon="5.5924372"/>
<trkpt lat="52.0891025" lon="5.5907170"/>
</trkseg></trk>
<trk><name>Meulunterenpad - Geimporteerde shapefile</name><type>approachRoute</type><trkseg>
<trkpt lat="52.1041619" lon="5.6634499"/>
<trkpt lat="52.1043436" lon="5.6651754"/>
<trkpt lat="52.1065550" lon="5.6630181"/>
<trkpt lat="52.1066480" lon="5.6629891"/>
<trkpt lat="52.1069431" lon="5.6650200"/>
<trkpt lat="52.1069510" lon="5.6652503"/>
<trkpt lat="52.1071762" lon="5.6653474"/>
<trkpt lat="52.1073512" lon="5.6653296"/>
<trkpt lat="52.1074507" lon="5.6653671"/>
<trkpt lat="52.1074497" lon="5.6657784"/>
<trkpt lat="52.1074886" lon="5.6659467"/>
<trkpt lat="52.1077982" lon="5.6662325"/>
<trkpt lat="52.1077330" lon="5.6666492"/>
<trkpt lat="52.1077104" lon="5.6668955"/>
<trkpt lat="52.1077526" lon="5.6669809"/>
<trkpt lat="52.1080093" lon="5.6670134"/>
<trkpt lat="52.1082421" lon="5.6671230"/>
<trkpt lat="52.1084748" lon="5.6672789"/>
<trkpt lat="52.1085859" lon="5.6675086"/>
</trkseg></trk>
<trk><name>Meulunterenpad - Geimporteerde shapefile</name><type>approachRoute</type><trkseg>
<trkpt lat="52.0851394" lon="5.6238874"/>
<trkpt lat="52.0852007" lon="5.6238831"/>
<trkpt lat="52.0854921" lon="5.6237202"/>
<trkpt lat="52.0854696" lon="5.6235788"/>
<trkpt lat="52.0858981" lon="5.6233541"/>
<trkpt lat="52.0864766" lon="5.6230699"/>
<trkpt lat="52.0865322" lon="5.6230633"/>
<trkpt lat="52.0865531" lon="5.6233320"/>
<trkpt lat="52.0867259" lon="5.6232612"/>
<trkpt lat="52.0869372" lon="5.6231673"/>
<trkpt lat="52.0876314" lon="5.6227888"/>
<trkpt lat="52.0877843" lon="5.6226830"/>
<trkpt lat="52.0878546" lon="5.6225236"/>
<trkpt lat="52.0881690" lon="5.6222380"/>
<trkpt lat="52.0883150" lon="5.6220512"/>
<trkpt lat="52.0884539" lon="5.6217925"/>
<trkpt lat="52.0885766" lon="5.6215860"/>
<trkpt lat="52.0886243" lon="5.6215129"/>
<trkpt lat="52.0886819" lon="5.6212681"/>
<trkpt lat="52.0887228" lon="5.6210154"/>
<trkpt lat="52.0886941" lon="5.6205404"/>
<trkpt lat="52.0886360" lon="5.6198337"/>
<trkpt lat="52.0885760" lon="5.6189300"/>
<trkpt lat="52.0886248" lon="5.6188974"/>
<trkpt lat="52.0886308" lon="5.6188492"/>
<trkpt lat="52.0887177" lon="5.6188265"/>
<trkpt lat="52.0903681" lon="5.6186002"/>
</trkseg></trk>
</gpx>