<?xml version="1.0" encoding="UTF-8"?>
<gpx version="1.1" creator="klompenpaden.nl via Jimbo API" xmlns="http://www.topografix.com/GPX/1/1">
<metadata><name>Moas-Wetteringpad</name><desc>Ontdek het afwisselende buitengebied van Alphen aan de Maas. Wandelen door fruitgaarden, over boerenland en uitgestrekte uiterwaarden. Klompen aan, rugzak op en gaan!</desc><link href="https://www.klompenpaden.nl/klompenpaden/Moas-Wetteringpad/88fb1a04-5fe4-4535-a25a-1b971e465b57"><text>klompenpaden.nl</text></link></metadata>
<wpt lat="51.822121920649664" lon="5.4723018407821655"><name>Start Alphen aan de Maas</name></wpt>
<trk><name>Moas-Wetteringpad - mainRoute</name><type>mainRoute</type><trkseg>
<trkpt lat="51.8184100" lon="5.4761400"/>
<trkpt lat="51.8184300" lon="5.4752200"/>
<trkpt lat="51.8184900" lon="5.4745400"/>
<trkpt lat="51.8187200" lon="5.4743600"/>
<trkpt lat="51.8192400" lon="5.4742000"/>
<trkpt lat="51.8203400" lon="5.4744400"/>
<trkpt lat="51.8209500" lon="5.4729100"/>
<trkpt lat="51.8212400" lon="5.4729500"/>
<trkpt lat="51.8213400" lon="5.4727300"/>
<trkpt lat="51.8213400" lon="5.4726300"/>
<trkpt lat="51.8214700" lon="5.4726200"/>
<trkpt lat="51.8215400" lon="5.4727500"/>
<trkpt lat="51.8218600" lon="5.4730900"/>
<trkpt lat="51.8221500" lon="5.4725900"/>
<trkpt lat="51.8221300" lon="5.4724900"/>
</trkseg></trk>
<trk><name>Moas-Wetteringpad - mainRoute</name><type>mainRoute</type><trkseg>
<trkpt lat="51.8176600" lon="5.4753100"/>
<trkpt lat="51.8168300" lon="5.4748500"/>
<trkpt lat="51.8161100" lon="5.4741200"/>
<trkpt lat="51.8158300" lon="5.4736700"/>
<trkpt lat="51.8158500" lon="5.4734800"/>
<trkpt lat="51.8156000" lon="5.4727900"/>
<trkpt lat="51.8155700" lon="5.4723400"/>
<trkpt lat="51.8155100" lon="5.4719300"/>
<trkpt lat="51.8153100" lon="5.4715100"/>
<trkpt lat="51.8145600" lon="5.4704600"/>
<trkpt lat="51.8145500" lon="5.4701200"/>
<trkpt lat="51.8147200" lon="5.4699100"/>
<trkpt lat="51.8146900" lon="5.4686800"/>
<trkpt lat="51.8142000" lon="5.4660900"/>
<trkpt lat="51.8141000" lon="5.4657200"/>
<trkpt lat="51.8140800" lon="5.4653300"/>
<trkpt lat="51.8141300" lon="5.4649500"/>
<trkpt lat="51.8145900" lon="5.4640500"/>
<trkpt lat="51.8146400" lon="5.4633800"/>
<trkpt lat="51.8144100" lon="5.4628200"/>
<trkpt lat="51.8139200" lon="5.4632800"/>
<trkpt lat="51.8137100" lon="5.4636300"/>
<trkpt lat="51.8134600" lon="5.4642000"/>
<trkpt lat="51.8132700" lon="5.4645600"/>
<trkpt lat="51.8128400" lon="5.4650500"/>
<trkpt lat="51.8122000" lon="5.4645600"/>
<trkpt lat="51.8121300" lon="5.4639700"/>
<trkpt lat="51.8115500" lon="5.4596700"/>
<trkpt lat="51.8113000" lon="5.4594600"/>
<trkpt lat="51.8112600" lon="5.4579200"/>
<trkpt lat="51.8113200" lon="5.4570500"/>
<trkpt lat="51.8113900" lon="5.4570100"/>
<trkpt lat="51.8114800" lon="5.4562800"/>
<trkpt lat="51.8117600" lon="5.4552200"/>
<trkpt lat="51.8121100" lon="5.4551600"/>
<trkpt lat="51.8118600" lon="5.4546400"/>
<trkpt lat="51.8121600" lon="5.4542000"/>
<trkpt lat="51.8120300" lon="5.4528200"/>
<trkpt lat="51.8111300" lon="5.4504600"/>
<trkpt lat="51.8109900" lon="5.4491800"/>
<trkpt lat="51.8111500" lon="5.4478600"/>
<trkpt lat="51.8119500" lon="5.4469700"/>
<trkpt lat="51.8123200" lon="5.4470000"/>
<trkpt lat="51.8126200" lon="5.4478500"/>
<trkpt lat="51.8136200" lon="5.4497200"/>
<trkpt lat="51.8139800" lon="5.4513600"/>
<trkpt lat="51.8143800" lon="5.4519200"/>
<trkpt lat="51.8162400" lon="5.4572400"/>
<trkpt lat="51.8161800" lon="5.4589400"/>
<trkpt lat="51.8160300" lon="5.4599300"/>
<trkpt lat="51.8156400" lon="5.4609900"/>
<trkpt lat="51.8150500" lon="5.4616000"/>
<trkpt lat="51.8148300" lon="5.4619900"/>
<trkpt lat="51.8147500" lon="5.4627200"/>
<trkpt lat="51.8149800" lon="5.4627900"/>
<trkpt lat="51.8151500" lon="5.4632500"/>
<trkpt lat="51.8152000" lon="5.4635200"/>
<trkpt lat="51.8152800" lon="5.4637800"/>
<trkpt lat="51.8153700" lon="5.4640300"/>
<trkpt lat="51.8156700" lon="5.4632700"/>
<trkpt lat="51.8163600" lon="5.4641900"/>
<trkpt lat="51.8174200" lon="5.4662300"/>
<trkpt lat="51.8177800" lon="5.4670300"/>
<trkpt lat="51.8182500" lon="5.4680100"/>
<trkpt lat="51.8185900" lon="5.4688100"/>
<trkpt lat="51.8191300" lon="5.4703600"/>
<trkpt lat="51.8195200" lon="5.4707500"/>
<trkpt lat="51.8200200" lon="5.4709000"/>
<trkpt lat="51.8204500" lon="5.4706700"/>
<trkpt lat="51.8207300" lon="5.4683300"/>
<trkpt lat="51.8207300" lon="5.4664700"/>
<trkpt lat="51.8202200" lon="5.4650300"/>
<trkpt lat="51.8227700" lon="5.4608200"/>
<trkpt lat="51.8238800" lon="5.4622000"/>
<trkpt lat="51.8255000" lon="5.4594500"/>
<trkpt lat="51.8270800" lon="5.4614600"/>
<trkpt lat="51.8283600" lon="5.4636700"/>
<trkpt lat="51.8266000" lon="5.4664700"/>
<trkpt lat="51.8284000" lon="5.4702500"/>
<trkpt lat="51.8291600" lon="5.4716300"/>
<trkpt lat="51.8303000" lon="5.4727000"/>
<trkpt lat="51.8313400" lon="5.4706600"/>
<trkpt lat="51.8346000" lon="5.4750400"/>
<trkpt lat="51.8334700" lon="5.4772500"/>
<trkpt lat="51.8330800" lon="5.4777800"/>
<trkpt lat="51.8320700" lon="5.4797400"/>
<trkpt lat="51.8312700" lon="5.4813600"/>
<trkpt lat="51.8315500" lon="5.4824700"/>
<trkpt lat="51.8314500" lon="5.4832100"/>
<trkpt lat="51.8313200" lon="5.4825700"/>
<trkpt lat="51.8311300" lon="5.4820200"/>
<trkpt lat="51.8309300" lon="5.4815400"/>
<trkpt lat="51.8307500" lon="5.4809700"/>
<trkpt lat="51.8300800" lon="5.4822300"/>
<trkpt lat="51.8293700" lon="5.4830000"/>
<trkpt lat="51.8281900" lon="5.4813300"/>
<trkpt lat="51.8267800" lon="5.4797200"/>
<trkpt lat="51.8246200" lon="5.4782800"/>
<trkpt lat="51.8193500" lon="5.4767300"/>
<trkpt lat="51.8178100" lon="5.4757600"/>
<trkpt lat="51.8176600" lon="5.4753100"/>
</trkseg></trk>
<trk><name>Moas-Wetteringpad - shorteningRoute</name><type>shorteningRoute</type><trkseg>
<trkpt lat="51.8147500" lon="5.4627200"/>
<trkpt lat="51.8145400" lon="5.4627100"/>
<trkpt lat="51.8144100" lon="5.4627900"/>
</trkseg></trk>
<trk><name>Moas-Wetteringpad - shorteningRoute</name><type>shorteningRoute</type><trkseg>
<trkpt lat="51.8266000" lon="5.4664700"/>
<trkpt lat="51.8243800" lon="5.4699000"/>
<trkpt lat="51.8234100" lon="5.4712600"/>
<trkpt lat="51.8223800" lon="5.4724100"/>
<trkpt lat="51.8221900" lon="5.4725300"/>
<trkpt lat="51.8221300" lon="5.4724900"/>
</trkseg></trk>
<trk><name>Moas-Wetteringpad - overstaproute</name><type>connectionRoute</type><trkseg>
<trkpt lat="51.8283600" lon="5.4636400"/>
<trkpt lat="51.8291500" lon="5.4623700"/>
<trkpt lat="51.8304000" lon="5.4612800"/>
<trkpt lat="51.8318300" lon="5.4601300"/>
<trkpt lat="51.8324100" lon="5.4595500"/>
<trkpt lat="51.8333700" lon="5.4582100"/>
<trkpt lat="51.8350900" lon="5.4559900"/>
<trkpt lat="51.8362300" lon="5.4544900"/>
</trkseg></trk>
<trk><name>Moas-Wetteringpad - approachRoute</name><type>approachRoute</type><trkseg>
<trkpt lat="51.8119500" lon="5.4469400"/>
<trkpt lat="51.8120800" lon="5.4466900"/>
<trkpt lat="51.8120700" lon="5.4458700"/>
<trkpt lat="51.8120800" lon="5.4448100"/>
<trkpt lat="51.8122300" lon="5.4445000"/>
<trkpt lat="51.8127100" lon="5.4443800"/>
<trkpt lat="51.8128500" lon="5.4445700"/>
<trkpt lat="51.8128300" lon="5.4448800"/>
</trkseg></trk>
</gpx>