<?xml version="1.0" encoding="UTF-8"?>
<gpx version="1.1" creator="klompenpaden.nl via Jimbo API" xmlns="http://www.topografix.com/GPX/1/1">
<metadata><name>Molenbeeksepad</name><desc>Ontdek het mooie buitengebied van Wolfheze, Heelsum en Renkum. U wandelt door bos en beekdalen, over hei en langs historische plaatsen. Rust, natuur en cultuurhistorie bepalen hier de sfeer. Klompen aan, rugzak op en gaan!</desc><link href="https://www.klompenpaden.nl/klompenpaden/Molenbeeksepad/b5352b3c-7dd0-4aee-9c50-a3c8cc3e1e90"><text>klompenpaden.nl</text></link></metadata>
<wpt lat="52.005372107143614" lon="5.79153299331665"><name>Start Wolfheze</name></wpt>
<trk><name>Molenbeeksepad - Hoofdroute Noord</name><type>mainRoute</type><trkseg>
<trkpt lat="51.9933731" lon="5.7332730"/>
<trkpt lat="51.9940338" lon="5.7330733"/>
<trkpt lat="51.9947124" lon="5.7336178"/>
<trkpt lat="51.9954248" lon="5.7339547"/>
<trkpt lat="51.9955813" lon="5.7341331"/>
<trkpt lat="51.9958839" lon="5.7347287"/>
<trkpt lat="51.9971200" lon="5.7348924"/>
<trkpt lat="51.9975379" lon="5.7351422"/>
<trkpt lat="51.9974842" lon="5.7372108"/>
<trkpt lat="51.9977328" lon="5.7395629"/>
<trkpt lat="51.9993692" lon="5.7390941"/>
<trkpt lat="52.0007915" lon="5.7386333"/>
<trkpt lat="52.0024345" lon="5.7399370"/>
<trkpt lat="52.0050322" lon="5.7420382"/>
<trkpt lat="52.0055693" lon="5.7424805"/>
<trkpt lat="52.0063936" lon="5.7431710"/>
<trkpt lat="52.0079712" lon="5.7444456"/>
<trkpt lat="52.0073064" lon="5.7468924"/>
<trkpt lat="52.0066630" lon="5.7492764"/>
<trkpt lat="52.0073396" lon="5.7496576"/>
<trkpt lat="52.0058315" lon="5.7547511"/>
<trkpt lat="52.0053565" lon="5.7564331"/>
<trkpt lat="52.0061222" lon="5.7568440"/>
<trkpt lat="52.0061386" lon="5.7572873"/>
<trkpt lat="52.0066220" lon="5.7586111"/>
<trkpt lat="52.0068768" lon="5.7588733"/>
<trkpt lat="52.0093043" lon="5.7601748"/>
<trkpt lat="52.0094156" lon="5.7607153"/>
<trkpt lat="52.0094841" lon="5.7616118"/>
<trkpt lat="52.0094930" lon="5.7625561"/>
<trkpt lat="52.0094328" lon="5.7627771"/>
<trkpt lat="52.0093789" lon="5.7629116"/>
<trkpt lat="52.0098644" lon="5.7635322"/>
<trkpt lat="52.0102791" lon="5.7639789"/>
<trkpt lat="52.0102786" lon="5.7641427"/>
<trkpt lat="52.0108779" lon="5.7645042"/>
<trkpt lat="52.0113290" lon="5.7647489"/>
<trkpt lat="52.0152027" lon="5.7680735"/>
<trkpt lat="52.0150400" lon="5.7687283"/>
<trkpt lat="52.0150013" lon="5.7690874"/>
<trkpt lat="52.0149736" lon="5.7692650"/>
<trkpt lat="52.0147156" lon="5.7700383"/>
<trkpt lat="52.0144005" lon="5.7710025"/>
<trkpt lat="52.0145049" lon="5.7710984"/>
<trkpt lat="52.0146956" lon="5.7710424"/>
<trkpt lat="52.0148507" lon="5.7709657"/>
<trkpt lat="52.0150015" lon="5.7709534"/>
<trkpt lat="52.0151102" lon="5.7710086"/>
<trkpt lat="52.0151852" lon="5.7711110"/>
<trkpt lat="52.0152395" lon="5.7711590"/>
<trkpt lat="52.0152897" lon="5.7711493"/>
<trkpt lat="52.0153884" lon="5.7710721"/>
<trkpt lat="52.0155015" lon="5.7710527"/>
<trkpt lat="52.0156215" lon="5.7711063"/>
<trkpt lat="52.0157828" lon="5.7713270"/>
<trkpt lat="52.0159933" lon="5.7714435"/>
<trkpt lat="52.0161004" lon="5.7717200"/>
<trkpt lat="52.0161193" lon="5.7719376"/>
<trkpt lat="52.0161212" lon="5.7723352"/>
<trkpt lat="52.0161533" lon="5.7725475"/>
<trkpt lat="52.0160965" lon="5.7728119"/>
<trkpt lat="52.0160350" lon="5.7730692"/>
<trkpt lat="52.0159401" lon="5.7732618"/>
<trkpt lat="52.0157426" lon="5.7734908"/>
<trkpt lat="52.0156833" lon="5.7737040"/>
<trkpt lat="52.0156735" lon="5.7739526"/>
<trkpt lat="52.0156943" lon="5.7741105"/>
<trkpt lat="52.0157231" lon="5.7743286"/>
<trkpt lat="52.0157142" lon="5.7744914"/>
<trkpt lat="52.0156528" lon="5.7747114"/>
<trkpt lat="52.0156081" lon="5.7749315"/>
<trkpt lat="52.0155154" lon="5.7751038"/>
<trkpt lat="52.0153389" lon="5.7753160"/>
<trkpt lat="52.0152839" lon="5.7754885"/>
<trkpt lat="52.0151616" lon="5.7757317"/>
<trkpt lat="52.0150336" lon="5.7758358"/>
<trkpt lat="52.0148617" lon="5.7759157"/>
<trkpt lat="52.0147944" lon="5.7759898"/>
<trkpt lat="52.0147249" lon="5.7761317"/>
<trkpt lat="52.0146471" lon="5.7762396"/>
<trkpt lat="52.0145297" lon="5.7762894"/>
<trkpt lat="52.0144247" lon="5.7763869"/>
<trkpt lat="52.0141649" lon="5.7764627"/>
<trkpt lat="52.0137104" lon="5.7765266"/>
<trkpt lat="52.0135368" lon="5.7765593"/>
<trkpt lat="52.0134402" lon="5.7766174"/>
<trkpt lat="52.0133175" lon="5.7768669"/>
<trkpt lat="52.0132202" lon="5.7771284"/>
<trkpt lat="52.0131212" lon="5.7773634"/>
<trkpt lat="52.0128378" lon="5.7778237"/>
<trkpt lat="52.0127753" lon="5.7779941"/>
<trkpt lat="52.0127568" lon="5.7781060"/>
<trkpt lat="52.0127758" lon="5.7784157"/>
<trkpt lat="52.0127680" lon="5.7785689"/>
<trkpt lat="52.0127385" lon="5.7786954"/>
<trkpt lat="52.0126634" lon="5.7788303"/>
<trkpt lat="52.0124734" lon="5.7790969"/>
<trkpt lat="52.0124220" lon="5.7792380"/>
<trkpt lat="52.0124125" lon="5.7793528"/>
<trkpt lat="52.0124320" lon="5.7795092"/>
<trkpt lat="52.0125038" lon="5.7797899"/>
<trkpt lat="52.0125634" lon="5.7799142"/>
<trkpt lat="52.0126468" lon="5.7799946"/>
<trkpt lat="52.0128541" lon="5.7800141"/>
<trkpt lat="52.0130394" lon="5.7800776"/>
<trkpt lat="52.0131530" lon="5.7801081"/>
<trkpt lat="52.0132083" lon="5.7801705"/>
<trkpt lat="52.0132174" lon="5.7802485"/>
<trkpt lat="52.0132000" lon="5.7803312"/>
<trkpt lat="52.0131485" lon="5.7804413"/>
<trkpt lat="52.0130488" lon="5.7805187"/>
<trkpt lat="52.0129490" lon="5.7805916"/>
<trkpt lat="52.0128548" lon="5.7807381"/>
<trkpt lat="52.0127552" lon="5.7807557"/>
<trkpt lat="52.0126334" lon="5.7807203"/>
<trkpt lat="52.0124463" lon="5.7806400"/>
<trkpt lat="52.0123360" lon="5.7804141"/>
<trkpt lat="52.0122385" lon="5.7805145"/>
<trkpt lat="52.0121462" lon="5.7805618"/>
<trkpt lat="52.0119108" lon="5.7805741"/>
<trkpt lat="52.0118129" lon="5.7806380"/>
<trkpt lat="52.0116923" lon="5.7808385"/>
<trkpt lat="52.0115812" lon="5.7808807"/>
<trkpt lat="52.0114125" lon="5.7808648"/>
<trkpt lat="52.0112170" lon="5.7807255"/>
<trkpt lat="52.0105564" lon="5.7827397"/>
<trkpt lat="52.0096015" lon="5.7855926"/>
<trkpt lat="52.0085863" lon="5.7886761"/>
<trkpt lat="52.0079673" lon="5.7905877"/>
<trkpt lat="52.0079552" lon="5.7906647"/>
<trkpt lat="52.0071840" lon="5.7901761"/>
<trkpt lat="52.0070651" lon="5.7901654"/>
<trkpt lat="52.0068743" lon="5.7903371"/>
<trkpt lat="52.0067014" lon="5.7904704"/>
<trkpt lat="52.0064245" lon="5.7914505"/>
<trkpt lat="52.0062196" lon="5.7922483"/>
<trkpt lat="52.0059349" lon="5.7920530"/>
<trkpt lat="52.0056799" lon="5.7918677"/>
<trkpt lat="52.0055557" lon="5.7916835"/>
</trkseg></trk>
<trk><name>Molenbeeksepad - Hoofdroute Zuid</name><type>mainRoute</type><trkseg>
<trkpt lat="52.0055557" lon="5.7916739"/>
<trkpt lat="52.0054604" lon="5.7917405"/>
<trkpt lat="52.0052498" lon="5.7916949"/>
<trkpt lat="52.0050591" lon="5.7918377"/>
<trkpt lat="52.0050002" lon="5.7916830"/>
<trkpt lat="52.0049955" lon="5.7913072"/>
<trkpt lat="52.0050276" lon="5.7906332"/>
<trkpt lat="52.0050658" lon="5.7898725"/>
<trkpt lat="52.0048182" lon="5.7892730"/>
<trkpt lat="52.0046766" lon="5.7889442"/>
<trkpt lat="52.0045403" lon="5.7888274"/>
<trkpt lat="52.0042629" lon="5.7882373"/>
<trkpt lat="52.0042348" lon="5.7877457"/>
<trkpt lat="52.0042835" lon="5.7874090"/>
<trkpt lat="52.0042795" lon="5.7868406"/>
<trkpt lat="52.0036193" lon="5.7869214"/>
<trkpt lat="52.0036928" lon="5.7862959"/>
<trkpt lat="52.0036578" lon="5.7860741"/>
<trkpt lat="52.0034971" lon="5.7861497"/>
<trkpt lat="52.0033546" lon="5.7860810"/>
<trkpt lat="52.0031884" lon="5.7860121"/>
<trkpt lat="52.0028794" lon="5.7859612"/>
<trkpt lat="52.0026295" lon="5.7860264"/>
<trkpt lat="52.0023735" lon="5.7861204"/>
<trkpt lat="52.0021357" lon="5.7861087"/>
<trkpt lat="52.0018802" lon="5.7860679"/>
<trkpt lat="52.0017555" lon="5.7860282"/>
<trkpt lat="52.0015771" lon="5.7860267"/>
<trkpt lat="52.0011196" lon="5.7859455"/>
<trkpt lat="52.0009056" lon="5.7859340"/>
<trkpt lat="52.0008951" lon="5.7855197"/>
<trkpt lat="52.0008850" lon="5.7849898"/>
<trkpt lat="52.0008787" lon="5.7845332"/>
<trkpt lat="52.0005460" lon="5.7845535"/>
<trkpt lat="52.0004769" lon="5.7844059"/>
<trkpt lat="52.0000426" lon="5.7844017"/>
<trkpt lat="52.0000053" lon="5.7831615"/>
<trkpt lat="52.0000006" lon="5.7827954"/>
<trkpt lat="52.0005776" lon="5.7827138"/>
<trkpt lat="52.0005067" lon="5.7808060"/>
<trkpt lat="51.9989678" lon="5.7813178"/>
<trkpt lat="51.9979327" lon="5.7815924"/>
<trkpt lat="51.9972378" lon="5.7819025"/>
<trkpt lat="51.9962266" lon="5.7827717"/>
<trkpt lat="51.9959599" lon="5.7829383"/>
<trkpt lat="51.9965378" lon="5.7835739"/>
<trkpt lat="51.9965534" lon="5.7842483"/>
<trkpt lat="51.9965800" lon="5.7851731"/>
<trkpt lat="51.9965842" lon="5.7856933"/>
<trkpt lat="51.9966112" lon="5.7866948"/>
<trkpt lat="51.9963284" lon="5.7867762"/>
<trkpt lat="51.9961508" lon="5.7867027"/>
<trkpt lat="51.9959755" lon="5.7867751"/>
<trkpt lat="51.9957314" lon="5.7863679"/>
<trkpt lat="51.9951876" lon="5.7868529"/>
<trkpt lat="51.9948817" lon="5.7871794"/>
<trkpt lat="51.9949657" lon="5.7874324"/>
<trkpt lat="51.9943877" lon="5.7880287"/>
<trkpt lat="51.9937594" lon="5.7886467"/>
<trkpt lat="51.9936614" lon="5.7885084"/>
<trkpt lat="51.9935517" lon="5.7883007"/>
<trkpt lat="51.9933566" lon="5.7879811"/>
<trkpt lat="51.9931741" lon="5.7874594"/>
<trkpt lat="51.9930921" lon="5.7870927"/>
<trkpt lat="51.9929811" lon="5.7865235"/>
<trkpt lat="51.9926632" lon="5.7855961"/>
<trkpt lat="51.9924094" lon="5.7850353"/>
<trkpt lat="51.9921777" lon="5.7850259"/>
<trkpt lat="51.9920193" lon="5.7850471"/>
<trkpt lat="51.9919052" lon="5.7850329"/>
<trkpt lat="51.9917504" lon="5.7850334"/>
<trkpt lat="51.9916897" lon="5.7850744"/>
<trkpt lat="51.9916512" lon="5.7851005"/>
<trkpt lat="51.9915869" lon="5.7851847"/>
<trkpt lat="51.9914910" lon="5.7853083"/>
<trkpt lat="51.9913117" lon="5.7853249"/>
<trkpt lat="51.9908845" lon="5.7850798"/>
<trkpt lat="51.9906678" lon="5.7851041"/>
<trkpt lat="51.9905005" lon="5.7852587"/>
<trkpt lat="51.9903431" lon="5.7854129"/>
<trkpt lat="51.9902186" lon="5.7854621"/>
<trkpt lat="51.9900676" lon="5.7854680"/>
<trkpt lat="51.9900727" lon="5.7852810"/>
<trkpt lat="51.9900110" lon="5.7851222"/>
<trkpt lat="51.9898565" lon="5.7848403"/>
<trkpt lat="51.9896308" lon="5.7846297"/>
<trkpt lat="51.9892918" lon="5.7837419"/>
<trkpt lat="51.9891467" lon="5.7833306"/>
<trkpt lat="51.9890098" lon="5.7830777"/>
<trkpt lat="51.9887530" lon="5.7828668"/>
<trkpt lat="51.9885716" lon="5.7826494"/>
<trkpt lat="51.9883947" lon="5.7824321"/>
<trkpt lat="51.9880091" lon="5.7822129"/>
<trkpt lat="51.9877790" lon="5.7819591"/>
<trkpt lat="51.9875333" lon="5.7815426"/>
<trkpt lat="51.9872677" lon="5.7813405"/>
<trkpt lat="51.9871771" lon="5.7812126"/>
<trkpt lat="51.9870477" lon="5.7810830"/>
<trkpt lat="51.9867888" lon="5.7808377"/>
<trkpt lat="51.9862792" lon="5.7801145"/>
<trkpt lat="51.9861601" lon="5.7800938"/>
<trkpt lat="51.9859508" lon="5.7801814"/>
<trkpt lat="51.9858404" lon="5.7801644"/>
<trkpt lat="51.9857127" lon="5.7800132"/>
<trkpt lat="51.9856369" lon="5.7796931"/>
<trkpt lat="51.9856144" lon="5.7793511"/>
<trkpt lat="51.9856294" lon="5.7789712"/>
<trkpt lat="51.9855791" lon="5.7786832"/>
<trkpt lat="51.9855937" lon="5.7786292"/>
<trkpt lat="51.9851385" lon="5.7778742"/>
<trkpt lat="51.9846997" lon="5.7772533"/>
<trkpt lat="51.9844532" lon="5.7768336"/>
<trkpt lat="51.9842031" lon="5.7761479"/>
<trkpt lat="51.9838054" lon="5.7752957"/>
<trkpt lat="51.9836599" lon="5.7745973"/>
<trkpt lat="51.9835770" lon="5.7740185"/>
<trkpt lat="51.9834891" lon="5.7737718"/>
<trkpt lat="51.9831455" lon="5.7726957"/>
<trkpt lat="51.9829404" lon="5.7719527"/>
<trkpt lat="51.9829352" lon="5.7717339"/>
<trkpt lat="51.9829067" lon="5.7715844"/>
<trkpt lat="51.9828314" lon="5.7714243"/>
<trkpt lat="51.9823423" lon="5.7710047"/>
<trkpt lat="51.9822215" lon="5.7709108"/>
<trkpt lat="51.9821726" lon="5.7707939"/>
<trkpt lat="51.9821491" lon="5.7706476"/>
<trkpt lat="51.9821348" lon="5.7699030"/>
<trkpt lat="51.9820196" lon="5.7693181"/>
<trkpt lat="51.9820121" lon="5.7692368"/>
<trkpt lat="51.9820229" lon="5.7691507"/>
<trkpt lat="51.9820405" lon="5.7690788"/>
<trkpt lat="51.9821014" lon="5.7689613"/>
<trkpt lat="51.9821478" lon="5.7688369"/>
<trkpt lat="51.9821544" lon="5.7682316"/>
<trkpt lat="51.9821475" lon="5.7681278"/>
<trkpt lat="51.9821188" lon="5.7680420"/>
<trkpt lat="51.9819080" lon="5.7679060"/>
<trkpt lat="51.9812174" lon="5.7660839"/>
<trkpt lat="51.9813254" lon="5.7657864"/>
<trkpt lat="51.9814397" lon="5.7653733"/>
<trkpt lat="51.9815475" lon="5.7651239"/>
<trkpt lat="51.9817502" lon="5.7649523"/>
<trkpt lat="51.9817217" lon="5.7645669"/>
<trkpt lat="51.9817525" lon="5.7642398"/>
<trkpt lat="51.9820538" lon="5.7629810"/>
<trkpt lat="51.9821851" lon="5.7628281"/>
<trkpt lat="51.9825656" lon="5.7628120"/>
<trkpt lat="51.9826252" lon="5.7627740"/>
<trkpt lat="51.9826742" lon="5.7623315"/>
<trkpt lat="51.9829061" lon="5.7623142"/>
<trkpt lat="51.9829546" lon="5.7620257"/>
<trkpt lat="51.9831842" lon="5.7619166"/>
<trkpt lat="51.9835177" lon="5.7617364"/>
<trkpt lat="51.9839166" lon="5.7615472"/>
<trkpt lat="51.9841051" lon="5.7621072"/>
<trkpt lat="51.9844002" lon="5.7627934"/>
<trkpt lat="51.9847085" lon="5.7630656"/>
<trkpt lat="51.9850454" lon="5.7626210"/>
<trkpt lat="51.9855391" lon="5.7617533"/>
<trkpt lat="51.9856858" lon="5.7604931"/>
<trkpt lat="51.9859421" lon="5.7602738"/>
<trkpt lat="51.9861268" lon="5.7601501"/>
<trkpt lat="51.9864308" lon="5.7599119"/>
<trkpt lat="51.9867228" lon="5.7597025"/>
<trkpt lat="51.9868212" lon="5.7594966"/>
<trkpt lat="51.9873713" lon="5.7576664"/>
<trkpt lat="51.9868573" lon="5.7566222"/>
<trkpt lat="51.9865734" lon="5.7561673"/>
<trkpt lat="51.9872627" lon="5.7514019"/>
<trkpt lat="51.9872629" lon="5.7513345"/>
<trkpt lat="51.9870198" lon="5.7511110"/>
<trkpt lat="51.9867009" lon="5.7507868"/>
<trkpt lat="51.9872729" lon="5.7489946"/>
<trkpt lat="51.9874789" lon="5.7491683"/>
<trkpt lat="51.9884110" lon="5.7460682"/>
<trkpt lat="51.9885912" lon="5.7461696"/>
<trkpt lat="51.9891088" lon="5.7445989"/>
<trkpt lat="51.9903384" lon="5.7435484"/>
<trkpt lat="51.9913989" lon="5.7425247"/>
<trkpt lat="51.9915902" lon="5.7418933"/>
<trkpt lat="51.9932234" lon="5.7424841"/>
<trkpt lat="51.9937819" lon="5.7386458"/>
<trkpt lat="51.9934928" lon="5.7382516"/>
<trkpt lat="51.9939220" lon="5.7378620"/>
<trkpt lat="51.9938722" lon="5.7373989"/>
<trkpt lat="51.9935350" lon="5.7348441"/>
<trkpt lat="51.9933731" lon="5.7332730"/>
<trkpt lat="51.9933699" lon="5.7332718"/>
</trkseg></trk>
<trk><name>Molenbeeksepad - Routeverkorter</name><type>shorteningRoute</type><trkseg>
<trkpt lat="51.9990084" lon="5.7812978"/>
<trkpt lat="51.9988013" lon="5.7792251"/>
<trkpt lat="51.9987156" lon="5.7781552"/>
<trkpt lat="51.9983838" lon="5.7742321"/>
<trkpt lat="51.9982688" lon="5.7730272"/>
<trkpt lat="51.9980797" lon="5.7708584"/>
<trkpt lat="51.9978111" lon="5.7675331"/>
<trkpt lat="51.9978765" lon="5.7675240"/>
<trkpt lat="51.9979261" lon="5.7650491"/>
<trkpt lat="51.9979924" lon="5.7629114"/>
<trkpt lat="51.9979944" lon="5.7622950"/>
<trkpt lat="51.9989446" lon="5.7626208"/>
<trkpt lat="51.9990227" lon="5.7623710"/>
<trkpt lat="51.9989317" lon="5.7592109"/>
<trkpt lat="51.9988288" lon="5.7560026"/>
<trkpt lat="52.0013828" lon="5.7549159"/>
<trkpt lat="52.0023534" lon="5.7544326"/>
<trkpt lat="52.0032185" lon="5.7515402"/>
<trkpt lat="52.0040533" lon="5.7488111"/>
<trkpt lat="52.0043175" lon="5.7479559"/>
<trkpt lat="52.0035995" lon="5.7475263"/>
<trkpt lat="52.0050966" lon="5.7421076"/>
</trkseg></trk>
<trk><name>Molenbeeksepad - Overstaproute</name><type>connectionRoute</type><trkseg>
<trkpt lat="51.9739225" lon="5.7578757"/>
<trkpt lat="51.9742906" lon="5.7577611"/>
<trkpt lat="51.9748404" lon="5.7577018"/>
<trkpt lat="51.9748061" lon="5.7595036"/>
<trkpt lat="51.9754267" lon="5.7595319"/>
<trkpt lat="51.9758229" lon="5.7594601"/>
<trkpt lat="51.9761556" lon="5.7591740"/>
<trkpt lat="51.9762293" lon="5.7593490"/>
<trkpt lat="51.9760983" lon="5.7601450"/>
<trkpt lat="51.9761260" lon="5.7603994"/>
<trkpt lat="51.9764401" lon="5.7603558"/>
<trkpt lat="51.9766262" lon="5.7600551"/>
<trkpt lat="51.9766889" lon="5.7599786"/>
<trkpt lat="51.9770245" lon="5.7600680"/>
<trkpt lat="51.9773579" lon="5.7599264"/>
<trkpt lat="51.9774560" lon="5.7599416"/>
<trkpt lat="51.9776455" lon="5.7592549"/>
<trkpt lat="51.9776785" lon="5.7592733"/>
<trkpt lat="51.9779646" lon="5.7590389"/>
<trkpt lat="51.9782517" lon="5.7584867"/>
<trkpt lat="51.9784886" lon="5.7580265"/>
<trkpt lat="51.9785757" lon="5.7575420"/>
<trkpt lat="51.9786199" lon="5.7574679"/>
<trkpt lat="51.9786290" lon="5.7574871"/>
<trkpt lat="51.9787722" lon="5.7577868"/>
<trkpt lat="51.9789782" lon="5.7581005"/>
<trkpt lat="51.9792877" lon="5.7585696"/>
<trkpt lat="51.9792732" lon="5.7587051"/>
<trkpt lat="51.9796343" lon="5.7592280"/>
<trkpt lat="51.9798133" lon="5.7593663"/>
<trkpt lat="51.9803325" lon="5.7602688"/>
<trkpt lat="51.9806193" lon="5.7602919"/>
<trkpt lat="51.9810875" lon="5.7600128"/>
<trkpt lat="51.9814957" lon="5.7600316"/>
<trkpt lat="51.9816119" lon="5.7602030"/>
<trkpt lat="51.9819510" lon="5.7610482"/>
<trkpt lat="51.9819007" lon="5.7616395"/>
<trkpt lat="51.9820025" lon="5.7616992"/>
<trkpt lat="51.9826795" lon="5.7619359"/>
<trkpt lat="51.9829429" lon="5.7620950"/>
</trkseg></trk>
<trk><name>Molenbeeksepad - Overstaproute</name><type>connectionRoute</type><trkseg>
<trkpt lat="52.0367731" lon="5.7352657"/>
<trkpt lat="52.0365760" lon="5.7354012"/>
<trkpt lat="52.0361210" lon="5.7354144"/>
<trkpt lat="52.0357730" lon="5.7353726"/>
<trkpt lat="52.0351157" lon="5.7358588"/>
<trkpt lat="52.0345887" lon="5.7362917"/>
<trkpt lat="52.0342683" lon="5.7365422"/>
<trkpt lat="52.0330899" lon="5.7374244"/>
<trkpt lat="52.0312070" lon="5.7388363"/>
<trkpt lat="52.0298245" lon="5.7398895"/>
<trkpt lat="52.0245617" lon="5.7438418"/>
<trkpt lat="52.0214628" lon="5.7462534"/>
<trkpt lat="52.0205952" lon="5.7468940"/>
<trkpt lat="52.0204232" lon="5.7471393"/>
<trkpt lat="52.0142355" lon="5.7517299"/>
<trkpt lat="52.0137686" lon="5.7519882"/>
<trkpt lat="52.0134640" lon="5.7520474"/>
<trkpt lat="52.0123970" lon="5.7525474"/>
<trkpt lat="52.0093298" lon="5.7508268"/>
<trkpt lat="52.0073149" lon="5.7496835"/>
</trkseg></trk>
<trk><name>Molenbeeksepad - Aanlooproute</name><type>approachRoute</type><trkseg>
<trkpt lat="51.9866259" lon="5.7303946"/>
<trkpt lat="51.9868905" lon="5.7301944"/>
<trkpt lat="51.9869129" lon="5.7298421"/>
<trkpt lat="51.9870242" lon="5.7296061"/>
<trkpt lat="51.9872313" lon="5.7295326"/>
<trkpt lat="51.9874702" lon="5.7295806"/>
<trkpt lat="51.9877544" lon="5.7299757"/>
<trkpt lat="51.9878821" lon="5.7302020"/>
<trkpt lat="51.9882022" lon="5.7305280"/>
<trkpt lat="51.9883622" lon="5.7307199"/>
<trkpt lat="51.9887705" lon="5.7313702"/>
<trkpt lat="51.9888487" lon="5.7314632"/>
<trkpt lat="51.9890303" lon="5.7315744"/>
<trkpt lat="51.9908444" lon="5.7323861"/>
<trkpt lat="51.9922308" lon="5.7331980"/>
<trkpt lat="51.9933675" lon="5.7332376"/>
</trkseg></trk>
</gpx>