<?xml version="1.0" encoding="UTF-8"?>
<gpx version="1.1" creator="klompenpaden.nl via Jimbo API" xmlns="http://www.topografix.com/GPX/1/1">
<metadata><name>Molenkadepad</name><desc>Ontdek het prachtige buitengebied van Ameide en Lexmond in de gemeente  Vijfheerenlanden. Je wandelt hier door de Zouweboezem, langs de Lek en fruitboomgaarden. Klompen aan, rugzak op en gaan!</desc><link href="https://www.klompenpaden.nl/klompenpaden/Molenkadepad/3872e790-3361-4295-98e6-164419bfbd18"><text>klompenpaden.nl</text></link></metadata>
<wpt lat="51.96076141658677" lon="4.976463317871095"><name>Start Start</name></wpt>
<trk><name>Molenkadepad - Geimporteerde shapefile</name><type>mainRoute</type><trkseg>
<trkpt lat="51.9740169" lon="4.9993632"/>
<trkpt lat="51.9743892" lon="4.9992183"/>
<trkpt lat="51.9743964" lon="4.9990637"/>
<trkpt lat="51.9762501" lon="4.9984160"/>
<trkpt lat="51.9765382" lon="4.9979098"/>
<trkpt lat="51.9761270" lon="4.9956477"/>
<trkpt lat="51.9744894" lon="4.9915744"/>
<trkpt lat="51.9742481" lon="4.9915504"/>
<trkpt lat="51.9740221" lon="4.9912921"/>
<trkpt lat="51.9737165" lon="4.9912427"/>
<trkpt lat="51.9726887" lon="4.9893044"/>
<trkpt lat="51.9722607" lon="4.9886781"/>
<trkpt lat="51.9710993" lon="4.9876210"/>
<trkpt lat="51.9702445" lon="4.9868476"/>
<trkpt lat="51.9688832" lon="4.9848550"/>
<trkpt lat="51.9687897" lon="4.9851459"/>
<trkpt lat="51.9673261" lon="4.9836040"/>
<trkpt lat="51.9661718" lon="4.9826700"/>
<trkpt lat="51.9653094" lon="4.9817838"/>
<trkpt lat="51.9645640" lon="4.9810414"/>
<trkpt lat="51.9635290" lon="4.9791507"/>
<trkpt lat="51.9624644" lon="4.9781973"/>
<trkpt lat="51.9623176" lon="4.9776000"/>
<trkpt lat="51.9614136" lon="4.9765671"/>
<trkpt lat="51.9612605" lon="4.9762662"/>
<trkpt lat="51.9607679" lon="4.9765632"/>
<trkpt lat="51.9605360" lon="4.9765916"/>
<trkpt lat="51.9603037" lon="4.9765151"/>
<trkpt lat="51.9602353" lon="4.9770223"/>
<trkpt lat="51.9602749" lon="4.9775284"/>
<trkpt lat="51.9602140" lon="4.9778696"/>
<trkpt lat="51.9601021" lon="4.9782767"/>
<trkpt lat="51.9605155" lon="4.9792380"/>
<trkpt lat="51.9600842" lon="4.9801065"/>
<trkpt lat="51.9598854" lon="4.9803485"/>
<trkpt lat="51.9595221" lon="4.9813823"/>
<trkpt lat="51.9589290" lon="4.9830863"/>
<trkpt lat="51.9583627" lon="4.9847201"/>
<trkpt lat="51.9581271" lon="4.9852418"/>
<trkpt lat="51.9580828" lon="4.9856832"/>
<trkpt lat="51.9580971" lon="4.9875127"/>
<trkpt lat="51.9580332" lon="4.9877621"/>
<trkpt lat="51.9569302" lon="4.9894705"/>
<trkpt lat="51.9566188" lon="4.9899055"/>
<trkpt lat="51.9563821" lon="4.9901303"/>
<trkpt lat="51.9550317" lon="4.9912469"/>
<trkpt lat="51.9547760" lon="4.9914194"/>
<trkpt lat="51.9543900" lon="4.9913530"/>
<trkpt lat="51.9542987" lon="4.9913805"/>
<trkpt lat="51.9534769" lon="4.9927044"/>
<trkpt lat="51.9520175" lon="4.9949274"/>
<trkpt lat="51.9531157" lon="4.9968621"/>
<trkpt lat="51.9525796" lon="4.9979105"/>
<trkpt lat="51.9522772" lon="4.9982406"/>
<trkpt lat="51.9520125" lon="4.9984884"/>
<trkpt lat="51.9515980" lon="4.9993311"/>
<trkpt lat="51.9510447" lon="5.0002773"/>
<trkpt lat="51.9510069" lon="5.0003253"/>
<trkpt lat="51.9505550" lon="5.0000495"/>
<trkpt lat="51.9505178" lon="5.0002818"/>
<trkpt lat="51.9515351" lon="5.0007233"/>
<trkpt lat="51.9516871" lon="5.0007902"/>
<trkpt lat="51.9522821" lon="5.0010170"/>
<trkpt lat="51.9532328" lon="5.0016978"/>
<trkpt lat="51.9537024" lon="5.0022327"/>
<trkpt lat="51.9544072" lon="5.0025064"/>
<trkpt lat="51.9550547" lon="5.0032990"/>
<trkpt lat="51.9556048" lon="5.0039288"/>
<trkpt lat="51.9561331" lon="5.0043746"/>
<trkpt lat="51.9572836" lon="5.0056065"/>
<trkpt lat="51.9580745" lon="5.0064185"/>
<trkpt lat="51.9586119" lon="5.0070621"/>
<trkpt lat="51.9586452" lon="5.0069390"/>
<trkpt lat="51.9613435" lon="5.0045076"/>
<trkpt lat="51.9615662" lon="5.0043078"/>
<trkpt lat="51.9616551" lon="5.0044230"/>
<trkpt lat="51.9639205" lon="5.0023976"/>
<trkpt lat="51.9658285" lon="5.0006889"/>
<trkpt lat="51.9659218" lon="5.0008451"/>
<trkpt lat="51.9664695" lon="5.0020550"/>
<trkpt lat="51.9671040" lon="5.0040422"/>
<trkpt lat="51.9671979" lon="5.0069826"/>
<trkpt lat="51.9674634" lon="5.0069735"/>
<trkpt lat="51.9718315" lon="5.0049024"/>
<trkpt lat="51.9740822" lon="5.0040001"/>
<trkpt lat="51.9741746" lon="5.0007834"/>
<trkpt lat="51.9739132" lon="4.9995192"/>
<trkpt lat="51.9740169" lon="4.9993632"/>
</trkseg></trk>
<trk><name>Molenkadepad - Geimporteerde shapefile</name><type>approachRoute</type><trkseg>
<trkpt lat="51.9367647" lon="5.0005213"/>
<trkpt lat="51.9365426" lon="5.0003291"/>
<trkpt lat="51.9366480" lon="5.0001043"/>
<trkpt lat="51.9427866" lon="4.9998318"/>
<trkpt lat="51.9429847" lon="4.9999114"/>
<trkpt lat="51.9433208" lon="4.9997269"/>
<trkpt lat="51.9436429" lon="4.9997767"/>
<trkpt lat="51.9440806" lon="4.9997532"/>
<trkpt lat="51.9441843" lon="4.9996728"/>
<trkpt lat="51.9443263" lon="4.9991761"/>
<trkpt lat="51.9444203" lon="4.9990285"/>
<trkpt lat="51.9446555" lon="4.9986961"/>
<trkpt lat="51.9447696" lon="4.9989000"/>
<trkpt lat="51.9448299" lon="4.9994042"/>
<trkpt lat="51.9448189" lon="4.9995266"/>
<trkpt lat="51.9468441" lon="4.9994190"/>
<trkpt lat="51.9472974" lon="4.9997362"/>
<trkpt lat="51.9475516" lon="4.9998684"/>
<trkpt lat="51.9497394" lon="5.0000138"/>
<trkpt lat="51.9501089" lon="5.0000928"/>
<trkpt lat="51.9505178" lon="5.0002818"/>
</trkseg></trk>
</gpx>