<?xml version="1.0" encoding="UTF-8"?>
<gpx version="1.1" creator="klompenpaden.nl via Jimbo API" xmlns="http://www.topografix.com/GPX/1/1">
<metadata><name>Nederrijnsepad XL</name><desc>Ontdek het mooie open rivierlandschap van de Nederrijn tussen Lexkesveer en Driel in de mooie buitengebieden van de gemeenten Overbetuwe, Renkum en Wageningen. Wandelen door
uiterwaarden, langs dijken, over stuwwallen, langs steenfabrieken, een kasteel, een stuw en varend
naar de overkant. Een extra lang Klompenpad (XL). Klompen aan, rugzak op en gaan! </desc><link href="https://www.klompenpaden.nl/klompenpaden/Nederrijnsepad_XL/1f2c3fe9-b177-4023-9074-50d60a4c106f"><text>klompenpaden.nl</text></link></metadata>
<wpt lat="51.96044201600284" lon="5.763680934906005"><name>Start Heteren</name></wpt>
<trk><name>Nederrijnsepad XL - hoofdroute</name><type>mainRoute</type><trkseg>
<trkpt lat="51.9627227" lon="5.7541130"/>
<trkpt lat="51.9630142" lon="5.7497680"/>
<trkpt lat="51.9628900" lon="5.7491819"/>
<trkpt lat="51.9626085" lon="5.7486830"/>
<trkpt lat="51.9624081" lon="5.7481116"/>
<trkpt lat="51.9623453" lon="5.7476569"/>
<trkpt lat="51.9621847" lon="5.7472937"/>
<trkpt lat="51.9619067" lon="5.7468488"/>
<trkpt lat="51.9616653" lon="5.7464426"/>
<trkpt lat="51.9614489" lon="5.7457691"/>
<trkpt lat="51.9612949" lon="5.7452900"/>
<trkpt lat="51.9609678" lon="5.7447452"/>
<trkpt lat="51.9606170" lon="5.7439686"/>
<trkpt lat="51.9604954" lon="5.7439239"/>
<trkpt lat="51.9601545" lon="5.7437450"/>
<trkpt lat="51.9601527" lon="5.7436197"/>
<trkpt lat="51.9600658" lon="5.7435711"/>
<trkpt lat="51.9600021" lon="5.7430221"/>
<trkpt lat="51.9599462" lon="5.7418571"/>
<trkpt lat="51.9597389" lon="5.7395940"/>
<trkpt lat="51.9599634" lon="5.7380848"/>
<trkpt lat="51.9591607" lon="5.7381363"/>
<trkpt lat="51.9591246" lon="5.7379388"/>
<trkpt lat="51.9590706" lon="5.7368913"/>
<trkpt lat="51.9592074" lon="5.7356606"/>
<trkpt lat="51.9591641" lon="5.7353481"/>
<trkpt lat="51.9588738" lon="5.7346298"/>
<trkpt lat="51.9587238" lon="5.7319944"/>
<trkpt lat="51.9585482" lon="5.7317454"/>
<trkpt lat="51.9582664" lon="5.7305115"/>
<trkpt lat="51.9580036" lon="5.7293085"/>
<trkpt lat="51.9578953" lon="5.7272753"/>
<trkpt lat="51.9580150" lon="5.7253669"/>
<trkpt lat="51.9578871" lon="5.7235183"/>
<trkpt lat="51.9576824" lon="5.7219155"/>
<trkpt lat="51.9571930" lon="5.7200642"/>
<trkpt lat="51.9568727" lon="5.7189533"/>
<trkpt lat="51.9568585" lon="5.7172287"/>
<trkpt lat="51.9566541" lon="5.7155028"/>
<trkpt lat="51.9561861" lon="5.7127588"/>
<trkpt lat="51.9555071" lon="5.7105984"/>
<trkpt lat="51.9558007" lon="5.7070341"/>
<trkpt lat="51.9556900" lon="5.7063503"/>
<trkpt lat="51.9556752" lon="5.7047798"/>
<trkpt lat="51.9552602" lon="5.7034836"/>
<trkpt lat="51.9553774" lon="5.7023451"/>
<trkpt lat="51.9551530" lon="5.7008655"/>
<trkpt lat="51.9551429" lon="5.7001790"/>
<trkpt lat="51.9554240" lon="5.6981510"/>
<trkpt lat="51.9556512" lon="5.6968454"/>
<trkpt lat="51.9557546" lon="5.6957908"/>
<trkpt lat="51.9557384" lon="5.6953269"/>
<trkpt lat="51.9556313" lon="5.6949111"/>
<trkpt lat="51.9555921" lon="5.6946117"/>
<trkpt lat="51.9555583" lon="5.6943536"/>
<trkpt lat="51.9557098" lon="5.6932106"/>
<trkpt lat="51.9556608" lon="5.6927394"/>
<trkpt lat="51.9555710" lon="5.6923753"/>
<trkpt lat="51.9557684" lon="5.6917430"/>
<trkpt lat="51.9568303" lon="5.6911166"/>
<trkpt lat="51.9583823" lon="5.6901766"/>
<trkpt lat="51.9593785" lon="5.6897345"/>
<trkpt lat="51.9610923" lon="5.6893236"/>
<trkpt lat="51.9614009" lon="5.6898009"/>
<trkpt lat="51.9616621" lon="5.6897499"/>
<trkpt lat="51.9620716" lon="5.6890661"/>
<trkpt lat="51.9625634" lon="5.6881188"/>
<trkpt lat="51.9628247" lon="5.6879886"/>
<trkpt lat="51.9633788" lon="5.6881771"/>
<trkpt lat="51.9639492" lon="5.6883922"/>
<trkpt lat="51.9644523" lon="5.6883544"/>
<trkpt lat="51.9644015" lon="5.6874148"/>
<trkpt lat="51.9642680" lon="5.6861339"/>
<trkpt lat="51.9643769" lon="5.6853935"/>
<trkpt lat="51.9645602" lon="5.6854742"/>
<trkpt lat="51.9646320" lon="5.6856455"/>
<trkpt lat="51.9645723" lon="5.6857413"/>
<trkpt lat="51.9645947" lon="5.6862516"/>
<trkpt lat="51.9646953" lon="5.6864351"/>
<trkpt lat="51.9647847" lon="5.6863876"/>
<trkpt lat="51.9648736" lon="5.6864652"/>
<trkpt lat="51.9648079" lon="5.6865802"/>
<trkpt lat="51.9648203" lon="5.6869844"/>
<trkpt lat="51.9648893" lon="5.6873026"/>
<trkpt lat="51.9650136" lon="5.6875344"/>
<trkpt lat="51.9650307" lon="5.6878329"/>
<trkpt lat="51.9652078" lon="5.6883153"/>
<trkpt lat="51.9652541" lon="5.6888161"/>
<trkpt lat="51.9652820" lon="5.6893117"/>
<trkpt lat="51.9653260" lon="5.6899981"/>
<trkpt lat="51.9652930" lon="5.6904061"/>
<trkpt lat="51.9654780" lon="5.6909151"/>
<trkpt lat="51.9654890" lon="5.6910601"/>
<trkpt lat="51.9652190" lon="5.6910671"/>
<trkpt lat="51.9651304" lon="5.6909724"/>
<trkpt lat="51.9650600" lon="5.6910561"/>
<trkpt lat="51.9649850" lon="5.6913041"/>
<trkpt lat="51.9652610" lon="5.6916041"/>
<trkpt lat="51.9652950" lon="5.6921661"/>
<trkpt lat="51.9655370" lon="5.6925501"/>
<trkpt lat="51.9654820" lon="5.6926471"/>
<trkpt lat="51.9655830" lon="5.6931811"/>
<trkpt lat="51.9655660" lon="5.6933141"/>
<trkpt lat="51.9656200" lon="5.6935911"/>
<trkpt lat="51.9656375" lon="5.6938709"/>
<trkpt lat="51.9656070" lon="5.6940271"/>
<trkpt lat="51.9657180" lon="5.6945851"/>
<trkpt lat="51.9657630" lon="5.6947251"/>
<trkpt lat="51.9659115" lon="5.6949286"/>
<trkpt lat="51.9659750" lon="5.6951201"/>
<trkpt lat="51.9660110" lon="5.6952621"/>
<trkpt lat="51.9660140" lon="5.6954041"/>
<trkpt lat="51.9659350" lon="5.6956421"/>
<trkpt lat="51.9657720" lon="5.6957201"/>
<trkpt lat="51.9656245" lon="5.6958483"/>
<trkpt lat="51.9652780" lon="5.6959751"/>
<trkpt lat="51.9651760" lon="5.6963651"/>
<trkpt lat="51.9652200" lon="5.6968851"/>
<trkpt lat="51.9652760" lon="5.6971481"/>
<trkpt lat="51.9653710" lon="5.6973871"/>
<trkpt lat="51.9654670" lon="5.6975591"/>
<trkpt lat="51.9654770" lon="5.6977061"/>
<trkpt lat="51.9653330" lon="5.6980491"/>
<trkpt lat="51.9653740" lon="5.6982471"/>
<trkpt lat="51.9653900" lon="5.6985631"/>
<trkpt lat="51.9654330" lon="5.6988581"/>
<trkpt lat="51.9656330" lon="5.6996001"/>
<trkpt lat="51.9655880" lon="5.7000371"/>
<trkpt lat="51.9656781" lon="5.7005646"/>
<trkpt lat="51.9656500" lon="5.7008801"/>
<trkpt lat="51.9657780" lon="5.7017551"/>
<trkpt lat="51.9658500" lon="5.7020921"/>
<trkpt lat="51.9659199" lon="5.7027386"/>
<trkpt lat="51.9660930" lon="5.7030811"/>
<trkpt lat="51.9661385" lon="5.7033869"/>
<trkpt lat="51.9661560" lon="5.7035051"/>
<trkpt lat="51.9660790" lon="5.7039601"/>
<trkpt lat="51.9661320" lon="5.7040761"/>
<trkpt lat="51.9661390" lon="5.7043121"/>
<trkpt lat="51.9662810" lon="5.7046611"/>
<trkpt lat="51.9663460" lon="5.7047571"/>
<trkpt lat="51.9663860" lon="5.7048731"/>
<trkpt lat="51.9663250" lon="5.7051461"/>
<trkpt lat="51.9665040" lon="5.7055341"/>
<trkpt lat="51.9665290" lon="5.7059581"/>
<trkpt lat="51.9665860" lon="5.7062391"/>
<trkpt lat="51.9667037" lon="5.7065748"/>
<trkpt lat="51.9667685" lon="5.7068014"/>
<trkpt lat="51.9667840" lon="5.7072141"/>
<trkpt lat="51.9670100" lon="5.7081211"/>
<trkpt lat="51.9670880" lon="5.7086741"/>
<trkpt lat="51.9671210" lon="5.7088111"/>
<trkpt lat="51.9669130" lon="5.7089599"/>
<trkpt lat="51.9670744" lon="5.7099743"/>
<trkpt lat="51.9673960" lon="5.7113242"/>
<trkpt lat="51.9675410" lon="5.7115009"/>
<trkpt lat="51.9677890" lon="5.7116341"/>
<trkpt lat="51.9678416" lon="5.7117984"/>
<trkpt lat="51.9680840" lon="5.7118579"/>
<trkpt lat="51.9681718" lon="5.7121291"/>
<trkpt lat="51.9718074" lon="5.7146918"/>
<trkpt lat="51.9720284" lon="5.7147628"/>
<trkpt lat="51.9723798" lon="5.7141184"/>
<trkpt lat="51.9727655" lon="5.7139480"/>
<trkpt lat="51.9732580" lon="5.7138592"/>
<trkpt lat="51.9736857" lon="5.7140009"/>
<trkpt lat="51.9739778" lon="5.7141417"/>
<trkpt lat="51.9746417" lon="5.7139963"/>
<trkpt lat="51.9749124" lon="5.7141716"/>
<trkpt lat="51.9756878" lon="5.7149743"/>
<trkpt lat="51.9757797" lon="5.7152523"/>
<trkpt lat="51.9757786" lon="5.7156566"/>
<trkpt lat="51.9755479" lon="5.7165098"/>
<trkpt lat="51.9753242" lon="5.7174208"/>
<trkpt lat="51.9753167" lon="5.7175362"/>
<trkpt lat="51.9742164" lon="5.7206587"/>
<trkpt lat="51.9739574" lon="5.7214077"/>
<trkpt lat="51.9739066" lon="5.7217192"/>
<trkpt lat="51.9736775" lon="5.7219716"/>
<trkpt lat="51.9735056" lon="5.7222245"/>
<trkpt lat="51.9732195" lon="5.7224765"/>
<trkpt lat="51.9728901" lon="5.7229130"/>
<trkpt lat="51.9724379" lon="5.7238453"/>
<trkpt lat="51.9720514" lon="5.7242929"/>
<trkpt lat="51.9715724" lon="5.7246358"/>
<trkpt lat="51.9711364" lon="5.7249213"/>
<trkpt lat="51.9712135" lon="5.7253840"/>
<trkpt lat="51.9715725" lon="5.7270732"/>
<trkpt lat="51.9718819" lon="5.7289463"/>
<trkpt lat="51.9722578" lon="5.7309844"/>
<trkpt lat="51.9724744" lon="5.7323907"/>
<trkpt lat="51.9727087" lon="5.7330757"/>
<trkpt lat="51.9729302" lon="5.7336795"/>
<trkpt lat="51.9730149" lon="5.7339689"/>
<trkpt lat="51.9731199" lon="5.7346513"/>
<trkpt lat="51.9730689" lon="5.7350090"/>
<trkpt lat="51.9722689" lon="5.7353263"/>
<trkpt lat="51.9721335" lon="5.7352790"/>
<trkpt lat="51.9720485" lon="5.7350935"/>
<trkpt lat="51.9716544" lon="5.7351250"/>
<trkpt lat="51.9713401" lon="5.7352458"/>
<trkpt lat="51.9705201" lon="5.7359017"/>
<trkpt lat="51.9704245" lon="5.7360396"/>
<trkpt lat="51.9703096" lon="5.7363005"/>
<trkpt lat="51.9702533" lon="5.7365697"/>
<trkpt lat="51.9706180" lon="5.7386979"/>
<trkpt lat="51.9709374" lon="5.7392549"/>
<trkpt lat="51.9709933" lon="5.7396250"/>
<trkpt lat="51.9712387" lon="5.7410708"/>
<trkpt lat="51.9713400" lon="5.7429545"/>
<trkpt lat="51.9713640" lon="5.7444563"/>
<trkpt lat="51.9711995" lon="5.7469501"/>
<trkpt lat="51.9712562" lon="5.7470429"/>
<trkpt lat="51.9713419" lon="5.7470321"/>
<trkpt lat="51.9716921" lon="5.7468270"/>
<trkpt lat="51.9719132" lon="5.7468518"/>
<trkpt lat="51.9722833" lon="5.7471551"/>
<trkpt lat="51.9727034" lon="5.7474127"/>
<trkpt lat="51.9731021" lon="5.7476815"/>
<trkpt lat="51.9730155" lon="5.7479928"/>
<trkpt lat="51.9730009" lon="5.7481197"/>
<trkpt lat="51.9729364" lon="5.7482000"/>
<trkpt lat="51.9728149" lon="5.7482799"/>
<trkpt lat="51.9725342" lon="5.7490632"/>
<trkpt lat="51.9723354" lon="5.7489968"/>
<trkpt lat="51.9721329" lon="5.7487140"/>
<trkpt lat="51.9719083" lon="5.7482868"/>
<trkpt lat="51.9717087" lon="5.7482235"/>
<trkpt lat="51.9715711" lon="5.7484958"/>
<trkpt lat="51.9714019" lon="5.7490066"/>
<trkpt lat="51.9713169" lon="5.7492042"/>
<trkpt lat="51.9713373" lon="5.7495239"/>
<trkpt lat="51.9713733" lon="5.7502168"/>
<trkpt lat="51.9712639" lon="5.7510643"/>
<trkpt lat="51.9711782" lon="5.7540715"/>
<trkpt lat="51.9710994" lon="5.7545126"/>
<trkpt lat="51.9711429" lon="5.7549414"/>
<trkpt lat="51.9709940" lon="5.7579373"/>
<trkpt lat="51.9708645" lon="5.7596080"/>
<trkpt lat="51.9706650" lon="5.7599632"/>
<trkpt lat="51.9705920" lon="5.7608004"/>
<trkpt lat="51.9705403" lon="5.7614807"/>
<trkpt lat="51.9705611" lon="5.7617419"/>
<trkpt lat="51.9702567" lon="5.7654704"/>
<trkpt lat="51.9701375" lon="5.7670172"/>
<trkpt lat="51.9700727" lon="5.7672130"/>
<trkpt lat="51.9685430" lon="5.7681241"/>
<trkpt lat="51.9685322" lon="5.7681219"/>
<trkpt lat="51.9684453" lon="5.7675215"/>
<trkpt lat="51.9683696" lon="5.7673977"/>
<trkpt lat="51.9682502" lon="5.7675430"/>
<trkpt lat="51.9681342" lon="5.7681272"/>
<trkpt lat="51.9680776" lon="5.7692232"/>
<trkpt lat="51.9661830" lon="5.7692124"/>
<trkpt lat="51.9651655" lon="5.7689063"/>
<trkpt lat="51.9641390" lon="5.7684137"/>
<trkpt lat="51.9632353" lon="5.7677819"/>
<trkpt lat="51.9630896" lon="5.7682414"/>
<trkpt lat="51.9614478" lon="5.7724193"/>
<trkpt lat="51.9607237" lon="5.7756467"/>
<trkpt lat="51.9603212" lon="5.7787036"/>
<trkpt lat="51.9602761" lon="5.7815326"/>
<trkpt lat="51.9607307" lon="5.7842505"/>
<trkpt lat="51.9619769" lon="5.7874449"/>
<trkpt lat="51.9628221" lon="5.7881380"/>
<trkpt lat="51.9632835" lon="5.7888350"/>
<trkpt lat="51.9636715" lon="5.7901090"/>
<trkpt lat="51.9636664" lon="5.7916103"/>
<trkpt lat="51.9648025" lon="5.7902817"/>
<trkpt lat="51.9648081" lon="5.7895204"/>
<trkpt lat="51.9649997" lon="5.7879868"/>
<trkpt lat="51.9649612" lon="5.7863068"/>
<trkpt lat="51.9658283" lon="5.7863337"/>
<trkpt lat="51.9659499" lon="5.7862243"/>
<trkpt lat="51.9665272" lon="5.7863796"/>
<trkpt lat="51.9668402" lon="5.7866596"/>
<trkpt lat="51.9663731" lon="5.7876603"/>
<trkpt lat="51.9665296" lon="5.7877685"/>
<trkpt lat="51.9668409" lon="5.7880215"/>
<trkpt lat="51.9670368" lon="5.7881099"/>
<trkpt lat="51.9670274" lon="5.7882446"/>
<trkpt lat="51.9671521" lon="5.7882938"/>
<trkpt lat="51.9672257" lon="5.7883265"/>
<trkpt lat="51.9671191" lon="5.7889344"/>
<trkpt lat="51.9670813" lon="5.7891717"/>
<trkpt lat="51.9670372" lon="5.7894563"/>
<trkpt lat="51.9670398" lon="5.7896786"/>
<trkpt lat="51.9669957" lon="5.7898707"/>
<trkpt lat="51.9670052" lon="5.7899781"/>
<trkpt lat="51.9670917" lon="5.7903694"/>
<trkpt lat="51.9671698" lon="5.7905084"/>
<trkpt lat="51.9682888" lon="5.7908419"/>
<trkpt lat="51.9688743" lon="5.7907085"/>
<trkpt lat="51.9688810" lon="5.7910768"/>
<trkpt lat="51.9689450" lon="5.7910261"/>
<trkpt lat="51.9692200" lon="5.7909793"/>
<trkpt lat="51.9690758" lon="5.7915183"/>
<trkpt lat="51.9691604" lon="5.7918309"/>
<trkpt lat="51.9691482" lon="5.7920759"/>
<trkpt lat="51.9691393" lon="5.7924237"/>
<trkpt lat="51.9691528" lon="5.7926356"/>
<trkpt lat="51.9692044" lon="5.7928611"/>
<trkpt lat="51.9692844" lon="5.7931026"/>
<trkpt lat="51.9693666" lon="5.7932002"/>
<trkpt lat="51.9694128" lon="5.7933474"/>
<trkpt lat="51.9693002" lon="5.7933441"/>
<trkpt lat="51.9692178" lon="5.7933159"/>
<trkpt lat="51.9691179" lon="5.7937829"/>
<trkpt lat="51.9691348" lon="5.7942514"/>
<trkpt lat="51.9690906" lon="5.7950406"/>
<trkpt lat="51.9691334" lon="5.7954926"/>
<trkpt lat="51.9692893" lon="5.7957943"/>
<trkpt lat="51.9695167" lon="5.7960505"/>
<trkpt lat="51.9696158" lon="5.7962709"/>
<trkpt lat="51.9696606" lon="5.7964564"/>
<trkpt lat="51.9695935" lon="5.7965363"/>
<trkpt lat="51.9694080" lon="5.7965462"/>
<trkpt lat="51.9692796" lon="5.7965335"/>
<trkpt lat="51.9691864" lon="5.7966597"/>
<trkpt lat="51.9691783" lon="5.7969368"/>
<trkpt lat="51.9691847" lon="5.7971563"/>
<trkpt lat="51.9693127" lon="5.7980366"/>
<trkpt lat="51.9691671" lon="5.7984266"/>
<trkpt lat="51.9691581" lon="5.7986511"/>
<trkpt lat="51.9692145" lon="5.7988430"/>
<trkpt lat="51.9694392" lon="5.7991852"/>
<trkpt lat="51.9694576" lon="5.7994145"/>
<trkpt lat="51.9694089" lon="5.7996030"/>
<trkpt lat="51.9692110" lon="5.7998364"/>
<trkpt lat="51.9691815" lon="5.8001133"/>
<trkpt lat="51.9692424" lon="5.8004488"/>
<trkpt lat="51.9693738" lon="5.8009415"/>
<trkpt lat="51.9694790" lon="5.8013041"/>
<trkpt lat="51.9695818" lon="5.8015883"/>
<trkpt lat="51.9696556" lon="5.8016913"/>
<trkpt lat="51.9697497" lon="5.8019738"/>
<trkpt lat="51.9698668" lon="5.8022028"/>
<trkpt lat="51.9699082" lon="5.8023357"/>
<trkpt lat="51.9698828" lon="5.8025233"/>
<trkpt lat="51.9698078" lon="5.8027901"/>
<trkpt lat="51.9696515" lon="5.8030193"/>
<trkpt lat="51.9695432" lon="5.8031780"/>
<trkpt lat="51.9694485" lon="5.8034934"/>
<trkpt lat="51.9694396" lon="5.8037575"/>
<trkpt lat="51.9695168" lon="5.8040540"/>
<trkpt lat="51.9695180" lon="5.8044854"/>
<trkpt lat="51.9695459" lon="5.8047659"/>
<trkpt lat="51.9698289" lon="5.8049599"/>
<trkpt lat="51.9699008" lon="5.8050220"/>
<trkpt lat="51.9700883" lon="5.8050350"/>
<trkpt lat="51.9702806" lon="5.8050907"/>
<trkpt lat="51.9702974" lon="5.8051553"/>
<trkpt lat="51.9702664" lon="5.8053078"/>
<trkpt lat="51.9701074" lon="5.8055886"/>
<trkpt lat="51.9699775" lon="5.8056525"/>
<trkpt lat="51.9700412" lon="5.8057593"/>
<trkpt lat="51.9700570" lon="5.8059356"/>
<trkpt lat="51.9699464" lon="5.8061113"/>
<trkpt lat="51.9699069" lon="5.8061707"/>
<trkpt lat="51.9697977" lon="5.8061564"/>
<trkpt lat="51.9697237" lon="5.8061810"/>
<trkpt lat="51.9697288" lon="5.8062228"/>
<trkpt lat="51.9697843" lon="5.8063264"/>
<trkpt lat="51.9698364" lon="5.8063558"/>
<trkpt lat="51.9699107" lon="5.8064144"/>
<trkpt lat="51.9701510" lon="5.8067304"/>
<trkpt lat="51.9705104" lon="5.8070957"/>
<trkpt lat="51.9708240" lon="5.8075658"/>
<trkpt lat="51.9704099" lon="5.8073550"/>
<trkpt lat="51.9706168" lon="5.8076457"/>
<trkpt lat="51.9706198" lon="5.8078651"/>
<trkpt lat="51.9707083" lon="5.8081918"/>
<trkpt lat="51.9707601" lon="5.8084692"/>
<trkpt lat="51.9708845" lon="5.8085955"/>
<trkpt lat="51.9709763" lon="5.8088476"/>
<trkpt lat="51.9711087" lon="5.8090568"/>
<trkpt lat="51.9715072" lon="5.8093532"/>
<trkpt lat="51.9717290" lon="5.8098250"/>
<trkpt lat="51.9719128" lon="5.8102965"/>
<trkpt lat="51.9718521" lon="5.8107958"/>
<trkpt lat="51.9718345" lon="5.8112992"/>
<trkpt lat="51.9717504" lon="5.8118121"/>
<trkpt lat="51.9715075" lon="5.8122193"/>
<trkpt lat="51.9715679" lon="5.8125210"/>
<trkpt lat="51.9717718" lon="5.8128696"/>
<trkpt lat="51.9720384" lon="5.8130584"/>
<trkpt lat="51.9721467" lon="5.8124711"/>
<trkpt lat="51.9720090" lon="5.8119067"/>
<trkpt lat="51.9722533" lon="5.8116688"/>
<trkpt lat="51.9723300" lon="5.8119870"/>
<trkpt lat="51.9724393" lon="5.8120111"/>
<trkpt lat="51.9725416" lon="5.8118872"/>
<trkpt lat="51.9726382" lon="5.8119572"/>
<trkpt lat="51.9727945" lon="5.8122812"/>
<trkpt lat="51.9730044" lon="5.8126201"/>
<trkpt lat="51.9731456" lon="5.8126801"/>
<trkpt lat="51.9734237" lon="5.8135157"/>
<trkpt lat="51.9737575" lon="5.8142839"/>
<trkpt lat="51.9739335" lon="5.8146909"/>
<trkpt lat="51.9743622" lon="5.8145468"/>
<trkpt lat="51.9744168" lon="5.8149564"/>
<trkpt lat="51.9746063" lon="5.8151141"/>
<trkpt lat="51.9746951" lon="5.8151880"/>
<trkpt lat="51.9748280" lon="5.8155052"/>
<trkpt lat="51.9748022" lon="5.8155981"/>
<trkpt lat="51.9747646" lon="5.8157337"/>
<trkpt lat="51.9741985" lon="5.8168942"/>
<trkpt lat="51.9742230" lon="5.8171931"/>
<trkpt lat="51.9740834" lon="5.8174921"/>
<trkpt lat="51.9736976" lon="5.8183186"/>
<trkpt lat="51.9738995" lon="5.8187872"/>
<trkpt lat="51.9740860" lon="5.8198613"/>
<trkpt lat="51.9741636" lon="5.8200815"/>
<trkpt lat="51.9742920" lon="5.8200828"/>
<trkpt lat="51.9743287" lon="5.8201644"/>
<trkpt lat="51.9743581" lon="5.8202297"/>
<trkpt lat="51.9743101" lon="5.8204480"/>
<trkpt lat="51.9743641" lon="5.8207207"/>
<trkpt lat="51.9744556" lon="5.8209573"/>
<trkpt lat="51.9746375" lon="5.8213280"/>
<trkpt lat="51.9746541" lon="5.8215355"/>
<trkpt lat="51.9746744" lon="5.8215990"/>
<trkpt lat="51.9747611" lon="5.8216853"/>
<trkpt lat="51.9747925" lon="5.8216652"/>
<trkpt lat="51.9748355" lon="5.8214776"/>
<trkpt lat="51.9748811" lon="5.8214833"/>
<trkpt lat="51.9750172" lon="5.8216586"/>
<trkpt lat="51.9750721" lon="5.8217622"/>
<trkpt lat="51.9751502" lon="5.8217629"/>
<trkpt lat="51.9753099" lon="5.8218258"/>
<trkpt lat="51.9753670" lon="5.8219083"/>
<trkpt lat="51.9753854" lon="5.8219632"/>
<trkpt lat="51.9753466" lon="5.8221691"/>
<trkpt lat="51.9753064" lon="5.8223178"/>
<trkpt lat="51.9752817" lon="5.8223254"/>
<trkpt lat="51.9751690" lon="5.8222804"/>
<trkpt lat="51.9751180" lon="5.8222852"/>
<trkpt lat="51.9750751" lon="5.8223440"/>
<trkpt lat="51.9750747" lon="5.8225306"/>
<trkpt lat="51.9750031" lon="5.8225336"/>
<trkpt lat="51.9749753" lon="5.8224954"/>
<trkpt lat="51.9749338" lon="5.8224942"/>
<trkpt lat="51.9748951" lon="5.8226008"/>
<trkpt lat="51.9748861" lon="5.8227510"/>
<trkpt lat="51.9749037" lon="5.8230355"/>
<trkpt lat="51.9749059" lon="5.8232918"/>
<trkpt lat="51.9749369" lon="5.8236433"/>
<trkpt lat="51.9748709" lon="5.8236402"/>
<trkpt lat="51.9742947" lon="5.8238600"/>
<trkpt lat="51.9738801" lon="5.8233995"/>
<trkpt lat="51.9736804" lon="5.8233860"/>
<trkpt lat="51.9736086" lon="5.8234893"/>
<trkpt lat="51.9736426" lon="5.8239401"/>
<trkpt lat="51.9734975" lon="5.8246087"/>
<trkpt lat="51.9732603" lon="5.8250800"/>
<trkpt lat="51.9729741" lon="5.8252967"/>
<trkpt lat="51.9727170" lon="5.8253751"/>
<trkpt lat="51.9721750" lon="5.8253120"/>
<trkpt lat="51.9715999" lon="5.8250791"/>
<trkpt lat="51.9715083" lon="5.8251591"/>
<trkpt lat="51.9714695" lon="5.8252118"/>
<trkpt lat="51.9714603" lon="5.8253896"/>
<trkpt lat="51.9714005" lon="5.8253636"/>
<trkpt lat="51.9712293" lon="5.8249669"/>
<trkpt lat="51.9707823" lon="5.8237852"/>
<trkpt lat="51.9700542" lon="5.8219646"/>
<trkpt lat="51.9676743" lon="5.8172521"/>
<trkpt lat="51.9663279" lon="5.8147559"/>
<trkpt lat="51.9640622" lon="5.8099644"/>
<trkpt lat="51.9629896" lon="5.8076195"/>
<trkpt lat="51.9629344" lon="5.8074265"/>
<trkpt lat="51.9627257" lon="5.8068277"/>
<trkpt lat="51.9626218" lon="5.8063938"/>
<trkpt lat="51.9625060" lon="5.8058557"/>
<trkpt lat="51.9623960" lon="5.8054700"/>
<trkpt lat="51.9622070" lon="5.8043381"/>
<trkpt lat="51.9618688" lon="5.8026368"/>
<trkpt lat="51.9605026" lon="5.8043031"/>
<trkpt lat="51.9600140" lon="5.8033574"/>
<trkpt lat="51.9599875" lon="5.8033060"/>
<trkpt lat="51.9595776" lon="5.8022691"/>
<trkpt lat="51.9589277" lon="5.8004308"/>
<trkpt lat="51.9585434" lon="5.7974325"/>
<trkpt lat="51.9572077" lon="5.7944717"/>
<trkpt lat="51.9570105" lon="5.7937309"/>
<trkpt lat="51.9570241" lon="5.7911444"/>
<trkpt lat="51.9571188" lon="5.7857024"/>
<trkpt lat="51.9572499" lon="5.7849029"/>
<trkpt lat="51.9575441" lon="5.7837200"/>
<trkpt lat="51.9577410" lon="5.7832141"/>
<trkpt lat="51.9577864" lon="5.7829007"/>
<trkpt lat="51.9577876" lon="5.7828230"/>
<trkpt lat="51.9577518" lon="5.7793295"/>
<trkpt lat="51.9577684" lon="5.7779054"/>
<trkpt lat="51.9578435" lon="5.7767898"/>
<trkpt lat="51.9580675" lon="5.7755696"/>
<trkpt lat="51.9581578" lon="5.7752143"/>
<trkpt lat="51.9582850" lon="5.7745033"/>
<trkpt lat="51.9583565" lon="5.7740350"/>
<trkpt lat="51.9584897" lon="5.7733048"/>
<trkpt lat="51.9586831" lon="5.7723634"/>
<trkpt lat="51.9589113" lon="5.7716724"/>
<trkpt lat="51.9591637" lon="5.7708470"/>
<trkpt lat="51.9594999" lon="5.7698490"/>
<trkpt lat="51.9599543" lon="5.7690638"/>
<trkpt lat="51.9611994" lon="5.7666066"/>
<trkpt lat="51.9618228" lon="5.7642752"/>
<trkpt lat="51.9624170" lon="5.7618099"/>
<trkpt lat="51.9626097" lon="5.7610416"/>
<trkpt lat="51.9628603" lon="5.7607742"/>
<trkpt lat="51.9632064" lon="5.7603728"/>
<trkpt lat="51.9633984" lon="5.7597970"/>
<trkpt lat="51.9639021" lon="5.7584537"/>
<trkpt lat="51.9644176" lon="5.7571106"/>
<trkpt lat="51.9640536" lon="5.7567637"/>
<trkpt lat="51.9637345" lon="5.7567836"/>
<trkpt lat="51.9634259" lon="5.7566270"/>
<trkpt lat="51.9633793" lon="5.7562994"/>
<trkpt lat="51.9635475" lon="5.7557618"/>
<trkpt lat="51.9637116" lon="5.7555759"/>
<trkpt lat="51.9635150" lon="5.7547606"/>
<trkpt lat="51.9630281" lon="5.7545641"/>
<trkpt lat="51.9628427" lon="5.7544556"/>
<trkpt lat="51.9627227" lon="5.7541130"/>
</trkseg></trk>
<trk><name>Nederrijnsepad XL - routeverkorter</name><type>shorteningRoute</type><trkseg>
<trkpt lat="51.9586228" lon="5.7318365"/>
<trkpt lat="51.9595013" lon="5.7315083"/>
<trkpt lat="51.9622481" lon="5.7314832"/>
<trkpt lat="51.9640605" lon="5.7314278"/>
<trkpt lat="51.9653231" lon="5.7314837"/>
<trkpt lat="51.9656236" lon="5.7311973"/>
<trkpt lat="51.9659456" lon="5.7308532"/>
<trkpt lat="51.9662379" lon="5.7309479"/>
<trkpt lat="51.9667130" lon="5.7319333"/>
<trkpt lat="51.9668909" lon="5.7320964"/>
<trkpt lat="51.9671550" lon="5.7320291"/>
<trkpt lat="51.9674129" lon="5.7316961"/>
<trkpt lat="51.9694380" lon="5.7344608"/>
<trkpt lat="51.9696378" lon="5.7344739"/>
<trkpt lat="51.9698797" lon="5.7346836"/>
<trkpt lat="51.9698236" lon="5.7349441"/>
<trkpt lat="51.9699806" lon="5.7355380"/>
<trkpt lat="51.9700730" lon="5.7358875"/>
<trkpt lat="51.9704245" lon="5.7360396"/>
</trkseg></trk>
<trk><name>Nederrijnsepad XL - routeverkorter</name><type>shorteningRoute</type><trkseg>
<trkpt lat="51.9685322" lon="5.7681219"/>
<trkpt lat="51.9684603" lon="5.7683061"/>
<trkpt lat="51.9684745" lon="5.7691110"/>
<trkpt lat="51.9687213" lon="5.7691920"/>
<trkpt lat="51.9693921" lon="5.7689660"/>
<trkpt lat="51.9698249" lon="5.7688222"/>
<trkpt lat="51.9699604" lon="5.7688464"/>
<trkpt lat="51.9701538" lon="5.7686171"/>
<trkpt lat="51.9702545" lon="5.7683638"/>
<trkpt lat="51.9702479" lon="5.7681789"/>
<trkpt lat="51.9697976" lon="5.7684523"/>
<trkpt lat="51.9687261" lon="5.7688475"/>
<trkpt lat="51.9677731" lon="5.7690704"/>
<trkpt lat="51.9669346" lon="5.7691442"/>
<trkpt lat="51.9661358" lon="5.7690507"/>
<trkpt lat="51.9654088" lon="5.7688540"/>
<trkpt lat="51.9646321" lon="5.7685471"/>
<trkpt lat="51.9638736" lon="5.7681537"/>
<trkpt lat="51.9629621" lon="5.7676032"/>
<trkpt lat="51.9600570" lon="5.7658174"/>
<trkpt lat="51.9600315" lon="5.7660077"/>
<trkpt lat="51.9600849" lon="5.7660255"/>
<trkpt lat="51.9600013" lon="5.7664983"/>
<trkpt lat="51.9607994" lon="5.7668111"/>
<trkpt lat="51.9606827" lon="5.7676263"/>
</trkseg></trk>
<trk><name>Nederrijnsepad XL - overstaproute</name><type>connectionRoute</type><trkseg>
<trkpt lat="51.9688357" lon="5.8558778"/>
<trkpt lat="51.9689813" lon="5.8555050"/>
<trkpt lat="51.9691335" lon="5.8550035"/>
<trkpt lat="51.9692264" lon="5.8543652"/>
<trkpt lat="51.9692934" lon="5.8539575"/>
<trkpt lat="51.9694107" lon="5.8537268"/>
<trkpt lat="51.9696122" lon="5.8527615"/>
<trkpt lat="51.9697692" lon="5.8520963"/>
<trkpt lat="51.9697318" lon="5.8519816"/>
<trkpt lat="51.9696482" lon="5.8518992"/>
<trkpt lat="51.9695535" lon="5.8516699"/>
<trkpt lat="51.9695881" lon="5.8512585"/>
<trkpt lat="51.9697417" lon="5.8508472"/>
<trkpt lat="51.9697977" lon="5.8504536"/>
<trkpt lat="51.9699538" lon="5.8498014"/>
<trkpt lat="51.9701693" lon="5.8494388"/>
<trkpt lat="51.9702965" lon="5.8490142"/>
<trkpt lat="51.9704555" lon="5.8484581"/>
<trkpt lat="51.9705217" lon="5.8482578"/>
<trkpt lat="51.9704955" lon="5.8479610"/>
<trkpt lat="51.9705690" lon="5.8472619"/>
<trkpt lat="51.9707603" lon="5.8470364"/>
<trkpt lat="51.9708723" lon="5.8467412"/>
<trkpt lat="51.9708784" lon="5.8464832"/>
<trkpt lat="51.9709355" lon="5.8462521"/>
<trkpt lat="51.9709894" lon="5.8460533"/>
<trkpt lat="51.9709981" lon="5.8458378"/>
<trkpt lat="51.9710596" lon="5.8456545"/>
<trkpt lat="51.9711356" lon="5.8455257"/>
<trkpt lat="51.9712149" lon="5.8451664"/>
<trkpt lat="51.9713504" lon="5.8443778"/>
<trkpt lat="51.9716222" lon="5.8428197"/>
<trkpt lat="51.9718543" lon="5.8415297"/>
<trkpt lat="51.9723120" lon="5.8389069"/>
<trkpt lat="51.9723484" lon="5.8387567"/>
<trkpt lat="51.9724624" lon="5.8368525"/>
<trkpt lat="51.9725764" lon="5.8351415"/>
<trkpt lat="51.9726425" lon="5.8335941"/>
<trkpt lat="51.9726260" lon="5.8325294"/>
<trkpt lat="51.9725691" lon="5.8310082"/>
<trkpt lat="51.9724865" lon="5.8292328"/>
<trkpt lat="51.9724106" lon="5.8286750"/>
<trkpt lat="51.9719572" lon="5.8267570"/>
<trkpt lat="51.9717857" lon="5.8261680"/>
<trkpt lat="51.9716142" lon="5.8256112"/>
<trkpt lat="51.9714827" lon="5.8254095"/>
</trkseg></trk>
<trk><name>Nederrijnsepad XL - overstaproute</name><type>connectionRoute</type><trkseg>
<trkpt lat="51.9775156" lon="5.8320695"/>
<trkpt lat="51.9766358" lon="5.8278923"/>
<trkpt lat="51.9766026" lon="5.8278205"/>
<trkpt lat="51.9764808" lon="5.8278474"/>
<trkpt lat="51.9764089" lon="5.8278564"/>
<trkpt lat="51.9762429" lon="5.8277666"/>
<trkpt lat="51.9761599" lon="5.8276588"/>
<trkpt lat="51.9758666" lon="5.8269312"/>
<trkpt lat="51.9755955" lon="5.8257454"/>
<trkpt lat="51.9751030" lon="5.8241194"/>
<trkpt lat="51.9750476" lon="5.8238859"/>
<trkpt lat="51.9749369" lon="5.8236433"/>
</trkseg></trk>
<trk><name>Nederrijnsepad XL - aanlooproute</name><type>approachRoute</type><trkseg>
<trkpt lat="51.9601145" lon="5.7635858"/>
<trkpt lat="51.9606372" lon="5.7637441"/>
<trkpt lat="51.9608742" lon="5.7639964"/>
<trkpt lat="51.9610998" lon="5.7640945"/>
<trkpt lat="51.9611004" lon="5.7639020"/>
<trkpt lat="51.9613262" lon="5.7639617"/>
<trkpt lat="51.9618228" lon="5.7642752"/>
</trkseg></trk>
<trk><name>Nederrijnsepad XL - aanlooproute</name><type>approachRoute</type><trkseg>
<trkpt lat="51.9699820" lon="5.8259254"/>
<trkpt lat="51.9712293" lon="5.8249669"/>
</trkseg></trk>
</gpx>