<?xml version="1.0" encoding="UTF-8"?>
<gpx version="1.1" creator="klompenpaden.nl via Jimbo API" xmlns="http://www.topografix.com/GPX/1/1">
<metadata><name>Nederwoudsepad</name><desc>Ontdek het mooie buitengebied van Lunteren. Wandelen door het agrarische gebied, over landgoederen, langs boerenerven en beken. Rust, kleinschaligheid en de combinatie van cultuur en natuur bepalen hier de sfeer. Klompen aan, rugzak op en gaan!</desc><link href="https://www.klompenpaden.nl/klompenpaden/Nederwoudsepad/9b328f48-4101-48bc-850f-bb384c2dcfda"><text>klompenpaden.nl</text></link></metadata>
<wpt lat="52.08404216523464" lon="5.548610687255859"><name>Start Renswoude</name></wpt>
<trk><name>Nederwoudsepad - Geimporteerde shapefile</name><type>mainRoute</type><trkseg>
<trkpt lat="52.0852312" lon="5.5535093"/>
<trkpt lat="52.0847045" lon="5.5503770"/>
<trkpt lat="52.0846267" lon="5.5499017"/>
<trkpt lat="52.0845544" lon="5.5496873"/>
<trkpt lat="52.0843069" lon="5.5480304"/>
<trkpt lat="52.0846784" lon="5.5477075"/>
<trkpt lat="52.0849639" lon="5.5475696"/>
<trkpt lat="52.0852636" lon="5.5475706"/>
<trkpt lat="52.0856127" lon="5.5478614"/>
<trkpt lat="52.0860184" lon="5.5485925"/>
<trkpt lat="52.0862247" lon="5.5489985"/>
<trkpt lat="52.0863600" lon="5.5491959"/>
<trkpt lat="52.0865167" lon="5.5493702"/>
<trkpt lat="52.0870583" lon="5.5497891"/>
<trkpt lat="52.0876071" lon="5.5502312"/>
<trkpt lat="52.0880846" lon="5.5505688"/>
<trkpt lat="52.0890682" lon="5.5512209"/>
<trkpt lat="52.0895529" lon="5.5515817"/>
<trkpt lat="52.0899091" lon="5.5518842"/>
<trkpt lat="52.0901801" lon="5.5519547"/>
<trkpt lat="52.0907008" lon="5.5520724"/>
<trkpt lat="52.0911787" lon="5.5521553"/>
<trkpt lat="52.0915421" lon="5.5524346"/>
<trkpt lat="52.0921975" lon="5.5530972"/>
<trkpt lat="52.0924967" lon="5.5534458"/>
<trkpt lat="52.0926035" lon="5.5536083"/>
<trkpt lat="52.0928025" lon="5.5541187"/>
<trkpt lat="52.0931152" lon="5.5549423"/>
<trkpt lat="52.0932931" lon="5.5553136"/>
<trkpt lat="52.0936632" lon="5.5558941"/>
<trkpt lat="52.0944109" lon="5.5568931"/>
<trkpt lat="52.0949735" lon="5.5576018"/>
<trkpt lat="52.0953581" lon="5.5580434"/>
<trkpt lat="52.0958355" lon="5.5584622"/>
<trkpt lat="52.0959849" lon="5.5587061"/>
<trkpt lat="52.0960984" lon="5.5591467"/>
<trkpt lat="52.0961967" lon="5.5602243"/>
<trkpt lat="52.0962815" lon="5.5607806"/>
<trkpt lat="52.0964167" lon="5.5610592"/>
<trkpt lat="52.0967728" lon="5.5614544"/>
<trkpt lat="52.0971717" lon="5.5618846"/>
<trkpt lat="52.0972998" lon="5.5620704"/>
<trkpt lat="52.0973494" lon="5.5623370"/>
<trkpt lat="52.0971837" lon="5.5634137"/>
<trkpt lat="52.0970109" lon="5.5644671"/>
<trkpt lat="52.0969316" lon="5.5649765"/>
<trkpt lat="52.0969737" lon="5.5654516"/>
<trkpt lat="52.0971293" lon="5.5663789"/>
<trkpt lat="52.0972991" lon="5.5672599"/>
<trkpt lat="52.0976915" lon="5.5672615"/>
<trkpt lat="52.0981834" lon="5.5674836"/>
<trkpt lat="52.0984615" lon="5.5675774"/>
<trkpt lat="52.0990963" lon="5.5677074"/>
<trkpt lat="52.0995028" lon="5.5678133"/>
<trkpt lat="52.0996740" lon="5.5677908"/>
<trkpt lat="52.1000454" lon="5.5675722"/>
<trkpt lat="52.1004523" lon="5.5673885"/>
<trkpt lat="52.1009875" lon="5.5672980"/>
<trkpt lat="52.1010869" lon="5.5676343"/>
<trkpt lat="52.1013500" lon="5.5681915"/>
<trkpt lat="52.1015561" lon="5.5686557"/>
<trkpt lat="52.1016343" lon="5.5688993"/>
<trkpt lat="52.1017756" lon="5.5697456"/>
<trkpt lat="52.1019389" lon="5.5702791"/>
<trkpt lat="52.1021237" lon="5.5707201"/>
<trkpt lat="52.1021446" lon="5.5710098"/>
<trkpt lat="52.1020584" lon="5.5714034"/>
<trkpt lat="52.1019937" lon="5.5717391"/>
<trkpt lat="52.1020215" lon="5.5721910"/>
<trkpt lat="52.1020853" lon="5.5724461"/>
<trkpt lat="52.1022276" lon="5.5726784"/>
<trkpt lat="52.1025555" lon="5.5728883"/>
<trkpt lat="52.1028406" lon="5.5730633"/>
<trkpt lat="52.1030970" lon="5.5733192"/>
<trkpt lat="52.1033104" lon="5.5737488"/>
<trkpt lat="52.1031603" lon="5.5739219"/>
<trkpt lat="52.1030671" lon="5.5741532"/>
<trkpt lat="52.1030238" lon="5.5744774"/>
<trkpt lat="52.1029521" lon="5.5747320"/>
<trkpt lat="52.1028448" lon="5.5748938"/>
<trkpt lat="52.1026876" lon="5.5750321"/>
<trkpt lat="52.1024804" lon="5.5752166"/>
<trkpt lat="52.1023447" lon="5.5753319"/>
<trkpt lat="52.1022374" lon="5.5755168"/>
<trkpt lat="52.1020939" lon="5.5760144"/>
<trkpt lat="52.1019862" lon="5.5764541"/>
<trkpt lat="52.1019211" lon="5.5770215"/>
<trkpt lat="52.1018203" lon="5.5775656"/>
<trkpt lat="52.1016125" lon="5.5781439"/>
<trkpt lat="52.1014191" lon="5.5785949"/>
<trkpt lat="52.1011905" lon="5.5787793"/>
<trkpt lat="52.1008762" lon="5.5790328"/>
<trkpt lat="52.1005763" lon="5.5792169"/>
<trkpt lat="52.1002407" lon="5.5793544"/>
<trkpt lat="52.1001407" lon="5.5794583"/>
<trkpt lat="52.1002111" lon="5.5800378"/>
<trkpt lat="52.1002391" lon="5.5803623"/>
<trkpt lat="52.1000954" lon="5.5809988"/>
<trkpt lat="52.0997145" lon="5.5826306"/>
<trkpt lat="52.0994845" lon="5.5836606"/>
<trkpt lat="52.0991613" lon="5.5849913"/>
<trkpt lat="52.0989946" lon="5.5865197"/>
<trkpt lat="52.0987279" lon="5.5881519"/>
<trkpt lat="52.0985765" lon="5.5890316"/>
<trkpt lat="52.0984387" lon="5.5903400"/>
<trkpt lat="52.0980107" lon="5.5903380"/>
<trkpt lat="52.0977396" lon="5.5903136"/>
<trkpt lat="52.0974189" lon="5.5901037"/>
<trkpt lat="52.0971339" lon="5.5899054"/>
<trkpt lat="52.0967346" lon="5.5897878"/>
<trkpt lat="52.0960713" lon="5.5896690"/>
<trkpt lat="52.0950728" lon="5.5895023"/>
<trkpt lat="52.0939601" lon="5.5893351"/>
<trkpt lat="52.0933397" lon="5.5891933"/>
<trkpt lat="52.0929689" lon="5.5890873"/>
<trkpt lat="52.0926340" lon="5.5888310"/>
<trkpt lat="52.0924202" lon="5.5887026"/>
<trkpt lat="52.0921349" lon="5.5886666"/>
<trkpt lat="52.0917710" lon="5.5886881"/>
<trkpt lat="52.0913786" lon="5.5886979"/>
<trkpt lat="52.0911504" lon="5.5886853"/>
<trkpt lat="52.0902736" lon="5.5882528"/>
<trkpt lat="52.0899458" lon="5.5880313"/>
<trkpt lat="52.0896463" lon="5.5879605"/>
<trkpt lat="52.0895601" lon="5.5882960"/>
<trkpt lat="52.0894878" lon="5.5888631"/>
<trkpt lat="52.0894152" lon="5.5895577"/>
<trkpt lat="52.0893717" lon="5.5899976"/>
<trkpt lat="52.0893213" lon="5.5902174"/>
<trkpt lat="52.0891349" lon="5.5907609"/>
<trkpt lat="52.0888854" lon="5.5906671"/>
<trkpt lat="52.0885002" lon="5.5906538"/>
<trkpt lat="52.0871944" lon="5.5907405"/>
<trkpt lat="52.0859315" lon="5.5908274"/>
<trkpt lat="52.0848612" lon="5.5909268"/>
<trkpt lat="52.0846258" lon="5.5908794"/>
<trkpt lat="52.0842625" lon="5.5905650"/>
<trkpt lat="52.0834846" lon="5.5907699"/>
<trkpt lat="52.0830849" lon="5.5908492"/>
<trkpt lat="52.0822501" lon="5.5909033"/>
<trkpt lat="52.0810586" lon="5.5909442"/>
<trkpt lat="52.0806947" lon="5.5909772"/>
<trkpt lat="52.0793318" lon="5.5910868"/>
<trkpt lat="52.0788467" lon="5.5911078"/>
<trkpt lat="52.0787182" lon="5.5911651"/>
<trkpt lat="52.0786180" lon="5.5913383"/>
<trkpt lat="52.0783373" lon="5.5920925"/>
<trkpt lat="52.0782762" lon="5.5921194"/>
<trkpt lat="52.0781407" lon="5.5921303"/>
<trkpt lat="52.0780345" lon="5.5921358"/>
<trkpt lat="52.0777836" lon="5.5921595"/>
<trkpt lat="52.0776045" lon="5.5915652"/>
<trkpt lat="52.0774555" lon="5.5911014"/>
<trkpt lat="52.0773343" lon="5.5910661"/>
<trkpt lat="52.0771130" lon="5.5911114"/>
<trkpt lat="52.0768490" lon="5.5911565"/>
<trkpt lat="52.0766707" lon="5.5911094"/>
<trkpt lat="52.0765496" lon="5.5909931"/>
<trkpt lat="52.0765357" lon="5.5907730"/>
<trkpt lat="52.0769023" lon="5.5892232"/>
<trkpt lat="52.0776061" lon="5.5864938"/>
<trkpt lat="52.0778434" lon="5.5853949"/>
<trkpt lat="52.0779628" lon="5.5844869"/>
<trkpt lat="52.0778282" lon="5.5841708"/>
<trkpt lat="52.0778597" lon="5.5839782"/>
<trkpt lat="52.0777882" lon="5.5836076"/>
<trkpt lat="52.0777885" lon="5.5834422"/>
<trkpt lat="52.0778374" lon="5.5834290"/>
<trkpt lat="52.0779808" lon="5.5831495"/>
<trkpt lat="52.0780152" lon="5.5828764"/>
<trkpt lat="52.0779903" lon="5.5826524"/>
<trkpt lat="52.0779833" lon="5.5823908"/>
<trkpt lat="52.0780264" lon="5.5821798"/>
<trkpt lat="52.0781097" lon="5.5819930"/>
<trkpt lat="52.0782640" lon="5.5819843"/>
<trkpt lat="52.0783493" lon="5.5814603"/>
<trkpt lat="52.0785064" lon="5.5814031"/>
<trkpt lat="52.0787645" lon="5.5762053"/>
<trkpt lat="52.0788602" lon="5.5743646"/>
<trkpt lat="52.0789461" lon="5.5742029"/>
<trkpt lat="52.0795813" lon="5.5740202"/>
<trkpt lat="52.0799323" lon="5.5731417"/>
<trkpt lat="52.0801900" lon="5.5725754"/>
<trkpt lat="52.0805691" lon="5.5719980"/>
<trkpt lat="52.0810982" lon="5.5712012"/>
<trkpt lat="52.0812413" lon="5.5709470"/>
<trkpt lat="52.0813848" lon="5.5704497"/>
<trkpt lat="52.0816006" lon="5.5692694"/>
<trkpt lat="52.0816872" lon="5.5686792"/>
<trkpt lat="52.0816948" lon="5.5683550"/>
<trkpt lat="52.0816241" lon="5.5679610"/>
<trkpt lat="52.0816388" lon="5.5676600"/>
<trkpt lat="52.0816684" lon="5.5669769"/>
<trkpt lat="52.0812759" lon="5.5670217"/>
<trkpt lat="52.0809265" lon="5.5669160"/>
<trkpt lat="52.0807197" lon="5.5668689"/>
<trkpt lat="52.0805626" lon="5.5669493"/>
<trkpt lat="52.0801981" lon="5.5673647"/>
<trkpt lat="52.0798836" lon="5.5677340"/>
<trkpt lat="52.0796050" lon="5.5680107"/>
<trkpt lat="52.0791909" lon="5.5682059"/>
<trkpt lat="52.0789339" lon="5.5682859"/>
<trkpt lat="52.0785061" lon="5.5681105"/>
<trkpt lat="52.0780784" lon="5.5679004"/>
<trkpt lat="52.0776721" lon="5.5676787"/>
<trkpt lat="52.0769950" lon="5.5672823"/>
<trkpt lat="52.0767598" lon="5.5670730"/>
<trkpt lat="52.0764964" lon="5.5667361"/>
<trkpt lat="52.0762117" lon="5.5662603"/>
<trkpt lat="52.0755857" lon="5.5650884"/>
<trkpt lat="52.0754149" lon="5.5647751"/>
<trkpt lat="52.0753939" lon="5.5645550"/>
<trkpt lat="52.0754020" lon="5.5638719"/>
<trkpt lat="52.0754098" lon="5.5634436"/>
<trkpt lat="52.0753395" lon="5.5627718"/>
<trkpt lat="52.0752756" lon="5.5625284"/>
<trkpt lat="52.0740471" lon="5.5634729"/>
<trkpt lat="52.0738755" lon="5.5637386"/>
<trkpt lat="52.0732666" lon="5.5653917"/>
<trkpt lat="52.0729869" lon="5.5663515"/>
<trkpt lat="52.0726430" lon="5.5672764"/>
<trkpt lat="52.0722940" lon="5.5668929"/>
<trkpt lat="52.0721439" lon="5.5670891"/>
<trkpt lat="52.0719654" lon="5.5672273"/>
<trkpt lat="52.0718867" lon="5.5673544"/>
<trkpt lat="52.0718149" lon="5.5676203"/>
<trkpt lat="52.0717717" lon="5.5679327"/>
<trkpt lat="52.0717000" lon="5.5681177"/>
<trkpt lat="52.0715501" lon="5.5681634"/>
<trkpt lat="52.0714005" lon="5.5680702"/>
<trkpt lat="52.0712865" lon="5.5679771"/>
<trkpt lat="52.0711722" lon="5.5680345"/>
<trkpt lat="52.0710438" lon="5.5680224"/>
<trkpt lat="52.0708942" lon="5.5678597"/>
<trkpt lat="52.0707877" lon="5.5675815"/>
<trkpt lat="52.0707524" lon="5.5673266"/>
<trkpt lat="52.0707742" lon="5.5670373"/>
<trkpt lat="52.0708531" lon="5.5667482"/>
<trkpt lat="52.0710248" lon="5.5664363"/>
<trkpt lat="52.0711966" lon="5.5661013"/>
<trkpt lat="52.0713398" lon="5.5657314"/>
<trkpt lat="52.0713973" lon="5.5654537"/>
<trkpt lat="52.0714337" lon="5.5649677"/>
<trkpt lat="52.0714626" lon="5.5647246"/>
<trkpt lat="52.0714986" lon="5.5645048"/>
<trkpt lat="52.0716133" lon="5.5641464"/>
<trkpt lat="52.0714638" lon="5.5639606"/>
<trkpt lat="52.0714712" lon="5.5637869"/>
<trkpt lat="52.0717867" lon="5.5627115"/>
<trkpt lat="52.0721213" lon="5.5632106"/>
<trkpt lat="52.0721927" lon="5.5631646"/>
<trkpt lat="52.0721930" lon="5.5629215"/>
<trkpt lat="52.0722076" lon="5.5626900"/>
<trkpt lat="52.0722364" lon="5.5625628"/>
<trkpt lat="52.0722793" lon="5.5624935"/>
<trkpt lat="52.0722725" lon="5.5622735"/>
<trkpt lat="52.0722799" lon="5.5620535"/>
<trkpt lat="52.0723229" lon="5.5619495"/>
<trkpt lat="52.0725154" lon="5.5619966"/>
<trkpt lat="52.0731232" lon="5.5610728"/>
<trkpt lat="52.0733155" lon="5.5613166"/>
<trkpt lat="52.0736221" lon="5.5614452"/>
<trkpt lat="52.0748202" lon="5.5617161"/>
<trkpt lat="52.0762251" lon="5.5621037"/>
<trkpt lat="52.0771950" lon="5.5623738"/>
<trkpt lat="52.0780793" lon="5.5626320"/>
<trkpt lat="52.0783004" lon="5.5626097"/>
<trkpt lat="52.0784360" lon="5.5625871"/>
<trkpt lat="52.0786002" lon="5.5625298"/>
<trkpt lat="52.0790497" lon="5.5625316"/>
<trkpt lat="52.0792210" lon="5.5624744"/>
<trkpt lat="52.0795140" lon="5.5621282"/>
<trkpt lat="52.0797213" lon="5.5618279"/>
<trkpt lat="52.0798715" lon="5.5615969"/>
<trkpt lat="52.0799504" lon="5.5613309"/>
<trkpt lat="52.0801575" lon="5.5611812"/>
<trkpt lat="52.0807001" lon="5.5608822"/>
<trkpt lat="52.0813355" lon="5.5605836"/>
<trkpt lat="52.0820492" lon="5.5604127"/>
<trkpt lat="52.0828267" lon="5.5604852"/>
<trkpt lat="52.0839967" lon="5.5605476"/>
<trkpt lat="52.0842820" lon="5.5605719"/>
<trkpt lat="52.0843749" lon="5.5604333"/>
<trkpt lat="52.0844113" lon="5.5599471"/>
<trkpt lat="52.0844051" lon="5.5593333"/>
<trkpt lat="52.0844631" lon="5.5586618"/>
<trkpt lat="52.0846565" lon="5.5581762"/>
<trkpt lat="52.0855332" lon="5.5563468"/>
<trkpt lat="52.0861375" lon="5.5570468"/>
<trkpt lat="52.0861757" lon="5.5570161"/>
<trkpt lat="52.0863607" lon="5.5567539"/>
<trkpt lat="52.0864163" lon="5.5567161"/>
<trkpt lat="52.0866154" lon="5.5568088"/>
<trkpt lat="52.0865760" lon="5.5565024"/>
<trkpt lat="52.0865807" lon="5.5564432"/>
<trkpt lat="52.0866016" lon="5.5563942"/>
<trkpt lat="52.0867338" lon="5.5561994"/>
<trkpt lat="52.0868473" lon="5.5560387"/>
<trkpt lat="52.0866145" lon="5.5557856"/>
<trkpt lat="52.0865188" lon="5.5557318"/>
<trkpt lat="52.0864574" lon="5.5557278"/>
<trkpt lat="52.0863673" lon="5.5557740"/>
<trkpt lat="52.0863164" lon="5.5557447"/>
<trkpt lat="52.0861631" lon="5.5555736"/>
<trkpt lat="52.0861957" lon="5.5553113"/>
<trkpt lat="52.0861164" lon="5.5550950"/>
<trkpt lat="52.0861979" lon="5.5549279"/>
<trkpt lat="52.0863411" lon="5.5546856"/>
<trkpt lat="52.0864244" lon="5.5546640"/>
<trkpt lat="52.0865043" lon="5.5546487"/>
<trkpt lat="52.0865327" lon="5.5545531"/>
<trkpt lat="52.0865353" lon="5.5544450"/>
<trkpt lat="52.0864816" lon="5.5540951"/>
<trkpt lat="52.0862682" lon="5.5536542"/>
<trkpt lat="52.0860687" lon="5.5534798"/>
<trkpt lat="52.0858121" lon="5.5532704"/>
<trkpt lat="52.0856480" lon="5.5532929"/>
<trkpt lat="52.0853037" lon="5.5535950"/>
<trkpt lat="52.0852267" lon="5.5535184"/>
</trkseg></trk>
<trk><name>Nederwoudsepad - Geimporteerde shapefile</name><type>connectionRoute</type><trkseg>
<trkpt lat="52.0946446" lon="5.6170455"/>
<trkpt lat="52.0941421" lon="5.6136467"/>
<trkpt lat="52.0920767" lon="5.6128746"/>
<trkpt lat="52.0952387" lon="5.6013678"/>
<trkpt lat="52.0951930" lon="5.6012103"/>
<trkpt lat="52.0950517" lon="5.6011086"/>
<trkpt lat="52.0966175" lon="5.5952620"/>
<trkpt lat="52.0967450" lon="5.5953602"/>
<trkpt lat="52.0968147" lon="5.5952715"/>
<trkpt lat="52.0971013" lon="5.5929911"/>
<trkpt lat="52.0949531" lon="5.5944901"/>
<trkpt lat="52.0935423" lon="5.5951939"/>
<trkpt lat="52.0921413" lon="5.5957037"/>
<trkpt lat="52.0907107" lon="5.5962454"/>
<trkpt lat="52.0899286" lon="5.5971920"/>
<trkpt lat="52.0895381" lon="5.5974219"/>
<trkpt lat="52.0892158" lon="5.5973034"/>
<trkpt lat="52.0885445" lon="5.5968915"/>
<trkpt lat="52.0876512" lon="5.5970532"/>
<trkpt lat="52.0873530" lon="5.5934440"/>
<trkpt lat="52.0882868" lon="5.5931971"/>
<trkpt lat="52.0888325" lon="5.5924372"/>
<trkpt lat="52.0891025" lon="5.5907170"/>
</trkseg></trk>
</gpx>