<?xml version="1.0" encoding="UTF-8"?>
<gpx version="1.1" creator="klompenpaden.nl via Jimbo API" xmlns="http://www.topografix.com/GPX/1/1">
<metadata><name>Nesserpad</name><desc>Ontdek het mooie buitengebied van Eemnes. Wandelen door het open polderlandschap van Eemland. Over boerderijen, dijken en langs de slingerende zomerdijk van de Eem. Geniet van het weidse uitzicht, de rust en de combinatie van cultuur en natuur. Klompen aan, rugzak op en gaan!</desc><link href="https://www.klompenpaden.nl/klompenpaden/Nesserpad/90d5c741-7708-4e8a-8768-4e36780820d6"><text>klompenpaden.nl</text></link></metadata>
<wpt lat="52.250945" lon="5.266432"><name>Start Eemnes</name></wpt>
<trk><name>Nesserpad - Geimporteerde shapefile</name><type>mainRoute</type><trkseg>
<trkpt lat="52.2509144" lon="5.2664920"/>
<trkpt lat="52.2508789" lon="5.2666471"/>
<trkpt lat="52.2508494" lon="5.2668602"/>
<trkpt lat="52.2508319" lon="5.2672768"/>
<trkpt lat="52.2507964" lon="5.2674416"/>
<trkpt lat="52.2507252" lon="5.2675483"/>
<trkpt lat="52.2504935" lon="5.2677233"/>
<trkpt lat="52.2502618" lon="5.2678886"/>
<trkpt lat="52.2500897" lon="5.2681118"/>
<trkpt lat="52.2500245" lon="5.2683057"/>
<trkpt lat="52.2499716" lon="5.2689064"/>
<trkpt lat="52.2499247" lon="5.2696233"/>
<trkpt lat="52.2497900" lon="5.2716868"/>
<trkpt lat="52.2497142" lon="5.2731981"/>
<trkpt lat="52.2495621" lon="5.2757846"/>
<trkpt lat="52.2494275" lon="5.2781096"/>
<trkpt lat="52.2492928" lon="5.2802797"/>
<trkpt lat="52.2492693" lon="5.2806962"/>
<trkpt lat="52.2491695" lon="5.2820331"/>
<trkpt lat="52.2490641" lon="5.2838737"/>
<trkpt lat="52.2488707" lon="5.2871771"/>
<trkpt lat="52.2487773" lon="5.2891726"/>
<trkpt lat="52.2487657" lon="5.2895019"/>
<trkpt lat="52.2487308" lon="5.2904900"/>
<trkpt lat="52.2486725" lon="5.2919527"/>
<trkpt lat="52.2486140" lon="5.2931054"/>
<trkpt lat="52.2485145" lon="5.2950913"/>
<trkpt lat="52.2484909" lon="5.2953625"/>
<trkpt lat="52.2484152" lon="5.2974355"/>
<trkpt lat="52.2483918" lon="5.2978229"/>
<trkpt lat="52.2483922" lon="5.2984138"/>
<trkpt lat="52.2483925" lon="5.2988593"/>
<trkpt lat="52.2483279" lon="5.2998087"/>
<trkpt lat="52.2482394" lon="5.3007871"/>
<trkpt lat="52.2481924" lon="5.3015330"/>
<trkpt lat="52.2481630" lon="5.3020561"/>
<trkpt lat="52.2481395" lon="5.3024630"/>
<trkpt lat="52.2481515" lon="5.3025985"/>
<trkpt lat="52.2480802" lon="5.3026665"/>
<trkpt lat="52.2480209" lon="5.3028119"/>
<trkpt lat="52.2480209" lon="5.3028603"/>
<trkpt lat="52.2478604" lon="5.3028412"/>
<trkpt lat="52.2476405" lon="5.3030063"/>
<trkpt lat="52.2475633" lon="5.3030839"/>
<trkpt lat="52.2474028" lon="5.3030842"/>
<trkpt lat="52.2472720" lon="5.3030748"/>
<trkpt lat="52.2471175" lon="5.3032010"/>
<trkpt lat="52.2467611" lon="5.3036666"/>
<trkpt lat="52.2464701" lon="5.3040449"/>
<trkpt lat="52.2463691" lon="5.3041225"/>
<trkpt lat="52.2462026" lon="5.3041422"/>
<trkpt lat="52.2459767" lon="5.3041620"/>
<trkpt lat="52.2457034" lon="5.3044046"/>
<trkpt lat="52.2453826" lon="5.3046280"/>
<trkpt lat="52.2452460" lon="5.3048413"/>
<trkpt lat="52.2450203" lon="5.3051226"/>
<trkpt lat="52.2447530" lon="5.3054621"/>
<trkpt lat="52.2445213" lon="5.3057337"/>
<trkpt lat="52.2442659" lon="5.3060150"/>
<trkpt lat="52.2442006" lon="5.3062379"/>
<trkpt lat="52.2442186" lon="5.3065284"/>
<trkpt lat="52.2443021" lon="5.3068575"/>
<trkpt lat="52.2442963" lon="5.3071094"/>
<trkpt lat="52.2442490" lon="5.3074097"/>
<trkpt lat="52.2441777" lon="5.3075745"/>
<trkpt lat="52.2439817" lon="5.3077394"/>
<trkpt lat="52.2438331" lon="5.3077784"/>
<trkpt lat="52.2435178" lon="5.3075369"/>
<trkpt lat="52.2433989" lon="5.3075080"/>
<trkpt lat="52.2432326" lon="5.3077311"/>
<trkpt lat="52.2431673" lon="5.3079346"/>
<trkpt lat="52.2431378" lon="5.3082639"/>
<trkpt lat="52.2430726" lon="5.3084965"/>
<trkpt lat="52.2429597" lon="5.3086710"/>
<trkpt lat="52.2427517" lon="5.3086714"/>
<trkpt lat="52.2419670" lon="5.3088374"/>
<trkpt lat="52.2414677" lon="5.3089060"/>
<trkpt lat="52.2411944" lon="5.3091680"/>
<trkpt lat="52.2410518" lon="5.3093910"/>
<trkpt lat="52.2408498" lon="5.3095657"/>
<trkpt lat="52.2404933" lon="5.3098955"/>
<trkpt lat="52.2402498" lon="5.3101478"/>
<trkpt lat="52.2401844" lon="5.3102060"/>
<trkpt lat="52.2399526" lon="5.3102838"/>
<trkpt lat="52.2398158" lon="5.3102066"/>
<trkpt lat="52.2395183" lon="5.3098391"/>
<trkpt lat="52.2394231" lon="5.3097521"/>
<trkpt lat="52.2392032" lon="5.3097816"/>
<trkpt lat="52.2390308" lon="5.3098303"/>
<trkpt lat="52.2388526" lon="5.3099855"/>
<trkpt lat="52.2386030" lon="5.3102281"/>
<trkpt lat="52.2383177" lon="5.3103254"/>
<trkpt lat="52.2380621" lon="5.3103936"/>
<trkpt lat="52.2378243" lon="5.3102972"/>
<trkpt lat="52.2376399" lon="5.3102588"/>
<trkpt lat="52.2371109" lon="5.3103372"/>
<trkpt lat="52.2367245" lon="5.3103475"/>
<trkpt lat="52.2363857" lon="5.3104449"/>
<trkpt lat="52.2360528" lon="5.3105520"/>
<trkpt lat="52.2358745" lon="5.3106395"/>
<trkpt lat="52.2355892" lon="5.3107949"/>
<trkpt lat="52.2352743" lon="5.3110085"/>
<trkpt lat="52.2349474" lon="5.3111930"/>
<trkpt lat="52.2344065" lon="5.3113779"/>
<trkpt lat="52.2341212" lon="5.3113590"/>
<trkpt lat="52.2339309" lon="5.3112625"/>
<trkpt lat="52.2337643" lon="5.3111660"/>
<trkpt lat="52.2334609" lon="5.3108373"/>
<trkpt lat="52.2333240" lon="5.3105664"/>
<trkpt lat="52.2331633" lon="5.3102084"/>
<trkpt lat="52.2330858" lon="5.3099277"/>
<trkpt lat="52.2330797" lon="5.3096760"/>
<trkpt lat="52.2330557" lon="5.3094243"/>
<trkpt lat="52.2330315" lon="5.3087950"/>
<trkpt lat="52.2329479" lon="5.3081948"/>
<trkpt lat="52.2327753" lon="5.3079337"/>
<trkpt lat="52.2325374" lon="5.3077695"/>
<trkpt lat="52.2324303" lon="5.3076729"/>
<trkpt lat="52.2323767" lon="5.3074503"/>
<trkpt lat="52.2323052" lon="5.3072761"/>
<trkpt lat="52.2321862" lon="5.3071311"/>
<trkpt lat="52.2321029" lon="5.3070151"/>
<trkpt lat="52.2320611" lon="5.3067634"/>
<trkpt lat="52.2320134" lon="5.3065117"/>
<trkpt lat="52.2319300" lon="5.3062795"/>
<trkpt lat="52.2317992" lon="5.3062023"/>
<trkpt lat="52.2316030" lon="5.3062123"/>
<trkpt lat="52.2314068" lon="5.3061643"/>
<trkpt lat="52.2313295" lon="5.3061547"/>
<trkpt lat="52.2313411" lon="5.3057481"/>
<trkpt lat="52.2313820" lon="5.3047023"/>
<trkpt lat="52.2313754" lon="5.3037535"/>
<trkpt lat="52.2313688" lon="5.3028240"/>
<trkpt lat="52.2313137" lon="5.3006747"/>
<trkpt lat="52.2313076" lon="5.3003939"/>
<trkpt lat="52.2297105" lon="5.3001008"/>
<trkpt lat="52.2275264" lon="5.2997647"/>
<trkpt lat="52.2274819" lon="5.2983935"/>
<trkpt lat="52.2274807" lon="5.2967634"/>
<trkpt lat="52.2276046" lon="5.2951738"/>
<trkpt lat="52.2277036" lon="5.2937064"/>
<trkpt lat="52.2278649" lon="5.2920352"/>
<trkpt lat="52.2278767" lon="5.2911793"/>
<trkpt lat="52.2279256" lon="5.2897529"/>
<trkpt lat="52.2279491" lon="5.2878781"/>
<trkpt lat="52.2279478" lon="5.2863703"/>
<trkpt lat="52.2279731" lon="5.2841192"/>
<trkpt lat="52.2325057" lon="5.2848012"/>
<trkpt lat="52.2329122" lon="5.2848600"/>
<trkpt lat="52.2348149" lon="5.2851558"/>
<trkpt lat="52.2359208" lon="5.2852985"/>
<trkpt lat="52.2359442" lon="5.2848240"/>
<trkpt lat="52.2359598" lon="5.2822967"/>
<trkpt lat="52.2359816" lon="5.2800695"/>
<trkpt lat="52.2360109" lon="5.2796434"/>
<trkpt lat="52.2360402" lon="5.2791979"/>
<trkpt lat="52.2361106" lon="5.2781229"/>
<trkpt lat="52.2361578" lon="5.2777064"/>
<trkpt lat="52.2369151" lon="5.2778398"/>
<trkpt lat="52.2373321" lon="5.2699958"/>
<trkpt lat="52.2378549" lon="5.2700904"/>
<trkpt lat="52.2379162" lon="5.2701004"/>
<trkpt lat="52.2395275" lon="5.2703480"/>
<trkpt lat="52.2396029" lon="5.2684691"/>
<trkpt lat="52.2398773" lon="5.2635198"/>
<trkpt lat="52.2399648" lon="5.2619798"/>
<trkpt lat="52.2399707" lon="5.2619120"/>
<trkpt lat="52.2413565" lon="5.2624989"/>
<trkpt lat="52.2430338" lon="5.2632689"/>
<trkpt lat="52.2438011" lon="5.2635864"/>
<trkpt lat="52.2453237" lon="5.2641923"/>
<trkpt lat="52.2460314" lon="5.2645003"/>
<trkpt lat="52.2480714" lon="5.2653277"/>
<trkpt lat="52.2484224" lon="5.2654720"/>
<trkpt lat="52.2500757" lon="5.2660680"/>
<trkpt lat="52.2509203" lon="5.2664532"/>
<trkpt lat="52.2509144" lon="5.2664920"/>
</trkseg></trk>
<trk><name>Nesserpad - shorteningRoute</name><type>shorteningRoute</type><trkseg>
<trkpt lat="52.2488900" lon="5.2871800"/>
<trkpt lat="52.2458700" lon="5.2867700"/>
<trkpt lat="52.2447900" lon="5.2865800"/>
<trkpt lat="52.2434400" lon="5.2864200"/>
<trkpt lat="52.2408600" lon="5.2860100"/>
<trkpt lat="52.2359200" lon="5.2852900"/>
</trkseg></trk>
<trk><name>Nesserpad - alternativeRoute</name><type>alternativeRoute</type><trkseg>
<trkpt lat="52.2361600" lon="5.2777700"/>
<trkpt lat="52.2363200" lon="5.2744800"/>
<trkpt lat="52.2363900" lon="5.2733100"/>
<trkpt lat="52.2369700" lon="5.2606700"/>
<trkpt lat="52.2382900" lon="5.2612100"/>
<trkpt lat="52.2394700" lon="5.2616100"/>
<trkpt lat="52.2399700" lon="5.2619100"/>
</trkseg></trk>
</gpx>