<?xml version="1.0" encoding="UTF-8"?>
<gpx version="1.1" creator="klompenpaden.nl via Jimbo API" xmlns="http://www.topografix.com/GPX/1/1">
<metadata><name>Niebroekerpad</name><desc>Ontdek het mooie buitengebied van Nijbroek. Wandelen langs boerenerven, over schouwpaden en historische wegen. Rust, ruimte, karakteristieke boerderijen en een landschap door mensenhanden gevormd bepalen hier de sfeer. Klompen aan, rugzak op en gaan!</desc><link href="https://www.klompenpaden.nl/klompenpaden/Niebroekerpad/c3d95e57-3e2f-4cd8-8ec7-e940ea7ed0ab"><text>klompenpaden.nl</text></link></metadata>
<wpt lat="52.291803963328114" lon="6.062173247337341"><name>Start Nijbroek</name></wpt>
<trk><name>Niebroekerpad - mainRoute</name><type>mainRoute</type><trkseg>
<trkpt lat="52.2918300" lon="6.0623500"/>
<trkpt lat="52.2918800" lon="6.0629800"/>
<trkpt lat="52.2894100" lon="6.0634400"/>
<trkpt lat="52.2887500" lon="6.0582400"/>
<trkpt lat="52.2877300" lon="6.0506600"/>
<trkpt lat="52.2869600" lon="6.0507700"/>
<trkpt lat="52.2862200" lon="6.0510100"/>
<trkpt lat="52.2814300" lon="6.0537800"/>
<trkpt lat="52.2813800" lon="6.0535000"/>
<trkpt lat="52.2799000" lon="6.0544600"/>
<trkpt lat="52.2766300" lon="6.0567500"/>
<trkpt lat="52.2760700" lon="6.0570700"/>
<trkpt lat="52.2761400" lon="6.0573400"/>
<trkpt lat="52.2755800" lon="6.0576700"/>
<trkpt lat="52.2745700" lon="6.0578900"/>
<trkpt lat="52.2736400" lon="6.0580600"/>
<trkpt lat="52.2731700" lon="6.0582700"/>
<trkpt lat="52.2726800" lon="6.0586500"/>
<trkpt lat="52.2724500" lon="6.0588700"/>
<trkpt lat="52.2721200" lon="6.0592800"/>
<trkpt lat="52.2713300" lon="6.0603100"/>
<trkpt lat="52.2708300" lon="6.0608300"/>
<trkpt lat="52.2695100" lon="6.0613100"/>
<trkpt lat="52.2686300" lon="6.0615900"/>
<trkpt lat="52.2700300" lon="6.0719800"/>
<trkpt lat="52.2705400" lon="6.0754700"/>
<trkpt lat="52.2709900" lon="6.0786600"/>
<trkpt lat="52.2714400" lon="6.0818600"/>
<trkpt lat="52.2715900" lon="6.0831000"/>
<trkpt lat="52.2722400" lon="6.0830500"/>
<trkpt lat="52.2732500" lon="6.0825800"/>
<trkpt lat="52.2738100" lon="6.0824400"/>
<trkpt lat="52.2745200" lon="6.0821200"/>
<trkpt lat="52.2756000" lon="6.0817000"/>
<trkpt lat="52.2770500" lon="6.0810900"/>
<trkpt lat="52.2789300" lon="6.0804800"/>
<trkpt lat="52.2797600" lon="6.0804000"/>
<trkpt lat="52.2797700" lon="6.0802600"/>
<trkpt lat="52.2806700" lon="6.0802700"/>
<trkpt lat="52.2808700" lon="6.0803200"/>
<trkpt lat="52.2810800" lon="6.0805900"/>
<trkpt lat="52.2820000" lon="6.0822300"/>
<trkpt lat="52.2819400" lon="6.0823300"/>
<trkpt lat="52.2820600" lon="6.0825300"/>
<trkpt lat="52.2825500" lon="6.0836600"/>
<trkpt lat="52.2827400" lon="6.0836500"/>
<trkpt lat="52.2845000" lon="6.0825900"/>
<trkpt lat="52.2858800" lon="6.0818100"/>
<trkpt lat="52.2878800" lon="6.0806000"/>
<trkpt lat="52.2894700" lon="6.0796800"/>
<trkpt lat="52.2897400" lon="6.0795100"/>
<trkpt lat="52.2911800" lon="6.0783100"/>
<trkpt lat="52.2921900" lon="6.0775400"/>
<trkpt lat="52.2940100" lon="6.0764000"/>
<trkpt lat="52.2962300" lon="6.0750500"/>
<trkpt lat="52.2980100" lon="6.0741100"/>
<trkpt lat="52.2964600" lon="6.0621600"/>
<trkpt lat="52.2979900" lon="6.0619000"/>
<trkpt lat="52.2999000" lon="6.0615600"/>
<trkpt lat="52.3008000" lon="6.0613800"/>
<trkpt lat="52.2998800" lon="6.0541800"/>
<trkpt lat="52.2999700" lon="6.0542200"/>
<trkpt lat="52.3001600" lon="6.0546600"/>
<trkpt lat="52.3003700" lon="6.0548900"/>
<trkpt lat="52.3006700" lon="6.0550400"/>
<trkpt lat="52.3007200" lon="6.0548000"/>
<trkpt lat="52.3011400" lon="6.0548800"/>
<trkpt lat="52.3017400" lon="6.0547600"/>
<trkpt lat="52.3018100" lon="6.0549400"/>
<trkpt lat="52.3032500" lon="6.0551700"/>
<trkpt lat="52.3031300" lon="6.0544300"/>
<trkpt lat="52.3023300" lon="6.0545600"/>
<trkpt lat="52.3019800" lon="6.0546500"/>
<trkpt lat="52.3015500" lon="6.0547900"/>
<trkpt lat="52.3011500" lon="6.0548800"/>
<trkpt lat="52.3007100" lon="6.0547700"/>
<trkpt lat="52.3003200" lon="6.0545400"/>
<trkpt lat="52.3001200" lon="6.0542000"/>
<trkpt lat="52.2995800" lon="6.0527400"/>
<trkpt lat="52.2991500" lon="6.0516600"/>
<trkpt lat="52.2988600" lon="6.0508900"/>
<trkpt lat="52.2985800" lon="6.0504200"/>
<trkpt lat="52.2982500" lon="6.0500900"/>
<trkpt lat="52.2977700" lon="6.0499300"/>
<trkpt lat="52.2970500" lon="6.0498700"/>
<trkpt lat="52.2962700" lon="6.0498500"/>
<trkpt lat="52.2947700" lon="6.0498900"/>
<trkpt lat="52.2921800" lon="6.0500900"/>
<trkpt lat="52.2923500" lon="6.0512800"/>
<trkpt lat="52.2928300" lon="6.0512700"/>
<trkpt lat="52.2942900" lon="6.0625500"/>
<trkpt lat="52.2918900" lon="6.0629800"/>
</trkseg></trk>
<trk><name>Niebroekerpad - shorteningRoute</name><type>shorteningRoute</type><trkseg>
<trkpt lat="52.2921300" lon="6.0629400"/>
<trkpt lat="52.2938800" lon="6.0764800"/>
</trkseg></trk>
</gpx>