<?xml version="1.0" encoding="UTF-8"?>
<gpx version="1.1" creator="klompenpaden.nl via Jimbo API" xmlns="http://www.topografix.com/GPX/1/1">
<metadata><name>Nijmolensebeekpad</name><desc>Ontdek het mooie buitengebied van Vaassen met haar rijke historie, langs een kasteel, watermolens, beken, grafheuvels en raatakkers. Laat je verrassen door de schoonheid en afwisseling van het landschap in elk seizoen. Klompen aan, rugzak op en gaan!</desc><link href="https://www.klompenpaden.nl/klompenpaden/Nijmolensebeekpad/0d232f42-b4cb-4032-8a1e-f0db1206fef1"><text>klompenpaden.nl</text></link></metadata>
<wpt lat="52.29042847900626" lon="5.96519095562243"><name>Start Vaassen</name></wpt>
<trk><name>Nijmolensebeekpad - Hoofdroute</name><type>mainRoute</type><trkseg>
<trkpt lat="52.2904285" lon="5.9651910"/>
<trkpt lat="52.2904391" lon="5.9655509"/>
<trkpt lat="52.2903990" lon="5.9662438"/>
<trkpt lat="52.2915350" lon="5.9664968"/>
<trkpt lat="52.2927692" lon="5.9667639"/>
<trkpt lat="52.2933939" lon="5.9665779"/>
<trkpt lat="52.2957148" lon="5.9664064"/>
<trkpt lat="52.2958988" lon="5.9669609"/>
<trkpt lat="52.2965226" lon="5.9677836"/>
<trkpt lat="52.2968766" lon="5.9683351"/>
<trkpt lat="52.2969318" lon="5.9687082"/>
<trkpt lat="52.2972825" lon="5.9699346"/>
<trkpt lat="52.2974448" lon="5.9703090"/>
<trkpt lat="52.2980303" lon="5.9702004"/>
<trkpt lat="52.2983629" lon="5.9700072"/>
<trkpt lat="52.2987690" lon="5.9694071"/>
<trkpt lat="52.2991638" lon="5.9689236"/>
<trkpt lat="52.2997643" lon="5.9686638"/>
<trkpt lat="52.2989493" lon="5.9705454"/>
<trkpt lat="52.3001125" lon="5.9722809"/>
<trkpt lat="52.3013249" lon="5.9736811"/>
<trkpt lat="52.3012431" lon="5.9728638"/>
<trkpt lat="52.3011848" lon="5.9715303"/>
<trkpt lat="52.3005949" lon="5.9673306"/>
<trkpt lat="52.3004330" lon="5.9661590"/>
<trkpt lat="52.3003251" lon="5.9655430"/>
<trkpt lat="52.3008248" lon="5.9648142"/>
<trkpt lat="52.3015288" lon="5.9638225"/>
<trkpt lat="52.3021682" lon="5.9628999"/>
<trkpt lat="52.3030863" lon="5.9618876"/>
<trkpt lat="52.3031619" lon="5.9610042"/>
<trkpt lat="52.3032644" lon="5.9590038"/>
<trkpt lat="52.3032532" lon="5.9583636"/>
<trkpt lat="52.3030617" lon="5.9566569"/>
<trkpt lat="52.3017374" lon="5.9570821"/>
<trkpt lat="52.3014902" lon="5.9554110"/>
<trkpt lat="52.3013387" lon="5.9545156"/>
<trkpt lat="52.3011232" lon="5.9537486"/>
<trkpt lat="52.3004640" lon="5.9520218"/>
<trkpt lat="52.3001280" lon="5.9507598"/>
<trkpt lat="52.2999984" lon="5.9494229"/>
<trkpt lat="52.2993796" lon="5.9476143"/>
<trkpt lat="52.3007306" lon="5.9459292"/>
<trkpt lat="52.3011832" lon="5.9485612"/>
<trkpt lat="52.3020059" lon="5.9501653"/>
<trkpt lat="52.3023317" lon="5.9516745"/>
<trkpt lat="52.3025532" lon="5.9528398"/>
<trkpt lat="52.3027369" lon="5.9541384"/>
<trkpt lat="52.3034632" lon="5.9538665"/>
<trkpt lat="52.3034493" lon="5.9535572"/>
<trkpt lat="52.3034066" lon="5.9531611"/>
<trkpt lat="52.3032537" lon="5.9522274"/>
<trkpt lat="52.3031520" lon="5.9512906"/>
<trkpt lat="52.3026673" lon="5.9439980"/>
<trkpt lat="52.3024758" lon="5.9413112"/>
<trkpt lat="52.3021947" lon="5.9373510"/>
<trkpt lat="52.3020795" lon="5.9356637"/>
<trkpt lat="52.3020108" lon="5.9347100"/>
<trkpt lat="52.3019455" lon="5.9339651"/>
<trkpt lat="52.3019378" lon="5.9331279"/>
<trkpt lat="52.3019426" lon="5.9316980"/>
<trkpt lat="52.3018900" lon="5.9260707"/>
<trkpt lat="52.2980304" lon="5.9291890"/>
<trkpt lat="52.2983116" lon="5.9308622"/>
<trkpt lat="52.2979949" lon="5.9307129"/>
<trkpt lat="52.2976456" lon="5.9306505"/>
<trkpt lat="52.2972821" lon="5.9305820"/>
<trkpt lat="52.2969723" lon="5.9304619"/>
<trkpt lat="52.2968226" lon="5.9304193"/>
<trkpt lat="52.2966910" lon="5.9303479"/>
<trkpt lat="52.2968064" lon="5.9308496"/>
<trkpt lat="52.2970551" lon="5.9318417"/>
<trkpt lat="52.2971744" lon="5.9322679"/>
<trkpt lat="52.2974938" lon="5.9318558"/>
<trkpt lat="52.2979548" lon="5.9316712"/>
<trkpt lat="52.2979540" lon="5.9319883"/>
<trkpt lat="52.2980081" lon="5.9320917"/>
<trkpt lat="52.2981064" lon="5.9325526"/>
<trkpt lat="52.2981730" lon="5.9327351"/>
<trkpt lat="52.2984430" lon="5.9325911"/>
<trkpt lat="52.2985380" lon="5.9326111"/>
<trkpt lat="52.2989599" lon="5.9349255"/>
<trkpt lat="52.2993324" lon="5.9371927"/>
<trkpt lat="52.2995458" lon="5.9386676"/>
<trkpt lat="52.2980163" lon="5.9385015"/>
<trkpt lat="52.2973543" lon="5.9387227"/>
<trkpt lat="52.2967057" lon="5.9391070"/>
<trkpt lat="52.2937648" lon="5.9406696"/>
<trkpt lat="52.2940732" lon="5.9441649"/>
<trkpt lat="52.2940085" lon="5.9443797"/>
<trkpt lat="52.2938828" lon="5.9445613"/>
<trkpt lat="52.2936970" lon="5.9445701"/>
<trkpt lat="52.2930020" lon="5.9442741"/>
<trkpt lat="52.2929181" lon="5.9441628"/>
<trkpt lat="52.2930053" lon="5.9430797"/>
<trkpt lat="52.2927200" lon="5.9428801"/>
<trkpt lat="52.2925060" lon="5.9424741"/>
<trkpt lat="52.2923063" lon="5.9424177"/>
<trkpt lat="52.2921220" lon="5.9422011"/>
<trkpt lat="52.2920860" lon="5.9422171"/>
<trkpt lat="52.2921370" lon="5.9425291"/>
<trkpt lat="52.2921080" lon="5.9427481"/>
<trkpt lat="52.2919580" lon="5.9428441"/>
<trkpt lat="52.2916510" lon="5.9429141"/>
<trkpt lat="52.2916470" lon="5.9430901"/>
<trkpt lat="52.2916110" lon="5.9432701"/>
<trkpt lat="52.2914170" lon="5.9432751"/>
<trkpt lat="52.2913240" lon="5.9431791"/>
<trkpt lat="52.2913110" lon="5.9430081"/>
<trkpt lat="52.2911530" lon="5.9428791"/>
<trkpt lat="52.2909270" lon="5.9428301"/>
<trkpt lat="52.2908960" lon="5.9424541"/>
<trkpt lat="52.2908340" lon="5.9422641"/>
<trkpt lat="52.2907660" lon="5.9422261"/>
<trkpt lat="52.2904150" lon="5.9420031"/>
<trkpt lat="52.2903770" lon="5.9418736"/>
<trkpt lat="52.2900608" lon="5.9406067"/>
<trkpt lat="52.2897178" lon="5.9393133"/>
<trkpt lat="52.2893733" lon="5.9380148"/>
<trkpt lat="52.2890605" lon="5.9367114"/>
<trkpt lat="52.2884207" lon="5.9341021"/>
<trkpt lat="52.2878030" lon="5.9314776"/>
<trkpt lat="52.2876637" lon="5.9309071"/>
<trkpt lat="52.2875466" lon="5.9303499"/>
<trkpt lat="52.2875382" lon="5.9300735"/>
<trkpt lat="52.2875505" lon="5.9297508"/>
<trkpt lat="52.2875831" lon="5.9291365"/>
<trkpt lat="52.2876669" lon="5.9279600"/>
<trkpt lat="52.2871334" lon="5.9278061"/>
<trkpt lat="52.2866031" lon="5.9276368"/>
<trkpt lat="52.2865509" lon="5.9276865"/>
<trkpt lat="52.2865208" lon="5.9277779"/>
<trkpt lat="52.2864092" lon="5.9287820"/>
<trkpt lat="52.2862976" lon="5.9299384"/>
<trkpt lat="52.2862424" lon="5.9305826"/>
<trkpt lat="52.2861966" lon="5.9312320"/>
<trkpt lat="52.2861933" lon="5.9319311"/>
<trkpt lat="52.2861956" lon="5.9321282"/>
<trkpt lat="52.2862329" lon="5.9322998"/>
<trkpt lat="52.2862653" lon="5.9324151"/>
<trkpt lat="52.2862823" lon="5.9325518"/>
<trkpt lat="52.2863355" lon="5.9327789"/>
<trkpt lat="52.2865038" lon="5.9331937"/>
<trkpt lat="52.2869879" lon="5.9359342"/>
<trkpt lat="52.2874338" lon="5.9387026"/>
<trkpt lat="52.2883667" lon="5.9442040"/>
<trkpt lat="52.2906473" lon="5.9576264"/>
<trkpt lat="52.2922448" lon="5.9564717"/>
<trkpt lat="52.2932803" lon="5.9665144"/>
<trkpt lat="52.2933212" lon="5.9665944"/>
</trkseg></trk>
<trk><name>Nijmolensebeekpad - Routeverkorter</name><type>shorteningRoute</type><trkseg>
<trkpt lat="52.2941262" lon="5.9449071"/>
<trkpt lat="52.2948852" lon="5.9531131"/>
<trkpt lat="52.2930100" lon="5.9557160"/>
<trkpt lat="52.2926448" lon="5.9561329"/>
<trkpt lat="52.2922448" lon="5.9564717"/>
</trkseg></trk>
<trk><name>Nijmolensebeekpad - Overstaproute</name><type>connectionRoute</type><trkseg>
<trkpt lat="52.3075965" lon="5.9551286"/>
<trkpt lat="52.3054123" lon="5.9587343"/>
<trkpt lat="52.3044150" lon="5.9603483"/>
<trkpt lat="52.3040054" lon="5.9608609"/>
<trkpt lat="52.3032953" lon="5.9616009"/>
<trkpt lat="52.3030995" lon="5.9617336"/>
</trkseg></trk>
</gpx>