<?xml version="1.0" encoding="UTF-8"?>
<gpx version="1.1" creator="klompenpaden.nl via Jimbo API" xmlns="http://www.topografix.com/GPX/1/1">
<metadata><name>Norderpad</name><desc>Ontdek het mooie buitengebied van Putten. Wandelen over eeuwenoude kerkpaden, over landwegen en landgoederen, langs waterpartijen en oude boerderijen. Een belevenis van afwisseling in cultuur en natuur. Klompen aan, rugzak op en gaan!</desc><link href="https://www.klompenpaden.nl/klompenpaden/Norderpad/4b0a9478-98ad-425e-93f7-045c19709a74"><text>klompenpaden.nl</text></link></metadata>
<wpt lat="52.26095750999268" lon="5.606884360313415"><name>Start Putten</name></wpt>
<trk><name>Norderpad - mainRoute</name><type>mainRoute</type><trkseg>
<trkpt lat="52.2611200" lon="5.6067600"/>
<trkpt lat="52.2613200" lon="5.6067600"/>
<trkpt lat="52.2613300" lon="5.6067200"/>
<trkpt lat="52.2614200" lon="5.6047000"/>
<trkpt lat="52.2615000" lon="5.6043600"/>
<trkpt lat="52.2615800" lon="5.6042500"/>
<trkpt lat="52.2615700" lon="5.6029500"/>
<trkpt lat="52.2614900" lon="5.6027900"/>
<trkpt lat="52.2615100" lon="5.6020500"/>
<trkpt lat="52.2615000" lon="5.6013500"/>
<trkpt lat="52.2618000" lon="5.6009300"/>
<trkpt lat="52.2624900" lon="5.5994200"/>
<trkpt lat="52.2639000" lon="5.6005200"/>
<trkpt lat="52.2643200" lon="5.5979000"/>
<trkpt lat="52.2643100" lon="5.5969500"/>
<trkpt lat="52.2653900" lon="5.5958000"/>
<trkpt lat="52.2659600" lon="5.5949900"/>
<trkpt lat="52.2664400" lon="5.5938600"/>
<trkpt lat="52.2669300" lon="5.5924800"/>
<trkpt lat="52.2668200" lon="5.5881100"/>
<trkpt lat="52.2665400" lon="5.5862300"/>
<trkpt lat="52.2664300" lon="5.5856000"/>
<trkpt lat="52.2663500" lon="5.5842300"/>
<trkpt lat="52.2662200" lon="5.5841200"/>
<trkpt lat="52.2661800" lon="5.5840300"/>
<trkpt lat="52.2647900" lon="5.5842900"/>
<trkpt lat="52.2643400" lon="5.5826000"/>
<trkpt lat="52.2644600" lon="5.5820600"/>
<trkpt lat="52.2643800" lon="5.5819800"/>
<trkpt lat="52.2643300" lon="5.5820000"/>
<trkpt lat="52.2642900" lon="5.5818200"/>
<trkpt lat="52.2643500" lon="5.5817800"/>
<trkpt lat="52.2644000" lon="5.5816200"/>
<trkpt lat="52.2645300" lon="5.5815900"/>
<trkpt lat="52.2646600" lon="5.5811100"/>
<trkpt lat="52.2654300" lon="5.5790700"/>
<trkpt lat="52.2657300" lon="5.5773000"/>
<trkpt lat="52.2659000" lon="5.5760400"/>
<trkpt lat="52.2675700" lon="5.5772300"/>
<trkpt lat="52.2687800" lon="5.5780500"/>
<trkpt lat="52.2706200" lon="5.5795200"/>
<trkpt lat="52.2713300" lon="5.5776900"/>
<trkpt lat="52.2715700" lon="5.5768800"/>
<trkpt lat="52.2728400" lon="5.5719500"/>
<trkpt lat="52.2730500" lon="5.5710300"/>
<trkpt lat="52.2730100" lon="5.5708800"/>
<trkpt lat="52.2730100" lon="5.5707500"/>
<trkpt lat="52.2730300" lon="5.5706400"/>
<trkpt lat="52.2730200" lon="5.5702600"/>
<trkpt lat="52.2731300" lon="5.5701600"/>
<trkpt lat="52.2732100" lon="5.5699800"/>
<trkpt lat="52.2732300" lon="5.5698300"/>
<trkpt lat="52.2725400" lon="5.5693200"/>
<trkpt lat="52.2724900" lon="5.5695200"/>
<trkpt lat="52.2724600" lon="5.5699300"/>
<trkpt lat="52.2724300" lon="5.5700600"/>
<trkpt lat="52.2723500" lon="5.5702500"/>
<trkpt lat="52.2722700" lon="5.5703900"/>
<trkpt lat="52.2721700" lon="5.5707900"/>
<trkpt lat="52.2718800" lon="5.5705700"/>
<trkpt lat="52.2720500" lon="5.5698300"/>
<trkpt lat="52.2708900" lon="5.5690000"/>
<trkpt lat="52.2713600" lon="5.5671700"/>
<trkpt lat="52.2712600" lon="5.5669400"/>
<trkpt lat="52.2710800" lon="5.5668200"/>
<trkpt lat="52.2712200" lon="5.5661500"/>
<trkpt lat="52.2691800" lon="5.5648100"/>
<trkpt lat="52.2688700" lon="5.5645500"/>
<trkpt lat="52.2704000" lon="5.5587600"/>
<trkpt lat="52.2719700" lon="5.5598100"/>
<trkpt lat="52.2719100" lon="5.5600900"/>
<trkpt lat="52.2725500" lon="5.5605800"/>
<trkpt lat="52.2727400" lon="5.5607500"/>
<trkpt lat="52.2731100" lon="5.5609900"/>
<trkpt lat="52.2732100" lon="5.5612000"/>
<trkpt lat="52.2732700" lon="5.5616000"/>
<trkpt lat="52.2732900" lon="5.5620700"/>
<trkpt lat="52.2733800" lon="5.5622700"/>
<trkpt lat="52.2740000" lon="5.5626400"/>
<trkpt lat="52.2750100" lon="5.5633100"/>
<trkpt lat="52.2738700" lon="5.5678700"/>
<trkpt lat="52.2758100" lon="5.5692300"/>
<trkpt lat="52.2775200" lon="5.5703400"/>
<trkpt lat="52.2774800" lon="5.5705100"/>
<trkpt lat="52.2796800" lon="5.5719900"/>
<trkpt lat="52.2802900" lon="5.5724600"/>
<trkpt lat="52.2803400" lon="5.5725800"/>
<trkpt lat="52.2803700" lon="5.5727400"/>
<trkpt lat="52.2804200" lon="5.5734000"/>
<trkpt lat="52.2806200" lon="5.5738300"/>
<trkpt lat="52.2813700" lon="5.5751300"/>
<trkpt lat="52.2818600" lon="5.5758900"/>
<trkpt lat="52.2821300" lon="5.5768000"/>
<trkpt lat="52.2810500" lon="5.5800400"/>
<trkpt lat="52.2796400" lon="5.5843900"/>
<trkpt lat="52.2789500" lon="5.5869500"/>
<trkpt lat="52.2784800" lon="5.5890000"/>
<trkpt lat="52.2781200" lon="5.5913500"/>
<trkpt lat="52.2781000" lon="5.5913800"/>
<trkpt lat="52.2781800" lon="5.5925400"/>
<trkpt lat="52.2782300" lon="5.5936300"/>
<trkpt lat="52.2779900" lon="5.5933700"/>
<trkpt lat="52.2768600" lon="5.5919400"/>
<trkpt lat="52.2767600" lon="5.5920000"/>
<trkpt lat="52.2764900" lon="5.5926200"/>
<trkpt lat="52.2742400" lon="5.5924500"/>
<trkpt lat="52.2740400" lon="5.5934400"/>
<trkpt lat="52.2738300" lon="5.5937400"/>
<trkpt lat="52.2733500" lon="5.5955800"/>
<trkpt lat="52.2730900" lon="5.5957800"/>
<trkpt lat="52.2727100" lon="5.5966200"/>
<trkpt lat="52.2725300" lon="5.5969200"/>
<trkpt lat="52.2721500" lon="5.5971100"/>
<trkpt lat="52.2717500" lon="5.5977900"/>
<trkpt lat="52.2699600" lon="5.5988700"/>
<trkpt lat="52.2682800" lon="5.6004200"/>
<trkpt lat="52.2677400" lon="5.6002500"/>
<trkpt lat="52.2674700" lon="5.6004700"/>
<trkpt lat="52.2670900" lon="5.6014400"/>
<trkpt lat="52.2666200" lon="5.6018900"/>
<trkpt lat="52.2659900" lon="5.6019800"/>
<trkpt lat="52.2640500" lon="5.6029600"/>
<trkpt lat="52.2638700" lon="5.6033600"/>
<trkpt lat="52.2643200" lon="5.6038900"/>
<trkpt lat="52.2638200" lon="5.6049600"/>
<trkpt lat="52.2637000" lon="5.6048200"/>
<trkpt lat="52.2636400" lon="5.6049400"/>
<trkpt lat="52.2632800" lon="5.6050100"/>
<trkpt lat="52.2628800" lon="5.6051300"/>
<trkpt lat="52.2628900" lon="5.6057700"/>
<trkpt lat="52.2626500" lon="5.6058900"/>
<trkpt lat="52.2626300" lon="5.6057200"/>
<trkpt lat="52.2619900" lon="5.6058700"/>
<trkpt lat="52.2613900" lon="5.6058300"/>
</trkseg></trk>
<trk><name>Norderpad - shorteningRoute</name><type>shorteningRoute</type><trkseg>
<trkpt lat="52.2669400" lon="5.5925000"/>
<trkpt lat="52.2672500" lon="5.5925500"/>
<trkpt lat="52.2679800" lon="5.5922600"/>
<trkpt lat="52.2677400" lon="5.5945500"/>
<trkpt lat="52.2695700" lon="5.5954000"/>
<trkpt lat="52.2691600" lon="5.5963300"/>
<trkpt lat="52.2688800" lon="5.5967000"/>
<trkpt lat="52.2692600" lon="5.5971200"/>
<trkpt lat="52.2695900" lon="5.5972400"/>
<trkpt lat="52.2699900" lon="5.5975700"/>
<trkpt lat="52.2715200" lon="5.5979300"/>
</trkseg></trk>
<trk><name>Norderpad - overstaproute</name><type>connectionRoute</type><trkseg>
<trkpt lat="52.2428300" lon="5.6020800"/>
<trkpt lat="52.2431700" lon="5.6022000"/>
<trkpt lat="52.2449100" lon="5.6012600"/>
<trkpt lat="52.2457100" lon="5.6012100"/>
<trkpt lat="52.2464500" lon="5.6013500"/>
<trkpt lat="52.2470900" lon="5.6019000"/>
<trkpt lat="52.2475700" lon="5.6022300"/>
<trkpt lat="52.2479200" lon="5.6023500"/>
<trkpt lat="52.2485700" lon="5.6024300"/>
<trkpt lat="52.2485700" lon="5.6026800"/>
<trkpt lat="52.2490600" lon="5.6027800"/>
<trkpt lat="52.2493900" lon="5.6024900"/>
<trkpt lat="52.2495700" lon="5.6019000"/>
<trkpt lat="52.2497900" lon="5.6020100"/>
<trkpt lat="52.2500300" lon="5.6018600"/>
<trkpt lat="52.2502200" lon="5.6021000"/>
<trkpt lat="52.2503800" lon="5.6020400"/>
<trkpt lat="52.2504800" lon="5.6016400"/>
<trkpt lat="52.2514100" lon="5.6024000"/>
<trkpt lat="52.2515200" lon="5.6024000"/>
<trkpt lat="52.2524000" lon="5.6031400"/>
<trkpt lat="52.2525000" lon="5.6028100"/>
<trkpt lat="52.2526800" lon="5.6029400"/>
<trkpt lat="52.2530800" lon="5.6016400"/>
<trkpt lat="52.2533900" lon="5.6017900"/>
<trkpt lat="52.2536500" lon="5.6010300"/>
<trkpt lat="52.2539800" lon="5.6013500"/>
<trkpt lat="52.2557600" lon="5.6034100"/>
<trkpt lat="52.2563400" lon="5.6039700"/>
<trkpt lat="52.2573200" lon="5.6047700"/>
<trkpt lat="52.2578500" lon="5.6053100"/>
<trkpt lat="52.2578100" lon="5.6055300"/>
<trkpt lat="52.2579200" lon="5.6058300"/>
<trkpt lat="52.2588200" lon="5.6073200"/>
<trkpt lat="52.2587700" lon="5.6074300"/>
<trkpt lat="52.2588100" lon="5.6075700"/>
<trkpt lat="52.2605500" lon="5.6077500"/>
<trkpt lat="52.2605400" lon="5.6072900"/>
<trkpt lat="52.2610900" lon="5.6072900"/>
<trkpt lat="52.2611000" lon="5.6067800"/>
</trkseg></trk>
</gpx>