<?xml version="1.0" encoding="UTF-8"?>
<gpx version="1.1" creator="klompenpaden.nl via Jimbo API" xmlns="http://www.topografix.com/GPX/1/1">
<metadata><name>Nudepad</name><desc>Ontdek de Gelderse Vallei tussen het stadje Wageningen en de Grebbeberg. Wandel via achtereenvolgens uiterwaarden, Grebbedijk, de oeverwal met akkers en boomgaarden en  de  zware komkleigronden naar het natte veengebied om vervolgens terug te keren bij de Rijn.  Onderweg veel verhalen over de strijd in dit gebied. Klompen aan, rugzak op en gaan!</desc><link href="https://www.klompenpaden.nl/klompenpaden/Nudepad/a9aebbe7-55f0-43f1-a56f-9035dc1ebdac"><text>klompenpaden.nl</text></link></metadata>
<wpt lat="51.95501722564719" lon="5.6076058745384225"><name>Start Wageningen</name></wpt>
<trk><name>Nudepad - hoofdroute</name><type>mainRoute</type><trkseg>
<trkpt lat="51.9510222" lon="5.6139851"/>
<trkpt lat="51.9522837" lon="5.6123163"/>
<trkpt lat="51.9526437" lon="5.6117703"/>
<trkpt lat="51.9527887" lon="5.6115663"/>
<trkpt lat="51.9528757" lon="5.6115233"/>
<trkpt lat="51.9531047" lon="5.6111943"/>
<trkpt lat="51.9533767" lon="5.6107133"/>
<trkpt lat="51.9535097" lon="5.6104903"/>
<trkpt lat="51.9535947" lon="5.6104213"/>
<trkpt lat="51.9536917" lon="5.6104103"/>
<trkpt lat="51.9541975" lon="5.6095189"/>
<trkpt lat="51.9542002" lon="5.6093378"/>
<trkpt lat="51.9543211" lon="5.6088047"/>
<trkpt lat="51.9544721" lon="5.6083989"/>
<trkpt lat="51.9546612" lon="5.6086486"/>
<trkpt lat="51.9545658" lon="5.6088746"/>
<trkpt lat="51.9545130" lon="5.6090806"/>
<trkpt lat="51.9544882" lon="5.6094720"/>
<trkpt lat="51.9549143" lon="5.6095840"/>
<trkpt lat="51.9551439" lon="5.6097267"/>
<trkpt lat="51.9553508" lon="5.6098018"/>
<trkpt lat="51.9555376" lon="5.6097752"/>
<trkpt lat="51.9557416" lon="5.6096801"/>
<trkpt lat="51.9558550" lon="5.6096522"/>
<trkpt lat="51.9559628" lon="5.6096696"/>
<trkpt lat="51.9563761" lon="5.6099080"/>
<trkpt lat="51.9565114" lon="5.6100606"/>
<trkpt lat="51.9565876" lon="5.6102073"/>
<trkpt lat="51.9571933" lon="5.6116904"/>
<trkpt lat="51.9585295" lon="5.6147249"/>
<trkpt lat="51.9588546" lon="5.6156439"/>
<trkpt lat="51.9591321" lon="5.6166081"/>
<trkpt lat="51.9595533" lon="5.6182728"/>
<trkpt lat="51.9601690" lon="5.6202958"/>
<trkpt lat="51.9609958" lon="5.6228284"/>
<trkpt lat="51.9661731" lon="5.6190245"/>
<trkpt lat="51.9661854" lon="5.6190029"/>
<trkpt lat="51.9662496" lon="5.6189824"/>
<trkpt lat="51.9661576" lon="5.6183436"/>
<trkpt lat="51.9661183" lon="5.6179401"/>
<trkpt lat="51.9661846" lon="5.6179284"/>
<trkpt lat="51.9662877" lon="5.6179400"/>
<trkpt lat="51.9665155" lon="5.6180801"/>
<trkpt lat="51.9666123" lon="5.6181385"/>
<trkpt lat="51.9673760" lon="5.6194361"/>
<trkpt lat="51.9681970" lon="5.6218163"/>
<trkpt lat="51.9683629" lon="5.6222077"/>
<trkpt lat="51.9685966" lon="5.6225025"/>
<trkpt lat="51.9690301" lon="5.6228721"/>
<trkpt lat="51.9705875" lon="5.6246045"/>
<trkpt lat="51.9737241" lon="5.6258687"/>
<trkpt lat="51.9738597" lon="5.6258694"/>
<trkpt lat="51.9739740" lon="5.6257661"/>
<trkpt lat="51.9755737" lon="5.6233766"/>
<trkpt lat="51.9759251" lon="5.6228147"/>
<trkpt lat="51.9765555" lon="5.6217165"/>
<trkpt lat="51.9767604" lon="5.6212550"/>
<trkpt lat="51.9771707" lon="5.6199303"/>
<trkpt lat="51.9787225" lon="5.6187861"/>
<trkpt lat="51.9791300" lon="5.6184229"/>
<trkpt lat="51.9795784" lon="5.6179091"/>
<trkpt lat="51.9797263" lon="5.6182633"/>
<trkpt lat="51.9799766" lon="5.6192119"/>
<trkpt lat="51.9801271" lon="5.6188347"/>
<trkpt lat="51.9802513" lon="5.6185179"/>
<trkpt lat="51.9803199" lon="5.6183113"/>
<trkpt lat="51.9803673" lon="5.6180355"/>
<trkpt lat="51.9804278" lon="5.6176080"/>
<trkpt lat="51.9804581" lon="5.6173667"/>
<trkpt lat="51.9805384" lon="5.6172205"/>
<trkpt lat="51.9806381" lon="5.6170881"/>
<trkpt lat="51.9807220" lon="5.6170292"/>
<trkpt lat="51.9812291" lon="5.6165390"/>
<trkpt lat="51.9814029" lon="5.6164456"/>
<trkpt lat="51.9817224" lon="5.6162131"/>
<trkpt lat="51.9824020" lon="5.6158589"/>
<trkpt lat="51.9826782" lon="5.6168628"/>
<trkpt lat="51.9833034" lon="5.6192596"/>
<trkpt lat="51.9843380" lon="5.6232632"/>
<trkpt lat="51.9844000" lon="5.6234180"/>
<trkpt lat="51.9844595" lon="5.6235218"/>
<trkpt lat="51.9847533" lon="5.6236130"/>
<trkpt lat="51.9848597" lon="5.6236757"/>
<trkpt lat="51.9849446" lon="5.6238211"/>
<trkpt lat="51.9850336" lon="5.6240631"/>
<trkpt lat="51.9850982" lon="5.6241802"/>
<trkpt lat="51.9851654" lon="5.6241949"/>
<trkpt lat="51.9852506" lon="5.6241884"/>
<trkpt lat="51.9862788" lon="5.6234969"/>
<trkpt lat="51.9863510" lon="5.6236077"/>
<trkpt lat="51.9863800" lon="5.6237509"/>
<trkpt lat="51.9838405" lon="5.6255200"/>
<trkpt lat="51.9795784" lon="5.6284508"/>
<trkpt lat="51.9759324" lon="5.6310367"/>
<trkpt lat="51.9749241" lon="5.6332173"/>
<trkpt lat="51.9742417" lon="5.6348197"/>
<trkpt lat="51.9740472" lon="5.6350576"/>
<trkpt lat="51.9741428" lon="5.6353594"/>
<trkpt lat="51.9741757" lon="5.6360438"/>
<trkpt lat="51.9742097" lon="5.6367503"/>
<trkpt lat="51.9742313" lon="5.6372005"/>
<trkpt lat="51.9742440" lon="5.6373270"/>
<trkpt lat="51.9742538" lon="5.6375408"/>
<trkpt lat="51.9737948" lon="5.6377481"/>
<trkpt lat="51.9733963" lon="5.6380486"/>
<trkpt lat="51.9730833" lon="5.6382813"/>
<trkpt lat="51.9727891" lon="5.6385023"/>
<trkpt lat="51.9723442" lon="5.6388271"/>
<trkpt lat="51.9719215" lon="5.6391352"/>
<trkpt lat="51.9708730" lon="5.6399341"/>
<trkpt lat="51.9701883" lon="5.6404236"/>
<trkpt lat="51.9701238" lon="5.6404152"/>
<trkpt lat="51.9700584" lon="5.6404571"/>
<trkpt lat="51.9700524" lon="5.6405408"/>
<trkpt lat="51.9699969" lon="5.6405892"/>
<trkpt lat="51.9678381" lon="5.6421987"/>
<trkpt lat="51.9678367" lon="5.6421993"/>
<trkpt lat="51.9673003" lon="5.6426091"/>
<trkpt lat="51.9667830" lon="5.6429869"/>
<trkpt lat="51.9667923" lon="5.6429814"/>
<trkpt lat="51.9661781" lon="5.6434143"/>
<trkpt lat="51.9660727" lon="5.6426744"/>
<trkpt lat="51.9658840" lon="5.6412699"/>
<trkpt lat="51.9656690" lon="5.6399050"/>
<trkpt lat="51.9653374" lon="5.6380332"/>
<trkpt lat="51.9651335" lon="5.6370120"/>
<trkpt lat="51.9631736" lon="5.6378396"/>
<trkpt lat="51.9622073" lon="5.6382192"/>
<trkpt lat="51.9621247" lon="5.6377029"/>
<trkpt lat="51.9620298" lon="5.6376099"/>
<trkpt lat="51.9618844" lon="5.6366467"/>
<trkpt lat="51.9600134" lon="5.6374601"/>
<trkpt lat="51.9598174" lon="5.6363797"/>
<trkpt lat="51.9590676" lon="5.6367027"/>
<trkpt lat="51.9587877" lon="5.6348439"/>
<trkpt lat="51.9579571" lon="5.6294003"/>
<trkpt lat="51.9542305" lon="5.6305695"/>
<trkpt lat="51.9541806" lon="5.6305085"/>
<trkpt lat="51.9536974" lon="5.6273366"/>
<trkpt lat="51.9524537" lon="5.6273038"/>
<trkpt lat="51.9523469" lon="5.6271985"/>
<trkpt lat="51.9516232" lon="5.6251980"/>
<trkpt lat="51.9515571" lon="5.6250236"/>
<trkpt lat="51.9515956" lon="5.6247591"/>
<trkpt lat="51.9518680" lon="5.6241024"/>
<trkpt lat="51.9519476" lon="5.6235255"/>
<trkpt lat="51.9518709" lon="5.6226706"/>
<trkpt lat="51.9516386" lon="5.6210991"/>
<trkpt lat="51.9515111" lon="5.6206251"/>
<trkpt lat="51.9513920" lon="5.6195160"/>
<trkpt lat="51.9514009" lon="5.6186386"/>
<trkpt lat="51.9513955" lon="5.6177264"/>
<trkpt lat="51.9513047" lon="5.6167445"/>
<trkpt lat="51.9510442" lon="5.6149536"/>
<trkpt lat="51.9510236" lon="5.6143324"/>
<trkpt lat="51.9510885" lon="5.6141828"/>
<trkpt lat="51.9510222" lon="5.6139851"/>
</trkseg></trk>
<trk><name>Nudepad - alternatieve route</name><type>alternativeRoute</type><trkseg>
<trkpt lat="51.9661781" lon="5.6434143"/>
<trkpt lat="51.9666122" lon="5.6463342"/>
<trkpt lat="51.9667985" lon="5.6484364"/>
<trkpt lat="51.9675117" lon="5.6478694"/>
<trkpt lat="51.9674379" lon="5.6475808"/>
<trkpt lat="51.9684494" lon="5.6468060"/>
<trkpt lat="51.9685175" lon="5.6467592"/>
<trkpt lat="51.9685753" lon="5.6469848"/>
<trkpt lat="51.9691199" lon="5.6465845"/>
<trkpt lat="51.9696871" lon="5.6462001"/>
<trkpt lat="51.9697258" lon="5.6462422"/>
<trkpt lat="51.9702639" lon="5.6458523"/>
<trkpt lat="51.9703096" lon="5.6457111"/>
<trkpt lat="51.9708671" lon="5.6452951"/>
<trkpt lat="51.9714248" lon="5.6448267"/>
<trkpt lat="51.9715091" lon="5.6447957"/>
<trkpt lat="51.9716287" lon="5.6446802"/>
<trkpt lat="51.9710405" lon="5.6422482"/>
<trkpt lat="51.9704793" lon="5.6402156"/>
</trkseg></trk>
<trk><name>Nudepad - alternatieve route</name><type>alternativeRoute</type><trkseg>
<trkpt lat="51.9799766" lon="5.6192119"/>
<trkpt lat="51.9819764" lon="5.6268019"/>
</trkseg></trk>
<trk><name>Nudepad - overstaproute</name><type>connectionRoute</type><trkseg>
<trkpt lat="51.9402761" lon="5.6156420"/>
<trkpt lat="51.9405671" lon="5.6152129"/>
<trkpt lat="51.9408408" lon="5.6151628"/>
<trkpt lat="51.9411332" lon="5.6150187"/>
<trkpt lat="51.9417547" lon="5.6151125"/>
<trkpt lat="51.9422345" lon="5.6153770"/>
<trkpt lat="51.9426241" lon="5.6154983"/>
<trkpt lat="51.9428013" lon="5.6157236"/>
<trkpt lat="51.9430436" lon="5.6160745"/>
</trkseg></trk>
<trk><name>Nudepad - verbindingsroute</name><type>connectionRoute</type><trkseg>
<trkpt lat="51.9557157" lon="5.6082096"/>
<trkpt lat="51.9555596" lon="5.6082168"/>
<trkpt lat="51.9552768" lon="5.6083913"/>
<trkpt lat="51.9550157" lon="5.6085394"/>
<trkpt lat="51.9547986" lon="5.6084416"/>
<trkpt lat="51.9546406" lon="5.6086695"/>
<trkpt lat="51.9545040" lon="5.6090909"/>
<trkpt lat="51.9544882" lon="5.6094720"/>
</trkseg></trk>
<trk><name>Nudepad - aanlooproute</name><type>approachRoute</type><trkseg>
<trkpt lat="51.9430436" lon="5.6160745"/>
<trkpt lat="51.9431059" lon="5.6188105"/>
<trkpt lat="51.9431149" lon="5.6191993"/>
<trkpt lat="51.9431783" lon="5.6196037"/>
<trkpt lat="51.9432776" lon="5.6198582"/>
<trkpt lat="51.9434514" lon="5.6201412"/>
<trkpt lat="51.9435755" lon="5.6203089"/>
<trkpt lat="51.9436618" lon="5.6204027"/>
<trkpt lat="51.9438257" lon="5.6205075"/>
<trkpt lat="51.9456811" lon="5.6203742"/>
<trkpt lat="51.9463531" lon="5.6202998"/>
<trkpt lat="51.9467649" lon="5.6201847"/>
<trkpt lat="51.9472768" lon="5.6199745"/>
<trkpt lat="51.9475727" lon="5.6198112"/>
<trkpt lat="51.9479958" lon="5.6193647"/>
<trkpt lat="51.9480517" lon="5.6193057"/>
<trkpt lat="51.9481871" lon="5.6192595"/>
<trkpt lat="51.9483257" lon="5.6191453"/>
<trkpt lat="51.9484027" lon="5.6190283"/>
<trkpt lat="51.9484627" lon="5.6185713"/>
<trkpt lat="51.9488843" lon="5.6176123"/>
<trkpt lat="51.9491037" lon="5.6169843"/>
<trkpt lat="51.9493995" lon="5.6164670"/>
<trkpt lat="51.9499717" lon="5.6156053"/>
<trkpt lat="51.9503929" lon="5.6148767"/>
<trkpt lat="51.9507157" lon="5.6143982"/>
<trkpt lat="51.9510222" lon="5.6139851"/>
</trkseg></trk>
<trk><name>Nudepad - aanlooproute</name><type>approachRoute</type><trkseg>
<trkpt lat="51.9749138" lon="5.6502263"/>
<trkpt lat="51.9748730" lon="5.6501710"/>
<trkpt lat="51.9746838" lon="5.6504238"/>
<trkpt lat="51.9737297" lon="5.6511307"/>
<trkpt lat="51.9735496" lon="5.6506813"/>
<trkpt lat="51.9734390" lon="5.6501623"/>
<trkpt lat="51.9732888" lon="5.6496689"/>
<trkpt lat="51.9731505" lon="5.6493119"/>
<trkpt lat="51.9730031" lon="5.6487070"/>
<trkpt lat="51.9729389" lon="5.6485939"/>
<trkpt lat="51.9727870" lon="5.6479000"/>
<trkpt lat="51.9726968" lon="5.6476347"/>
<trkpt lat="51.9726145" lon="5.6472665"/>
<trkpt lat="51.9723829" lon="5.6466281"/>
<trkpt lat="51.9722850" lon="5.6462696"/>
<trkpt lat="51.9722222" lon="5.6459728"/>
<trkpt lat="51.9720819" lon="5.6456916"/>
<trkpt lat="51.9718587" lon="5.6453824"/>
<trkpt lat="51.9715810" lon="5.6449617"/>
<trkpt lat="51.9715118" lon="5.6447862"/>
<trkpt lat="51.9716287" lon="5.6446802"/>
<trkpt lat="51.9714342" lon="5.6439575"/>
<trkpt lat="51.9713087" lon="5.6435132"/>
<trkpt lat="51.9713649" lon="5.6433951"/>
<trkpt lat="51.9707448" lon="5.6412028"/>
<trkpt lat="51.9705172" lon="5.6403767"/>
<trkpt lat="51.9705244" lon="5.6403057"/>
<trkpt lat="51.9705241" lon="5.6401991"/>
<trkpt lat="51.9705243" lon="5.6401826"/>
</trkseg></trk>
<trk><name>Nudepad - aanlooproute</name><type>approachRoute</type><trkseg>
<trkpt lat="51.9549573" lon="5.6076526"/>
<trkpt lat="51.9549923" lon="5.6077561"/>
<trkpt lat="51.9548231" lon="5.6079560"/>
<trkpt lat="51.9546112" lon="5.6081985"/>
<trkpt lat="51.9544584" lon="5.6083919"/>
<trkpt lat="51.9546400" lon="5.6086445"/>
<trkpt lat="51.9545246" lon="5.6089928"/>
<trkpt lat="51.9544882" lon="5.6094720"/>
</trkseg></trk>
</gpx>