<?xml version="1.0" encoding="UTF-8"?>
<gpx version="1.1" creator="klompenpaden.nl via Jimbo API" xmlns="http://www.topografix.com/GPX/1/1">
<metadata><name>Nywelepad</name><desc>Ontdek het rivierengebied van Zaltbommel met haar historische gebouwen, oude kaden en vochtige hooilanden. Klompen aan, rugzak op en gaan!</desc><link href="https://www.klompenpaden.nl/klompenpaden/Nywelepad/9da44949-3b69-4481-bbca-510b1790caf0"><text>klompenpaden.nl</text></link></metadata>
<wpt lat="51.81289981157946" lon="5.1805901527404785"><name>Start Nieuwaal</name></wpt>
<trk><name>Nywelepad - Hoofdroute</name><type>mainRoute</type><trkseg>
<trkpt lat="51.8127400" lon="5.1805000"/>
<trkpt lat="51.8132400" lon="5.1821100"/>
<trkpt lat="51.8132900" lon="5.1823900"/>
<trkpt lat="51.8132800" lon="5.1826200"/>
<trkpt lat="51.8132300" lon="5.1827800"/>
<trkpt lat="51.8127500" lon="5.1839200"/>
<trkpt lat="51.8121900" lon="5.1850000"/>
<trkpt lat="51.8114700" lon="5.1861600"/>
<trkpt lat="51.8104300" lon="5.1877800"/>
<trkpt lat="51.8100300" lon="5.1886400"/>
<trkpt lat="51.8084600" lon="5.1924600"/>
<trkpt lat="51.8082800" lon="5.1927400"/>
<trkpt lat="51.8080600" lon="5.1928000"/>
<trkpt lat="51.8071300" lon="5.1927500"/>
<trkpt lat="51.8061700" lon="5.1937300"/>
<trkpt lat="51.8058800" lon="5.1942800"/>
<trkpt lat="51.8053300" lon="5.1957600"/>
<trkpt lat="51.8050700" lon="5.1968200"/>
<trkpt lat="51.8043600" lon="5.2038300"/>
<trkpt lat="51.8042100" lon="5.2081200"/>
<trkpt lat="51.8042200" lon="5.2086300"/>
<trkpt lat="51.8044300" lon="5.2109000"/>
<trkpt lat="51.8044200" lon="5.2117100"/>
<trkpt lat="51.8042800" lon="5.2126000"/>
<trkpt lat="51.8041300" lon="5.2131200"/>
<trkpt lat="51.8039000" lon="5.2117300"/>
<trkpt lat="51.8037300" lon="5.2102500"/>
<trkpt lat="51.8034800" lon="5.2087700"/>
<trkpt lat="51.8031600" lon="5.2075800"/>
<trkpt lat="51.8029800" lon="5.2070200"/>
<trkpt lat="51.8025300" lon="5.2065600"/>
<trkpt lat="51.8022900" lon="5.2062400"/>
<trkpt lat="51.8019900" lon="5.2061800"/>
<trkpt lat="51.8004100" lon="5.2056300"/>
<trkpt lat="51.8002200" lon="5.2056800"/>
<trkpt lat="51.8001500" lon="5.2059400"/>
<trkpt lat="51.7999300" lon="5.2059100"/>
<trkpt lat="51.7993100" lon="5.2060200"/>
<trkpt lat="51.7978600" lon="5.2067000"/>
<trkpt lat="51.7971500" lon="5.2071800"/>
<trkpt lat="51.7971100" lon="5.2073700"/>
<trkpt lat="51.7969100" lon="5.2073700"/>
<trkpt lat="51.7950600" lon="5.2081200"/>
<trkpt lat="51.7950300" lon="5.2083400"/>
<trkpt lat="51.7948000" lon="5.2085000"/>
<trkpt lat="51.7946900" lon="5.2083400"/>
<trkpt lat="51.7945300" lon="5.2083000"/>
<trkpt lat="51.7937400" lon="5.2084600"/>
<trkpt lat="51.7927500" lon="5.2088100"/>
<trkpt lat="51.7924600" lon="5.2090100"/>
<trkpt lat="51.7923000" lon="5.2087700"/>
<trkpt lat="51.7918500" lon="5.2075400"/>
<trkpt lat="51.7915000" lon="5.2062100"/>
<trkpt lat="51.7910900" lon="5.2053400"/>
<trkpt lat="51.7908800" lon="5.2048200"/>
<trkpt lat="51.7907600" lon="5.2048500"/>
<trkpt lat="51.7907100" lon="5.2042900"/>
<trkpt lat="51.7903300" lon="5.2033300"/>
<trkpt lat="51.7888900" lon="5.1995000"/>
<trkpt lat="51.7891500" lon="5.1981700"/>
<trkpt lat="51.7891300" lon="5.1976800"/>
<trkpt lat="51.7890400" lon="5.1975100"/>
<trkpt lat="51.7888400" lon="5.1974900"/>
<trkpt lat="51.7886600" lon="5.1975000"/>
<trkpt lat="51.7885100" lon="5.1973700"/>
<trkpt lat="51.7883300" lon="5.1970100"/>
<trkpt lat="51.7877700" lon="5.1946600"/>
<trkpt lat="51.7872800" lon="5.1922100"/>
<trkpt lat="51.7870500" lon="5.1912000"/>
<trkpt lat="51.7866500" lon="5.1883500"/>
<trkpt lat="51.7860600" lon="5.1805000"/>
<trkpt lat="51.7860800" lon="5.1785700"/>
<trkpt lat="51.7863700" lon="5.1763700"/>
<trkpt lat="51.7864300" lon="5.1751900"/>
<trkpt lat="51.7869900" lon="5.1728200"/>
<trkpt lat="51.7871100" lon="5.1720900"/>
<trkpt lat="51.7872300" lon="5.1721400"/>
<trkpt lat="51.7905000" lon="5.1720400"/>
<trkpt lat="51.7905000" lon="5.1708700"/>
<trkpt lat="51.7909500" lon="5.1708200"/>
<trkpt lat="51.7910200" lon="5.1707500"/>
<trkpt lat="51.7910200" lon="5.1705200"/>
<trkpt lat="51.7909100" lon="5.1692700"/>
<trkpt lat="51.7909200" lon="5.1689800"/>
<trkpt lat="51.7907400" lon="5.1676400"/>
<trkpt lat="51.7902500" lon="5.1676600"/>
<trkpt lat="51.7902300" lon="5.1675900"/>
<trkpt lat="51.7902100" lon="5.1669500"/>
<trkpt lat="51.7902600" lon="5.1668400"/>
<trkpt lat="51.7905600" lon="5.1668200"/>
<trkpt lat="51.7905000" lon="5.1658500"/>
<trkpt lat="51.7894900" lon="5.1656500"/>
<trkpt lat="51.7894700" lon="5.1655600"/>
<trkpt lat="51.7896200" lon="5.1651200"/>
<trkpt lat="51.7893900" lon="5.1647300"/>
<trkpt lat="51.7891400" lon="5.1645200"/>
<trkpt lat="51.7891600" lon="5.1644000"/>
<trkpt lat="51.7895400" lon="5.1632500"/>
<trkpt lat="51.7894700" lon="5.1630000"/>
<trkpt lat="51.7897800" lon="5.1619600"/>
<trkpt lat="51.7899900" lon="5.1618800"/>
<trkpt lat="51.7900700" lon="5.1612200"/>
<trkpt lat="51.7899300" lon="5.1612000"/>
<trkpt lat="51.7899600" lon="5.1610200"/>
<trkpt lat="51.7899400" lon="5.1607300"/>
<trkpt lat="51.7904900" lon="5.1582600"/>
<trkpt lat="51.7908600" lon="5.1565100"/>
<trkpt lat="51.7933000" lon="5.1565500"/>
<trkpt lat="51.7933200" lon="5.1582700"/>
<trkpt lat="51.7933000" lon="5.1612700"/>
<trkpt lat="51.7933400" lon="5.1616600"/>
<trkpt lat="51.7940700" lon="5.1617500"/>
<trkpt lat="51.7946900" lon="5.1619200"/>
<trkpt lat="51.7949400" lon="5.1620300"/>
<trkpt lat="51.7953800" lon="5.1620500"/>
<trkpt lat="51.7956000" lon="5.1621000"/>
<trkpt lat="51.7966200" lon="5.1638400"/>
<trkpt lat="51.7967200" lon="5.1639300"/>
<trkpt lat="51.7968300" lon="5.1639100"/>
<trkpt lat="51.7969100" lon="5.1638400"/>
<trkpt lat="51.7971600" lon="5.1634000"/>
<trkpt lat="51.7973900" lon="5.1631200"/>
<trkpt lat="51.7977600" lon="5.1628400"/>
<trkpt lat="51.7981100" lon="5.1627100"/>
<trkpt lat="51.7983700" lon="5.1626900"/>
<trkpt lat="51.8004200" lon="5.1632100"/>
<trkpt lat="51.8007900" lon="5.1633500"/>
<trkpt lat="51.8003200" lon="5.1648900"/>
<trkpt lat="51.8006100" lon="5.1650300"/>
<trkpt lat="51.8001700" lon="5.1664700"/>
<trkpt lat="51.8021000" lon="5.1667200"/>
<trkpt lat="51.8046600" lon="5.1669900"/>
<trkpt lat="51.8047100" lon="5.1668700"/>
<trkpt lat="51.8048200" lon="5.1668900"/>
<trkpt lat="51.8049200" lon="5.1670100"/>
<trkpt lat="51.8050100" lon="5.1669700"/>
<trkpt lat="51.8047300" lon="5.1654600"/>
<trkpt lat="51.8045000" lon="5.1637200"/>
<trkpt lat="51.8043900" lon="5.1637200"/>
<trkpt lat="51.8043900" lon="5.1634200"/>
<trkpt lat="51.8050800" lon="5.1632600"/>
<trkpt lat="51.8050700" lon="5.1606000"/>
<trkpt lat="51.8050300" lon="5.1593100"/>
<trkpt lat="51.8076100" lon="5.1592900"/>
<trkpt lat="51.8075900" lon="5.1590300"/>
<trkpt lat="51.8077900" lon="5.1590100"/>
<trkpt lat="51.8078100" lon="5.1591700"/>
<trkpt lat="51.8089200" lon="5.1591600"/>
<trkpt lat="51.8089200" lon="5.1590700"/>
<trkpt lat="51.8090500" lon="5.1590600"/>
<trkpt lat="51.8091100" lon="5.1593300"/>
<trkpt lat="51.8094700" lon="5.1593000"/>
<trkpt lat="51.8097000" lon="5.1603000"/>
<trkpt lat="51.8098400" lon="5.1614100"/>
<trkpt lat="51.8098700" lon="5.1603800"/>
<trkpt lat="51.8099200" lon="5.1601500"/>
<trkpt lat="51.8102700" lon="5.1600300"/>
<trkpt lat="51.8104100" lon="5.1601300"/>
<trkpt lat="51.8105000" lon="5.1603200"/>
<trkpt lat="51.8107500" lon="5.1614000"/>
<trkpt lat="51.8111300" lon="5.1625100"/>
<trkpt lat="51.8127800" lon="5.1654300"/>
<trkpt lat="51.8129700" lon="5.1656500"/>
<trkpt lat="51.8132300" lon="5.1656900"/>
<trkpt lat="51.8144800" lon="5.1654600"/>
<trkpt lat="51.8147800" lon="5.1655900"/>
<trkpt lat="51.8147300" lon="5.1673800"/>
<trkpt lat="51.8148400" lon="5.1681600"/>
<trkpt lat="51.8147600" lon="5.1694400"/>
<trkpt lat="51.8148500" lon="5.1704500"/>
<trkpt lat="51.8145800" lon="5.1721000"/>
<trkpt lat="51.8146500" lon="5.1731600"/>
<trkpt lat="51.8143700" lon="5.1755200"/>
<trkpt lat="51.8139300" lon="5.1777200"/>
<trkpt lat="51.8134500" lon="5.1790700"/>
<trkpt lat="51.8131700" lon="5.1802200"/>
<trkpt lat="51.8129500" lon="5.1802400"/>
<trkpt lat="51.8127700" lon="5.1803700"/>
<trkpt lat="51.8127400" lon="5.1805000"/>
</trkseg></trk>
<trk><name>Nywelepad - Routeverkorter</name><type>shorteningRoute</type><trkseg>
<trkpt lat="51.8071300" lon="5.1927500"/>
<trkpt lat="51.8065500" lon="5.1926200"/>
<trkpt lat="51.8056900" lon="5.1926900"/>
<trkpt lat="51.8053100" lon="5.1927600"/>
<trkpt lat="51.8049500" lon="5.1928900"/>
<trkpt lat="51.8045700" lon="5.1931600"/>
<trkpt lat="51.8042200" lon="5.1935600"/>
<trkpt lat="51.8041100" lon="5.1936500"/>
<trkpt lat="51.8039700" lon="5.1930700"/>
<trkpt lat="51.8038200" lon="5.1927900"/>
<trkpt lat="51.8032400" lon="5.1931900"/>
<trkpt lat="51.8012700" lon="5.1944000"/>
<trkpt lat="51.8001900" lon="5.1950000"/>
<trkpt lat="51.7995400" lon="5.1918800"/>
<trkpt lat="51.7991100" lon="5.1903700"/>
<trkpt lat="51.7987600" lon="5.1893300"/>
<trkpt lat="51.7965400" lon="5.1875600"/>
<trkpt lat="51.7952100" lon="5.1886500"/>
<trkpt lat="51.7938900" lon="5.1895700"/>
<trkpt lat="51.7934200" lon="5.1896300"/>
<trkpt lat="51.7931800" lon="5.1895500"/>
<trkpt lat="51.7930200" lon="5.1875700"/>
<trkpt lat="51.7926500" lon="5.1865900"/>
<trkpt lat="51.7911000" lon="5.1839500"/>
<trkpt lat="51.7908900" lon="5.1832800"/>
<trkpt lat="51.7909700" lon="5.1785500"/>
<trkpt lat="51.7910500" lon="5.1722500"/>
<trkpt lat="51.7910200" lon="5.1720300"/>
<trkpt lat="51.7905000" lon="5.1720400"/>
</trkseg></trk>
<trk><name>Nywelepad - Hoogwaterroute</name><type>alternativeRoute</type><trkseg>
<trkpt lat="51.8127400" lon="5.1805000"/>
<trkpt lat="51.8125600" lon="5.1798800"/>
<trkpt lat="51.8125200" lon="5.1795700"/>
<trkpt lat="51.8125600" lon="5.1789800"/>
<trkpt lat="51.8122000" lon="5.1777900"/>
<trkpt lat="51.8115700" lon="5.1753600"/>
<trkpt lat="51.8108300" lon="5.1742800"/>
<trkpt lat="51.8102500" lon="5.1735700"/>
<trkpt lat="51.8097100" lon="5.1729700"/>
<trkpt lat="51.8094900" lon="5.1725600"/>
<trkpt lat="51.8093600" lon="5.1719400"/>
<trkpt lat="51.8092300" lon="5.1675800"/>
<trkpt lat="51.8091800" lon="5.1667200"/>
<trkpt lat="51.8097000" lon="5.1649800"/>
<trkpt lat="51.8098400" lon="5.1614100"/>
</trkseg></trk>
<trk><name>Nywelepad - overstaproute Hamarithapad</name><type>connectionRoute</type><trkseg>
<trkpt lat="51.7847400" lon="5.1602100"/>
<trkpt lat="51.7899300" lon="5.1612000"/>
</trkseg></trk>
<trk><name>Nywelepad - overstaproute Jordenpad</name><type>connectionRoute</type><trkseg>
<trkpt lat="51.8089500" lon="5.1268500"/>
<trkpt lat="51.8085400" lon="5.1285500"/>
<trkpt lat="51.8086900" lon="5.1306800"/>
<trkpt lat="51.8094900" lon="5.1320200"/>
<trkpt lat="51.8099100" lon="5.1324400"/>
<trkpt lat="51.8101400" lon="5.1333600"/>
<trkpt lat="51.8112800" lon="5.1348800"/>
<trkpt lat="51.8117300" lon="5.1361000"/>
<trkpt lat="51.8118500" lon="5.1377400"/>
<trkpt lat="51.8116600" lon="5.1392700"/>
<trkpt lat="51.8112100" lon="5.1406800"/>
<trkpt lat="51.8104200" lon="5.1420200"/>
<trkpt lat="51.8103800" lon="5.1423900"/>
<trkpt lat="51.8104200" lon="5.1430600"/>
<trkpt lat="51.8109600" lon="5.1447700"/>
<trkpt lat="51.8110300" lon="5.1453200"/>
<trkpt lat="51.8108800" lon="5.1463000"/>
<trkpt lat="51.8102800" lon="5.1478900"/>
<trkpt lat="51.8099800" lon="5.1485000"/>
<trkpt lat="51.8099800" lon="5.1497800"/>
<trkpt lat="51.8099100" lon="5.1539300"/>
<trkpt lat="51.8098800" lon="5.1549700"/>
<trkpt lat="51.8094600" lon="5.1557600"/>
<trkpt lat="51.8092400" lon="5.1571700"/>
<trkpt lat="51.8092800" lon="5.1580200"/>
<trkpt lat="51.8094700" lon="5.1593000"/>
</trkseg></trk>
<trk><name>Nywelepad - overstaproute Halostapad</name><type>connectionRoute</type><trkseg>
<trkpt lat="51.7934142" lon="5.1421083"/>
<trkpt lat="51.7932298" lon="5.1439746"/>
<trkpt lat="51.7924383" lon="5.1476606"/>
<trkpt lat="51.7917044" lon="5.1516683"/>
<trkpt lat="51.7910531" lon="5.1542028"/>
<trkpt lat="51.7903744" lon="5.1573817"/>
<trkpt lat="51.7900633" lon="5.1588099"/>
<trkpt lat="51.7892670" lon="5.1602405"/>
<trkpt lat="51.7891259" lon="5.1610695"/>
<trkpt lat="51.7899316" lon="5.1612054"/>
</trkseg></trk>
<trk><name>Nywelepad - Overstaproute Aalderpad</name><type>connectionRoute</type><trkseg>
<trkpt lat="51.7874994" lon="5.1946772"/>
<trkpt lat="51.7876499" lon="5.1946447"/>
<trkpt lat="51.7877655" lon="5.1946035"/>
</trkseg></trk>
</gpx>