<?xml version="1.0" encoding="UTF-8"?>
<gpx version="1.1" creator="klompenpaden.nl via Jimbo API" xmlns="http://www.topografix.com/GPX/1/1">
<metadata><name>Ocannipad</name><desc>Ontdek het buitengebied van twee vrij onbekende buurtschappen Oeken en Voorstonden. Wandel door bossen, langs akkertjes en vennetjes en ervaar de landschappelijke overgang van leem-zandgrond naar rivierklei. Klompen aan, rugzak op en gaan!</desc><link href="https://www.klompenpaden.nl/klompenpaden/Ocannipad/b88d2e7e-bfbd-4b4c-802f-d8374f2addaa"><text>klompenpaden.nl</text></link></metadata>
<wpt lat="52.127382041673556" lon="6.1555193355856925"><name>Start Oeken</name></wpt>
<trk><name>Ocannipad - hoofdroute</name><type>mainRoute</type><trkseg>
<trkpt lat="52.1220740" lon="6.1358113"/>
<trkpt lat="52.1228221" lon="6.1358409"/>
<trkpt lat="52.1230157" lon="6.1358984"/>
<trkpt lat="52.1229773" lon="6.1365338"/>
<trkpt lat="52.1231943" lon="6.1366838"/>
<trkpt lat="52.1234839" lon="6.1368504"/>
<trkpt lat="52.1237344" lon="6.1369212"/>
<trkpt lat="52.1248636" lon="6.1368159"/>
<trkpt lat="52.1250176" lon="6.1368271"/>
<trkpt lat="52.1251271" lon="6.1364163"/>
<trkpt lat="52.1253189" lon="6.1359328"/>
<trkpt lat="52.1257178" lon="6.1358891"/>
<trkpt lat="52.1269014" lon="6.1354546"/>
<trkpt lat="52.1273291" lon="6.1352773"/>
<trkpt lat="52.1275296" lon="6.1350517"/>
<trkpt lat="52.1275853" lon="6.1350539"/>
<trkpt lat="52.1278857" lon="6.1345482"/>
<trkpt lat="52.1280102" lon="6.1344138"/>
<trkpt lat="52.1282028" lon="6.1344233"/>
<trkpt lat="52.1283398" lon="6.1345324"/>
<trkpt lat="52.1287532" lon="6.1351066"/>
<trkpt lat="52.1287278" lon="6.1357705"/>
<trkpt lat="52.1286392" lon="6.1360417"/>
<trkpt lat="52.1284722" lon="6.1363467"/>
<trkpt lat="52.1284705" lon="6.1365451"/>
<trkpt lat="52.1284931" lon="6.1366519"/>
<trkpt lat="52.1285353" lon="6.1367509"/>
<trkpt lat="52.1287134" lon="6.1369918"/>
<trkpt lat="52.1287798" lon="6.1368694"/>
<trkpt lat="52.1288626" lon="6.1365183"/>
<trkpt lat="52.1291287" lon="6.1364235"/>
<trkpt lat="52.1293206" lon="6.1365061"/>
<trkpt lat="52.1293561" lon="6.1365740"/>
<trkpt lat="52.1294803" lon="6.1367999"/>
<trkpt lat="52.1295966" lon="6.1371602"/>
<trkpt lat="52.1296123" lon="6.1374026"/>
<trkpt lat="52.1295538" lon="6.1375884"/>
<trkpt lat="52.1290852" lon="6.1381427"/>
<trkpt lat="52.1288712" lon="6.1384931"/>
<trkpt lat="52.1287471" lon="6.1388901"/>
<trkpt lat="52.1288085" lon="6.1392844"/>
<trkpt lat="52.1295290" lon="6.1388642"/>
<trkpt lat="52.1299814" lon="6.1386271"/>
<trkpt lat="52.1300562" lon="6.1386992"/>
<trkpt lat="52.1314606" lon="6.1435724"/>
<trkpt lat="52.1320272" lon="6.1450899"/>
<trkpt lat="52.1324587" lon="6.1475504"/>
<trkpt lat="52.1325477" lon="6.1479347"/>
<trkpt lat="52.1329636" lon="6.1505430"/>
<trkpt lat="52.1330994" lon="6.1514675"/>
<trkpt lat="52.1331037" lon="6.1524724"/>
<trkpt lat="52.1331030" lon="6.1525237"/>
<trkpt lat="52.1330418" lon="6.1524793"/>
<trkpt lat="52.1324385" lon="6.1526155"/>
<trkpt lat="52.1321548" lon="6.1526899"/>
<trkpt lat="52.1319931" lon="6.1530334"/>
<trkpt lat="52.1318734" lon="6.1533834"/>
<trkpt lat="52.1317257" lon="6.1538168"/>
<trkpt lat="52.1316150" lon="6.1542947"/>
<trkpt lat="52.1315269" lon="6.1548674"/>
<trkpt lat="52.1314377" lon="6.1551479"/>
<trkpt lat="52.1314141" lon="6.1552250"/>
<trkpt lat="52.1312060" lon="6.1551735"/>
<trkpt lat="52.1309197" lon="6.1551223"/>
<trkpt lat="52.1304569" lon="6.1550123"/>
<trkpt lat="52.1299405" lon="6.1548296"/>
<trkpt lat="52.1296065" lon="6.1545843"/>
<trkpt lat="52.1292469" lon="6.1543781"/>
<trkpt lat="52.1289327" lon="6.1543002"/>
<trkpt lat="52.1288941" lon="6.1536818"/>
<trkpt lat="52.1288615" lon="6.1532294"/>
<trkpt lat="52.1288196" lon="6.1529422"/>
<trkpt lat="52.1287436" lon="6.1528644"/>
<trkpt lat="52.1285583" lon="6.1528560"/>
<trkpt lat="52.1284005" lon="6.1528552"/>
<trkpt lat="52.1282939" lon="6.1528874"/>
<trkpt lat="52.1282575" lon="6.1528665"/>
<trkpt lat="52.1282730" lon="6.1525662"/>
<trkpt lat="52.1281844" lon="6.1521924"/>
<trkpt lat="52.1279551" lon="6.1515026"/>
<trkpt lat="52.1278558" lon="6.1511176"/>
<trkpt lat="52.1278245" lon="6.1506710"/>
<trkpt lat="52.1278434" lon="6.1500882"/>
<trkpt lat="52.1277805" lon="6.1500413"/>
<trkpt lat="52.1251423" lon="6.1522852"/>
<trkpt lat="52.1246710" lon="6.1528563"/>
<trkpt lat="52.1241887" lon="6.1537974"/>
<trkpt lat="52.1239789" lon="6.1541191"/>
<trkpt lat="52.1235068" lon="6.1528786"/>
<trkpt lat="52.1231239" lon="6.1520569"/>
<trkpt lat="52.1227955" lon="6.1517057"/>
<trkpt lat="52.1222616" lon="6.1514317"/>
<trkpt lat="52.1216477" lon="6.1513773"/>
<trkpt lat="52.1222271" lon="6.1465429"/>
<trkpt lat="52.1223684" lon="6.1453343"/>
<trkpt lat="52.1219954" lon="6.1427035"/>
<trkpt lat="52.1212744" lon="6.1415939"/>
<trkpt lat="52.1211064" lon="6.1413741"/>
<trkpt lat="52.1209105" lon="6.1412572"/>
<trkpt lat="52.1204215" lon="6.1414837"/>
<trkpt lat="52.1201560" lon="6.1419716"/>
<trkpt lat="52.1197917" lon="6.1423790"/>
<trkpt lat="52.1191463" lon="6.1424286"/>
<trkpt lat="52.1185767" lon="6.1426294"/>
<trkpt lat="52.1184173" lon="6.1420172"/>
<trkpt lat="52.1178515" lon="6.1422024"/>
<trkpt lat="52.1177131" lon="6.1422016"/>
<trkpt lat="52.1174771" lon="6.1420574"/>
<trkpt lat="52.1171076" lon="6.1418063"/>
<trkpt lat="52.1168612" lon="6.1417722"/>
<trkpt lat="52.1166137" lon="6.1418256"/>
<trkpt lat="52.1166299" lon="6.1422085"/>
<trkpt lat="52.1166129" lon="6.1425214"/>
<trkpt lat="52.1165759" lon="6.1426481"/>
<trkpt lat="52.1165213" lon="6.1426741"/>
<trkpt lat="52.1163219" lon="6.1429423"/>
<trkpt lat="52.1162604" lon="6.1431452"/>
<trkpt lat="52.1161912" lon="6.1439026"/>
<trkpt lat="52.1161275" lon="6.1442406"/>
<trkpt lat="52.1159187" lon="6.1450011"/>
<trkpt lat="52.1160568" lon="6.1451205"/>
<trkpt lat="52.1155498" lon="6.1468183"/>
<trkpt lat="52.1152225" lon="6.1466447"/>
<trkpt lat="52.1153149" lon="6.1476464"/>
<trkpt lat="52.1153471" lon="6.1484907"/>
<trkpt lat="52.1153080" lon="6.1489565"/>
<trkpt lat="52.1152566" lon="6.1491289"/>
<trkpt lat="52.1146212" lon="6.1493602"/>
<trkpt lat="52.1148071" lon="6.1497279"/>
<trkpt lat="52.1151541" lon="6.1506591"/>
<trkpt lat="52.1153054" lon="6.1512022"/>
<trkpt lat="52.1154171" lon="6.1536586"/>
<trkpt lat="52.1154284" lon="6.1545866"/>
<trkpt lat="52.1153559" lon="6.1555044"/>
<trkpt lat="52.1152505" lon="6.1564404"/>
<trkpt lat="52.1143094" lon="6.1567898"/>
<trkpt lat="52.1142683" lon="6.1565761"/>
<trkpt lat="52.1140640" lon="6.1566460"/>
<trkpt lat="52.1137908" lon="6.1566429"/>
<trkpt lat="52.1133747" lon="6.1566819"/>
<trkpt lat="52.1129570" lon="6.1566190"/>
<trkpt lat="52.1126947" lon="6.1565447"/>
<trkpt lat="52.1119299" lon="6.1561299"/>
<trkpt lat="52.1118414" lon="6.1550231"/>
<trkpt lat="52.1117618" lon="6.1544486"/>
<trkpt lat="52.1114986" lon="6.1536622"/>
<trkpt lat="52.1113428" lon="6.1533608"/>
<trkpt lat="52.1110344" lon="6.1529673"/>
<trkpt lat="52.1109739" lon="6.1523499"/>
<trkpt lat="52.1110166" lon="6.1514237"/>
<trkpt lat="52.1111921" lon="6.1499253"/>
<trkpt lat="52.1113504" lon="6.1491513"/>
<trkpt lat="52.1113564" lon="6.1486148"/>
<trkpt lat="52.1112947" lon="6.1475086"/>
<trkpt lat="52.1107212" lon="6.1478391"/>
<trkpt lat="52.1105910" lon="6.1472704"/>
<trkpt lat="52.1101019" lon="6.1462827"/>
<trkpt lat="52.1100827" lon="6.1459208"/>
<trkpt lat="52.1100994" lon="6.1447486"/>
<trkpt lat="52.1095340" lon="6.1422790"/>
<trkpt lat="52.1089884" lon="6.1414254"/>
<trkpt lat="52.1087180" lon="6.1408554"/>
<trkpt lat="52.1083285" lon="6.1401541"/>
<trkpt lat="52.1081525" lon="6.1397579"/>
<trkpt lat="52.1079991" lon="6.1360365"/>
<trkpt lat="52.1092054" lon="6.1354402"/>
<trkpt lat="52.1091872" lon="6.1353553"/>
<trkpt lat="52.1104941" lon="6.1347037"/>
<trkpt lat="52.1105864" lon="6.1345350"/>
<trkpt lat="52.1109546" lon="6.1343127"/>
<trkpt lat="52.1111532" lon="6.1343398"/>
<trkpt lat="52.1116442" lon="6.1344983"/>
<trkpt lat="52.1122827" lon="6.1346976"/>
<trkpt lat="52.1124098" lon="6.1346440"/>
<trkpt lat="52.1124953" lon="6.1344313"/>
<trkpt lat="52.1125684" lon="6.1338987"/>
<trkpt lat="52.1126548" lon="6.1335569"/>
<trkpt lat="52.1130095" lon="6.1328628"/>
<trkpt lat="52.1130766" lon="6.1328219"/>
<trkpt lat="52.1160219" lon="6.1315352"/>
<trkpt lat="52.1160709" lon="6.1313656"/>
<trkpt lat="52.1179183" lon="6.1305427"/>
<trkpt lat="52.1181406" lon="6.1304621"/>
<trkpt lat="52.1183044" lon="6.1306825"/>
<trkpt lat="52.1183974" lon="6.1311408"/>
<trkpt lat="52.1183142" lon="6.1314403"/>
<trkpt lat="52.1185486" lon="6.1327947"/>
<trkpt lat="52.1196253" lon="6.1323681"/>
<trkpt lat="52.1198985" lon="6.1322518"/>
<trkpt lat="52.1203955" lon="6.1320639"/>
<trkpt lat="52.1199769" lon="6.1291365"/>
<trkpt lat="52.1200320" lon="6.1291034"/>
<trkpt lat="52.1209035" lon="6.1285793"/>
<trkpt lat="52.1216869" lon="6.1290075"/>
<trkpt lat="52.1219129" lon="6.1295884"/>
<trkpt lat="52.1221188" lon="6.1314946"/>
<trkpt lat="52.1221655" lon="6.1321336"/>
<trkpt lat="52.1220892" lon="6.1323092"/>
<trkpt lat="52.1222740" lon="6.1335009"/>
<trkpt lat="52.1221294" lon="6.1345337"/>
<trkpt lat="52.1220821" lon="6.1351757"/>
<trkpt lat="52.1220766" lon="6.1358171"/>
</trkseg></trk>
<trk><name>Ocannipad - routeverkorter</name><type>shorteningRoute</type><trkseg>
<trkpt lat="52.1160409" lon="6.1314852"/>
<trkpt lat="52.1165194" lon="6.1349388"/>
<trkpt lat="52.1170044" lon="6.1385013"/>
<trkpt lat="52.1169517" lon="6.1391450"/>
<trkpt lat="52.1172457" lon="6.1419002"/>
</trkseg></trk>
<trk><name>Ocannipad - routeverlenger</name><type>extensionRoute</type><trkseg>
<trkpt lat="52.1152505" lon="6.1564404"/>
<trkpt lat="52.1151711" lon="6.1571056"/>
<trkpt lat="52.1152592" lon="6.1578715"/>
<trkpt lat="52.1153873" lon="6.1587686"/>
<trkpt lat="52.1121471" lon="6.1570011"/>
<trkpt lat="52.1097435" lon="6.1557600"/>
<trkpt lat="52.1055872" lon="6.1533464"/>
<trkpt lat="52.1055510" lon="6.1536145"/>
<trkpt lat="52.1056843" lon="6.1550564"/>
<trkpt lat="52.1058996" lon="6.1566405"/>
<trkpt lat="52.1061631" lon="6.1578849"/>
<trkpt lat="52.1061951" lon="6.1582937"/>
<trkpt lat="52.1062104" lon="6.1587266"/>
<trkpt lat="52.1062190" lon="6.1589886"/>
<trkpt lat="52.1062391" lon="6.1592893"/>
<trkpt lat="52.1062357" lon="6.1597661"/>
<trkpt lat="52.1057863" lon="6.1593700"/>
<trkpt lat="52.1054319" lon="6.1589445"/>
<trkpt lat="52.1049621" lon="6.1583714"/>
<trkpt lat="52.1044344" lon="6.1580298"/>
<trkpt lat="52.1030659" lon="6.1566225"/>
<trkpt lat="52.1028030" lon="6.1568515"/>
<trkpt lat="52.1028589" lon="6.1574150"/>
<trkpt lat="52.1042875" lon="6.1607705"/>
<trkpt lat="52.1043869" lon="6.1612556"/>
<trkpt lat="52.1045671" lon="6.1631589"/>
<trkpt lat="52.1046182" lon="6.1639011"/>
<trkpt lat="52.1047154" lon="6.1641477"/>
<trkpt lat="52.1049142" lon="6.1642690"/>
<trkpt lat="52.1053900" lon="6.1641890"/>
<trkpt lat="52.1080889" lon="6.1632723"/>
<trkpt lat="52.1089369" lon="6.1629123"/>
<trkpt lat="52.1087892" lon="6.1618425"/>
<trkpt lat="52.1087322" lon="6.1612311"/>
<trkpt lat="52.1121649" lon="6.1613781"/>
<trkpt lat="52.1121692" lon="6.1610841"/>
<trkpt lat="52.1121831" lon="6.1597856"/>
<trkpt lat="52.1122990" lon="6.1587712"/>
<trkpt lat="52.1122961" lon="6.1581407"/>
<trkpt lat="52.1120396" lon="6.1569497"/>
<trkpt lat="52.1153873" lon="6.1587686"/>
<trkpt lat="52.1152592" lon="6.1578715"/>
<trkpt lat="52.1151711" lon="6.1571056"/>
<trkpt lat="52.1152505" lon="6.1564404"/>
</trkseg></trk>
<trk><name>Ocannipad - overstaproute</name><type>connectionRoute</type><trkseg>
<trkpt lat="52.1160709" lon="6.1313656"/>
<trkpt lat="52.1154177" lon="6.1268278"/>
</trkseg></trk>
<trk><name>Ocannipad - overstaproute</name><type>connectionRoute</type><trkseg>
<trkpt lat="52.1331030" lon="6.1525237"/>
<trkpt lat="52.1331013" lon="6.1526418"/>
<trkpt lat="52.1331305" lon="6.1527463"/>
<trkpt lat="52.1331238" lon="6.1545392"/>
<trkpt lat="52.1328104" lon="6.1559681"/>
<trkpt lat="52.1327792" lon="6.1566210"/>
<trkpt lat="52.1329352" lon="6.1590539"/>
<trkpt lat="52.1328493" lon="6.1612719"/>
<trkpt lat="52.1329574" lon="6.1613509"/>
</trkseg></trk>
<trk><name>Ocannipad - aanlooproute</name><type>approachRoute</type><trkseg>
<trkpt lat="52.1272708" lon="6.1551864"/>
<trkpt lat="52.1269547" lon="6.1545929"/>
<trkpt lat="52.1276682" lon="6.1538294"/>
<trkpt lat="52.1279909" lon="6.1533895"/>
<trkpt lat="52.1281632" lon="6.1531008"/>
<trkpt lat="52.1282575" lon="6.1528665"/>
</trkseg></trk>
<trk><name>Ocannipad - aanlooproute</name><type>approachRoute</type><trkseg>
<trkpt lat="52.1136874" lon="6.1467345"/>
<trkpt lat="52.1137934" lon="6.1467280"/>
<trkpt lat="52.1146212" lon="6.1493602"/>
</trkseg></trk>
</gpx>