<?xml version="1.0" encoding="UTF-8"?>
<gpx version="1.1" creator="klompenpaden.nl via Jimbo API" xmlns="http://www.topografix.com/GPX/1/1">
<metadata><name>Oldenallerpad</name><desc>Ontdek het mooie buitengebied van Putten op en rondom landgoed Oldenaller. Wandelen door kasteelbos, over boerenland, langs houtwallen, beken en over heide. Ervaar de rust van een eeuwenoud landgoed. De afwisseling van cultuur en natuur bepaalt hier de sfeer. Klompen aan, rugzak op en gaan!</desc><link href="https://www.klompenpaden.nl/klompenpaden/Oldenallerpad/16b978ef-429f-4d38-8e0c-11e8d920d657"><text>klompenpaden.nl</text></link></metadata>
<wpt lat="52.247868854364135" lon="5.534251481294633"><name>Start Putten</name></wpt>
<trk><name>Oldenallerpad - mainRoute</name><type>mainRoute</type><trkseg>
<trkpt lat="52.2466800" lon="5.5520700"/>
<trkpt lat="52.2463600" lon="5.5512900"/>
<trkpt lat="52.2474700" lon="5.5502300"/>
<trkpt lat="52.2476600" lon="5.5501400"/>
<trkpt lat="52.2474900" lon="5.5495800"/>
<trkpt lat="52.2472600" lon="5.5489300"/>
<trkpt lat="52.2469900" lon="5.5479800"/>
<trkpt lat="52.2466200" lon="5.5469200"/>
<trkpt lat="52.2463200" lon="5.5462000"/>
<trkpt lat="52.2463600" lon="5.5435200"/>
<trkpt lat="52.2464800" lon="5.5413200"/>
<trkpt lat="52.2464600" lon="5.5410800"/>
<trkpt lat="52.2461300" lon="5.5394800"/>
<trkpt lat="52.2460300" lon="5.5391800"/>
<trkpt lat="52.2496000" lon="5.5269400"/>
<trkpt lat="52.2494600" lon="5.5268700"/>
<trkpt lat="52.2496600" lon="5.5261800"/>
<trkpt lat="52.2496800" lon="5.5259000"/>
<trkpt lat="52.2497200" lon="5.5257800"/>
<trkpt lat="52.2497800" lon="5.5252900"/>
<trkpt lat="52.2498800" lon="5.5253000"/>
<trkpt lat="52.2499700" lon="5.5251800"/>
<trkpt lat="52.2503400" lon="5.5238700"/>
<trkpt lat="52.2503000" lon="5.5236600"/>
<trkpt lat="52.2497300" lon="5.5232400"/>
<trkpt lat="52.2493300" lon="5.5228800"/>
<trkpt lat="52.2490900" lon="5.5227400"/>
<trkpt lat="52.2487900" lon="5.5226900"/>
<trkpt lat="52.2487400" lon="5.5226600"/>
<trkpt lat="52.2486800" lon="5.5225200"/>
<trkpt lat="52.2483500" lon="5.5222600"/>
<trkpt lat="52.2482800" lon="5.5223400"/>
<trkpt lat="52.2480700" lon="5.5226600"/>
<trkpt lat="52.2480000" lon="5.5229200"/>
<trkpt lat="52.2480100" lon="5.5230800"/>
<trkpt lat="52.2479400" lon="5.5233500"/>
<trkpt lat="52.2476500" lon="5.5234200"/>
<trkpt lat="52.2475900" lon="5.5237000"/>
<trkpt lat="52.2474300" lon="5.5238800"/>
<trkpt lat="52.2472700" lon="5.5240300"/>
<trkpt lat="52.2472200" lon="5.5241700"/>
<trkpt lat="52.2472000" lon="5.5244200"/>
<trkpt lat="52.2471000" lon="5.5243500"/>
<trkpt lat="52.2470000" lon="5.5243600"/>
<trkpt lat="52.2468200" lon="5.5244300"/>
<trkpt lat="52.2467200" lon="5.5244800"/>
<trkpt lat="52.2465200" lon="5.5246900"/>
<trkpt lat="52.2463400" lon="5.5247400"/>
<trkpt lat="52.2460900" lon="5.5245200"/>
<trkpt lat="52.2459700" lon="5.5243200"/>
<trkpt lat="52.2457800" lon="5.5237800"/>
<trkpt lat="52.2452100" lon="5.5233700"/>
<trkpt lat="52.2450400" lon="5.5233500"/>
<trkpt lat="52.2448800" lon="5.5233900"/>
<trkpt lat="52.2447800" lon="5.5234300"/>
<trkpt lat="52.2439500" lon="5.5262200"/>
<trkpt lat="52.2435500" lon="5.5270200"/>
<trkpt lat="52.2433600" lon="5.5272700"/>
<trkpt lat="52.2432600" lon="5.5276500"/>
<trkpt lat="52.2430500" lon="5.5291800"/>
<trkpt lat="52.2430300" lon="5.5296500"/>
<trkpt lat="52.2431000" lon="5.5300000"/>
<trkpt lat="52.2435900" lon="5.5304800"/>
<trkpt lat="52.2434500" lon="5.5308000"/>
<trkpt lat="52.2431800" lon="5.5328800"/>
<trkpt lat="52.2426900" lon="5.5352200"/>
<trkpt lat="52.2418900" lon="5.5371900"/>
<trkpt lat="52.2412700" lon="5.5364300"/>
<trkpt lat="52.2412700" lon="5.5362700"/>
<trkpt lat="52.2414500" lon="5.5354200"/>
<trkpt lat="52.2414600" lon="5.5351100"/>
<trkpt lat="52.2398600" lon="5.5307900"/>
<trkpt lat="52.2397900" lon="5.5308600"/>
<trkpt lat="52.2395600" lon="5.5305100"/>
<trkpt lat="52.2390800" lon="5.5313800"/>
<trkpt lat="52.2389500" lon="5.5312000"/>
<trkpt lat="52.2387300" lon="5.5318100"/>
<trkpt lat="52.2386200" lon="5.5319300"/>
<trkpt lat="52.2384300" lon="5.5320200"/>
<trkpt lat="52.2381800" lon="5.5317600"/>
<trkpt lat="52.2379100" lon="5.5321800"/>
<trkpt lat="52.2365400" lon="5.5327300"/>
<trkpt lat="52.2373100" lon="5.5362400"/>
<trkpt lat="52.2375700" lon="5.5360800"/>
<trkpt lat="52.2375200" lon="5.5371800"/>
<trkpt lat="52.2373600" lon="5.5382000"/>
<trkpt lat="52.2376600" lon="5.5383700"/>
<trkpt lat="52.2376100" lon="5.5388300"/>
<trkpt lat="52.2376500" lon="5.5388800"/>
<trkpt lat="52.2376500" lon="5.5390100"/>
<trkpt lat="52.2378000" lon="5.5391900"/>
<trkpt lat="52.2378200" lon="5.5396900"/>
<trkpt lat="52.2379000" lon="5.5397400"/>
<trkpt lat="52.2378400" lon="5.5404300"/>
<trkpt lat="52.2373500" lon="5.5418400"/>
<trkpt lat="52.2371200" lon="5.5426300"/>
<trkpt lat="52.2371800" lon="5.5428200"/>
<trkpt lat="52.2374900" lon="5.5430700"/>
<trkpt lat="52.2376100" lon="5.5435100"/>
<trkpt lat="52.2375800" lon="5.5436100"/>
<trkpt lat="52.2375600" lon="5.5437800"/>
<trkpt lat="52.2377300" lon="5.5463200"/>
<trkpt lat="52.2386900" lon="5.5467300"/>
<trkpt lat="52.2386800" lon="5.5469100"/>
<trkpt lat="52.2397400" lon="5.5471600"/>
<trkpt lat="52.2398700" lon="5.5471500"/>
<trkpt lat="52.2399600" lon="5.5471100"/>
<trkpt lat="52.2400800" lon="5.5469500"/>
<trkpt lat="52.2401500" lon="5.5471100"/>
<trkpt lat="52.2401900" lon="5.5474500"/>
<trkpt lat="52.2401900" lon="5.5477500"/>
<trkpt lat="52.2400500" lon="5.5485300"/>
<trkpt lat="52.2400400" lon="5.5487300"/>
<trkpt lat="52.2403400" lon="5.5488800"/>
<trkpt lat="52.2403100" lon="5.5493100"/>
<trkpt lat="52.2403500" lon="5.5496600"/>
<trkpt lat="52.2403200" lon="5.5498900"/>
<trkpt lat="52.2403700" lon="5.5503400"/>
<trkpt lat="52.2405300" lon="5.5503500"/>
<trkpt lat="52.2406500" lon="5.5506700"/>
<trkpt lat="52.2406400" lon="5.5508500"/>
<trkpt lat="52.2405300" lon="5.5514700"/>
<trkpt lat="52.2406900" lon="5.5515900"/>
<trkpt lat="52.2406700" lon="5.5521000"/>
<trkpt lat="52.2407100" lon="5.5528000"/>
<trkpt lat="52.2407800" lon="5.5529400"/>
<trkpt lat="52.2408000" lon="5.5535100"/>
<trkpt lat="52.2407900" lon="5.5538400"/>
<trkpt lat="52.2409000" lon="5.5542100"/>
<trkpt lat="52.2410400" lon="5.5544800"/>
<trkpt lat="52.2410400" lon="5.5548500"/>
<trkpt lat="52.2411300" lon="5.5552200"/>
<trkpt lat="52.2426500" lon="5.5560000"/>
<trkpt lat="52.2427100" lon="5.5561100"/>
<trkpt lat="52.2433800" lon="5.5568100"/>
<trkpt lat="52.2434600" lon="5.5568400"/>
<trkpt lat="52.2436100" lon="5.5567600"/>
<trkpt lat="52.2437100" lon="5.5566400"/>
<trkpt lat="52.2437800" lon="5.5564500"/>
<trkpt lat="52.2439300" lon="5.5563300"/>
<trkpt lat="52.2439900" lon="5.5562000"/>
<trkpt lat="52.2440300" lon="5.5555700"/>
<trkpt lat="52.2443800" lon="5.5547900"/>
<trkpt lat="52.2445200" lon="5.5541300"/>
<trkpt lat="52.2445200" lon="5.5539500"/>
<trkpt lat="52.2444400" lon="5.5534600"/>
<trkpt lat="52.2443200" lon="5.5530600"/>
<trkpt lat="52.2445500" lon="5.5530700"/>
<trkpt lat="52.2447000" lon="5.5530100"/>
<trkpt lat="52.2455600" lon="5.5522100"/>
<trkpt lat="52.2455600" lon="5.5520900"/>
<trkpt lat="52.2463600" lon="5.5512900"/>
</trkseg></trk>
<trk><name>Oldenallerpad - shorteningRoute</name><type>shorteningRoute</type><trkseg>
<trkpt lat="52.2464200" lon="5.5377200"/>
<trkpt lat="52.2454000" lon="5.5370900"/>
<trkpt lat="52.2453100" lon="5.5371000"/>
<trkpt lat="52.2452300" lon="5.5370100"/>
<trkpt lat="52.2449300" lon="5.5370400"/>
<trkpt lat="52.2447100" lon="5.5371200"/>
<trkpt lat="52.2445500" lon="5.5373300"/>
<trkpt lat="52.2443600" lon="5.5372900"/>
<trkpt lat="52.2441700" lon="5.5373500"/>
<trkpt lat="52.2440800" lon="5.5374000"/>
<trkpt lat="52.2439100" lon="5.5375500"/>
<trkpt lat="52.2438200" lon="5.5375400"/>
<trkpt lat="52.2436500" lon="5.5374000"/>
<trkpt lat="52.2434700" lon="5.5373500"/>
<trkpt lat="52.2432100" lon="5.5371800"/>
<trkpt lat="52.2432300" lon="5.5370200"/>
<trkpt lat="52.2431800" lon="5.5367300"/>
<trkpt lat="52.2430500" lon="5.5364900"/>
<trkpt lat="52.2429600" lon="5.5364700"/>
<trkpt lat="52.2428800" lon="5.5360300"/>
<trkpt lat="52.2428000" lon="5.5357600"/>
<trkpt lat="52.2425000" lon="5.5356800"/>
</trkseg></trk>
<trk><name>Oldenallerpad - extensionRoute</name><type>extensionRoute</type><trkseg>
<trkpt lat="52.2398600" lon="5.5307900"/>
<trkpt lat="52.2396300" lon="5.5300600"/>
<trkpt lat="52.2381200" lon="5.5291000"/>
<trkpt lat="52.2378500" lon="5.5288600"/>
<trkpt lat="52.2374700" lon="5.5281400"/>
<trkpt lat="52.2373400" lon="5.5279300"/>
<trkpt lat="52.2371400" lon="5.5277200"/>
<trkpt lat="52.2365100" lon="5.5272000"/>
<trkpt lat="52.2362900" lon="5.5269500"/>
<trkpt lat="52.2361100" lon="5.5267800"/>
<trkpt lat="52.2358300" lon="5.5266000"/>
<trkpt lat="52.2353700" lon="5.5264800"/>
<trkpt lat="52.2346400" lon="5.5264600"/>
<trkpt lat="52.2336900" lon="5.5263400"/>
<trkpt lat="52.2333500" lon="5.5261800"/>
<trkpt lat="52.2330300" lon="5.5259500"/>
<trkpt lat="52.2326400" lon="5.5258100"/>
<trkpt lat="52.2325100" lon="5.5258100"/>
<trkpt lat="52.2323900" lon="5.5260200"/>
<trkpt lat="52.2322100" lon="5.5261500"/>
<trkpt lat="52.2299300" lon="5.5256400"/>
<trkpt lat="52.2288600" lon="5.5246000"/>
<trkpt lat="52.2287900" lon="5.5246200"/>
<trkpt lat="52.2277900" lon="5.5260100"/>
<trkpt lat="52.2274800" lon="5.5260700"/>
<trkpt lat="52.2275100" lon="5.5261500"/>
<trkpt lat="52.2264100" lon="5.5263300"/>
<trkpt lat="52.2257500" lon="5.5265500"/>
<trkpt lat="52.2254500" lon="5.5264900"/>
<trkpt lat="52.2245800" lon="5.5266800"/>
<trkpt lat="52.2238000" lon="5.5267400"/>
<trkpt lat="52.2239300" lon="5.5283200"/>
<trkpt lat="52.2241300" lon="5.5298200"/>
<trkpt lat="52.2245700" lon="5.5316300"/>
<trkpt lat="52.2248400" lon="5.5326700"/>
<trkpt lat="52.2256300" lon="5.5350500"/>
<trkpt lat="52.2257100" lon="5.5352100"/>
<trkpt lat="52.2255800" lon="5.5360300"/>
<trkpt lat="52.2255900" lon="5.5366200"/>
<trkpt lat="52.2257000" lon="5.5370700"/>
<trkpt lat="52.2260900" lon="5.5375400"/>
<trkpt lat="52.2267300" lon="5.5377200"/>
<trkpt lat="52.2281000" lon="5.5378300"/>
<trkpt lat="52.2284300" lon="5.5375800"/>
<trkpt lat="52.2286200" lon="5.5376500"/>
<trkpt lat="52.2293400" lon="5.5385900"/>
<trkpt lat="52.2294800" lon="5.5386700"/>
<trkpt lat="52.2296500" lon="5.5386200"/>
<trkpt lat="52.2297700" lon="5.5384700"/>
<trkpt lat="52.2298800" lon="5.5373000"/>
<trkpt lat="52.2298800" lon="5.5371800"/>
<trkpt lat="52.2299800" lon="5.5370300"/>
<trkpt lat="52.2302400" lon="5.5369900"/>
<trkpt lat="52.2307300" lon="5.5370600"/>
<trkpt lat="52.2310400" lon="5.5371600"/>
<trkpt lat="52.2315500" lon="5.5376400"/>
<trkpt lat="52.2319900" lon="5.5384200"/>
<trkpt lat="52.2321500" lon="5.5386700"/>
<trkpt lat="52.2323300" lon="5.5392400"/>
<trkpt lat="52.2324600" lon="5.5398900"/>
<trkpt lat="52.2326200" lon="5.5402300"/>
<trkpt lat="52.2329500" lon="5.5405300"/>
<trkpt lat="52.2332200" lon="5.5409700"/>
<trkpt lat="52.2336600" lon="5.5420400"/>
<trkpt lat="52.2340900" lon="5.5434300"/>
<trkpt lat="52.2343800" lon="5.5444600"/>
<trkpt lat="52.2344800" lon="5.5447300"/>
<trkpt lat="52.2354000" lon="5.5457700"/>
<trkpt lat="52.2365900" lon="5.5463500"/>
<trkpt lat="52.2367300" lon="5.5466500"/>
<trkpt lat="52.2369400" lon="5.5493000"/>
<trkpt lat="52.2373100" lon="5.5486800"/>
<trkpt lat="52.2378500" lon="5.5480000"/>
<trkpt lat="52.2381800" lon="5.5476500"/>
<trkpt lat="52.2384100" lon="5.5472800"/>
<trkpt lat="52.2385000" lon="5.5470500"/>
<trkpt lat="52.2386800" lon="5.5469100"/>
</trkseg></trk>
<trk><name>Oldenallerpad - Tijdelijke omleiding</name><type>detourRoute</type><trkseg>
<trkpt lat="52.2418954" lon="5.5371933"/>
<trkpt lat="52.2412757" lon="5.5387199"/>
<trkpt lat="52.2409088" lon="5.5397545"/>
<trkpt lat="52.2406838" lon="5.5416181"/>
<trkpt lat="52.2406012" lon="5.5439741"/>
<trkpt lat="52.2404403" lon="5.5454754"/>
<trkpt lat="52.2401131" lon="5.5470150"/>
</trkseg></trk>
<trk><name>Oldenallerpad - Tijdelijke omleiding</name><type>detourRoute</type><trkseg>
<trkpt lat="52.2381815" lon="5.5476520"/>
<trkpt lat="52.2383958" lon="5.5479533"/>
<trkpt lat="52.2387413" lon="5.5482125"/>
<trkpt lat="52.2387452" lon="5.5483822"/>
<trkpt lat="52.2388658" lon="5.5485931"/>
<trkpt lat="52.2384854" lon="5.5494401"/>
<trkpt lat="52.2386310" lon="5.5496307"/>
<trkpt lat="52.2383699" lon="5.5500704"/>
<trkpt lat="52.2381212" lon="5.5505647"/>
<trkpt lat="52.2377626" lon="5.5514322"/>
<trkpt lat="52.2389294" lon="5.5523749"/>
<trkpt lat="52.2390606" lon="5.5520278"/>
<trkpt lat="52.2391378" lon="5.5521063"/>
<trkpt lat="52.2388996" lon="5.5527266"/>
<trkpt lat="52.2393179" lon="5.5529975"/>
<trkpt lat="52.2400329" lon="5.5528177"/>
<trkpt lat="52.2399891" lon="5.5518604"/>
<trkpt lat="52.2400968" lon="5.5517246"/>
<trkpt lat="52.2402710" lon="5.5516863"/>
<trkpt lat="52.2402825" lon="5.5519839"/>
<trkpt lat="52.2402418" lon="5.5530236"/>
<trkpt lat="52.2402714" lon="5.5538411"/>
<trkpt lat="52.2402718" lon="5.5547391"/>
<trkpt lat="52.2406047" lon="5.5547070"/>
<trkpt lat="52.2407033" lon="5.5550049"/>
<trkpt lat="52.2409015" lon="5.5548991"/>
</trkseg></trk>
</gpx>