<?xml version="1.0" encoding="UTF-8"?>
<gpx version="1.1" creator="klompenpaden.nl via Jimbo API" xmlns="http://www.topografix.com/GPX/1/1">
<metadata><name>Onderwaterpad KIDS</name><desc>Tijdens deze ontdekkingstocht ben jij de Waterbaas. Dit Klompenpad gaat door het gebied van de Nieuwe Hollandse Waterlinie. Deze linie is een verdedigingswerk van 85 kilometer lang waarbij vroeger het land onder water gezet kon worden. Blijf jij het water de baas? Veel succes en plezier!</desc><link href="https://www.klompenpaden.nl/klompenpaden/Onderwaterpad_KIDS/cadfb162-8bf7-43eb-9f32-b6c5bbc2c27b"><text>klompenpaden.nl</text></link></metadata>
<wpt lat="51.974590984491215" lon="5.159631371498108"><name>Start Schalkwijk</name></wpt>
<trk><name>Onderwaterpad KIDS - mainRoute</name><type>mainRoute</type><trkseg>
<trkpt lat="51.9770200" lon="5.1586900"/>
<trkpt lat="51.9770600" lon="5.1589000"/>
<trkpt lat="51.9771300" lon="5.1591400"/>
<trkpt lat="51.9771300" lon="5.1594000"/>
<trkpt lat="51.9771100" lon="5.1596000"/>
</trkseg></trk>
<trk><name>Onderwaterpad KIDS - Geimporteerde shapefile</name><type>mainRoute</type><trkseg>
<trkpt lat="51.9745848" lon="5.1596387"/>
<trkpt lat="51.9737228" lon="5.1596527"/>
<trkpt lat="51.9737097" lon="5.1590463"/>
<trkpt lat="51.9735135" lon="5.1590280"/>
<trkpt lat="51.9734004" lon="5.1589708"/>
<trkpt lat="51.9733170" lon="5.1588654"/>
<trkpt lat="51.9732869" lon="5.1587019"/>
<trkpt lat="51.9732747" lon="5.1585287"/>
<trkpt lat="51.9732620" lon="5.1580763"/>
<trkpt lat="51.9732497" lon="5.1579127"/>
<trkpt lat="51.9731959" lon="5.1577397"/>
<trkpt lat="51.9730830" lon="5.1577692"/>
<trkpt lat="51.9729463" lon="5.1577699"/>
<trkpt lat="51.9728273" lon="5.1577223"/>
<trkpt lat="51.9727319" lon="5.1575977"/>
<trkpt lat="51.9726662" lon="5.1574440"/>
<trkpt lat="51.9726360" lon="5.1572324"/>
<trkpt lat="51.9726475" lon="5.1570302"/>
<trkpt lat="51.9726770" lon="5.1568760"/>
<trkpt lat="51.9727540" lon="5.1567216"/>
<trkpt lat="51.9728549" lon="5.1566344"/>
<trkpt lat="51.9729736" lon="5.1565760"/>
<trkpt lat="51.9731044" lon="5.1565754"/>
<trkpt lat="51.9732828" lon="5.1565841"/>
<trkpt lat="51.9733486" lon="5.1567570"/>
<trkpt lat="51.9734972" lon="5.1567659"/>
<trkpt lat="51.9736101" lon="5.1567557"/>
<trkpt lat="51.9737290" lon="5.1567358"/>
<trkpt lat="51.9737050" lon="5.1566397"/>
<trkpt lat="51.9737108" lon="5.1565434"/>
<trkpt lat="51.9737700" lon="5.1564276"/>
<trkpt lat="51.9738828" lon="5.1563403"/>
<trkpt lat="51.9743755" lon="5.1559431"/>
<trkpt lat="51.9745940" lon="5.1552104"/>
<trkpt lat="51.9754609" lon="5.1545994"/>
<trkpt lat="51.9755619" lon="5.1545989"/>
<trkpt lat="51.9756039" lon="5.1547719"/>
<trkpt lat="51.9757115" lon="5.1550698"/>
<trkpt lat="51.9758489" lon="5.1553964"/>
<trkpt lat="51.9759265" lon="5.1555789"/>
<trkpt lat="51.9759685" lon="5.1557616"/>
<trkpt lat="51.9759808" lon="5.1559637"/>
<trkpt lat="51.9759752" lon="5.1561659"/>
<trkpt lat="51.9758985" lon="5.1564359"/>
<trkpt lat="51.9758454" lon="5.1566576"/>
<trkpt lat="51.9758361" lon="5.1580054"/>
<trkpt lat="51.9766875" lon="5.1585883"/>
<trkpt lat="51.9770147" lon="5.1586925"/>
<trkpt lat="51.9777936" lon="5.1587463"/>
<trkpt lat="51.9786141" lon="5.1587903"/>
<trkpt lat="51.9789113" lon="5.1587503"/>
<trkpt lat="51.9792323" lon="5.1587198"/>
<trkpt lat="51.9795415" lon="5.1587374"/>
<trkpt lat="51.9799344" lon="5.1589858"/>
<trkpt lat="51.9801782" lon="5.1590327"/>
<trkpt lat="51.9812784" lon="5.1591619"/>
<trkpt lat="51.9825629" lon="5.1593190"/>
<trkpt lat="51.9847624" lon="5.1596057"/>
<trkpt lat="51.9848229" lon="5.1589352"/>
<trkpt lat="51.9848655" lon="5.1587887"/>
<trkpt lat="51.9849603" lon="5.1586649"/>
<trkpt lat="51.9851219" lon="5.1585717"/>
<trkpt lat="51.9853596" lon="5.1585473"/>
<trkpt lat="51.9855880" lon="5.1585770"/>
<trkpt lat="51.9858592" lon="5.1586218"/>
<trkpt lat="51.9861257" lon="5.1586821"/>
<trkpt lat="51.9862590" lon="5.1587739"/>
<trkpt lat="51.9863785" lon="5.1590506"/>
<trkpt lat="51.9869185" lon="5.1603959"/>
<trkpt lat="51.9867333" lon="5.1605510"/>
<trkpt lat="51.9865433" lon="5.1606752"/>
<trkpt lat="51.9863390" lon="5.1607686"/>
<trkpt lat="51.9861441" lon="5.1608235"/>
<trkpt lat="51.9858829" lon="5.1608427"/>
<trkpt lat="51.9854134" lon="5.1607726"/>
</trkseg></trk>
<trk><name>Onderwaterpad KIDS - Geimporteerde shapefile</name><type>mainRoute</type><trkseg>
<trkpt lat="51.9771433" lon="5.1603197"/>
<trkpt lat="51.9771433" lon="5.1603205"/>
<trkpt lat="51.9771529" lon="5.1607056"/>
</trkseg></trk>
<trk><name>Onderwaterpad KIDS - Geimporteerde shapefile</name><type>mainRoute</type><trkseg>
<trkpt lat="51.9771433" lon="5.1603197"/>
<trkpt lat="51.9771432" lon="5.1603157"/>
<trkpt lat="51.9771753" lon="5.1599834"/>
<trkpt lat="51.9772578" lon="5.1596172"/>
<trkpt lat="51.9771783" lon="5.1599834"/>
<trkpt lat="51.9771433" lon="5.1603197"/>
</trkseg></trk>
<trk><name>Onderwaterpad KIDS - Geimporteerde shapefile</name><type>mainRoute</type><trkseg>
<trkpt lat="51.9771529" lon="5.1607056"/>
<trkpt lat="51.9771433" lon="5.1603197"/>
</trkseg></trk>
<trk><name>Onderwaterpad KIDS - Geimporteerde shapefile</name><type>mainRoute</type><trkseg>
<trkpt lat="51.9771529" lon="5.1607056"/>
<trkpt lat="51.9771861" lon="5.1609557"/>
<trkpt lat="51.9772488" lon="5.1610806"/>
</trkseg></trk>
<trk><name>Onderwaterpad KIDS - Geimporteerde shapefile</name><type>mainRoute</type><trkseg>
<trkpt lat="51.9772488" lon="5.1610806"/>
<trkpt lat="51.9771861" lon="5.1609509"/>
<trkpt lat="51.9771529" lon="5.1607056"/>
</trkseg></trk>
<trk><name>Onderwaterpad KIDS - Geimporteerde shapefile</name><type>mainRoute</type><trkseg>
<trkpt lat="51.9772488" lon="5.1610806"/>
<trkpt lat="51.9773292" lon="5.1611524"/>
<trkpt lat="51.9774006" lon="5.1612098"/>
<trkpt lat="51.9774841" lon="5.1613152"/>
</trkseg></trk>
<trk><name>Onderwaterpad KIDS - Geimporteerde shapefile</name><type>mainRoute</type><trkseg>
<trkpt lat="51.9774402" lon="5.1614984"/>
<trkpt lat="51.9771849" lon="5.1618655"/>
<trkpt lat="51.9770811" lon="5.1620008"/>
<trkpt lat="51.9770068" lon="5.1620349"/>
<trkpt lat="51.9769028" lon="5.1620306"/>
<trkpt lat="51.9767563" lon="5.1615837"/>
<trkpt lat="51.9768215" lon="5.1614919"/>
<trkpt lat="51.9768572" lon="5.1615158"/>
<trkpt lat="51.9774402" lon="5.1614984"/>
</trkseg></trk>
<trk><name>Onderwaterpad KIDS - Geimporteerde shapefile</name><type>mainRoute</type><trkseg>
<trkpt lat="51.9774402" lon="5.1614984"/>
<trkpt lat="51.9774428" lon="5.1614984"/>
<trkpt lat="51.9774872" lon="5.1614308"/>
</trkseg></trk>
<trk><name>Onderwaterpad KIDS - Geimporteerde shapefile</name><type>mainRoute</type><trkseg>
<trkpt lat="51.9774841" lon="5.1613152"/>
<trkpt lat="51.9773976" lon="5.1612098"/>
<trkpt lat="51.9773262" lon="5.1611524"/>
<trkpt lat="51.9772488" lon="5.1610806"/>
</trkseg></trk>
<trk><name>Onderwaterpad KIDS - Geimporteerde shapefile</name><type>mainRoute</type><trkseg>
<trkpt lat="51.9774841" lon="5.1613152"/>
<trkpt lat="51.9774872" lon="5.1614308"/>
</trkseg></trk>
<trk><name>Onderwaterpad KIDS - Geimporteerde shapefile</name><type>mainRoute</type><trkseg>
<trkpt lat="51.9774872" lon="5.1614308"/>
<trkpt lat="51.9774402" lon="5.1614984"/>
</trkseg></trk>
<trk><name>Onderwaterpad KIDS - Geimporteerde shapefile</name><type>mainRoute</type><trkseg>
<trkpt lat="51.9854116" lon="5.1607724"/>
<trkpt lat="51.9853584" lon="5.1607644"/>
<trkpt lat="51.9846804" lon="5.1606465"/>
<trkpt lat="51.9842165" lon="5.1605564"/>
<trkpt lat="51.9834850" lon="5.1604273"/>
<trkpt lat="51.9828070" lon="5.1603151"/>
<trkpt lat="51.9818649" lon="5.1601581"/>
<trkpt lat="51.9808801" lon="5.1600187"/>
<trkpt lat="51.9800559" lon="5.1599247"/>
<trkpt lat="51.9792602" lon="5.1598305"/>
<trkpt lat="51.9780543" lon="5.1596922"/>
<trkpt lat="51.9771266" lon="5.1596045"/>
<trkpt lat="51.9766164" lon="5.1595609"/>
<trkpt lat="51.9756375" lon="5.1595081"/>
<trkpt lat="51.9754094" lon="5.1596016"/>
<trkpt lat="51.9745818" lon="5.1596366"/>
</trkseg></trk>
<trk><name>Onderwaterpad KIDS - Geimporteerde shapefile</name><type>mainRoute</type><trkseg>
<trkpt lat="51.9854116" lon="5.1607724"/>
<trkpt lat="51.9854062" lon="5.1609990"/>
<trkpt lat="51.9855042" lon="5.1613457"/>
</trkseg></trk>
<trk><name>Onderwaterpad KIDS - Geimporteerde shapefile</name><type>mainRoute</type><trkseg>
<trkpt lat="51.9855042" lon="5.1613457"/>
<trkpt lat="51.9854068" lon="5.1610000"/>
<trkpt lat="51.9854134" lon="5.1607726"/>
</trkseg></trk>
<trk><name>Onderwaterpad KIDS - Geimporteerde shapefile</name><type>mainRoute</type><trkseg>
<trkpt lat="51.9855042" lon="5.1613457"/>
<trkpt lat="51.9857175" lon="5.1621000"/>
<trkpt lat="51.9859728" lon="5.1629461"/>
</trkseg></trk>
<trk><name>Onderwaterpad KIDS - Geimporteerde shapefile</name><type>mainRoute</type><trkseg>
<trkpt lat="51.9859728" lon="5.1629461"/>
<trkpt lat="51.9857157" lon="5.1620961"/>
<trkpt lat="51.9855042" lon="5.1613457"/>
</trkseg></trk>
<trk><name>Onderwaterpad KIDS - Geimporteerde shapefile</name><type>mainRoute</type><trkseg>
<trkpt lat="51.9859728" lon="5.1629461"/>
<trkpt lat="51.9863457" lon="5.1641816"/>
<trkpt lat="51.9864021" lon="5.1643667"/>
</trkseg></trk>
<trk><name>Onderwaterpad KIDS - Geimporteerde shapefile</name><type>mainRoute</type><trkseg>
<trkpt lat="51.9864016" lon="5.1651433"/>
<trkpt lat="51.9865382" lon="5.1659698"/>
</trkseg></trk>
<trk><name>Onderwaterpad KIDS - Geimporteerde shapefile</name><type>mainRoute</type><trkseg>
<trkpt lat="51.9864016" lon="5.1651433"/>
<trkpt lat="51.9865913" lon="5.1651423"/>
</trkseg></trk>
<trk><name>Onderwaterpad KIDS - Geimporteerde shapefile</name><type>mainRoute</type><trkseg>
<trkpt lat="51.9864021" lon="5.1643667"/>
<trkpt lat="51.9863475" lon="5.1641844"/>
<trkpt lat="51.9859728" lon="5.1629461"/>
</trkseg></trk>
<trk><name>Onderwaterpad KIDS - Geimporteerde shapefile</name><type>mainRoute</type><trkseg>
<trkpt lat="51.9864021" lon="5.1643667"/>
<trkpt lat="51.9866388" lon="5.1651430"/>
<trkpt lat="51.9865913" lon="5.1651423"/>
</trkseg></trk>
<trk><name>Onderwaterpad KIDS - Geimporteerde shapefile</name><type>mainRoute</type><trkseg>
<trkpt lat="51.9865382" lon="5.1659698"/>
<trkpt lat="51.9863921" lon="5.1651433"/>
<trkpt lat="51.9864016" lon="5.1651433"/>
</trkseg></trk>
<trk><name>Onderwaterpad KIDS - Geimporteerde shapefile</name><type>mainRoute</type><trkseg>
<trkpt lat="51.9865382" lon="5.1659698"/>
<trkpt lat="51.9866035" lon="5.1663652"/>
</trkseg></trk>
<trk><name>Onderwaterpad KIDS - Geimporteerde shapefile</name><type>mainRoute</type><trkseg>
<trkpt lat="51.9865913" lon="5.1651423"/>
<trkpt lat="51.9864010" lon="5.1651394"/>
<trkpt lat="51.9864016" lon="5.1651433"/>
</trkseg></trk>
<trk><name>Onderwaterpad KIDS - Geimporteerde shapefile</name><type>mainRoute</type><trkseg>
<trkpt lat="51.9865913" lon="5.1651423"/>
<trkpt lat="51.9866347" lon="5.1651421"/>
<trkpt lat="51.9864021" lon="5.1643667"/>
</trkseg></trk>
<trk><name>Onderwaterpad KIDS - Geimporteerde shapefile</name><type>mainRoute</type><trkseg>
<trkpt lat="51.9866035" lon="5.1663652"/>
<trkpt lat="51.9866084" lon="5.1663671"/>
<trkpt lat="51.9865382" lon="5.1659698"/>
</trkseg></trk>
<trk><name>Onderwaterpad KIDS - Geimporteerde shapefile</name><type>mainRoute</type><trkseg>
<trkpt lat="51.9866035" lon="5.1663652"/>
<trkpt lat="51.9866229" lon="5.1664826"/>
<trkpt lat="51.9867967" lon="5.1678568"/>
<trkpt lat="51.9863854" lon="5.1691761"/>
<trkpt lat="51.9861158" lon="5.1700093"/>
<trkpt lat="51.9859732" lon="5.1700794"/>
<trkpt lat="51.9846989" lon="5.1676822"/>
<trkpt lat="51.9850832" lon="5.1671603"/>
<trkpt lat="51.9851020" lon="5.1657967"/>
<trkpt lat="51.9866035" lon="5.1663652"/>
</trkseg></trk>
</gpx>