<?xml version="1.0" encoding="UTF-8"?>
<gpx version="1.1" creator="klompenpaden.nl via Jimbo API" xmlns="http://www.topografix.com/GPX/1/1">
<metadata><name>Oranjeveldpad</name><desc>Ontdek het mooie buitengebied van Wenum Wiesel. Wandelen langs de sporen van historische transportroutes, zoals oude waterlopen, een voormalig spoorwegtracé en een niet gerealiseerde snelweg. Laat je verrassen door dit bijzondere afwisselende en monumentale landschap. Klompen aan, rugzak op en gaan!</desc><link href="https://www.klompenpaden.nl/klompenpaden/Oranjeveldpad/7ed3c94b-5e1e-407f-8e1c-2827d80d15e7"><text>klompenpaden.nl</text></link></metadata>
<wpt lat="52.257736410508144" lon="5.965243577957153"><name>Start Wenum</name></wpt>
<trk><name>Oranjeveldpad - Geimporteerde shapefile</name><type>mainRoute</type><trkseg>
<trkpt lat="52.2552239" lon="5.9816377"/>
<trkpt lat="52.2561078" lon="5.9820214"/>
<trkpt lat="52.2577902" lon="5.9824651"/>
<trkpt lat="52.2611324" lon="5.9839388"/>
<trkpt lat="52.2629400" lon="5.9848214"/>
<trkpt lat="52.2633501" lon="5.9848079"/>
<trkpt lat="52.2645268" lon="5.9852389"/>
<trkpt lat="52.2646057" lon="5.9849231"/>
<trkpt lat="52.2647330" lon="5.9849529"/>
<trkpt lat="52.2651401" lon="5.9850942"/>
<trkpt lat="52.2665004" lon="5.9856297"/>
<trkpt lat="52.2670359" lon="5.9858696"/>
<trkpt lat="52.2671513" lon="5.9859809"/>
<trkpt lat="52.2678810" lon="5.9863160"/>
<trkpt lat="52.2692090" lon="5.9868897"/>
<trkpt lat="52.2693443" lon="5.9868141"/>
<trkpt lat="52.2695174" lon="5.9852356"/>
<trkpt lat="52.2704171" lon="5.9852515"/>
<trkpt lat="52.2701045" lon="5.9729433"/>
<trkpt lat="52.2710103" lon="5.9727358"/>
<trkpt lat="52.2710257" lon="5.9726297"/>
<trkpt lat="52.2716658" lon="5.9725547"/>
<trkpt lat="52.2718277" lon="5.9725512"/>
<trkpt lat="52.2717634" lon="5.9710975"/>
<trkpt lat="52.2717391" lon="5.9694912"/>
<trkpt lat="52.2713669" lon="5.9694468"/>
<trkpt lat="52.2700371" lon="5.9691085"/>
<trkpt lat="52.2698475" lon="5.9643936"/>
<trkpt lat="52.2697421" lon="5.9620362"/>
<trkpt lat="52.2703092" lon="5.9619474"/>
<trkpt lat="52.2714434" lon="5.9617742"/>
<trkpt lat="52.2714014" lon="5.9590951"/>
<trkpt lat="52.2708807" lon="5.9588223"/>
<trkpt lat="52.2708642" lon="5.9587385"/>
<trkpt lat="52.2707760" lon="5.9566709"/>
<trkpt lat="52.2707557" lon="5.9561709"/>
<trkpt lat="52.2706304" lon="5.9538345"/>
<trkpt lat="52.2704751" lon="5.9513216"/>
<trkpt lat="52.2701270" lon="5.9435717"/>
<trkpt lat="52.2722342" lon="5.9435333"/>
<trkpt lat="52.2717322" lon="5.9414297"/>
<trkpt lat="52.2643374" lon="5.9420471"/>
<trkpt lat="52.2635756" lon="5.9421499"/>
<trkpt lat="52.2603922" lon="5.9424126"/>
<trkpt lat="52.2588068" lon="5.9411830"/>
<trkpt lat="52.2586450" lon="5.9427683"/>
<trkpt lat="52.2586289" lon="5.9430170"/>
<trkpt lat="52.2558655" lon="5.9433085"/>
<trkpt lat="52.2558544" lon="5.9431510"/>
<trkpt lat="52.2524180" lon="5.9436972"/>
<trkpt lat="52.2509171" lon="5.9439353"/>
<trkpt lat="52.2493321" lon="5.9443106"/>
<trkpt lat="52.2493014" lon="5.9457896"/>
<trkpt lat="52.2472842" lon="5.9458337"/>
<trkpt lat="52.2472275" lon="5.9457198"/>
<trkpt lat="52.2468638" lon="5.9459307"/>
<trkpt lat="52.2459988" lon="5.9468307"/>
<trkpt lat="52.2459104" lon="5.9469756"/>
<trkpt lat="52.2458603" lon="5.9468839"/>
<trkpt lat="52.2451876" lon="5.9479633"/>
<trkpt lat="52.2447257" lon="5.9487826"/>
<trkpt lat="52.2441826" lon="5.9497624"/>
<trkpt lat="52.2439108" lon="5.9504076"/>
<trkpt lat="52.2434834" lon="5.9511978"/>
<trkpt lat="52.2410200" lon="5.9556494"/>
<trkpt lat="52.2405333" lon="5.9565282"/>
<trkpt lat="52.2406102" lon="5.9568252"/>
<trkpt lat="52.2403655" lon="5.9570415"/>
<trkpt lat="52.2400701" lon="5.9572668"/>
<trkpt lat="52.2398543" lon="5.9574045"/>
<trkpt lat="52.2396920" lon="5.9574296"/>
<trkpt lat="52.2393480" lon="5.9574831"/>
<trkpt lat="52.2389432" lon="5.9574047"/>
<trkpt lat="52.2386171" lon="5.9572233"/>
<trkpt lat="52.2382751" lon="5.9570407"/>
<trkpt lat="52.2382767" lon="5.9572141"/>
<trkpt lat="52.2383715" lon="5.9584730"/>
<trkpt lat="52.2385124" lon="5.9601653"/>
<trkpt lat="52.2386571" lon="5.9610144"/>
<trkpt lat="52.2386396" lon="5.9618330"/>
<trkpt lat="52.2385879" lon="5.9619585"/>
<trkpt lat="52.2380128" lon="5.9617590"/>
<trkpt lat="52.2380149" lon="5.9633233"/>
<trkpt lat="52.2380919" lon="5.9634918"/>
<trkpt lat="52.2381725" lon="5.9635439"/>
<trkpt lat="52.2382964" lon="5.9635660"/>
<trkpt lat="52.2383744" lon="5.9635763"/>
<trkpt lat="52.2383919" lon="5.9637218"/>
<trkpt lat="52.2384073" lon="5.9638432"/>
<trkpt lat="52.2382824" lon="5.9647059"/>
<trkpt lat="52.2379594" lon="5.9664679"/>
<trkpt lat="52.2378632" lon="5.9665755"/>
<trkpt lat="52.2378147" lon="5.9665919"/>
<trkpt lat="52.2375596" lon="5.9665796"/>
<trkpt lat="52.2370522" lon="5.9664987"/>
<trkpt lat="52.2369563" lon="5.9665437"/>
<trkpt lat="52.2368897" lon="5.9666341"/>
<trkpt lat="52.2368452" lon="5.9669340"/>
<trkpt lat="52.2368576" lon="5.9671327"/>
<trkpt lat="52.2368592" lon="5.9673357"/>
<trkpt lat="52.2368437" lon="5.9675602"/>
<trkpt lat="52.2367796" lon="5.9679849"/>
<trkpt lat="52.2367829" lon="5.9685339"/>
<trkpt lat="52.2367042" lon="5.9694121"/>
<trkpt lat="52.2367142" lon="5.9695806"/>
<trkpt lat="52.2366802" lon="5.9697936"/>
<trkpt lat="52.2366363" lon="5.9700656"/>
<trkpt lat="52.2365748" lon="5.9703865"/>
<trkpt lat="52.2366414" lon="5.9709787"/>
<trkpt lat="52.2365486" lon="5.9714337"/>
<trkpt lat="52.2365504" lon="5.9718370"/>
<trkpt lat="52.2364873" lon="5.9721646"/>
<trkpt lat="52.2363979" lon="5.9725437"/>
<trkpt lat="52.2361613" lon="5.9740453"/>
<trkpt lat="52.2365025" lon="5.9741385"/>
<trkpt lat="52.2365465" lon="5.9742937"/>
<trkpt lat="52.2365344" lon="5.9744657"/>
<trkpt lat="52.2365380" lon="5.9746635"/>
<trkpt lat="52.2365781" lon="5.9748286"/>
<trkpt lat="52.2366444" lon="5.9750280"/>
<trkpt lat="52.2367376" lon="5.9750491"/>
<trkpt lat="52.2368470" lon="5.9751236"/>
<trkpt lat="52.2378240" lon="5.9750513"/>
<trkpt lat="52.2384058" lon="5.9749960"/>
<trkpt lat="52.2390112" lon="5.9749706"/>
<trkpt lat="52.2391273" lon="5.9749985"/>
<trkpt lat="52.2391749" lon="5.9750832"/>
<trkpt lat="52.2392749" lon="5.9750392"/>
<trkpt lat="52.2394499" lon="5.9751034"/>
<trkpt lat="52.2396142" lon="5.9751246"/>
<trkpt lat="52.2400454" lon="5.9752617"/>
<trkpt lat="52.2405132" lon="5.9753485"/>
<trkpt lat="52.2409338" lon="5.9755985"/>
<trkpt lat="52.2410468" lon="5.9756521"/>
<trkpt lat="52.2417904" lon="5.9758989"/>
<trkpt lat="52.2430183" lon="5.9763386"/>
<trkpt lat="52.2430138" lon="5.9764767"/>
<trkpt lat="52.2430066" lon="5.9766641"/>
<trkpt lat="52.2430204" lon="5.9763345"/>
<trkpt lat="52.2435578" lon="5.9765444"/>
<trkpt lat="52.2439996" lon="5.9767107"/>
<trkpt lat="52.2443363" lon="5.9768351"/>
<trkpt lat="52.2443353" lon="5.9769726"/>
<trkpt lat="52.2443723" lon="5.9769922"/>
<trkpt lat="52.2446827" lon="5.9771704"/>
<trkpt lat="52.2445845" lon="5.9768594"/>
<trkpt lat="52.2445137" lon="5.9767200"/>
<trkpt lat="52.2437637" lon="5.9764154"/>
<trkpt lat="52.2437785" lon="5.9762804"/>
<trkpt lat="52.2445663" lon="5.9766052"/>
<trkpt lat="52.2448868" lon="5.9768129"/>
<trkpt lat="52.2450338" lon="5.9770465"/>
<trkpt lat="52.2454383" lon="5.9772972"/>
<trkpt lat="52.2468911" lon="5.9777667"/>
<trkpt lat="52.2468624" lon="5.9780270"/>
<trkpt lat="52.2472172" lon="5.9781198"/>
<trkpt lat="52.2472747" lon="5.9781636"/>
<trkpt lat="52.2473101" lon="5.9779736"/>
<trkpt lat="52.2481730" lon="5.9784111"/>
<trkpt lat="52.2500080" lon="5.9791286"/>
<trkpt lat="52.2519217" lon="5.9798462"/>
<trkpt lat="52.2524558" lon="5.9799971"/>
<trkpt lat="52.2524339" lon="5.9801756"/>
<trkpt lat="52.2538310" lon="5.9809772"/>
<trkpt lat="52.2544087" lon="5.9813093"/>
<trkpt lat="52.2552385" lon="5.9816414"/>
</trkseg></trk>
<trk><name>Oranjeveldpad - Geimporteerde shapefile</name><type>shorteningRoute</type><trkseg>
<trkpt lat="52.2577824" lon="5.9648623"/>
<trkpt lat="52.2576838" lon="5.9648202"/>
<trkpt lat="52.2575301" lon="5.9649705"/>
<trkpt lat="52.2571417" lon="5.9651331"/>
<trkpt lat="52.2564726" lon="5.9637546"/>
<trkpt lat="52.2568508" lon="5.9633963"/>
<trkpt lat="52.2566236" lon="5.9618107"/>
<trkpt lat="52.2566131" lon="5.9605321"/>
<trkpt lat="52.2571903" lon="5.9607253"/>
<trkpt lat="52.2573265" lon="5.9609333"/>
<trkpt lat="52.2573763" lon="5.9613721"/>
<trkpt lat="52.2573828" lon="5.9617116"/>
<trkpt lat="52.2574786" lon="5.9618194"/>
<trkpt lat="52.2582002" lon="5.9622228"/>
<trkpt lat="52.2582931" lon="5.9623643"/>
<trkpt lat="52.2584438" lon="5.9624888"/>
<trkpt lat="52.2589219" lon="5.9590732"/>
<trkpt lat="52.2587840" lon="5.9583973"/>
<trkpt lat="52.2583880" lon="5.9569588"/>
<trkpt lat="52.2579080" lon="5.9552198"/>
<trkpt lat="52.2574149" lon="5.9534423"/>
<trkpt lat="52.2570058" lon="5.9517935"/>
<trkpt lat="52.2587197" lon="5.9525959"/>
<trkpt lat="52.2588103" lon="5.9523127"/>
<trkpt lat="52.2585476" lon="5.9430871"/>
</trkseg></trk>
<trk><name>Oranjeveldpad - Geimporteerde shapefile</name><type>approachRoute</type><trkseg>
<trkpt lat="52.2524312" lon="5.9799810"/>
<trkpt lat="52.2529907" lon="5.9749005"/>
<trkpt lat="52.2523104" lon="5.9712445"/>
<trkpt lat="52.2521186" lon="5.9709570"/>
<trkpt lat="52.2522710" lon="5.9681894"/>
<trkpt lat="52.2526388" lon="5.9682752"/>
<trkpt lat="52.2532928" lon="5.9678976"/>
<trkpt lat="52.2532063" lon="5.9668100"/>
<trkpt lat="52.2529760" lon="5.9658003"/>
<trkpt lat="52.2529645" lon="5.9656362"/>
<trkpt lat="52.2582516" lon="5.9668165"/>
<trkpt lat="52.2586237" lon="5.9669116"/>
<trkpt lat="52.2586031" lon="5.9667564"/>
<trkpt lat="52.2584935" lon="5.9663209"/>
<trkpt lat="52.2581405" lon="5.9656416"/>
<trkpt lat="52.2577824" lon="5.9648623"/>
</trkseg></trk>
</gpx>