<?xml version="1.0" encoding="UTF-8"?>
<gpx version="1.1" creator="klompenpaden.nl via Jimbo API" xmlns="http://www.topografix.com/GPX/1/1">
<metadata><name>Oudenhorsterpad</name><desc>Ontdek het mooie buitengebied van Woudenberg. Over boerenerven, de oude spoordijk en de Grebbelinie. Rust, kleinschaligheid en de combinatie van cultuur en natuur bepalen hier de sfeer. Klompen aan, rugzak op en gaan!</desc><link href="https://www.klompenpaden.nl/klompenpaden/Oudenhorsterpad/7bde254a-ea93-46b0-b211-4c11a51e7c7b"><text>klompenpaden.nl</text></link></metadata>
<wpt lat="52.080237886614334" lon="5.450093150138855"><name>Start Woudenberg</name></wpt>
<trk><name>Oudenhorsterpad - mainRoute</name><type>mainRoute</type><trkseg>
<trkpt lat="52.0802900" lon="5.4489400"/>
<trkpt lat="52.0802600" lon="5.4491100"/>
<trkpt lat="52.0803700" lon="5.4497700"/>
<trkpt lat="52.0804300" lon="5.4499600"/>
<trkpt lat="52.0802200" lon="5.4501100"/>
<trkpt lat="52.0801000" lon="5.4502900"/>
<trkpt lat="52.0798700" lon="5.4504900"/>
<trkpt lat="52.0793300" lon="5.4510800"/>
<trkpt lat="52.0785500" lon="5.4518400"/>
<trkpt lat="52.0760300" lon="5.4541300"/>
<trkpt lat="52.0734900" lon="5.4565100"/>
<trkpt lat="52.0726300" lon="5.4572600"/>
<trkpt lat="52.0702200" lon="5.4594600"/>
<trkpt lat="52.0665700" lon="5.4626400"/>
<trkpt lat="52.0651200" lon="5.4641000"/>
<trkpt lat="52.0634000" lon="5.4656200"/>
<trkpt lat="52.0630200" lon="5.4660200"/>
<trkpt lat="52.0616600" lon="5.4672300"/>
<trkpt lat="52.0600600" lon="5.4687700"/>
<trkpt lat="52.0595500" lon="5.4692300"/>
<trkpt lat="52.0594200" lon="5.4695100"/>
<trkpt lat="52.0591100" lon="5.4697800"/>
<trkpt lat="52.0591800" lon="5.4700600"/>
<trkpt lat="52.0610400" lon="5.4684000"/>
<trkpt lat="52.0613900" lon="5.4704900"/>
<trkpt lat="52.0610900" lon="5.4706100"/>
<trkpt lat="52.0614300" lon="5.4730800"/>
<trkpt lat="52.0612100" lon="5.4732200"/>
<trkpt lat="52.0614900" lon="5.4755600"/>
<trkpt lat="52.0616900" lon="5.4768800"/>
<trkpt lat="52.0616800" lon="5.4772400"/>
<trkpt lat="52.0624400" lon="5.4793700"/>
<trkpt lat="52.0624600" lon="5.4794900"/>
<trkpt lat="52.0647600" lon="5.4780700"/>
<trkpt lat="52.0653600" lon="5.4776000"/>
<trkpt lat="52.0665600" lon="5.4766200"/>
<trkpt lat="52.0670600" lon="5.4762800"/>
<trkpt lat="52.0670800" lon="5.4760700"/>
<trkpt lat="52.0686700" lon="5.4765600"/>
<trkpt lat="52.0696900" lon="5.4769500"/>
<trkpt lat="52.0709100" lon="5.4772300"/>
<trkpt lat="52.0714200" lon="5.4769900"/>
<trkpt lat="52.0719800" lon="5.4766100"/>
<trkpt lat="52.0722900" lon="5.4760000"/>
<trkpt lat="52.0721700" lon="5.4758500"/>
<trkpt lat="52.0722900" lon="5.4752200"/>
<trkpt lat="52.0722400" lon="5.4747800"/>
<trkpt lat="52.0724900" lon="5.4739200"/>
<trkpt lat="52.0726700" lon="5.4735600"/>
<trkpt lat="52.0732900" lon="5.4726400"/>
<trkpt lat="52.0745400" lon="5.4703800"/>
<trkpt lat="52.0748500" lon="5.4692900"/>
<trkpt lat="52.0751000" lon="5.4676400"/>
<trkpt lat="52.0752500" lon="5.4667500"/>
<trkpt lat="52.0753700" lon="5.4665100"/>
<trkpt lat="52.0761200" lon="5.4658700"/>
<trkpt lat="52.0766200" lon="5.4656700"/>
<trkpt lat="52.0771900" lon="5.4656000"/>
<trkpt lat="52.0778300" lon="5.4654000"/>
<trkpt lat="52.0780700" lon="5.4652400"/>
<trkpt lat="52.0782700" lon="5.4648700"/>
<trkpt lat="52.0784800" lon="5.4639800"/>
<trkpt lat="52.0786300" lon="5.4628900"/>
<trkpt lat="52.0788500" lon="5.4615400"/>
<trkpt lat="52.0790700" lon="5.4606200"/>
<trkpt lat="52.0794000" lon="5.4597300"/>
<trkpt lat="52.0804600" lon="5.4579700"/>
<trkpt lat="52.0813200" lon="5.4563700"/>
<trkpt lat="52.0814300" lon="5.4562500"/>
<trkpt lat="52.0808900" lon="5.4533700"/>
<trkpt lat="52.0806900" lon="5.4522600"/>
<trkpt lat="52.0802600" lon="5.4501100"/>
<trkpt lat="52.0803900" lon="5.4500000"/>
<trkpt lat="52.0804200" lon="5.4499200"/>
<trkpt lat="52.0803100" lon="5.4494800"/>
<trkpt lat="52.0802500" lon="5.4491100"/>
<trkpt lat="52.0802800" lon="5.4489700"/>
</trkseg></trk>
</gpx>