<?xml version="1.0" encoding="UTF-8"?>
<gpx version="1.1" creator="klompenpaden.nl via Jimbo API" xmlns="http://www.topografix.com/GPX/1/1">
<metadata><name>Overlangbroeksepad</name><desc>Ontdek het mooie buitengebied van Wijk bij Duurstede en Leersum. Over landgoederen, door essenhakhoutbosjes en houtwallen. Door het gebied van overgangen: het rivierenlandschap van de Kromme Rijn, het coulissenlandschap van de Langbroekerwetering en het kampenlandschap van de Utrechtse Heuvelrug. Klompen aan, rugzak op en gaan!</desc><link href="https://www.klompenpaden.nl/klompenpaden/Overlangbroeksepad/72db538c-40f8-4496-aa69-fe7471768811"><text>klompenpaden.nl</text></link></metadata>
<wpt lat="51.970661668436534" lon="5.348614454269409"><name>Start Wijk bij Duurstede</name></wpt>
<trk><name>Overlangbroeksepad - Hoofdroute Overlangbroeksepad</name><type>mainRoute</type><trkseg>
<trkpt lat="51.9706386" lon="5.3486628"/>
<trkpt lat="51.9707179" lon="5.3485019"/>
<trkpt lat="51.9704108" lon="5.3482789"/>
<trkpt lat="51.9701561" lon="5.3481210"/>
<trkpt lat="51.9701561" lon="5.3479869"/>
<trkpt lat="51.9699479" lon="5.3471393"/>
<trkpt lat="51.9699380" lon="5.3465761"/>
<trkpt lat="51.9700074" lon="5.3458358"/>
<trkpt lat="51.9699012" lon="5.3458459"/>
<trkpt lat="51.9697833" lon="5.3458150"/>
<trkpt lat="51.9697364" lon="5.3457821"/>
<trkpt lat="51.9697198" lon="5.3457285"/>
<trkpt lat="51.9698190" lon="5.3455032"/>
<trkpt lat="51.9698256" lon="5.3452672"/>
<trkpt lat="51.9698998" lon="5.3449236"/>
<trkpt lat="51.9699380" lon="5.3447468"/>
<trkpt lat="51.9699260" lon="5.3444663"/>
<trkpt lat="51.9699667" lon="5.3442479"/>
<trkpt lat="51.9700239" lon="5.3441299"/>
<trkpt lat="51.9700239" lon="5.3440441"/>
<trkpt lat="51.9700999" lon="5.3440977"/>
<trkpt lat="51.9702519" lon="5.3444303"/>
<trkpt lat="51.9705437" lon="5.3441394"/>
<trkpt lat="51.9706720" lon="5.3437398"/>
<trkpt lat="51.9725358" lon="5.3450856"/>
<trkpt lat="51.9732493" lon="5.3455300"/>
<trkpt lat="51.9731799" lon="5.3457124"/>
<trkpt lat="51.9736526" lon="5.3464611"/>
<trkpt lat="51.9736809" lon="5.3465059"/>
<trkpt lat="51.9738640" lon="5.3467960"/>
<trkpt lat="51.9739169" lon="5.3467370"/>
<trkpt lat="51.9748124" lon="5.3475363"/>
<trkpt lat="51.9749347" lon="5.3470321"/>
<trkpt lat="51.9750933" lon="5.3470857"/>
<trkpt lat="51.9751131" lon="5.3471876"/>
<trkpt lat="51.9753213" lon="5.3474773"/>
<trkpt lat="51.9757178" lon="5.3477562"/>
<trkpt lat="51.9758797" lon="5.3475309"/>
<trkpt lat="51.9766065" lon="5.3486246"/>
<trkpt lat="51.9769497" lon="5.3490768"/>
<trkpt lat="51.9774731" lon="5.3495674"/>
<trkpt lat="51.9782480" lon="5.3501829"/>
<trkpt lat="51.9789080" lon="5.3505097"/>
<trkpt lat="51.9797184" lon="5.3507401"/>
<trkpt lat="51.9801405" lon="5.3508071"/>
<trkpt lat="51.9803106" lon="5.3508551"/>
<trkpt lat="51.9803901" lon="5.3511305"/>
<trkpt lat="51.9807966" lon="5.3509966"/>
<trkpt lat="51.9816754" lon="5.3508462"/>
<trkpt lat="51.9818868" lon="5.3510661"/>
<trkpt lat="51.9820421" lon="5.3510124"/>
<trkpt lat="51.9821538" lon="5.3513158"/>
<trkpt lat="51.9825063" lon="5.3532701"/>
<trkpt lat="51.9835715" lon="5.3567163"/>
<trkpt lat="51.9838987" lon="5.3577271"/>
<trkpt lat="51.9844850" lon="5.3631526"/>
<trkpt lat="51.9847828" lon="5.3663685"/>
<trkpt lat="51.9848750" lon="5.3674199"/>
<trkpt lat="51.9873488" lon="5.3703462"/>
<trkpt lat="51.9897002" lon="5.3732495"/>
<trkpt lat="51.9891566" lon="5.3745634"/>
<trkpt lat="51.9886693" lon="5.3758924"/>
<trkpt lat="51.9884552" lon="5.3756421"/>
<trkpt lat="51.9873972" lon="5.3782808"/>
<trkpt lat="51.9890382" lon="5.3801680"/>
<trkpt lat="51.9915877" lon="5.3831433"/>
<trkpt lat="51.9916947" lon="5.3828159"/>
<trkpt lat="51.9917298" lon="5.3743989"/>
<trkpt lat="51.9917653" lon="5.3731470"/>
<trkpt lat="51.9933355" lon="5.3694002"/>
<trkpt lat="51.9939421" lon="5.3700741"/>
<trkpt lat="51.9942037" lon="5.3705555"/>
<trkpt lat="51.9965465" lon="5.3733478"/>
<trkpt lat="51.9995231" lon="5.3770841"/>
<trkpt lat="52.0024528" lon="5.3807367"/>
<trkpt lat="52.0021072" lon="5.3816590"/>
<trkpt lat="52.0024073" lon="5.3898392"/>
<trkpt lat="52.0024264" lon="5.3903819"/>
<trkpt lat="52.0025585" lon="5.3903819"/>
<trkpt lat="52.0026113" lon="5.3904785"/>
<trkpt lat="52.0026840" lon="5.3924365"/>
<trkpt lat="52.0028515" lon="5.3956756"/>
<trkpt lat="52.0029085" lon="5.3961701"/>
<trkpt lat="52.0028920" lon="5.3966207"/>
<trkpt lat="52.0029507" lon="5.3978239"/>
<trkpt lat="52.0029581" lon="5.3984500"/>
<trkpt lat="52.0030109" lon="5.3987236"/>
<trkpt lat="52.0032289" lon="5.3989221"/>
<trkpt lat="52.0036385" lon="5.3995908"/>
<trkpt lat="52.0044805" lon="5.4010142"/>
<trkpt lat="52.0046852" lon="5.4011590"/>
<trkpt lat="52.0048437" lon="5.4014380"/>
<trkpt lat="52.0050188" lon="5.4013521"/>
<trkpt lat="52.0050493" lon="5.4012384"/>
<trkpt lat="52.0051740" lon="5.4007728"/>
<trkpt lat="52.0069911" lon="5.4019662"/>
<trkpt lat="52.0073478" lon="5.4021782"/>
<trkpt lat="52.0073002" lon="5.4024672"/>
<trkpt lat="52.0083821" lon="5.4031998"/>
<trkpt lat="52.0089052" lon="5.4035275"/>
<trkpt lat="52.0091502" lon="5.4034506"/>
<trkpt lat="52.0098993" lon="5.4036628"/>
<trkpt lat="52.0103153" lon="5.4045108"/>
<trkpt lat="52.0110167" lon="5.4054745"/>
<trkpt lat="52.0112010" lon="5.4055131"/>
<trkpt lat="52.0124016" lon="5.4074791"/>
<trkpt lat="52.0125919" lon="5.4074792"/>
<trkpt lat="52.0139470" lon="5.4097344"/>
<trkpt lat="52.0163885" lon="5.4136285"/>
<trkpt lat="52.0165074" lon="5.4138791"/>
<trkpt lat="52.0162932" lon="5.4142644"/>
<trkpt lat="52.0163764" lon="5.4145150"/>
<trkpt lat="52.0165191" lon="5.4147078"/>
<trkpt lat="52.0167807" lon="5.4146694"/>
<trkpt lat="52.0170421" lon="5.4153826"/>
<trkpt lat="52.0175448" lon="5.4163465"/>
<trkpt lat="52.0180440" lon="5.4170984"/>
<trkpt lat="52.0188403" lon="5.4185830"/>
<trkpt lat="52.0195535" lon="5.4195664"/>
<trkpt lat="52.0196191" lon="5.4196770"/>
<trkpt lat="52.0197597" lon="5.4197609"/>
<trkpt lat="52.0198436" lon="5.4198111"/>
<trkpt lat="52.0200389" lon="5.4201937"/>
<trkpt lat="52.0201803" lon="5.4204709"/>
<trkpt lat="52.0200714" lon="5.4206480"/>
<trkpt lat="52.0200450" lon="5.4208089"/>
<trkpt lat="52.0203058" lon="5.4213078"/>
</trkseg></trk>
<trk><name>Overlangbroeksepad - Overlangbroeksepad route verlenger</name><type>extensionRoute</type><trkseg>
<trkpt lat="52.0051740" lon="5.4007459"/>
<trkpt lat="52.0052929" lon="5.4001343"/>
<trkpt lat="52.0054183" lon="5.3996623"/>
<trkpt lat="52.0056561" lon="5.3993404"/>
<trkpt lat="52.0056099" lon="5.3991473"/>
<trkpt lat="52.0056561" lon="5.3983855"/>
<trkpt lat="52.0058476" lon="5.3976560"/>
<trkpt lat="52.0060127" lon="5.3972375"/>
<trkpt lat="52.0058939" lon="5.3969157"/>
<trkpt lat="52.0053919" lon="5.3970230"/>
<trkpt lat="52.0050089" lon="5.3969800"/>
<trkpt lat="52.0048834" lon="5.3968191"/>
<trkpt lat="52.0047909" lon="5.3963149"/>
<trkpt lat="52.0046060" lon="5.3961539"/>
<trkpt lat="52.0043286" lon="5.3959930"/>
<trkpt lat="52.0042361" lon="5.3957462"/>
<trkpt lat="52.0042757" lon="5.3950918"/>
<trkpt lat="52.0042427" lon="5.3945446"/>
<trkpt lat="52.0045597" lon="5.3938687"/>
<trkpt lat="52.0046984" lon="5.3932035"/>
<trkpt lat="52.0047777" lon="5.3927100"/>
<trkpt lat="52.0052598" lon="5.3928065"/>
<trkpt lat="52.0058212" lon="5.3936863"/>
<trkpt lat="52.0062637" lon="5.3949201"/>
<trkpt lat="52.0064156" lon="5.3953278"/>
<trkpt lat="52.0063661" lon="5.3957999"/>
<trkpt lat="52.0062505" lon="5.3962129"/>
<trkpt lat="52.0058906" lon="5.3968889"/>
<trkpt lat="52.0059665" lon="5.3971517"/>
<trkpt lat="52.0060392" lon="5.3973287"/>
<trkpt lat="52.0061779" lon="5.3972000"/>
<trkpt lat="52.0064949" lon="5.3970498"/>
<trkpt lat="52.0068317" lon="5.3970712"/>
<trkpt lat="52.0070265" lon="5.3971303"/>
<trkpt lat="52.0073138" lon="5.3975004"/>
<trkpt lat="52.0074987" lon="5.3980637"/>
<trkpt lat="52.0080271" lon="5.3986430"/>
<trkpt lat="52.0084233" lon="5.3987128"/>
<trkpt lat="52.0085025" lon="5.3989059"/>
<trkpt lat="52.0085257" lon="5.3990346"/>
<trkpt lat="52.0087337" lon="5.3992492"/>
<trkpt lat="52.0092686" lon="5.3993404"/>
<trkpt lat="52.0094766" lon="5.4000860"/>
<trkpt lat="52.0096384" lon="5.4003865"/>
<trkpt lat="52.0096384" lon="5.4013735"/>
<trkpt lat="52.0103087" lon="5.4018134"/>
<trkpt lat="52.0106125" lon="5.4021138"/>
<trkpt lat="52.0111441" lon="5.4032511"/>
<trkpt lat="52.0113059" lon="5.4043508"/>
<trkpt lat="52.0111837" lon="5.4052466"/>
<trkpt lat="52.0111969" lon="5.4053968"/>
</trkseg></trk>
<trk><name>Overlangbroeksepad - Geimporteerde shapefile</name><type>connectionRoute</type><trkseg>
<trkpt lat="52.0297566" lon="5.3681568"/>
<trkpt lat="52.0296425" lon="5.3686079"/>
<trkpt lat="52.0294928" lon="5.3692557"/>
<trkpt lat="52.0293360" lon="5.3699728"/>
<trkpt lat="52.0292789" lon="5.3702736"/>
<trkpt lat="52.0291792" lon="5.3713608"/>
<trkpt lat="52.0290794" lon="5.3721474"/>
<trkpt lat="52.0287585" lon="5.3733156"/>
<trkpt lat="52.0285018" lon="5.3742757"/>
<trkpt lat="52.0273174" lon="5.3735936"/>
<trkpt lat="52.0262400" lon="5.3729347"/>
<trkpt lat="52.0253981" lon="5.3724724"/>
<trkpt lat="52.0250557" lon="5.3724378"/>
<trkpt lat="52.0245991" lon="5.3724611"/>
<trkpt lat="52.0241353" lon="5.3720912"/>
<trkpt lat="52.0240783" lon="5.3723803"/>
<trkpt lat="52.0237859" lon="5.3730396"/>
<trkpt lat="52.0233936" lon="5.3739649"/>
<trkpt lat="52.0231225" lon="5.3745895"/>
<trkpt lat="52.0229799" lon="5.3750289"/>
<trkpt lat="52.0229228" lon="5.3752487"/>
<trkpt lat="52.0228801" lon="5.3755956"/>
<trkpt lat="52.0228730" lon="5.3761045"/>
<trkpt lat="52.0229230" lon="5.3764283"/>
<trkpt lat="52.0230443" lon="5.3768330"/>
<trkpt lat="52.0232369" lon="5.3772724"/>
<trkpt lat="52.0233796" lon="5.3775615"/>
<trkpt lat="52.0234082" lon="5.3777581"/>
<trkpt lat="52.0233868" lon="5.3780703"/>
<trkpt lat="52.0232584" lon="5.3784636"/>
<trkpt lat="52.0231015" lon="5.3788452"/>
<trkpt lat="52.0227591" lon="5.3795738"/>
<trkpt lat="52.0224096" lon="5.3802678"/>
<trkpt lat="52.0220386" lon="5.3811236"/>
<trkpt lat="52.0218104" lon="5.3817712"/>
<trkpt lat="52.0216606" lon="5.3822569"/>
<trkpt lat="52.0215607" lon="5.3826270"/>
<trkpt lat="52.0213966" lon="5.3829739"/>
<trkpt lat="52.0206903" lon="5.3840379"/>
<trkpt lat="52.0203122" lon="5.3837488"/>
<trkpt lat="52.0198556" lon="5.3834829"/>
<trkpt lat="52.0194846" lon="5.3832169"/>
<trkpt lat="52.0192920" lon="5.3829394"/>
<trkpt lat="52.0191065" lon="5.3827891"/>
<trkpt lat="52.0186784" lon="5.3826041"/>
<trkpt lat="52.0183716" lon="5.3825001"/>
<trkpt lat="52.0180649" lon="5.3825117"/>
<trkpt lat="52.0177510" lon="5.3826505"/>
<trkpt lat="52.0174085" lon="5.3829396"/>
<trkpt lat="52.0170661" lon="5.3832403"/>
<trkpt lat="52.0166594" lon="5.3835409"/>
<trkpt lat="52.0162599" lon="5.3838416"/>
<trkpt lat="52.0159603" lon="5.3840035"/>
<trkpt lat="52.0155893" lon="5.3841191"/>
<trkpt lat="52.0151969" lon="5.3841307"/>
<trkpt lat="52.0150186" lon="5.3842117"/>
<trkpt lat="52.0147831" lon="5.3845817"/>
<trkpt lat="52.0141696" lon="5.3858767"/>
<trkpt lat="52.0139128" lon="5.3863854"/>
<trkpt lat="52.0138057" lon="5.3865011"/>
<trkpt lat="52.0135988" lon="5.3863276"/>
<trkpt lat="52.0131993" lon="5.3856108"/>
<trkpt lat="52.0130638" lon="5.3854374"/>
<trkpt lat="52.0129639" lon="5.3854721"/>
<trkpt lat="52.0126785" lon="5.3860502"/>
<trkpt lat="52.0121434" lon="5.3872526"/>
<trkpt lat="52.0120578" lon="5.3875416"/>
<trkpt lat="52.0120578" lon="5.3878422"/>
<trkpt lat="52.0123432" lon="5.3886863"/>
<trkpt lat="52.0126214" lon="5.3894840"/>
<trkpt lat="52.0127926" lon="5.3900621"/>
<trkpt lat="52.0129781" lon="5.3907096"/>
<trkpt lat="52.0133419" lon="5.3916115"/>
<trkpt lat="52.0136344" lon="5.3922359"/>
<trkpt lat="52.0141195" lon="5.3931378"/>
<trkpt lat="52.0139982" lon="5.3933112"/>
<trkpt lat="52.0137984" lon="5.3935193"/>
<trkpt lat="52.0138127" lon="5.3937390"/>
<trkpt lat="52.0139625" lon="5.3942362"/>
<trkpt lat="52.0143263" lon="5.3950687"/>
<trkpt lat="52.0147186" lon="5.3959706"/>
<trkpt lat="52.0148755" lon="5.3963754"/>
<trkpt lat="52.0149326" lon="5.3965835"/>
<trkpt lat="52.0149825" lon="5.3971963"/>
<trkpt lat="52.0150110" lon="5.3976588"/>
<trkpt lat="52.0149895" lon="5.3983410"/>
<trkpt lat="52.0149251" lon="5.3998788"/>
<trkpt lat="52.0148965" lon="5.4009888"/>
<trkpt lat="52.0149892" lon="5.4013935"/>
<trkpt lat="52.0150676" lon="5.4016595"/>
<trkpt lat="52.0150890" lon="5.4020410"/>
<trkpt lat="52.0141897" lon="5.4042029"/>
<trkpt lat="52.0133975" lon="5.4061334"/>
<trkpt lat="52.0132477" lon="5.4064571"/>
<trkpt lat="52.0131121" lon="5.4067230"/>
<trkpt lat="52.0129479" lon="5.4069194"/>
<trkpt lat="52.0126483" lon="5.4071968"/>
<trkpt lat="52.0124627" lon="5.4073933"/>
</trkseg></trk>
<trk><name>Overlangbroeksepad - Overstaproute Engelroderpad</name><type>connectionRoute</type><trkseg>
<trkpt lat="51.9700305" lon="5.3440493"/>
<trkpt lat="51.9699644" lon="5.3440869"/>
<trkpt lat="51.9698454" lon="5.3442425"/>
<trkpt lat="51.9695281" lon="5.3444302"/>
<trkpt lat="51.9694323" lon="5.3444356"/>
<trkpt lat="51.9693067" lon="5.3443980"/>
<trkpt lat="51.9691613" lon="5.3441888"/>
<trkpt lat="51.9691018" lon="5.3440386"/>
<trkpt lat="51.9688639" lon="5.3440332"/>
<trkpt lat="51.9685135" lon="5.3441888"/>
<trkpt lat="51.9683417" lon="5.3444678"/>
<trkpt lat="51.9682623" lon="5.3446394"/>
<trkpt lat="51.9681401" lon="5.3446126"/>
<trkpt lat="51.9680673" lon="5.3444839"/>
<trkpt lat="51.9678327" lon="5.3443873"/>
<trkpt lat="51.9676509" lon="5.3446072"/>
<trkpt lat="51.9675848" lon="5.3446180"/>
<trkpt lat="51.9673964" lon="5.3444356"/>
<trkpt lat="51.9671419" lon="5.3441459"/>
<trkpt lat="51.9668577" lon="5.3439957"/>
<trkpt lat="51.9661603" lon="5.3438348"/>
<trkpt lat="51.9655918" lon="5.3430516"/>
<trkpt lat="51.9655224" lon="5.3430033"/>
<trkpt lat="51.9653869" lon="5.3426546"/>
<trkpt lat="51.9648217" lon="5.3416246"/>
<trkpt lat="51.9642631" lon="5.3405088"/>
<trkpt lat="51.9642301" lon="5.3399348"/>
<trkpt lat="51.9641540" lon="5.3398168"/>
<trkpt lat="51.9641706" lon="5.3395164"/>
<trkpt lat="51.9644085" lon="5.3387386"/>
<trkpt lat="51.9645969" lon="5.3376335"/>
<trkpt lat="51.9646002" lon="5.3360671"/>
<trkpt lat="51.9646102" lon="5.3352034"/>
<trkpt lat="51.9646961" lon="5.3350747"/>
<trkpt lat="51.9648217" lon="5.3344309"/>
<trkpt lat="51.9654299" lon="5.3322423"/>
<trkpt lat="51.9662000" lon="5.3295064"/>
<trkpt lat="51.9672708" lon="5.3258210"/>
<trkpt lat="51.9679814" lon="5.3231764"/>
<trkpt lat="51.9679186" lon="5.3230476"/>
<trkpt lat="51.9678129" lon="5.3228652"/>
<trkpt lat="51.9679385" lon="5.3224415"/>
<trkpt lat="51.9683053" lon="5.3215349"/>
<trkpt lat="51.9687283" lon="5.3200918"/>
<trkpt lat="51.9692340" lon="5.3178281"/>
<trkpt lat="51.9687416" lon="5.3174365"/>
<trkpt lat="51.9676410" lon="5.3166050"/>
<trkpt lat="51.9674526" lon="5.3164923"/>
<trkpt lat="51.9673931" lon="5.3167605"/>
<trkpt lat="51.9675319" lon="5.3166479"/>
<trkpt lat="51.9676939" lon="5.3167498"/>
<trkpt lat="51.9678757" lon="5.3159720"/>
<trkpt lat="51.9686523" lon="5.3131717"/>
<trkpt lat="51.9687184" lon="5.3127319"/>
<trkpt lat="51.9687383" lon="5.3123081"/>
<trkpt lat="51.9686160" lon="5.3120399"/>
<trkpt lat="51.9682855" lon="5.3117931"/>
<trkpt lat="51.9677633" lon="5.3113693"/>
<trkpt lat="51.9674394" lon="5.3110421"/>
<trkpt lat="51.9669932" lon="5.3095347"/>
<trkpt lat="51.9664710" lon="5.3070295"/>
<trkpt lat="51.9660512" lon="5.3066272"/>
<trkpt lat="51.9661901" lon="5.3058869"/>
<trkpt lat="51.9659124" lon="5.3044707"/>
<trkpt lat="51.9649969" lon="5.3004152"/>
<trkpt lat="51.9643689" lon="5.2975345"/>
<trkpt lat="51.9640780" lon="5.2964133"/>
<trkpt lat="51.9640483" lon="5.2956247"/>
<trkpt lat="51.9643358" lon="5.2928889"/>
<trkpt lat="51.9643689" lon="5.2921486"/>
<trkpt lat="51.9648581" lon="5.2908343"/>
<trkpt lat="51.9652382" lon="5.2895576"/>
<trkpt lat="51.9652778" lon="5.2889138"/>
<trkpt lat="51.9652481" lon="5.2874225"/>
<trkpt lat="51.9651225" lon="5.2850461"/>
<trkpt lat="51.9650597" lon="5.2813661"/>
<trkpt lat="51.9646102" lon="5.2814090"/>
<trkpt lat="51.9640978" lon="5.2812159"/>
<trkpt lat="51.9637409" lon="5.2809101"/>
<trkpt lat="51.9634136" lon="5.2808028"/>
<trkpt lat="51.9626831" lon="5.2809048"/>
<trkpt lat="51.9624352" lon="5.2809048"/>
<trkpt lat="51.9619262" lon="5.2813822"/>
<trkpt lat="51.9612221" lon="5.2813554"/>
<trkpt lat="51.9600685" lon="5.2811247"/>
<trkpt lat="51.9594140" lon="5.2808458"/>
<trkpt lat="51.9585049" lon="5.2802128"/>
<trkpt lat="51.9582867" lon="5.2801484"/>
<trkpt lat="51.9579429" lon="5.2803200"/>
<trkpt lat="51.9571495" lon="5.2817738"/>
<trkpt lat="51.9570239" lon="5.2818543"/>
<trkpt lat="51.9561115" lon="5.2818382"/>
<trkpt lat="51.9557445" lon="5.2818865"/>
<trkpt lat="51.9555925" lon="5.2819455"/>
<trkpt lat="51.9554106" lon="5.2825624"/>
<trkpt lat="51.9552090" lon="5.2831364"/>
<trkpt lat="51.9545015" lon="5.2825731"/>
</trkseg></trk>
</gpx>