<?xml version="1.0" encoding="UTF-8"?>
<gpx version="1.1" creator="klompenpaden.nl via Jimbo API" xmlns="http://www.topografix.com/GPX/1/1">
<metadata><name>Paddenpad</name><desc>Ontdek het mooie en afwisselende buitengebied van Wapenveld. Het landschap verandert richting de IJssel van bosrijk landschap - op de stuwwallen van de Veluwe - naar open ontginningsgebied. Onderweg komt u door een nieuwe hoogwatergeul Veessen-Wapenveld. Klompen aan, rugzak op en gaan!</desc><link href="https://www.klompenpaden.nl/klompenpaden/Paddenpad/80911615-44ca-4f70-99e5-0fa6f3f1a237"><text>klompenpaden.nl</text></link></metadata>
<wpt lat="52.444435904454586" lon="6.070600748062134"><name>Start Wapenveld</name></wpt>
<trk><name>Paddenpad - Hoofdroute Kloosterbos</name><type>mainRoute</type><trkseg>
<trkpt lat="52.4276321" lon="6.0647645"/>
<trkpt lat="52.4292602" lon="6.0657464"/>
<trkpt lat="52.4294978" lon="6.0641161"/>
<trkpt lat="52.4295735" lon="6.0640827"/>
<trkpt lat="52.4296272" lon="6.0639314"/>
<trkpt lat="52.4296861" lon="6.0636172"/>
<trkpt lat="52.4297154" lon="6.0634892"/>
<trkpt lat="52.4305481" lon="6.0638288"/>
<trkpt lat="52.4309650" lon="6.0617390"/>
<trkpt lat="52.4310702" lon="6.0616589"/>
<trkpt lat="52.4311167" lon="6.0613942"/>
<trkpt lat="52.4312093" lon="6.0613467"/>
<trkpt lat="52.4314575" lon="6.0611381"/>
<trkpt lat="52.4315242" lon="6.0608248"/>
<trkpt lat="52.4326124" lon="6.0609038"/>
<trkpt lat="52.4342764" lon="6.0613681"/>
<trkpt lat="52.4344479" lon="6.0585381"/>
<trkpt lat="52.4370555" lon="6.0593765"/>
<trkpt lat="52.4375880" lon="6.0595463"/>
<trkpt lat="52.4378395" lon="6.0587580"/>
<trkpt lat="52.4397264" lon="6.0594876"/>
<trkpt lat="52.4409314" lon="6.0657730"/>
<trkpt lat="52.4410135" lon="6.0661128"/>
<trkpt lat="52.4407526" lon="6.0662607"/>
<trkpt lat="52.4403431" lon="6.0664165"/>
<trkpt lat="52.4403700" lon="6.0671261"/>
<trkpt lat="52.4404495" lon="6.0672996"/>
<trkpt lat="52.4404044" lon="6.0676130"/>
<trkpt lat="52.4402974" lon="6.0679153"/>
<trkpt lat="52.4402905" lon="6.0680266"/>
<trkpt lat="52.4400352" lon="6.0682861"/>
<trkpt lat="52.4398800" lon="6.0683546"/>
<trkpt lat="52.4394752" lon="6.0687637"/>
<trkpt lat="52.4401810" lon="6.0709224"/>
<trkpt lat="52.4401924" lon="6.0710948"/>
<trkpt lat="52.4396287" lon="6.0711368"/>
<trkpt lat="52.4396262" lon="6.0715724"/>
<trkpt lat="52.4391371" lon="6.0715749"/>
<trkpt lat="52.4390543" lon="6.0719688"/>
<trkpt lat="52.4389354" lon="6.0721999"/>
<trkpt lat="52.4388296" lon="6.0722895"/>
<trkpt lat="52.4387597" lon="6.0726024"/>
<trkpt lat="52.4386081" lon="6.0725546"/>
<trkpt lat="52.4385065" lon="6.0728808"/>
<trkpt lat="52.4384136" lon="6.0735941"/>
<trkpt lat="52.4384809" lon="6.0736576"/>
<trkpt lat="52.4389209" lon="6.0736883"/>
<trkpt lat="52.4393737" lon="6.0737185"/>
<trkpt lat="52.4400116" lon="6.0735431"/>
<trkpt lat="52.4405784" lon="6.0734361"/>
<trkpt lat="52.4412730" lon="6.0732616"/>
<trkpt lat="52.4417405" lon="6.0731993"/>
<trkpt lat="52.4421656" lon="6.0731133"/>
<trkpt lat="52.4425482" lon="6.0730497"/>
<trkpt lat="52.4427037" lon="6.0730753"/>
<trkpt lat="52.4430561" lon="6.0733355"/>
<trkpt lat="52.4430442" lon="6.0737601"/>
<trkpt lat="52.4430137" lon="6.0745615"/>
<trkpt lat="52.4437583" lon="6.0753202"/>
<trkpt lat="52.4444187" lon="6.0758559"/>
<trkpt lat="52.4446789" lon="6.0764904"/>
<trkpt lat="52.4450724" lon="6.0775356"/>
<trkpt lat="52.4451770" lon="6.0779458"/>
<trkpt lat="52.4452667" lon="6.0784726"/>
<trkpt lat="52.4452764" lon="6.0792433"/>
<trkpt lat="52.4452507" lon="6.0799785"/>
<trkpt lat="52.4450368" lon="6.0811776"/>
<trkpt lat="52.4447056" lon="6.0829120"/>
<trkpt lat="52.4444494" lon="6.0842919"/>
<trkpt lat="52.4441410" lon="6.0840945"/>
<trkpt lat="52.4438083" lon="6.0838056"/>
<trkpt lat="52.4437033" lon="6.0835250"/>
<trkpt lat="52.4436626" lon="6.0834373"/>
<trkpt lat="52.4436286" lon="6.0833283"/>
<trkpt lat="52.4434583" lon="6.0825312"/>
<trkpt lat="52.4434564" lon="6.0823129"/>
<trkpt lat="52.4435651" lon="6.0814921"/>
<trkpt lat="52.4433954" lon="6.0811096"/>
<trkpt lat="52.4435491" lon="6.0807804"/>
<trkpt lat="52.4436786" lon="6.0803753"/>
<trkpt lat="52.4436058" lon="6.0799366"/>
<trkpt lat="52.4432491" lon="6.0796381"/>
<trkpt lat="52.4428012" lon="6.0795183"/>
<trkpt lat="52.4425908" lon="6.0793678"/>
<trkpt lat="52.4425321" lon="6.0794096"/>
<trkpt lat="52.4423914" lon="6.0800294"/>
<trkpt lat="52.4422503" lon="6.0804091"/>
<trkpt lat="52.4420847" lon="6.0806871"/>
<trkpt lat="52.4429940" lon="6.0815866"/>
<trkpt lat="52.4429917" lon="6.0817016"/>
<trkpt lat="52.4429046" lon="6.0820790"/>
<trkpt lat="52.4428729" lon="6.0826783"/>
<trkpt lat="52.4428524" lon="6.0831725"/>
<trkpt lat="52.4428417" lon="6.0832402"/>
<trkpt lat="52.4427910" lon="6.0833267"/>
<trkpt lat="52.4427486" lon="6.0834927"/>
<trkpt lat="52.4427171" lon="6.0835774"/>
<trkpt lat="52.4426676" lon="6.0835788"/>
<trkpt lat="52.4424374" lon="6.0832515"/>
<trkpt lat="52.4422960" lon="6.0830874"/>
<trkpt lat="52.4422436" lon="6.0829208"/>
<trkpt lat="52.4422395" lon="6.0827285"/>
<trkpt lat="52.4422578" lon="6.0825796"/>
<trkpt lat="52.4422676" lon="6.0824799"/>
<trkpt lat="52.4422439" lon="6.0823405"/>
<trkpt lat="52.4420771" lon="6.0822403"/>
<trkpt lat="52.4405980" lon="6.0814349"/>
<trkpt lat="52.4405071" lon="6.0823207"/>
<trkpt lat="52.4403622" lon="6.0827036"/>
<trkpt lat="52.4401605" lon="6.0830390"/>
<trkpt lat="52.4398881" lon="6.0832565"/>
<trkpt lat="52.4396810" lon="6.0832999"/>
<trkpt lat="52.4393743" lon="6.0832834"/>
<trkpt lat="52.4392028" lon="6.0833391"/>
<trkpt lat="52.4390022" lon="6.0834760"/>
<trkpt lat="52.4386722" lon="6.0837977"/>
<trkpt lat="52.4384022" lon="6.0840041"/>
<trkpt lat="52.4382525" lon="6.0841841"/>
<trkpt lat="52.4381798" lon="6.0849732"/>
<trkpt lat="52.4380492" lon="6.0861159"/>
<trkpt lat="52.4379658" lon="6.0866008"/>
<trkpt lat="52.4377953" lon="6.0871654"/>
<trkpt lat="52.4376375" lon="6.0876897"/>
<trkpt lat="52.4375117" lon="6.0880220"/>
<trkpt lat="52.4375041" lon="6.0882549"/>
<trkpt lat="52.4381086" lon="6.0886393"/>
<trkpt lat="52.4380778" lon="6.0895303"/>
<trkpt lat="52.4382145" lon="6.0905441"/>
<trkpt lat="52.4379321" lon="6.0917886"/>
<trkpt lat="52.4379135" lon="6.0919692"/>
<trkpt lat="52.4380613" lon="6.0925621"/>
<trkpt lat="52.4380759" lon="6.0930576"/>
<trkpt lat="52.4379940" lon="6.0931229"/>
<trkpt lat="52.4379621" lon="6.0935891"/>
<trkpt lat="52.4378976" lon="6.0936738"/>
<trkpt lat="52.4375834" lon="6.0936497"/>
<trkpt lat="52.4369092" lon="6.0934771"/>
<trkpt lat="52.4363803" lon="6.0933448"/>
<trkpt lat="52.4358037" lon="6.0934023"/>
<trkpt lat="52.4353330" lon="6.0932805"/>
<trkpt lat="52.4348507" lon="6.0931395"/>
<trkpt lat="52.4343103" lon="6.0929880"/>
<trkpt lat="52.4332425" lon="6.0927660"/>
<trkpt lat="52.4328771" lon="6.0927804"/>
<trkpt lat="52.4324977" lon="6.0927907"/>
<trkpt lat="52.4321963" lon="6.0928163"/>
<trkpt lat="52.4318067" lon="6.0929162"/>
<trkpt lat="52.4311580" lon="6.0929854"/>
<trkpt lat="52.4304123" lon="6.0930265"/>
<trkpt lat="52.4299910" lon="6.0930198"/>
<trkpt lat="52.4294075" lon="6.0930370"/>
<trkpt lat="52.4285484" lon="6.0930498"/>
<trkpt lat="52.4274945" lon="6.0931391"/>
<trkpt lat="52.4263761" lon="6.0931742"/>
<trkpt lat="52.4250469" lon="6.0932061"/>
<trkpt lat="52.4240580" lon="6.0932698"/>
<trkpt lat="52.4231986" lon="6.0933356"/>
<trkpt lat="52.4226157" lon="6.0932468"/>
<trkpt lat="52.4222762" lon="6.0931089"/>
<trkpt lat="52.4218085" lon="6.0927303"/>
<trkpt lat="52.4205508" lon="6.0916499"/>
<trkpt lat="52.4198413" lon="6.0910555"/>
<trkpt lat="52.4190351" lon="6.0903535"/>
<trkpt lat="52.4188575" lon="6.0902447"/>
<trkpt lat="52.4192030" lon="6.0893754"/>
<trkpt lat="52.4194280" lon="6.0888699"/>
<trkpt lat="52.4200000" lon="6.0874208"/>
<trkpt lat="52.4202320" lon="6.0869282"/>
<trkpt lat="52.4208495" lon="6.0861481"/>
<trkpt lat="52.4209192" lon="6.0858859"/>
<trkpt lat="52.4209382" lon="6.0847621"/>
<trkpt lat="52.4211094" lon="6.0840762"/>
<trkpt lat="52.4211295" lon="6.0838133"/>
<trkpt lat="52.4205850" lon="6.0829880"/>
<trkpt lat="52.4202603" lon="6.0823994"/>
<trkpt lat="52.4198935" lon="6.0816819"/>
<trkpt lat="52.4195839" lon="6.0809536"/>
<trkpt lat="52.4202402" lon="6.0809522"/>
<trkpt lat="52.4199862" lon="6.0804815"/>
<trkpt lat="52.4193161" lon="6.0791642"/>
<trkpt lat="52.4192174" lon="6.0789759"/>
<trkpt lat="52.4188353" lon="6.0784332"/>
<trkpt lat="52.4183758" lon="6.0777143"/>
<trkpt lat="52.4181135" lon="6.0774302"/>
<trkpt lat="52.4178369" lon="6.0771458"/>
<trkpt lat="52.4176828" lon="6.0766534"/>
<trkpt lat="52.4177373" lon="6.0758725"/>
<trkpt lat="52.4186719" lon="6.0758637"/>
<trkpt lat="52.4194213" lon="6.0758054"/>
<trkpt lat="52.4200716" lon="6.0756171"/>
<trkpt lat="52.4198626" lon="6.0735252"/>
<trkpt lat="52.4197786" lon="6.0732555"/>
<trkpt lat="52.4194819" lon="6.0727492"/>
<trkpt lat="52.4193552" lon="6.0724439"/>
<trkpt lat="52.4193279" lon="6.0722334"/>
<trkpt lat="52.4193570" lon="6.0721289"/>
<trkpt lat="52.4202110" lon="6.0712669"/>
<trkpt lat="52.4207387" lon="6.0712984"/>
<trkpt lat="52.4215296" lon="6.0714740"/>
<trkpt lat="52.4214972" lon="6.0709017"/>
<trkpt lat="52.4213728" lon="6.0701997"/>
<trkpt lat="52.4213274" lon="6.0694172"/>
<trkpt lat="52.4213578" lon="6.0690909"/>
<trkpt lat="52.4214537" lon="6.0685440"/>
<trkpt lat="52.4216282" lon="6.0667380"/>
<trkpt lat="52.4217354" lon="6.0658272"/>
<trkpt lat="52.4240649" lon="6.0666326"/>
<trkpt lat="52.4244051" lon="6.0666885"/>
<trkpt lat="52.4249874" lon="6.0668946"/>
<trkpt lat="52.4271917" lon="6.0676833"/>
<trkpt lat="52.4274097" lon="6.0663700"/>
<trkpt lat="52.4274756" lon="6.0656823"/>
<trkpt lat="52.4276179" lon="6.0647526"/>
</trkseg></trk>
<trk><name>Paddenpad - alternatieve route</name><type>alternativeRoute</type><trkseg>
<trkpt lat="52.4430271" lon="6.0737869"/>
<trkpt lat="52.4429202" lon="6.0736580"/>
<trkpt lat="52.4424124" lon="6.0735621"/>
<trkpt lat="52.4411912" lon="6.0737389"/>
<trkpt lat="52.4389518" lon="6.0741739"/>
<trkpt lat="52.4401572" lon="6.0797908"/>
<trkpt lat="52.4404327" lon="6.0817721"/>
<trkpt lat="52.4404958" lon="6.0822331"/>
</trkseg></trk>
<trk><name>Paddenpad - Alternatieve route bankje</name><type>alternativeRoute</type><trkseg>
<trkpt lat="52.4428462" lon="6.0832125"/>
<trkpt lat="52.4429969" lon="6.0833126"/>
<trkpt lat="52.4431488" lon="6.0832237"/>
<trkpt lat="52.4433555" lon="6.0832922"/>
<trkpt lat="52.4435262" lon="6.0833796"/>
<trkpt lat="52.4435699" lon="6.0834063"/>
<trkpt lat="52.4436259" lon="6.0833551"/>
</trkseg></trk>
<trk><name>Paddenpad - overstaproute</name><type>connectionRoute</type><trkseg>
<trkpt lat="52.4568100" lon="6.0781900"/>
<trkpt lat="52.4565400" lon="6.0781800"/>
<trkpt lat="52.4562200" lon="6.0782200"/>
<trkpt lat="52.4556600" lon="6.0783200"/>
<trkpt lat="52.4552800" lon="6.0784400"/>
<trkpt lat="52.4533900" lon="6.0789800"/>
<trkpt lat="52.4528700" lon="6.0790200"/>
<trkpt lat="52.4524300" lon="6.0790000"/>
<trkpt lat="52.4513800" lon="6.0787800"/>
<trkpt lat="52.4505400" lon="6.0785300"/>
<trkpt lat="52.4498700" lon="6.0781500"/>
<trkpt lat="52.4496800" lon="6.0779400"/>
<trkpt lat="52.4493500" lon="6.0777100"/>
<trkpt lat="52.4490500" lon="6.0775900"/>
<trkpt lat="52.4486200" lon="6.0775800"/>
<trkpt lat="52.4478300" lon="6.0778000"/>
<trkpt lat="52.4474800" lon="6.0778600"/>
<trkpt lat="52.4472400" lon="6.0778900"/>
<trkpt lat="52.4470700" lon="6.0778900"/>
<trkpt lat="52.4465300" lon="6.0776100"/>
<trkpt lat="52.4461800" lon="6.0773900"/>
<trkpt lat="52.4439600" lon="6.0748000"/>
<trkpt lat="52.4431400" lon="6.0738700"/>
<trkpt lat="52.4430400" lon="6.0738300"/>
</trkseg></trk>
<trk><name>Paddenpad - overstaproute</name><type>connectionRoute</type><trkseg>
<trkpt lat="52.4244200" lon="6.0666900"/>
<trkpt lat="52.4244800" lon="6.0626600"/>
<trkpt lat="52.4243100" lon="6.0626000"/>
<trkpt lat="52.4253800" lon="6.0558800"/>
<trkpt lat="52.4255700" lon="6.0547700"/>
<trkpt lat="52.4254600" lon="6.0544100"/>
<trkpt lat="52.4254700" lon="6.0506600"/>
<trkpt lat="52.4256300" lon="6.0504200"/>
<trkpt lat="52.4256200" lon="6.0488900"/>
<trkpt lat="52.4252900" lon="6.0488800"/>
</trkseg></trk>
<trk><name>Paddenpad - approachRoute</name><type>approachRoute</type><trkseg>
<trkpt lat="52.4445000" lon="6.0706600"/>
<trkpt lat="52.4445100" lon="6.0708500"/>
<trkpt lat="52.4450100" lon="6.0707300"/>
<trkpt lat="52.4450600" lon="6.0714100"/>
<trkpt lat="52.4431800" lon="6.0714900"/>
<trkpt lat="52.4431700" lon="6.0724100"/>
<trkpt lat="52.4431000" lon="6.0729300"/>
<trkpt lat="52.4430400" lon="6.0737700"/>
</trkseg></trk>
</gpx>