<?xml version="1.0" encoding="UTF-8"?>
<gpx version="1.1" creator="klompenpaden.nl via Jimbo API" xmlns="http://www.topografix.com/GPX/1/1">
<metadata><name>Pannerdensche Waardpad</name><desc>Ontdek de Pannerdensche Waard. Struinend in de Groene Rivier en wandelend via dijken en schouwpaden ziet u hoe grote landbouwpercelen en ruige natuurterreinen elkaar ontmoeten. Klompen aan, rugzak op en gaan!</desc><link href="https://www.klompenpaden.nl/klompenpaden/Pannerdensche_Waardpad/b0211d6c-3840-4931-9b9b-2b8db5a7606f"><text>klompenpaden.nl</text></link></metadata>
<wpt lat="51.8927700072439" lon="6.026525078447052"><name>Start Pannerden</name></wpt>
<trk><name>Pannerdensche Waardpad - hoofdroute</name><type>mainRoute</type><trkseg>
<trkpt lat="51.8954431" lon="6.0245201"/>
<trkpt lat="51.8958470" lon="6.0250541"/>
<trkpt lat="51.8957670" lon="6.0259741"/>
<trkpt lat="51.8959730" lon="6.0264931"/>
<trkpt lat="51.8961844" lon="6.0268808"/>
<trkpt lat="51.8965570" lon="6.0267021"/>
<trkpt lat="51.8986375" lon="6.0249152"/>
<trkpt lat="51.8980724" lon="6.0259481"/>
<trkpt lat="51.9003191" lon="6.0235893"/>
<trkpt lat="51.9024468" lon="6.0209313"/>
<trkpt lat="51.9026728" lon="6.0222603"/>
<trkpt lat="51.9028945" lon="6.0222230"/>
<trkpt lat="51.9036164" lon="6.0245669"/>
<trkpt lat="51.9042675" lon="6.0269967"/>
<trkpt lat="51.9044024" lon="6.0286981"/>
<trkpt lat="51.9044741" lon="6.0293938"/>
<trkpt lat="51.9045715" lon="6.0297501"/>
<trkpt lat="51.9046940" lon="6.0299908"/>
<trkpt lat="51.9048709" lon="6.0306889"/>
<trkpt lat="51.9049928" lon="6.0313950"/>
<trkpt lat="51.9050393" lon="6.0319334"/>
<trkpt lat="51.9049776" lon="6.0319815"/>
<trkpt lat="51.9048942" lon="6.0342219"/>
<trkpt lat="51.9048966" lon="6.0356711"/>
<trkpt lat="51.9048979" lon="6.0365531"/>
<trkpt lat="51.9051279" lon="6.0369082"/>
<trkpt lat="51.9051724" lon="6.0372288"/>
<trkpt lat="51.9057947" lon="6.0369457"/>
<trkpt lat="51.9070370" lon="6.0358098"/>
<trkpt lat="51.9082351" lon="6.0364909"/>
<trkpt lat="51.9086638" lon="6.0366340"/>
<trkpt lat="51.9093162" lon="6.0368690"/>
<trkpt lat="51.9100474" lon="6.0370427"/>
<trkpt lat="51.9105895" lon="6.0374208"/>
<trkpt lat="51.9113017" lon="6.0382279"/>
<trkpt lat="51.9112513" lon="6.0383710"/>
<trkpt lat="51.9114499" lon="6.0387583"/>
<trkpt lat="51.9118936" lon="6.0400753"/>
<trkpt lat="51.9122176" lon="6.0410981"/>
<trkpt lat="51.9125580" lon="6.0419177"/>
<trkpt lat="51.9130099" lon="6.0432469"/>
<trkpt lat="51.9130949" lon="6.0434953"/>
<trkpt lat="51.9133408" lon="6.0439040"/>
<trkpt lat="51.9137190" lon="6.0436485"/>
<trkpt lat="51.9139339" lon="6.0432352"/>
<trkpt lat="51.9142243" lon="6.0422117"/>
<trkpt lat="51.9144176" lon="6.0410737"/>
<trkpt lat="51.9145711" lon="6.0395737"/>
<trkpt lat="51.9146694" lon="6.0384457"/>
<trkpt lat="51.9147413" lon="6.0379777"/>
<trkpt lat="51.9150426" lon="6.0361281"/>
<trkpt lat="51.9151340" lon="6.0357347"/>
<trkpt lat="51.9166907" lon="6.0331087"/>
<trkpt lat="51.9156445" lon="6.0328533"/>
<trkpt lat="51.9155373" lon="6.0327103"/>
<trkpt lat="51.9153483" lon="6.0324343"/>
<trkpt lat="51.9152726" lon="6.0321687"/>
<trkpt lat="51.9151277" lon="6.0318111"/>
<trkpt lat="51.9152853" lon="6.0314637"/>
<trkpt lat="51.9155311" lon="6.0311674"/>
<trkpt lat="51.9157075" lon="6.0308710"/>
<trkpt lat="51.9158083" lon="6.0305849"/>
<trkpt lat="51.9158903" lon="6.0301966"/>
<trkpt lat="51.9160415" lon="6.0299208"/>
<trkpt lat="51.9161802" lon="6.0293690"/>
<trkpt lat="51.9165205" lon="6.0286640"/>
<trkpt lat="51.9166876" lon="6.0286742"/>
<trkpt lat="51.9171602" lon="6.0276831"/>
<trkpt lat="51.9173997" lon="6.0271722"/>
<trkpt lat="51.9174249" lon="6.0269780"/>
<trkpt lat="51.9176077" lon="6.0269985"/>
<trkpt lat="51.9179323" lon="6.0277750"/>
<trkpt lat="51.9180835" lon="6.0280203"/>
<trkpt lat="51.9183419" lon="6.0287048"/>
<trkpt lat="51.9186255" lon="6.0273561"/>
<trkpt lat="51.9189722" lon="6.0265999"/>
<trkpt lat="51.9194700" lon="6.0256395"/>
<trkpt lat="51.9202704" lon="6.0243520"/>
<trkpt lat="51.9210140" lon="6.0232995"/>
<trkpt lat="51.9212913" lon="6.0227836"/>
<trkpt lat="51.9214804" lon="6.0222317"/>
<trkpt lat="51.9215056" lon="6.0218333"/>
<trkpt lat="51.9213291" lon="6.0209443"/>
<trkpt lat="51.9210392" lon="6.0199123"/>
<trkpt lat="51.9202326" lon="6.0168061"/>
<trkpt lat="51.9202263" lon="6.0162645"/>
<trkpt lat="51.9204279" lon="6.0154777"/>
<trkpt lat="51.9206737" lon="6.0147523"/>
<trkpt lat="51.9204469" lon="6.0140677"/>
<trkpt lat="51.9199615" lon="6.0130969"/>
<trkpt lat="51.9186570" lon="6.0106956"/>
<trkpt lat="51.9173430" lon="6.0082485"/>
<trkpt lat="51.9172107" lon="6.0076252"/>
<trkpt lat="51.9169145" lon="6.0057145"/>
<trkpt lat="51.9167978" lon="6.0049840"/>
<trkpt lat="51.9169333" lon="6.0042942"/>
<trkpt lat="51.9171225" lon="6.0038344"/>
<trkpt lat="51.9173241" lon="6.0024039"/>
<trkpt lat="51.9172232" lon="6.0025162"/>
<trkpt lat="51.9171350" lon="6.0025162"/>
<trkpt lat="51.9170279" lon="6.0024039"/>
<trkpt lat="51.9169081" lon="6.0020360"/>
<trkpt lat="51.9168073" lon="6.0015865"/>
<trkpt lat="51.9163724" lon="6.0014025"/>
<trkpt lat="51.9157674" lon="6.0016170"/>
<trkpt lat="51.9155184" lon="6.0016987"/>
<trkpt lat="51.9154491" lon="6.0017090"/>
<trkpt lat="51.9153293" lon="6.0015660"/>
<trkpt lat="51.9151907" lon="6.0014535"/>
<trkpt lat="51.9148944" lon="6.0014740"/>
<trkpt lat="51.9145983" lon="6.0016375"/>
<trkpt lat="51.9141533" lon="6.0020014"/>
<trkpt lat="51.9140562" lon="5.9981867"/>
<trkpt lat="51.9153974" lon="5.9977622"/>
<trkpt lat="51.9154514" lon="5.9968572"/>
<trkpt lat="51.9146227" lon="5.9971012"/>
<trkpt lat="51.9138752" lon="5.9971902"/>
<trkpt lat="51.9136326" lon="5.9972917"/>
<trkpt lat="51.9132535" lon="5.9975089"/>
<trkpt lat="51.9129385" lon="5.9978244"/>
<trkpt lat="51.9126359" lon="5.9981900"/>
<trkpt lat="51.9125640" lon="5.9978368"/>
<trkpt lat="51.9126480" lon="5.9975954"/>
<trkpt lat="51.9129027" lon="5.9972063"/>
<trkpt lat="51.9129739" lon="5.9967185"/>
<trkpt lat="51.9129200" lon="5.9963081"/>
<trkpt lat="51.9124640" lon="5.9949231"/>
<trkpt lat="51.9121874" lon="5.9933289"/>
<trkpt lat="51.9118800" lon="5.9919531"/>
<trkpt lat="51.9118730" lon="5.9918071"/>
<trkpt lat="51.9118793" lon="5.9917231"/>
<trkpt lat="51.9117800" lon="5.9916211"/>
<trkpt lat="51.9116970" lon="5.9917471"/>
<trkpt lat="51.9107646" lon="5.9934491"/>
<trkpt lat="51.9103800" lon="5.9943581"/>
<trkpt lat="51.9103987" lon="5.9949186"/>
<trkpt lat="51.9095230" lon="5.9972331"/>
<trkpt lat="51.9085332" lon="5.9988669"/>
<trkpt lat="51.9075660" lon="6.0002911"/>
<trkpt lat="51.9068530" lon="6.0017961"/>
<trkpt lat="51.9062350" lon="6.0033781"/>
<trkpt lat="51.9058400" lon="6.0042961"/>
<trkpt lat="51.9055670" lon="6.0054991"/>
<trkpt lat="51.9054950" lon="6.0067741"/>
<trkpt lat="51.9052430" lon="6.0085871"/>
<trkpt lat="51.9047160" lon="6.0104051"/>
<trkpt lat="51.9035100" lon="6.0141491"/>
<trkpt lat="51.9029460" lon="6.0154031"/>
<trkpt lat="51.9024000" lon="6.0164531"/>
<trkpt lat="51.9021340" lon="6.0169101"/>
<trkpt lat="51.9019280" lon="6.0172261"/>
<trkpt lat="51.9012150" lon="6.0182991"/>
<trkpt lat="51.9009320" lon="6.0187331"/>
<trkpt lat="51.8988880" lon="6.0212091"/>
<trkpt lat="51.8968000" lon="6.0232731"/>
<trkpt lat="51.8954431" lon="6.0245201"/>
</trkseg></trk>
<trk><name>Pannerdensche Waardpad - alternatieve route</name><type>alternativeRoute</type><trkseg>
<trkpt lat="51.9080130" lon="6.0363284"/>
<trkpt lat="51.9105204" lon="6.0362096"/>
<trkpt lat="51.9109481" lon="6.0363389"/>
<trkpt lat="51.9112215" lon="6.0368200"/>
<trkpt lat="51.9113160" lon="6.0377995"/>
</trkseg></trk>
<trk><name>Pannerdensche Waardpad - aanlooproute</name><type>approachRoute</type><trkseg>
<trkpt lat="51.8927700" lon="6.0265251"/>
<trkpt lat="51.8928260" lon="6.0263961"/>
<trkpt lat="51.8931603" lon="6.0263539"/>
<trkpt lat="51.8936600" lon="6.0258251"/>
<trkpt lat="51.8950270" lon="6.0247471"/>
<trkpt lat="51.8954431" lon="6.0245201"/>
</trkseg></trk>
<trk><name>Pannerdensche Waardpad - aanlooproute</name><type>approachRoute</type><trkseg>
<trkpt lat="51.8975981" lon="6.0444926"/>
<trkpt lat="51.8979424" lon="6.0449218"/>
<trkpt lat="51.8985911" lon="6.0447502"/>
<trkpt lat="51.9002871" lon="6.0442602"/>
<trkpt lat="51.9009781" lon="6.0450891"/>
<trkpt lat="51.9010672" lon="6.0450962"/>
<trkpt lat="51.9014264" lon="6.0446865"/>
<trkpt lat="51.9019577" lon="6.0439140"/>
<trkpt lat="51.9024517" lon="6.0431211"/>
<trkpt lat="51.9024989" lon="6.0429776"/>
<trkpt lat="51.9024140" lon="6.0428553"/>
<trkpt lat="51.9024595" lon="6.0423715"/>
<trkpt lat="51.9029507" lon="6.0419116"/>
<trkpt lat="51.9033421" lon="6.0413938"/>
<trkpt lat="51.9036007" lon="6.0409292"/>
<trkpt lat="51.9039682" lon="6.0404904"/>
<trkpt lat="51.9042187" lon="6.0403499"/>
<trkpt lat="51.9045201" lon="6.0400370"/>
<trkpt lat="51.9049020" lon="6.0393621"/>
<trkpt lat="51.9048537" lon="6.0390615"/>
<trkpt lat="51.9048863" lon="6.0389812"/>
<trkpt lat="51.9051054" lon="6.0388002"/>
<trkpt lat="51.9054715" lon="6.0383091"/>
<trkpt lat="51.9055898" lon="6.0382070"/>
<trkpt lat="51.9055905" lon="6.0380802"/>
<trkpt lat="51.9054670" lon="6.0378189"/>
<trkpt lat="51.9053544" lon="6.0377675"/>
<trkpt lat="51.9052680" lon="6.0376833"/>
<trkpt lat="51.9051836" lon="6.0374745"/>
<trkpt lat="51.9051772" lon="6.0373302"/>
<trkpt lat="51.9051881" lon="6.0372218"/>
</trkseg></trk>
</gpx>