<?xml version="1.0" encoding="UTF-8"?>
<gpx version="1.1" creator="klompenpaden.nl via Jimbo API" xmlns="http://www.topografix.com/GPX/1/1">
<metadata><name>Paradijspad</name><desc>Ontdek het mooie buitengebied van Barneveld. Wandelen door het agrarische gebied, over landgoederen, langs boerenerven en beken. Rust, kleinschaligheid en de combinatie van cultuur en
natuur bepalen hier de sfeer. Klompen aan, rugzak op en gaan!</desc><link href="https://www.klompenpaden.nl/klompenpaden/Paradijspad/c1ec979b-433f-4d7d-8a2d-d5e489420037"><text>klompenpaden.nl</text></link></metadata>
<wpt lat="52.13413671921777" lon="5.5420982837677"><name>Start Barneveld</name></wpt>
<trk><name>Paradijspad - Hoofdroute</name><type>mainRoute</type><trkseg>
<trkpt lat="52.1473101" lon="5.5300112"/>
<trkpt lat="52.1473102" lon="5.5300086"/>
</trkseg></trk>
<trk><name>Paradijspad - Hoofdroute</name><type>mainRoute</type><trkseg>
<trkpt lat="52.1473102" lon="5.5300086"/>
<trkpt lat="52.1470106" lon="5.5299960"/>
<trkpt lat="52.1453554" lon="5.5300255"/>
<trkpt lat="52.1433506" lon="5.5301235"/>
<trkpt lat="52.1413458" lon="5.5301982"/>
<trkpt lat="52.1394052" lon="5.5302847"/>
<trkpt lat="52.1377500" lon="5.5303374"/>
<trkpt lat="52.1373362" lon="5.5303477"/>
<trkpt lat="52.1372861" lon="5.5304750"/>
<trkpt lat="52.1366812" lon="5.5349832"/>
<trkpt lat="52.1376159" lon="5.5349515"/>
<trkpt lat="52.1376657" lon="5.5350096"/>
<trkpt lat="52.1373491" lon="5.5371419"/>
<trkpt lat="52.1372841" lon="5.5377678"/>
<trkpt lat="52.1366204" lon="5.5379510"/>
<trkpt lat="52.1367679" lon="5.5397370"/>
<trkpt lat="52.1361043" lon="5.5398275"/>
<trkpt lat="52.1363592" lon="5.5413355"/>
<trkpt lat="52.1341326" lon="5.5418843"/>
</trkseg></trk>
<trk><name>Paradijspad - Hoofdroute</name><type>mainRoute</type><trkseg>
<trkpt lat="52.1473102" lon="5.5300086"/>
<trkpt lat="52.1473461" lon="5.5298000"/>
<trkpt lat="52.1487373" lon="5.5298276"/>
<trkpt lat="52.1489166" lon="5.5290512"/>
<trkpt lat="52.1490237" lon="5.5289356"/>
<trkpt lat="52.1490815" lon="5.5283443"/>
<trkpt lat="52.1495019" lon="5.5288095"/>
<trkpt lat="52.1494156" lon="5.5293195"/>
<trkpt lat="52.1493795" lon="5.5296789"/>
<trkpt lat="52.1494786" lon="5.5303171"/>
<trkpt lat="52.1494427" lon="5.5305257"/>
<trkpt lat="52.1494068" lon="5.5307459"/>
<trkpt lat="52.1494136" lon="5.5309779"/>
<trkpt lat="52.1493272" lon="5.5316039"/>
<trkpt lat="52.1492623" lon="5.5322067"/>
<trkpt lat="52.1489495" lon="5.5321033"/>
</trkseg></trk>
<trk><name>Paradijspad - Hoofdroute</name><type>mainRoute</type><trkseg>
<trkpt lat="52.1489495" lon="5.5321033"/>
<trkpt lat="52.1489483" lon="5.5321027"/>
</trkseg></trk>
<trk><name>Paradijspad - Hoofdroute</name><type>mainRoute</type><trkseg>
<trkpt lat="52.1490019" lon="5.5406430"/>
<trkpt lat="52.1489806" lon="5.5405790"/>
<trkpt lat="52.1488099" lon="5.5401841"/>
<trkpt lat="52.1486244" lon="5.5402182"/>
<trkpt lat="52.1483389" lon="5.5402520"/>
<trkpt lat="52.1478825" lon="5.5401693"/>
<trkpt lat="52.1475329" lon="5.5401333"/>
<trkpt lat="52.1473550" lon="5.5397848"/>
<trkpt lat="52.1469918" lon="5.5393429"/>
<trkpt lat="52.1465062" lon="5.5397007"/>
<trkpt lat="52.1461919" lon="5.5399664"/>
<trkpt lat="52.1460878" lon="5.5400593"/>
<trkpt lat="52.1460912" lon="5.5401550"/>
<trkpt lat="52.1460223" lon="5.5401702"/>
<trkpt lat="52.1460544" lon="5.5406535"/>
<trkpt lat="52.1460126" lon="5.5407548"/>
<trkpt lat="52.1454123" lon="5.5406174"/>
<trkpt lat="52.1455870" lon="5.5388047"/>
<trkpt lat="52.1453666" lon="5.5382125"/>
<trkpt lat="52.1449185" lon="5.5371905"/>
<trkpt lat="52.1446628" lon="5.5362852"/>
<trkpt lat="52.1449557" lon="5.5359151"/>
<trkpt lat="52.1460273" lon="5.5347590"/>
<trkpt lat="52.1461629" lon="5.5347711"/>
<trkpt lat="52.1463697" lon="5.5348413"/>
<trkpt lat="52.1464960" lon="5.5346921"/>
<trkpt lat="52.1465940" lon="5.5347051"/>
<trkpt lat="52.1469350" lon="5.5349301"/>
<trkpt lat="52.1470180" lon="5.5350011"/>
<trkpt lat="52.1472520" lon="5.5351711"/>
<trkpt lat="52.1472840" lon="5.5350491"/>
<trkpt lat="52.1473120" lon="5.5349091"/>
<trkpt lat="52.1473605" lon="5.5347938"/>
<trkpt lat="52.1476550" lon="5.5349761"/>
<trkpt lat="52.1482026" lon="5.5352873"/>
<trkpt lat="52.1482340" lon="5.5352731"/>
<trkpt lat="52.1483380" lon="5.5350401"/>
<trkpt lat="52.1484000" lon="5.5347761"/>
<trkpt lat="52.1484750" lon="5.5343671"/>
<trkpt lat="52.1485230" lon="5.5342491"/>
<trkpt lat="52.1485720" lon="5.5339811"/>
<trkpt lat="52.1486340" lon="5.5337251"/>
<trkpt lat="52.1487310" lon="5.5333401"/>
<trkpt lat="52.1488050" lon="5.5329141"/>
<trkpt lat="52.1488270" lon="5.5324891"/>
<trkpt lat="52.1489495" lon="5.5321033"/>
</trkseg></trk>
<trk><name>Paradijspad - Hoofdroute</name><type>mainRoute</type><trkseg>
<trkpt lat="52.1490019" lon="5.5406430"/>
<trkpt lat="52.1499721" lon="5.5407100"/>
<trkpt lat="52.1511562" lon="5.5407952"/>
<trkpt lat="52.1513203" lon="5.5408422"/>
<trkpt lat="52.1518975" lon="5.5413081"/>
<trkpt lat="52.1521685" lon="5.5414134"/>
<trkpt lat="52.1525821" lon="5.5415308"/>
<trkpt lat="52.1529103" lon="5.5415087"/>
<trkpt lat="52.1534384" lon="5.5413830"/>
<trkpt lat="52.1539736" lon="5.5412805"/>
<trkpt lat="52.1542875" lon="5.5413047"/>
<trkpt lat="52.1551432" lon="5.5415977"/>
<trkpt lat="52.1555354" lon="5.5417150"/>
<trkpt lat="52.1556709" lon="5.5417967"/>
<trkpt lat="52.1557350" lon="5.5419013"/>
<trkpt lat="52.1557988" lon="5.5421683"/>
<trkpt lat="52.1558271" lon="5.5423308"/>
<trkpt lat="52.1559053" lon="5.5425282"/>
<trkpt lat="52.1554524" lon="5.5451364"/>
<trkpt lat="52.1551957" lon="5.5450891"/>
<trkpt lat="52.1549246" lon="5.5450533"/>
<trkpt lat="52.1548034" lon="5.5450297"/>
<trkpt lat="52.1545392" lon="5.5451563"/>
<trkpt lat="52.1539752" lon="5.5454559"/>
<trkpt lat="52.1535326" lon="5.5457095"/>
<trkpt lat="52.1533186" lon="5.5456623"/>
<trkpt lat="52.1529188" lon="5.5458697"/>
<trkpt lat="52.1526263" lon="5.5458919"/>
<trkpt lat="52.1524764" lon="5.5459145"/>
<trkpt lat="52.1522978" lon="5.5460763"/>
<trkpt lat="52.1520338" lon="5.5461101"/>
<trkpt lat="52.1517698" lon="5.5461672"/>
<trkpt lat="52.1514489" lon="5.5460848"/>
<trkpt lat="52.1511495" lon="5.5458982"/>
<trkpt lat="52.1509500" lon="5.5457119"/>
<trkpt lat="52.1508218" lon="5.5455607"/>
<trkpt lat="52.1505579" lon="5.5454554"/>
<trkpt lat="52.1503512" lon="5.5453619"/>
<trkpt lat="52.1501375" lon="5.5451176"/>
<trkpt lat="52.1498883" lon="5.5447340"/>
<trkpt lat="52.1496319" lon="5.5443851"/>
<trkpt lat="52.1495179" lon="5.5442572"/>
<trkpt lat="52.1498110" lon="5.5438755"/>
<trkpt lat="52.1496116" lon="5.5435733"/>
<trkpt lat="52.1494195" lon="5.5431899"/>
<trkpt lat="52.1493416" lon="5.5427489"/>
<trkpt lat="52.1493563" lon="5.5424242"/>
<trkpt lat="52.1494422" lon="5.5422274"/>
<trkpt lat="52.1493782" lon="5.5420416"/>
<trkpt lat="52.1492146" lon="5.5416583"/>
<trkpt lat="52.1491794" lon="5.5413335"/>
<trkpt lat="52.1491940" lon="5.5410320"/>
<trkpt lat="52.1491156" lon="5.5409853"/>
<trkpt lat="52.1490019" lon="5.5406430"/>
</trkseg></trk>
<trk><name>Paradijspad - overstaproute</name><type>connectionRoute</type><trkseg>
<trkpt lat="52.1670810" lon="5.5187308"/>
<trkpt lat="52.1668253" lon="5.5188360"/>
<trkpt lat="52.1653082" lon="5.5195042"/>
<trkpt lat="52.1645099" lon="5.5198181"/>
<trkpt lat="52.1641750" lon="5.5199499"/>
<trkpt lat="52.1638829" lon="5.5201205"/>
<trkpt lat="52.1636460" lon="5.5205068"/>
<trkpt lat="52.1635468" lon="5.5215489"/>
<trkpt lat="52.1635192" lon="5.5221687"/>
<trkpt lat="52.1634200" lon="5.5224741"/>
<trkpt lat="52.1632768" lon="5.5225999"/>
<trkpt lat="52.1619653" lon="5.5226538"/>
<trkpt lat="52.1617228" lon="5.5224292"/>
<trkpt lat="52.1613520" lon="5.5213768"/>
<trkpt lat="52.1605711" lon="5.5190156"/>
<trkpt lat="52.1605160" lon="5.5188360"/>
<trkpt lat="52.1604058" lon="5.5189976"/>
<trkpt lat="52.1604003" lon="5.5193210"/>
<trkpt lat="52.1605733" lon="5.5199536"/>
<trkpt lat="52.1608797" lon="5.5207314"/>
<trkpt lat="52.1613018" lon="5.5220904"/>
<trkpt lat="52.1614142" lon="5.5224831"/>
<trkpt lat="52.1615795" lon="5.5228874"/>
<trkpt lat="52.1617724" lon="5.5230940"/>
<trkpt lat="52.1622133" lon="5.5231389"/>
<trkpt lat="52.1623014" lon="5.5233455"/>
<trkpt lat="52.1624075" lon="5.5272198"/>
<trkpt lat="52.1624758" lon="5.5297019"/>
<trkpt lat="52.1624788" lon="5.5305052"/>
<trkpt lat="52.1624526" lon="5.5336295"/>
<trkpt lat="52.1624036" lon="5.5386352"/>
<trkpt lat="52.1624006" lon="5.5388774"/>
<trkpt lat="52.1623124" lon="5.5389223"/>
<trkpt lat="52.1611505" lon="5.5384016"/>
<trkpt lat="52.1599664" lon="5.5379038"/>
<trkpt lat="52.1594028" lon="5.5378713"/>
<trkpt lat="52.1591107" lon="5.5383653"/>
<trkpt lat="52.1587139" lon="5.5408357"/>
<trkpt lat="52.1584108" lon="5.5419137"/>
<trkpt lat="52.1580361" lon="5.5420844"/>
<trkpt lat="52.1570827" lon="5.5420754"/>
<trkpt lat="52.1567685" lon="5.5423359"/>
<trkpt lat="52.1566914" lon="5.5425964"/>
<trkpt lat="52.1558920" lon="5.5424197"/>
</trkseg></trk>
</gpx>