<?xml version="1.0" encoding="UTF-8"?>
<gpx version="1.1" creator="klompenpaden.nl via Jimbo API" xmlns="http://www.topografix.com/GPX/1/1">
<metadata><name>Pelserpad</name><desc>Ontdek het mooie buitengebied van Ermelo rond de buurtschappen Horst en Telgt. Rust, kleinschaligheid en een combinatie van natuur en cultuur bepalen hier de sfeer. Klompen aan, rugzak op en gaan!</desc><link href="https://www.klompenpaden.nl/klompenpaden/Pelserpad/08a70009-8849-418b-b967-bf2a78164479"><text>klompenpaden.nl</text></link></metadata>
<wpt lat="52.30080308935829" lon="5.6136488914489755"><name>Start Ermelo</name></wpt>
<trk><name>Pelserpad - Hoofdroute</name><type>mainRoute</type><trkseg>
<trkpt lat="52.2821395" lon="5.5768015"/>
<trkpt lat="52.2828497" lon="5.5784661"/>
<trkpt lat="52.2834564" lon="5.5799385"/>
<trkpt lat="52.2836598" lon="5.5820216"/>
<trkpt lat="52.2837914" lon="5.5829644"/>
<trkpt lat="52.2850348" lon="5.5828658"/>
<trkpt lat="52.2858552" lon="5.5827505"/>
<trkpt lat="52.2863375" lon="5.5821973"/>
<trkpt lat="52.2872929" lon="5.5811313"/>
<trkpt lat="52.2877054" lon="5.5820025"/>
<trkpt lat="52.2879486" lon="5.5828524"/>
<trkpt lat="52.2879469" lon="5.5839161"/>
<trkpt lat="52.2878242" lon="5.5859918"/>
<trkpt lat="52.2876014" lon="5.5879544"/>
<trkpt lat="52.2872671" lon="5.5898669"/>
<trkpt lat="52.2871732" lon="5.5905179"/>
<trkpt lat="52.2869351" lon="5.5920873"/>
<trkpt lat="52.2867540" lon="5.5931034"/>
<trkpt lat="52.2876302" lon="5.5935077"/>
<trkpt lat="52.2886317" lon="5.5938400"/>
<trkpt lat="52.2894348" lon="5.5937745"/>
<trkpt lat="52.2901935" lon="5.5939805"/>
<trkpt lat="52.2904090" lon="5.5923127"/>
<trkpt lat="52.2906359" lon="5.5917491"/>
<trkpt lat="52.2907365" lon="5.5916200"/>
<trkpt lat="52.2925665" lon="5.5923425"/>
<trkpt lat="52.2927288" lon="5.5915672"/>
<trkpt lat="52.2927720" lon="5.5913579"/>
<trkpt lat="52.2928153" lon="5.5910556"/>
<trkpt lat="52.2928300" lon="5.5908114"/>
<trkpt lat="52.2928377" lon="5.5904973"/>
<trkpt lat="52.2929586" lon="5.5905241"/>
<trkpt lat="52.2930416" lon="5.5904691"/>
<trkpt lat="52.2931216" lon="5.5903811"/>
<trkpt lat="52.2932216" lon="5.5904041"/>
<trkpt lat="52.2933136" lon="5.5904391"/>
<trkpt lat="52.2934086" lon="5.5904511"/>
<trkpt lat="52.2935016" lon="5.5904661"/>
<trkpt lat="52.2935816" lon="5.5905351"/>
<trkpt lat="52.2937221" lon="5.5905828"/>
<trkpt lat="52.2937004" lon="5.5907456"/>
<trkpt lat="52.2936900" lon="5.5908469"/>
<trkpt lat="52.2933524" lon="5.5951452"/>
<trkpt lat="52.2934596" lon="5.5973130"/>
<trkpt lat="52.2943052" lon="5.5975450"/>
<trkpt lat="52.2948613" lon="5.5974606"/>
<trkpt lat="52.2950751" lon="5.5962221"/>
<trkpt lat="52.2952690" lon="5.5955522"/>
<trkpt lat="52.2957026" lon="5.5942037"/>
<trkpt lat="52.2959348" lon="5.5936790"/>
<trkpt lat="52.2960866" lon="5.5933897"/>
<trkpt lat="52.2962496" lon="5.5931137"/>
<trkpt lat="52.2964840" lon="5.5929280"/>
<trkpt lat="52.2967474" lon="5.5926349"/>
<trkpt lat="52.2968077" lon="5.5921733"/>
<trkpt lat="52.2979571" lon="5.5923512"/>
<trkpt lat="52.2978667" lon="5.5932731"/>
<trkpt lat="52.2984265" lon="5.5935194"/>
<trkpt lat="52.2994101" lon="5.5937331"/>
<trkpt lat="52.2999477" lon="5.5938814"/>
<trkpt lat="52.3002350" lon="5.5939893"/>
<trkpt lat="52.3002136" lon="5.5949762"/>
<trkpt lat="52.3001853" lon="5.5957506"/>
<trkpt lat="52.3005163" lon="5.5957872"/>
<trkpt lat="52.3009192" lon="5.5952071"/>
<trkpt lat="52.3031368" lon="5.5959325"/>
<trkpt lat="52.3031149" lon="5.5962350"/>
<trkpt lat="52.3032861" lon="5.5962707"/>
<trkpt lat="52.3037138" lon="5.5964240"/>
<trkpt lat="52.3043908" lon="5.5968229"/>
<trkpt lat="52.3050251" lon="5.5971983"/>
<trkpt lat="52.3053728" lon="5.5972506"/>
<trkpt lat="52.3055813" lon="5.5973522"/>
<trkpt lat="52.3065833" lon="5.5977211"/>
<trkpt lat="52.3079217" lon="5.5983113"/>
<trkpt lat="52.3080346" lon="5.5986171"/>
<trkpt lat="52.3116016" lon="5.5981481"/>
<trkpt lat="52.3117656" lon="5.5983051"/>
<trkpt lat="52.3129216" lon="5.5982151"/>
<trkpt lat="52.3130316" lon="5.5979741"/>
<trkpt lat="52.3133146" lon="5.5978481"/>
<trkpt lat="52.3134416" lon="5.5980661"/>
<trkpt lat="52.3134016" lon="5.5982691"/>
<trkpt lat="52.3134616" lon="5.5985581"/>
<trkpt lat="52.3136416" lon="5.5988911"/>
<trkpt lat="52.3138216" lon="5.5987701"/>
<trkpt lat="52.3138116" lon="5.5983021"/>
<trkpt lat="52.3140656" lon="5.5978171"/>
<trkpt lat="52.3144578" lon="5.5964634"/>
<trkpt lat="52.3142446" lon="5.5962246"/>
<trkpt lat="52.3138572" lon="5.5959733"/>
<trkpt lat="52.3136144" lon="5.5958911"/>
<trkpt lat="52.3132986" lon="5.5956451"/>
<trkpt lat="52.3128416" lon="5.5950361"/>
<trkpt lat="52.3125476" lon="5.5949391"/>
<trkpt lat="52.3116666" lon="5.5942501"/>
<trkpt lat="52.3104237" lon="5.5929234"/>
<trkpt lat="52.3111988" lon="5.5915358"/>
<trkpt lat="52.3124012" lon="5.5892832"/>
<trkpt lat="52.3128449" lon="5.5884937"/>
<trkpt lat="52.3138397" lon="5.5865892"/>
<trkpt lat="52.3148535" lon="5.5861165"/>
<trkpt lat="52.3153461" lon="5.5858976"/>
<trkpt lat="52.3153324" lon="5.5855599"/>
<trkpt lat="52.3151342" lon="5.5846511"/>
<trkpt lat="52.3147234" lon="5.5828566"/>
<trkpt lat="52.3142705" lon="5.5806546"/>
<trkpt lat="52.3141787" lon="5.5800489"/>
<trkpt lat="52.3141365" lon="5.5797112"/>
<trkpt lat="52.3141443" lon="5.5792922"/>
<trkpt lat="52.3141095" lon="5.5787682"/>
<trkpt lat="52.3140675" lon="5.5782326"/>
<trkpt lat="52.3139265" lon="5.5772309"/>
<trkpt lat="52.3138133" lon="5.5766368"/>
<trkpt lat="52.3134794" lon="5.5757623"/>
<trkpt lat="52.3130606" lon="5.5744103"/>
<trkpt lat="52.3125284" lon="5.5725922"/>
<trkpt lat="52.3121951" lon="5.5713687"/>
<trkpt lat="52.3115887" lon="5.5713778"/>
<trkpt lat="52.3114104" lon="5.5712839"/>
<trkpt lat="52.3104966" lon="5.5717224"/>
<trkpt lat="52.3074438" lon="5.5731426"/>
<trkpt lat="52.3073503" lon="5.5724570"/>
<trkpt lat="52.3059706" lon="5.5731177"/>
<trkpt lat="52.3041442" lon="5.5740590"/>
<trkpt lat="52.3040349" lon="5.5750697"/>
<trkpt lat="52.3040009" lon="5.5753441"/>
<trkpt lat="52.3036423" lon="5.5754616"/>
<trkpt lat="52.3034210" lon="5.5755304"/>
<trkpt lat="52.3028885" lon="5.5757002"/>
<trkpt lat="52.3026251" lon="5.5758005"/>
<trkpt lat="52.3024304" lon="5.5758196"/>
<trkpt lat="52.3020793" lon="5.5758390"/>
<trkpt lat="52.3020181" lon="5.5758397"/>
<trkpt lat="52.3019526" lon="5.5766152"/>
<trkpt lat="52.3019406" lon="5.5767238"/>
<trkpt lat="52.3018476" lon="5.5768041"/>
<trkpt lat="52.3018476" lon="5.5772641"/>
<trkpt lat="52.3014116" lon="5.5774711"/>
<trkpt lat="52.3012716" lon="5.5776371"/>
<trkpt lat="52.3012540" lon="5.5777950"/>
<trkpt lat="52.3011756" lon="5.5778571"/>
<trkpt lat="52.3011455" lon="5.5779715"/>
<trkpt lat="52.3008637" lon="5.5780286"/>
<trkpt lat="52.3006360" lon="5.5780647"/>
<trkpt lat="52.3006434" lon="5.5782009"/>
<trkpt lat="52.3003662" lon="5.5782608"/>
<trkpt lat="52.2998651" lon="5.5793331"/>
<trkpt lat="52.2998613" lon="5.5808586"/>
<trkpt lat="52.2994740" lon="5.5810091"/>
<trkpt lat="52.2992455" lon="5.5811011"/>
<trkpt lat="52.2991820" lon="5.5807169"/>
<trkpt lat="52.2990968" lon="5.5804489"/>
<trkpt lat="52.2989260" lon="5.5801689"/>
<trkpt lat="52.2987267" lon="5.5799236"/>
<trkpt lat="52.2983705" lon="5.5795963"/>
<trkpt lat="52.2981016" lon="5.5793471"/>
<trkpt lat="52.2978223" lon="5.5789306"/>
<trkpt lat="52.2975803" lon="5.5785805"/>
<trkpt lat="52.2972714" lon="5.5798940"/>
<trkpt lat="52.2967222" lon="5.5798335"/>
<trkpt lat="52.2966890" lon="5.5807539"/>
<trkpt lat="52.2965554" lon="5.5806944"/>
<trkpt lat="52.2965217" lon="5.5819382"/>
<trkpt lat="52.2964376" lon="5.5819642"/>
<trkpt lat="52.2964424" lon="5.5821178"/>
<trkpt lat="52.2963816" lon="5.5821191"/>
<trkpt lat="52.2959191" lon="5.5823316"/>
<trkpt lat="52.2959702" lon="5.5815755"/>
<trkpt lat="52.2960346" lon="5.5810467"/>
<trkpt lat="52.2960661" lon="5.5806324"/>
<trkpt lat="52.2960393" lon="5.5806241"/>
<trkpt lat="52.2960306" lon="5.5805694"/>
<trkpt lat="52.2958316" lon="5.5804431"/>
<trkpt lat="52.2950089" lon="5.5799835"/>
<trkpt lat="52.2947900" lon="5.5803733"/>
<trkpt lat="52.2945699" lon="5.5809436"/>
<trkpt lat="52.2943863" lon="5.5817985"/>
<trkpt lat="52.2942137" lon="5.5828307"/>
<trkpt lat="52.2941752" lon="5.5831999"/>
<trkpt lat="52.2930042" lon="5.5824816"/>
<trkpt lat="52.2928353" lon="5.5824152"/>
<trkpt lat="52.2924085" lon="5.5822037"/>
<trkpt lat="52.2922910" lon="5.5816080"/>
<trkpt lat="52.2929095" lon="5.5789886"/>
<trkpt lat="52.2928143" lon="5.5788625"/>
<trkpt lat="52.2923792" lon="5.5788141"/>
<trkpt lat="52.2919584" lon="5.5787541"/>
<trkpt lat="52.2909741" lon="5.5786219"/>
<trkpt lat="52.2899470" lon="5.5785127"/>
<trkpt lat="52.2898543" lon="5.5784658"/>
<trkpt lat="52.2897761" lon="5.5783375"/>
<trkpt lat="52.2896983" lon="5.5779183"/>
<trkpt lat="52.2895500" lon="5.5769753"/>
<trkpt lat="52.2894015" lon="5.5761254"/>
<trkpt lat="52.2893376" lon="5.5759274"/>
<trkpt lat="52.2892307" lon="5.5758688"/>
<trkpt lat="52.2891164" lon="5.5759846"/>
<trkpt lat="52.2888303" lon="5.5764488"/>
<trkpt lat="52.2886586" lon="5.5767505"/>
<trkpt lat="52.2884300" lon="5.5769008"/>
<trkpt lat="52.2880515" lon="5.5771900"/>
<trkpt lat="52.2876515" lon="5.5775024"/>
<trkpt lat="52.2870444" lon="5.5778953"/>
<trkpt lat="52.2868517" lon="5.5779759"/>
<trkpt lat="52.2864235" lon="5.5780671"/>
<trkpt lat="52.2860239" lon="5.5781352"/>
<trkpt lat="52.2855957" lon="5.5782264"/>
<trkpt lat="52.2850516" lon="5.5782711"/>
<trkpt lat="52.2851484" lon="5.5768751"/>
<trkpt lat="52.2851489" lon="5.5765610"/>
<trkpt lat="52.2852186" lon="5.5757721"/>
<trkpt lat="52.2852933" lon="5.5755380"/>
<trkpt lat="52.2838024" lon="5.5754386"/>
<trkpt lat="52.2837814" lon="5.5751593"/>
<trkpt lat="52.2825830" lon="5.5750845"/>
<trkpt lat="52.2822744" lon="5.5762463"/>
<trkpt lat="52.2821237" lon="5.5768157"/>
</trkseg></trk>
<trk><name>Pelserpad - Routeverkorter</name><type>shorteningRoute</type><trkseg>
<trkpt lat="52.2941727" lon="5.5831909"/>
<trkpt lat="52.2941494" lon="5.5836590"/>
<trkpt lat="52.2941240" lon="5.5843919"/>
<trkpt lat="52.2941158" lon="5.5849995"/>
<trkpt lat="52.2940541" lon="5.5860835"/>
<trkpt lat="52.2940175" lon="5.5866302"/>
<trkpt lat="52.2942458" lon="5.5866545"/>
<trkpt lat="52.2940084" lon="5.5878402"/>
<trkpt lat="52.2939217" lon="5.5884797"/>
<trkpt lat="52.2938422" lon="5.5890844"/>
<trkpt lat="52.2937624" lon="5.5898403"/>
<trkpt lat="52.2936898" lon="5.5905613"/>
</trkseg></trk>
<trk><name>Pelserpad - Routeverlenger lange deel</name><type>extensionRoute</type><trkseg>
<trkpt lat="52.3161179" lon="5.5921724"/>
<trkpt lat="52.3155020" lon="5.5943568"/>
<trkpt lat="52.3163578" lon="5.5949163"/>
<trkpt lat="52.3162847" lon="5.5951902"/>
<trkpt lat="52.3162604" lon="5.5954528"/>
<trkpt lat="52.3163019" lon="5.5955214"/>
<trkpt lat="52.3166102" lon="5.5957297"/>
<trkpt lat="52.3167820" lon="5.5956704"/>
<trkpt lat="52.3168676" lon="5.5957943"/>
<trkpt lat="52.3156301" lon="5.5982719"/>
<trkpt lat="52.3155227" lon="5.5984926"/>
<trkpt lat="52.3154361" lon="5.5990509"/>
<trkpt lat="52.3155922" lon="5.5995173"/>
<trkpt lat="52.3156760" lon="5.6005072"/>
<trkpt lat="52.3159233" lon="5.6018354"/>
<trkpt lat="52.3168867" lon="5.6016422"/>
<trkpt lat="52.3171077" lon="5.6017596"/>
<trkpt lat="52.3169130" lon="5.6028762"/>
<trkpt lat="52.3168416" lon="5.6029457"/>
<trkpt lat="52.3166835" lon="5.6035270"/>
<trkpt lat="52.3165763" lon="5.6036429"/>
<trkpt lat="52.3164052" lon="5.6035722"/>
<trkpt lat="52.3163250" lon="5.6036749"/>
<trkpt lat="52.3163902" lon="5.6040029"/>
<trkpt lat="52.3163178" lon="5.6045613"/>
<trkpt lat="52.3163672" lon="5.6048874"/>
<trkpt lat="52.3165451" lon="5.6051095"/>
<trkpt lat="52.3163162" lon="5.6054343"/>
<trkpt lat="52.3162873" lon="5.6056204"/>
<trkpt lat="52.3163041" lon="5.6057858"/>
<trkpt lat="52.3163937" lon="5.6059818"/>
<trkpt lat="52.3163648" lon="5.6061679"/>
<trkpt lat="52.3159417" lon="5.6073416"/>
<trkpt lat="52.3158132" lon="5.6073667"/>
<trkpt lat="52.3155635" lon="5.6073839"/>
<trkpt lat="52.3151765" lon="5.6083621"/>
<trkpt lat="52.3149830" lon="5.6088151"/>
<trkpt lat="52.3148282" lon="5.6091949"/>
<trkpt lat="52.3146890" lon="5.6095242"/>
<trkpt lat="52.3145458" lon="5.6100323"/>
<trkpt lat="52.3143866" lon="5.6103260"/>
<trkpt lat="52.3143695" lon="5.6106562"/>
<trkpt lat="52.3142760" lon="5.6109235"/>
<trkpt lat="52.3141388" lon="5.6111996"/>
<trkpt lat="52.3140396" lon="5.6115472"/>
<trkpt lat="52.3138912" lon="5.6119392"/>
<trkpt lat="52.3138145" lon="5.6120102"/>
<trkpt lat="52.3137052" lon="5.6119204"/>
<trkpt lat="52.3135084" lon="5.6118569"/>
<trkpt lat="52.3132405" lon="5.6117931"/>
<trkpt lat="52.3130323" lon="5.6119437"/>
<trkpt lat="52.3129011" lon="5.6118806"/>
<trkpt lat="52.3128744" lon="5.6115502"/>
<trkpt lat="52.3128093" lon="5.6112553"/>
<trkpt lat="52.3128214" lon="5.6106663"/>
<trkpt lat="52.3127460" lon="5.6100322"/>
<trkpt lat="52.3130309" lon="5.6098015"/>
<trkpt lat="52.3132114" lon="5.6098114"/>
<trkpt lat="52.3133771" lon="5.6089464"/>
<trkpt lat="52.3133505" lon="5.6085624"/>
<trkpt lat="52.3139607" lon="5.6088203"/>
<trkpt lat="52.3143435" lon="5.6074268"/>
<trkpt lat="52.3144587" lon="5.6068686"/>
<trkpt lat="52.3147180" lon="5.6055545"/>
<trkpt lat="52.3151479" lon="5.6045439"/>
<trkpt lat="52.3155854" lon="5.6032772"/>
<trkpt lat="52.3157517" lon="5.6020441"/>
<trkpt lat="52.3157519" lon="5.6019510"/>
<trkpt lat="52.3151244" lon="5.6017966"/>
<trkpt lat="52.3149891" lon="5.6016330"/>
<trkpt lat="52.3147554" lon="5.6006773"/>
<trkpt lat="52.3147415" lon="5.6004561"/>
<trkpt lat="52.3145137" lon="5.6002338"/>
<trkpt lat="52.3143681" lon="5.5978818"/>
<trkpt lat="52.3141511" lon="5.5977853"/>
<trkpt lat="52.3140640" lon="5.5978171"/>
</trkseg></trk>
<trk><name>Pelserpad - Routeverlenger korte deel</name><type>extensionRoute</type><trkseg>
<trkpt lat="52.3144404" lon="5.5964381"/>
<trkpt lat="52.3146084" lon="5.5958895"/>
<trkpt lat="52.3148020" lon="5.5955201"/>
<trkpt lat="52.3149273" lon="5.5952707"/>
<trkpt lat="52.3147888" lon="5.5939144"/>
<trkpt lat="52.3148449" lon="5.5937334"/>
<trkpt lat="52.3150039" lon="5.5936600"/>
<trkpt lat="52.3151409" lon="5.5931422"/>
<trkpt lat="52.3152662" lon="5.5929298"/>
<trkpt lat="52.3150401" lon="5.5924288"/>
<trkpt lat="52.3153352" lon="5.5923654"/>
<trkpt lat="52.3158071" lon="5.5918491"/>
<trkpt lat="52.3158638" lon="5.5918308"/>
<trkpt lat="52.3161529" lon="5.5920359"/>
<trkpt lat="52.3161502" lon="5.5921275"/>
<trkpt lat="52.3161180" lon="5.5921649"/>
</trkseg></trk>
<trk><name>Pelserpad - Alternatieve route</name><type>alternativeRoute</type><trkseg>
<trkpt lat="52.2960645" lon="5.5806324"/>
<trkpt lat="52.2960744" lon="5.5804812"/>
<trkpt lat="52.2965537" lon="5.5806944"/>
</trkseg></trk>
<trk><name>Pelserpad - Alternatieve route</name><type>alternativeRoute</type><trkseg>
<trkpt lat="52.2998596" lon="5.5808586"/>
<trkpt lat="52.3012207" lon="5.5804087"/>
<trkpt lat="52.3015024" lon="5.5802905"/>
<trkpt lat="52.3024379" lon="5.5798077"/>
<trkpt lat="52.3028434" lon="5.5797177"/>
<trkpt lat="52.3030406" lon="5.5796634"/>
<trkpt lat="52.3031815" lon="5.5795630"/>
<trkpt lat="52.3030863" lon="5.5792778"/>
<trkpt lat="52.3030304" lon="5.5790388"/>
<trkpt lat="52.3030520" lon="5.5787442"/>
<trkpt lat="52.3039966" lon="5.5755068"/>
<trkpt lat="52.3039993" lon="5.5753440"/>
</trkseg></trk>
<trk><name>Pelserpad - Aanlooproute</name><type>approachRoute</type><trkseg>
<trkpt lat="52.3091357" lon="5.5984721"/>
<trkpt lat="52.3090491" lon="5.5995373"/>
<trkpt lat="52.3090682" lon="5.5996888"/>
<trkpt lat="52.3090725" lon="5.5998327"/>
<trkpt lat="52.3090982" lon="5.6000607"/>
<trkpt lat="52.3078648" lon="5.6002115"/>
<trkpt lat="52.3077610" lon="5.6002345"/>
<trkpt lat="52.3076361" lon="5.6003281"/>
<trkpt lat="52.3070591" lon="5.6008268"/>
<trkpt lat="52.3069182" lon="5.6009024"/>
<trkpt lat="52.3068984" lon="5.6009238"/>
<trkpt lat="52.3067559" lon="5.6012139"/>
<trkpt lat="52.3066196" lon="5.6012247"/>
<trkpt lat="52.3048818" lon="5.6033634"/>
<trkpt lat="52.3045211" lon="5.6037837"/>
<trkpt lat="52.3043475" lon="5.6038280"/>
<trkpt lat="52.3041405" lon="5.6042942"/>
<trkpt lat="52.3040617" lon="5.6044916"/>
<trkpt lat="52.3038806" lon="5.6046705"/>
<trkpt lat="52.3037516" lon="5.6052084"/>
<trkpt lat="52.3035338" lon="5.6057999"/>
<trkpt lat="52.3035946" lon="5.6063250"/>
<trkpt lat="52.3035936" lon="5.6063972"/>
<trkpt lat="52.3033502" lon="5.6064189"/>
<trkpt lat="52.3032918" lon="5.6065200"/>
<trkpt lat="52.3032661" lon="5.6066238"/>
<trkpt lat="52.3032771" lon="5.6072196"/>
<trkpt lat="52.3032642" lon="5.6072769"/>
<trkpt lat="52.3030740" lon="5.6072677"/>
<trkpt lat="52.3028960" lon="5.6072441"/>
<trkpt lat="52.3028519" lon="5.6072700"/>
<trkpt lat="52.3028221" lon="5.6074423"/>
<trkpt lat="52.3027635" lon="5.6074755"/>
<trkpt lat="52.3025234" lon="5.6076578"/>
<trkpt lat="52.3022691" lon="5.6077631"/>
<trkpt lat="52.3021237" lon="5.6078847"/>
<trkpt lat="52.3020849" lon="5.6079476"/>
<trkpt lat="52.3020451" lon="5.6085473"/>
<trkpt lat="52.3019866" lon="5.6086874"/>
<trkpt lat="52.3018965" lon="5.6088482"/>
<trkpt lat="52.3018198" lon="5.6090016"/>
<trkpt lat="52.3016936" lon="5.6092538"/>
<trkpt lat="52.3016686" lon="5.6093892"/>
<trkpt lat="52.3017043" lon="5.6095359"/>
<trkpt lat="52.3016875" lon="5.6100707"/>
<trkpt lat="52.3016435" lon="5.6104304"/>
<trkpt lat="52.3016999" lon="5.6107798"/>
<trkpt lat="52.3017070" lon="5.6108380"/>
<trkpt lat="52.3015889" lon="5.6111786"/>
<trkpt lat="52.3016237" lon="5.6114544"/>
<trkpt lat="52.3016910" lon="5.6117514"/>
<trkpt lat="52.3017619" lon="5.6120152"/>
<trkpt lat="52.3017270" lon="5.6120924"/>
<trkpt lat="52.3016631" lon="5.6121618"/>
<trkpt lat="52.3016520" lon="5.6122812"/>
<trkpt lat="52.3015329" lon="5.6126390"/>
<trkpt lat="52.3014326" lon="5.6129249"/>
<trkpt lat="52.3012550" lon="5.6131727"/>
<trkpt lat="52.3011093" lon="5.6133811"/>
<trkpt lat="52.3010149" lon="5.6135162"/>
<trkpt lat="52.3009109" lon="5.6137750"/>
<trkpt lat="52.3008647" lon="5.6139251"/>
</trkseg></trk>
</gpx>