<?xml version="1.0" encoding="UTF-8"?>
<gpx version="1.1" creator="klompenpaden.nl via Jimbo API" xmlns="http://www.topografix.com/GPX/1/1">
<metadata><name>Percksepad</name><desc>Ontdek het prachtige noordelijke deel van Park Lingezegen. Je wandelt door verschillende landschapstypen met weidse uitzichten. Van uitgestrekte landbouwgronden en vogelbosjes waar ook reeën zich schuil houden tot rietmoeras en een oude kasteelplaats. Klompen aan, rugzak op en gaan.
</desc><link href="https://www.klompenpaden.nl/klompenpaden/Percksepad/2e677b97-36c6-4bfb-93a1-13eb2aa11925"><text>klompenpaden.nl</text></link></metadata>
<wpt lat="51.93692323549364" lon="5.839777886867524"><name>Start Park Lingezegen</name></wpt>
<trk><name>Percksepad - Hoofdroute</name><type>mainRoute</type><trkseg>
<trkpt lat="51.9372821" lon="5.8399307"/>
<trkpt lat="51.9370042" lon="5.8397940"/>
<trkpt lat="51.9369658" lon="5.8395743"/>
<trkpt lat="51.9370415" lon="5.8393788"/>
<trkpt lat="51.9375426" lon="5.8369937"/>
<trkpt lat="51.9376032" lon="5.8369077"/>
<trkpt lat="51.9376544" lon="5.8368628"/>
<trkpt lat="51.9377404" lon="5.8366303"/>
<trkpt lat="51.9377910" lon="5.8365830"/>
<trkpt lat="51.9378431" lon="5.8365892"/>
<trkpt lat="51.9378776" lon="5.8366429"/>
<trkpt lat="51.9379859" lon="5.8366884"/>
<trkpt lat="51.9380631" lon="5.8367488"/>
<trkpt lat="51.9381413" lon="5.8367524"/>
<trkpt lat="51.9381988" lon="5.8367221"/>
<trkpt lat="51.9382912" lon="5.8364766"/>
<trkpt lat="51.9383357" lon="5.8363411"/>
<trkpt lat="51.9384073" lon="5.8362659"/>
<trkpt lat="51.9384943" lon="5.8362359"/>
<trkpt lat="51.9385907" lon="5.8362688"/>
<trkpt lat="51.9386803" lon="5.8362066"/>
<trkpt lat="51.9392617" lon="5.8366785"/>
<trkpt lat="51.9398717" lon="5.8371737"/>
<trkpt lat="51.9400924" lon="5.8372856"/>
<trkpt lat="51.9408191" lon="5.8378470"/>
<trkpt lat="51.9413094" lon="5.8382258"/>
<trkpt lat="51.9412032" lon="5.8387974"/>
<trkpt lat="51.9413580" lon="5.8393530"/>
<trkpt lat="51.9413541" lon="5.8403688"/>
<trkpt lat="51.9412807" lon="5.8408933"/>
<trkpt lat="51.9420499" lon="5.8412416"/>
<trkpt lat="51.9416322" lon="5.8440829"/>
<trkpt lat="51.9403184" lon="5.8434941"/>
<trkpt lat="51.9392997" lon="5.8430376"/>
<trkpt lat="51.9388389" lon="5.8454902"/>
<trkpt lat="51.9384826" lon="5.8475456"/>
<trkpt lat="51.9382888" lon="5.8487068"/>
<trkpt lat="51.9383023" lon="5.8487888"/>
<trkpt lat="51.9381487" lon="5.8496650"/>
<trkpt lat="51.9382798" lon="5.8496605"/>
<trkpt lat="51.9394984" lon="5.8497191"/>
<trkpt lat="51.9395851" lon="5.8494239"/>
<trkpt lat="51.9405806" lon="5.8498353"/>
<trkpt lat="51.9406313" lon="5.8496804"/>
<trkpt lat="51.9408192" lon="5.8484434"/>
<trkpt lat="51.9410717" lon="5.8485536"/>
<trkpt lat="51.9411122" lon="5.8483117"/>
<trkpt lat="51.9413883" lon="5.8484467"/>
<trkpt lat="51.9429392" lon="5.8491579"/>
<trkpt lat="51.9431009" lon="5.8482198"/>
<trkpt lat="51.9432269" lon="5.8482816"/>
<trkpt lat="51.9435067" lon="5.8463355"/>
<trkpt lat="51.9442358" lon="5.8466580"/>
<trkpt lat="51.9449090" lon="5.8469815"/>
<trkpt lat="51.9448950" lon="5.8471963"/>
<trkpt lat="51.9450134" lon="5.8473159"/>
<trkpt lat="51.9446696" lon="5.8491365"/>
<trkpt lat="51.9445247" lon="5.8501590"/>
<trkpt lat="51.9445687" lon="5.8503363"/>
<trkpt lat="51.9443715" lon="5.8515171"/>
<trkpt lat="51.9442771" lon="5.8517161"/>
<trkpt lat="51.9435360" lon="5.8564793"/>
<trkpt lat="51.9433728" lon="5.8564108"/>
<trkpt lat="51.9435313" lon="5.8556226"/>
<trkpt lat="51.9423690" lon="5.8550218"/>
<trkpt lat="51.9419151" lon="5.8571740"/>
<trkpt lat="51.9407990" lon="5.8565561"/>
<trkpt lat="51.9405198" lon="5.8578007"/>
<trkpt lat="51.9404001" lon="5.8578697"/>
<trkpt lat="51.9399619" lon="5.8599101"/>
<trkpt lat="51.9422745" lon="5.8612028"/>
<trkpt lat="51.9422396" lon="5.8614650"/>
<trkpt lat="51.9424967" lon="5.8616189"/>
<trkpt lat="51.9424912" lon="5.8617333"/>
<trkpt lat="51.9425169" lon="5.8618324"/>
<trkpt lat="51.9421522" lon="5.8622334"/>
<trkpt lat="51.9420297" lon="5.8624429"/>
<trkpt lat="51.9417728" lon="5.8619482"/>
<trkpt lat="51.9417484" lon="5.8615088"/>
<trkpt lat="51.9402754" lon="5.8606166"/>
<trkpt lat="51.9400849" lon="5.8606514"/>
<trkpt lat="51.9398587" lon="5.8609779"/>
<trkpt lat="51.9395960" lon="5.8613666"/>
<trkpt lat="51.9393494" lon="5.8626027"/>
<trkpt lat="51.9392967" lon="5.8628613"/>
<trkpt lat="51.9392341" lon="5.8629090"/>
<trkpt lat="51.9391423" lon="5.8627938"/>
<trkpt lat="51.9390482" lon="5.8625556"/>
<trkpt lat="51.9390346" lon="5.8622426"/>
<trkpt lat="51.9389664" lon="5.8619617"/>
<trkpt lat="51.9388833" lon="5.8617193"/>
<trkpt lat="51.9387704" lon="5.8615410"/>
<trkpt lat="51.9385232" lon="5.8614141"/>
<trkpt lat="51.9382429" lon="5.8613381"/>
<trkpt lat="51.9382093" lon="5.8611982"/>
<trkpt lat="51.9382077" lon="5.8609347"/>
<trkpt lat="51.9381514" lon="5.8606959"/>
<trkpt lat="51.9381144" lon="5.8605120"/>
<trkpt lat="51.9380306" lon="5.8604233"/>
<trkpt lat="51.9379300" lon="5.8604529"/>
<trkpt lat="51.9378211" lon="5.8606253"/>
<trkpt lat="51.9377566" lon="5.8610265"/>
<trkpt lat="51.9376918" lon="5.8613224"/>
<trkpt lat="51.9375841" lon="5.8614025"/>
<trkpt lat="51.9375104" lon="5.8616032"/>
<trkpt lat="51.9370629" lon="5.8635877"/>
<trkpt lat="51.9364000" lon="5.8668452"/>
<trkpt lat="51.9362961" lon="5.8670110"/>
<trkpt lat="51.9360952" lon="5.8670045"/>
<trkpt lat="51.9352557" lon="5.8669614"/>
<trkpt lat="51.9351074" lon="5.8669017"/>
<trkpt lat="51.9347334" lon="5.8690184"/>
<trkpt lat="51.9350320" lon="5.8692755"/>
<trkpt lat="51.9351674" lon="5.8693289"/>
<trkpt lat="51.9353029" lon="5.8693246"/>
<trkpt lat="51.9352567" lon="5.8701522"/>
<trkpt lat="51.9352827" lon="5.8703372"/>
<trkpt lat="51.9355650" lon="5.8705516"/>
<trkpt lat="51.9365514" lon="5.8710694"/>
<trkpt lat="51.9367437" lon="5.8712009"/>
<trkpt lat="51.9367870" lon="5.8712397"/>
<trkpt lat="51.9369011" lon="5.8713175"/>
<trkpt lat="51.9371728" lon="5.8714737"/>
<trkpt lat="51.9375077" lon="5.8716242"/>
<trkpt lat="51.9378422" lon="5.8718513"/>
<trkpt lat="51.9383070" lon="5.8720798"/>
<trkpt lat="51.9387481" lon="5.8723144"/>
<trkpt lat="51.9390946" lon="5.8724970"/>
<trkpt lat="51.9395986" lon="5.8727834"/>
<trkpt lat="51.9395816" lon="5.8728708"/>
<trkpt lat="51.9394599" lon="5.8734229"/>
<trkpt lat="51.9393981" lon="5.8739011"/>
<trkpt lat="51.9393865" lon="5.8741030"/>
<trkpt lat="51.9393640" lon="5.8742916"/>
<trkpt lat="51.9393435" lon="5.8746516"/>
<trkpt lat="51.9392790" lon="5.8751341"/>
<trkpt lat="51.9392803" lon="5.8754855"/>
<trkpt lat="51.9393081" lon="5.8759822"/>
<trkpt lat="51.9391737" lon="5.8762926"/>
<trkpt lat="51.9389803" lon="5.8764662"/>
<trkpt lat="51.9388436" lon="5.8766755"/>
<trkpt lat="51.9382855" lon="5.8772232"/>
<trkpt lat="51.9380138" lon="5.8772545"/>
<trkpt lat="51.9372934" lon="5.8770751"/>
<trkpt lat="51.9359369" lon="5.8768407"/>
<trkpt lat="51.9342838" lon="5.8765344"/>
<trkpt lat="51.9341912" lon="5.8763413"/>
<trkpt lat="51.9341660" lon="5.8761375"/>
<trkpt lat="51.9343092" lon="5.8754311"/>
<trkpt lat="51.9341653" lon="5.8754030"/>
<trkpt lat="51.9333096" lon="5.8751808"/>
<trkpt lat="51.9331945" lon="5.8750911"/>
<trkpt lat="51.9329115" lon="5.8748135"/>
<trkpt lat="51.9324969" lon="5.8743958"/>
<trkpt lat="51.9324502" lon="5.8742568"/>
<trkpt lat="51.9324764" lon="5.8739997"/>
<trkpt lat="51.9335937" lon="5.8703133"/>
<trkpt lat="51.9337040" lon="5.8695123"/>
<trkpt lat="51.9335008" lon="5.8694466"/>
<trkpt lat="51.9334941" lon="5.8693762"/>
<trkpt lat="51.9324735" lon="5.8683209"/>
<trkpt lat="51.9320537" lon="5.8678932"/>
<trkpt lat="51.9319928" lon="5.8678649"/>
<trkpt lat="51.9319045" lon="5.8680693"/>
<trkpt lat="51.9311044" lon="5.8672369"/>
<trkpt lat="51.9305920" lon="5.8667487"/>
<trkpt lat="51.9309319" lon="5.8656880"/>
<trkpt lat="51.9311101" lon="5.8651321"/>
<trkpt lat="51.9318011" lon="5.8629808"/>
<trkpt lat="51.9318090" lon="5.8626732"/>
<trkpt lat="51.9325104" lon="5.8603814"/>
<trkpt lat="51.9326746" lon="5.8603212"/>
<trkpt lat="51.9335167" lon="5.8607496"/>
<trkpt lat="51.9343052" lon="5.8611653"/>
<trkpt lat="51.9346987" lon="5.8613368"/>
<trkpt lat="51.9349606" lon="5.8600671"/>
<trkpt lat="51.9361940" lon="5.8607236"/>
<trkpt lat="51.9367639" lon="5.8574946"/>
<trkpt lat="51.9372342" lon="5.8547540"/>
<trkpt lat="51.9373457" lon="5.8540892"/>
<trkpt lat="51.9372819" lon="5.8540238"/>
<trkpt lat="51.9372626" lon="5.8539531"/>
<trkpt lat="51.9372794" lon="5.8537818"/>
<trkpt lat="51.9374048" lon="5.8536483"/>
<trkpt lat="51.9375266" lon="5.8535245"/>
<trkpt lat="51.9375725" lon="5.8534169"/>
<trkpt lat="51.9375643" lon="5.8532762"/>
<trkpt lat="51.9374386" lon="5.8530075"/>
<trkpt lat="51.9373992" lon="5.8528669"/>
<trkpt lat="51.9373927" lon="5.8526852"/>
<trkpt lat="51.9377466" lon="5.8506778"/>
<trkpt lat="51.9377043" lon="5.8505194"/>
<trkpt lat="51.9377443" lon="5.8502674"/>
<trkpt lat="51.9379458" lon="5.8489448"/>
<trkpt lat="51.9379938" lon="5.8487123"/>
<trkpt lat="51.9373079" lon="5.8483604"/>
<trkpt lat="51.9367579" lon="5.8481021"/>
<trkpt lat="51.9362964" lon="5.8479956"/>
<trkpt lat="51.9362204" lon="5.8481236"/>
<trkpt lat="51.9353457" lon="5.8479952"/>
<trkpt lat="51.9351857" lon="5.8495206"/>
<trkpt lat="51.9350438" lon="5.8496342"/>
<trkpt lat="51.9343622" lon="5.8493931"/>
<trkpt lat="51.9331309" lon="5.8487804"/>
<trkpt lat="51.9331156" lon="5.8487782"/>
<trkpt lat="51.9331782" lon="5.8482607"/>
<trkpt lat="51.9332123" lon="5.8482798"/>
<trkpt lat="51.9334297" lon="5.8468825"/>
<trkpt lat="51.9333812" lon="5.8468348"/>
<trkpt lat="51.9333642" lon="5.8467761"/>
<trkpt lat="51.9333341" lon="5.8468118"/>
<trkpt lat="51.9332958" lon="5.8467508"/>
<trkpt lat="51.9332966" lon="5.8465661"/>
<trkpt lat="51.9333690" lon="5.8464038"/>
<trkpt lat="51.9341854" lon="5.8454903"/>
<trkpt lat="51.9341588" lon="5.8450053"/>
<trkpt lat="51.9350328" lon="5.8440908"/>
<trkpt lat="51.9351676" lon="5.8444088"/>
<trkpt lat="51.9354207" lon="5.8434022"/>
<trkpt lat="51.9361240" lon="5.8423475"/>
<trkpt lat="51.9364553" lon="5.8415429"/>
<trkpt lat="51.9367427" lon="5.8403366"/>
<trkpt lat="51.9368138" lon="5.8403570"/>
<trkpt lat="51.9369274" lon="5.8397425"/>
<trkpt lat="51.9370042" lon="5.8397940"/>
</trkseg></trk>
<trk><name>Percksepad - routeverkorter</name><type>shorteningRoute</type><trkseg>
<trkpt lat="51.9399730" lon="5.8598532"/>
<trkpt lat="51.9383770" lon="5.8590021"/>
<trkpt lat="51.9376152" lon="5.8585480"/>
<trkpt lat="51.9366714" lon="5.8580317"/>
</trkseg></trk>
<trk><name>Percksepad - alternatieve route</name><type>alternativeRoute</type><trkseg>
<trkpt lat="51.9341854" lon="5.8454903"/>
<trkpt lat="51.9361327" lon="5.8435523"/>
<trkpt lat="51.9368138" lon="5.8403570"/>
</trkseg></trk>
<trk><name>Percksepad - alternatieve route nat</name><type>alternativeRoute</type><trkseg>
<trkpt lat="51.9376147" lon="5.8717102"/>
<trkpt lat="51.9375665" lon="5.8719391"/>
<trkpt lat="51.9371216" lon="5.8715689"/>
<trkpt lat="51.9366919" lon="5.8713348"/>
<trkpt lat="51.9365970" lon="5.8714188"/>
<trkpt lat="51.9363423" lon="5.8720448"/>
<trkpt lat="51.9359437" lon="5.8731876"/>
<trkpt lat="51.9357850" lon="5.8734578"/>
<trkpt lat="51.9353131" lon="5.8732488"/>
<trkpt lat="51.9349724" lon="5.8731007"/>
<trkpt lat="51.9348147" lon="5.8731329"/>
<trkpt lat="51.9347299" lon="5.8733189"/>
<trkpt lat="51.9343009" lon="5.8754470"/>
</trkseg></trk>
<trk><name>Percksepad - overstaproute</name><type>connectionRoute</type><trkseg>
<trkpt lat="51.9111744" lon="5.8786282"/>
<trkpt lat="51.9114420" lon="5.8778330"/>
<trkpt lat="51.9121449" lon="5.8759272"/>
<trkpt lat="51.9122115" lon="5.8759110"/>
<trkpt lat="51.9126772" lon="5.8761688"/>
<trkpt lat="51.9131053" lon="5.8764654"/>
<trkpt lat="51.9133956" lon="5.8765576"/>
<trkpt lat="51.9137805" lon="5.8766437"/>
<trkpt lat="51.9143504" lon="5.8767282"/>
<trkpt lat="51.9148106" lon="5.8767118"/>
<trkpt lat="51.9156333" lon="5.8767273"/>
<trkpt lat="51.9161018" lon="5.8765766"/>
<trkpt lat="51.9166440" lon="5.8760596"/>
<trkpt lat="51.9171687" lon="5.8756425"/>
<trkpt lat="51.9174408" lon="5.8755453"/>
<trkpt lat="51.9181531" lon="5.8755197"/>
<trkpt lat="51.9188029" lon="5.8756158"/>
<trkpt lat="51.9193186" lon="5.8756826"/>
<trkpt lat="51.9197828" lon="5.8757377"/>
<trkpt lat="51.9205942" lon="5.8758466"/>
<trkpt lat="51.9212163" lon="5.8759869"/>
<trkpt lat="51.9217766" lon="5.8760821"/>
<trkpt lat="51.9226498" lon="5.8762307"/>
<trkpt lat="51.9233203" lon="5.8763159"/>
<trkpt lat="51.9235336" lon="5.8763182"/>
<trkpt lat="51.9239091" lon="5.8761887"/>
<trkpt lat="51.9247925" lon="5.8763653"/>
<trkpt lat="51.9249949" lon="5.8764899"/>
<trkpt lat="51.9253129" lon="5.8769663"/>
<trkpt lat="51.9260905" lon="5.8769191"/>
<trkpt lat="51.9269715" lon="5.8768620"/>
<trkpt lat="51.9273424" lon="5.8770107"/>
<trkpt lat="51.9275140" lon="5.8771016"/>
<trkpt lat="51.9275636" lon="5.8767460"/>
<trkpt lat="51.9273163" lon="5.8766598"/>
<trkpt lat="51.9263499" lon="5.8765992"/>
<trkpt lat="51.9255760" lon="5.8765741"/>
<trkpt lat="51.9253423" lon="5.8765048"/>
<trkpt lat="51.9253612" lon="5.8760877"/>
<trkpt lat="51.9253877" lon="5.8755204"/>
<trkpt lat="51.9254269" lon="5.8751926"/>
<trkpt lat="51.9256093" lon="5.8751723"/>
<trkpt lat="51.9267720" lon="5.8751905"/>
<trkpt lat="51.9276905" lon="5.8752005"/>
<trkpt lat="51.9279791" lon="5.8752759"/>
<trkpt lat="51.9280791" lon="5.8752270"/>
<trkpt lat="51.9283429" lon="5.8752408"/>
<trkpt lat="51.9287763" lon="5.8754595"/>
<trkpt lat="51.9293153" lon="5.8754670"/>
<trkpt lat="51.9293773" lon="5.8756100"/>
<trkpt lat="51.9306016" lon="5.8758659"/>
<trkpt lat="51.9311746" lon="5.8759142"/>
<trkpt lat="51.9325097" lon="5.8761006"/>
<trkpt lat="51.9327940" lon="5.8746931"/>
</trkseg></trk>
<trk><name>Percksepad - aanlooproute holt</name><type>connectionRoute</type><trkseg>
<trkpt lat="51.9376517" lon="5.8837005"/>
<trkpt lat="51.9378341" lon="5.8828242"/>
<trkpt lat="51.9383029" lon="5.8814965"/>
<trkpt lat="51.9382960" lon="5.8814916"/>
<trkpt lat="51.9383589" lon="5.8812625"/>
<trkpt lat="51.9384383" lon="5.8809056"/>
<trkpt lat="51.9385505" lon="5.8804508"/>
<trkpt lat="51.9386633" lon="5.8799882"/>
<trkpt lat="51.9387742" lon="5.8795455"/>
<trkpt lat="51.9388301" lon="5.8793099"/>
<trkpt lat="51.9388836" lon="5.8789441"/>
<trkpt lat="51.9389057" lon="5.8785900"/>
<trkpt lat="51.9389173" lon="5.8783462"/>
<trkpt lat="51.9389350" lon="5.8780981"/>
<trkpt lat="51.9389682" lon="5.8778324"/>
<trkpt lat="51.9389829" lon="5.8777611"/>
<trkpt lat="51.9389727" lon="5.8776069"/>
<trkpt lat="51.9389546" lon="5.8771026"/>
<trkpt lat="51.9388436" lon="5.8766755"/>
<trkpt lat="51.9389546" lon="5.8771026"/>
</trkseg></trk>
<trk><name>Percksepad - aanlooproute</name><type>approachRoute</type><trkseg>
<trkpt lat="51.9421882" lon="5.8938568"/>
<trkpt lat="51.9421484" lon="5.8935712"/>
<trkpt lat="51.9421260" lon="5.8933478"/>
<trkpt lat="51.9421207" lon="5.8932740"/>
<trkpt lat="51.9421393" lon="5.8930871"/>
<trkpt lat="51.9421632" lon="5.8929794"/>
<trkpt lat="51.9417956" lon="5.8931120"/>
<trkpt lat="51.9416514" lon="5.8931572"/>
<trkpt lat="51.9415288" lon="5.8930326"/>
<trkpt lat="51.9414930" lon="5.8930840"/>
<trkpt lat="51.9415114" lon="5.8932837"/>
<trkpt lat="51.9415372" lon="5.8934623"/>
<trkpt lat="51.9415078" lon="5.8934703"/>
<trkpt lat="51.9414614" lon="5.8934166"/>
<trkpt lat="51.9411911" lon="5.8931186"/>
<trkpt lat="51.9410579" lon="5.8929892"/>
<trkpt lat="51.9409217" lon="5.8928714"/>
<trkpt lat="51.9408176" lon="5.8927470"/>
<trkpt lat="51.9407104" lon="5.8925902"/>
<trkpt lat="51.9406247" lon="5.8925002"/>
<trkpt lat="51.9403762" lon="5.8922506"/>
<trkpt lat="51.9402536" lon="5.8921764"/>
<trkpt lat="51.9400169" lon="5.8919944"/>
<trkpt lat="51.9399608" lon="5.8919294"/>
<trkpt lat="51.9398138" lon="5.8916614"/>
<trkpt lat="51.9396127" lon="5.8912584"/>
<trkpt lat="51.9395224" lon="5.8910777"/>
<trkpt lat="51.9395372" lon="5.8907762"/>
<trkpt lat="51.9395204" lon="5.8905287"/>
<trkpt lat="51.9395350" lon="5.8904538"/>
<trkpt lat="51.9396527" lon="5.8903975"/>
<trkpt lat="51.9397659" lon="5.8904458"/>
<trkpt lat="51.9399104" lon="5.8905570"/>
<trkpt lat="51.9399451" lon="5.8905862"/>
<trkpt lat="51.9400227" lon="5.8905859"/>
<trkpt lat="51.9402950" lon="5.8904703"/>
<trkpt lat="51.9402394" lon="5.8900929"/>
<trkpt lat="51.9402466" lon="5.8899885"/>
<trkpt lat="51.9403166" lon="5.8897953"/>
<trkpt lat="51.9404799" lon="5.8893520"/>
<trkpt lat="51.9404688" lon="5.8892793"/>
<trkpt lat="51.9405300" lon="5.8891291"/>
<trkpt lat="51.9407052" lon="5.8886248"/>
<trkpt lat="51.9407959" lon="5.8883811"/>
<trkpt lat="51.9408120" lon="5.8882387"/>
<trkpt lat="51.9409765" lon="5.8877154"/>
<trkpt lat="51.9411677" lon="5.8871164"/>
<trkpt lat="51.9408734" lon="5.8868610"/>
<trkpt lat="51.9407827" lon="5.8867575"/>
<trkpt lat="51.9407497" lon="5.8866742"/>
<trkpt lat="51.9408059" lon="5.8865102"/>
<trkpt lat="51.9408211" lon="5.8864493"/>
<trkpt lat="51.9408483" lon="5.8864070"/>
<trkpt lat="51.9409067" lon="5.8862372"/>
<trkpt lat="51.9409047" lon="5.8861923"/>
<trkpt lat="51.9410101" lon="5.8858526"/>
<trkpt lat="51.9412495" lon="5.8851091"/>
<trkpt lat="51.9414433" lon="5.8845504"/>
<trkpt lat="51.9416161" lon="5.8839732"/>
<trkpt lat="51.9414221" lon="5.8838431"/>
<trkpt lat="51.9412092" lon="5.8836991"/>
<trkpt lat="51.9410163" lon="5.8835638"/>
<trkpt lat="51.9407881" lon="5.8834062"/>
<trkpt lat="51.9405527" lon="5.8832284"/>
<trkpt lat="51.9401311" lon="5.8829386"/>
<trkpt lat="51.9397101" lon="5.8826020"/>
<trkpt lat="51.9393389" lon="5.8822977"/>
<trkpt lat="51.9391684" lon="5.8821540"/>
<trkpt lat="51.9389509" lon="5.8819740"/>
<trkpt lat="51.9387205" lon="5.8818620"/>
<trkpt lat="51.9384422" lon="5.8816312"/>
<trkpt lat="51.9383029" lon="5.8814965"/>
<trkpt lat="51.9382960" lon="5.8814916"/>
<trkpt lat="51.9383589" lon="5.8812625"/>
<trkpt lat="51.9384383" lon="5.8809056"/>
<trkpt lat="51.9385505" lon="5.8804508"/>
<trkpt lat="51.9386633" lon="5.8799882"/>
<trkpt lat="51.9387742" lon="5.8795455"/>
<trkpt lat="51.9388301" lon="5.8793099"/>
<trkpt lat="51.9388836" lon="5.8789441"/>
<trkpt lat="51.9389057" lon="5.8785900"/>
<trkpt lat="51.9389173" lon="5.8783462"/>
<trkpt lat="51.9389350" lon="5.8780981"/>
<trkpt lat="51.9389682" lon="5.8778324"/>
<trkpt lat="51.9389829" lon="5.8777611"/>
<trkpt lat="51.9389727" lon="5.8776069"/>
<trkpt lat="51.9389546" lon="5.8771026"/>
<trkpt lat="51.9388436" lon="5.8766755"/>
<trkpt lat="51.9389546" lon="5.8771026"/>
</trkseg></trk>
<trk><name>Percksepad - aanlooproute</name><type>approachRoute</type><trkseg>
<trkpt lat="51.9427045" lon="5.8614182"/>
<trkpt lat="51.9444584" lon="5.8619950"/>
<trkpt lat="51.9447158" lon="5.8620034"/>
<trkpt lat="51.9449236" lon="5.8620798"/>
</trkseg></trk>
</gpx>