<?xml version="1.0" encoding="UTF-8"?>
<gpx version="1.1" creator="klompenpaden.nl via Jimbo API" xmlns="http://www.topografix.com/GPX/1/1">
<metadata><name>Plaggenstekerspad</name><desc>Ontdek het prachtige, cultuurhistorische landschap van Hoenderloo. Door weilanden, lanen, landgoederen, bos, heide en stuifzand en langs kerk, waterput en plaggenhut. Klompen aan, rugzak op en gaan!</desc><link href="https://www.klompenpaden.nl/klompenpaden/Plaggenstekerspad/92f626a0-9b9b-434f-b704-576f54ba9ba2"><text>klompenpaden.nl</text></link></metadata>
<wpt lat="52.120552013428664" lon="5.891042947769165"><name>Start Hoenderloo</name></wpt>
<trk><name>Plaggenstekerspad - Geimporteerde shapefile</name><type>mainRoute</type><trkseg>
<trkpt lat="52.1205749" lon="5.8910493"/>
<trkpt lat="52.1229836" lon="5.8894706"/>
</trkseg></trk>
<trk><name>Plaggenstekerspad - Geimporteerde shapefile</name><type>mainRoute</type><trkseg>
<trkpt lat="52.1229836" lon="5.8894706"/>
<trkpt lat="52.1225486" lon="5.8888385"/>
<trkpt lat="52.1213932" lon="5.8869655"/>
<trkpt lat="52.1205941" lon="5.8857256"/>
<trkpt lat="52.1218858" lon="5.8849267"/>
<trkpt lat="52.1228848" lon="5.8842502"/>
<trkpt lat="52.1243274" lon="5.8833756"/>
<trkpt lat="52.1242339" lon="5.8830037"/>
<trkpt lat="52.1222688" lon="5.8803547"/>
<trkpt lat="52.1213698" lon="5.8809320"/>
<trkpt lat="52.1213335" lon="5.8791539"/>
<trkpt lat="52.1203698" lon="5.8789429"/>
<trkpt lat="52.1202550" lon="5.8790962"/>
<trkpt lat="52.1201026" lon="5.8791563"/>
<trkpt lat="52.1199314" lon="5.8791545"/>
<trkpt lat="52.1197392" lon="5.8796159"/>
<trkpt lat="52.1189768" lon="5.8799475"/>
<trkpt lat="52.1186533" lon="5.8799748"/>
<trkpt lat="52.1187022" lon="5.8804581"/>
<trkpt lat="52.1187629" lon="5.8810577"/>
<trkpt lat="52.1188920" lon="5.8820172"/>
<trkpt lat="52.1189666" lon="5.8828477"/>
<trkpt lat="52.1188625" lon="5.8830004"/>
<trkpt lat="52.1187979" lon="5.8830950"/>
<trkpt lat="52.1186572" lon="5.8828117"/>
<trkpt lat="52.1179069" lon="5.8825407"/>
<trkpt lat="52.1178211" lon="5.8825861"/>
<trkpt lat="52.1168973" lon="5.8826683"/>
<trkpt lat="52.1169097" lon="5.8819731"/>
<trkpt lat="52.1166062" lon="5.8817534"/>
<trkpt lat="52.1160284" lon="5.8811599"/>
<trkpt lat="52.1160962" lon="5.8808825"/>
<trkpt lat="52.1162805" lon="5.8802203"/>
<trkpt lat="52.1163290" lon="5.8799891"/>
<trkpt lat="52.1164446" lon="5.8796350"/>
<trkpt lat="52.1164644" lon="5.8794652"/>
<trkpt lat="52.1165030" lon="5.8793266"/>
<trkpt lat="52.1166952" lon="5.8788651"/>
<trkpt lat="52.1167622" lon="5.8787577"/>
<trkpt lat="52.1163777" lon="5.8774401"/>
<trkpt lat="52.1170937" lon="5.8768144"/>
<trkpt lat="52.1175617" lon="5.8763714"/>
<trkpt lat="52.1177043" lon="5.8763730"/>
<trkpt lat="52.1177146" lon="5.8762031"/>
<trkpt lat="52.1177637" lon="5.8758328"/>
<trkpt lat="52.1178215" lon="5.8756480"/>
<trkpt lat="52.1178346" lon="5.8754188"/>
<trkpt lat="52.1178716" lon="5.8750459"/>
<trkpt lat="52.1179394" lon="5.8747376"/>
<trkpt lat="52.1179688" lon="5.8745370"/>
<trkpt lat="52.1179502" lon="5.8743443"/>
<trkpt lat="52.1179688" lon="5.8741219"/>
<trkpt lat="52.1177591" lon="5.8730689"/>
<trkpt lat="52.1179956" lon="5.8728049"/>
<trkpt lat="52.1180697" lon="5.8727323"/>
<trkpt lat="52.1181853" lon="5.8727420"/>
<trkpt lat="52.1182148" lon="5.8727030"/>
<trkpt lat="52.1184040" lon="5.8727957"/>
<trkpt lat="52.1193852" lon="5.8724664"/>
<trkpt lat="52.1197114" lon="5.8724020"/>
<trkpt lat="52.1199253" lon="5.8724391"/>
<trkpt lat="52.1201322" lon="5.8724529"/>
<trkpt lat="52.1205591" lon="5.8727242"/>
<trkpt lat="52.1206524" lon="5.8725452"/>
<trkpt lat="52.1217957" lon="5.8712479"/>
<trkpt lat="52.1222799" lon="5.8723427"/>
<trkpt lat="52.1223717" lon="5.8725813"/>
<trkpt lat="52.1223995" lon="5.8727554"/>
<trkpt lat="52.1224234" lon="5.8730107"/>
<trkpt lat="52.1225933" lon="5.8733255"/>
<trkpt lat="52.1227336" lon="5.8735229"/>
<trkpt lat="52.1230986" lon="5.8739130"/>
<trkpt lat="52.1233047" lon="5.8741414"/>
<trkpt lat="52.1233327" lon="5.8745570"/>
<trkpt lat="52.1234510" lon="5.8747080"/>
<trkpt lat="52.1235719" lon="5.8749411"/>
<trkpt lat="52.1235970" lon="5.8753094"/>
<trkpt lat="52.1235962" lon="5.8754948"/>
</trkseg></trk>
<trk><name>Plaggenstekerspad - Geimporteerde shapefile</name><type>mainRoute</type><trkseg>
<trkpt lat="52.1236017" lon="5.8755066"/>
<trkpt lat="52.1235886" lon="5.8763719"/>
<trkpt lat="52.1235478" lon="5.8770360"/>
<trkpt lat="52.1235356" lon="5.8776849"/>
<trkpt lat="52.1239391" lon="5.8790030"/>
<trkpt lat="52.1241363" lon="5.8796079"/>
<trkpt lat="52.1242396" lon="5.8799490"/>
<trkpt lat="52.1244003" lon="5.8801826"/>
<trkpt lat="52.1247422" lon="5.8803100"/>
<trkpt lat="52.1250935" lon="5.8804685"/>
<trkpt lat="52.1255952" lon="5.8810458"/>
<trkpt lat="52.1261170" lon="5.8813762"/>
<trkpt lat="52.1262215" lon="5.8814237"/>
<trkpt lat="52.1268107" lon="5.8815539"/>
<trkpt lat="52.1273430" lon="5.8816525"/>
<trkpt lat="52.1273927" lon="5.8823975"/>
<trkpt lat="52.1288115" lon="5.8820578"/>
<trkpt lat="52.1294215" lon="5.8817863"/>
</trkseg></trk>
<trk><name>Plaggenstekerspad - Geimporteerde shapefile</name><type>mainRoute</type><trkseg>
<trkpt lat="52.1294160" lon="5.8817745"/>
<trkpt lat="52.1298064" lon="5.8821551"/>
<trkpt lat="52.1299840" lon="5.8823426"/>
<trkpt lat="52.1307506" lon="5.8832018"/>
<trkpt lat="52.1306736" lon="5.8834902"/>
<trkpt lat="52.1304169" lon="5.8839611"/>
<trkpt lat="52.1301828" lon="5.8842240"/>
<trkpt lat="52.1299958" lon="5.8845147"/>
<trkpt lat="52.1297348" lon="5.8846484"/>
<trkpt lat="52.1295167" lon="5.8845826"/>
<trkpt lat="52.1292130" lon="5.8851562"/>
<trkpt lat="52.1289292" lon="5.8853863"/>
<trkpt lat="52.1285940" lon="5.8858106"/>
<trkpt lat="52.1283994" lon="5.8857830"/>
<trkpt lat="52.1282100" lon="5.8859867"/>
<trkpt lat="52.1277620" lon="5.8864205"/>
<trkpt lat="52.1274352" lon="5.8866381"/>
<trkpt lat="52.1271000" lon="5.8866400"/>
<trkpt lat="52.1276245" lon="5.8873558"/>
<trkpt lat="52.1338715" lon="5.8953160"/>
<trkpt lat="52.1334244" lon="5.8959787"/>
<trkpt lat="52.1332512" lon="5.8961821"/>
<trkpt lat="52.1328810" lon="5.8967566"/>
<trkpt lat="52.1326846" lon="5.8970158"/>
<trkpt lat="52.1323612" lon="5.8974041"/>
<trkpt lat="52.1317602" lon="5.8982373"/>
<trkpt lat="52.1312863" lon="5.8988853"/>
<trkpt lat="52.1315948" lon="5.8992809"/>
<trkpt lat="52.1318458" lon="5.8996945"/>
<trkpt lat="52.1322223" lon="5.9002963"/>
<trkpt lat="52.1324031" lon="5.9009891"/>
<trkpt lat="52.1328442" lon="5.9025811"/>
<trkpt lat="52.1318221" lon="5.9024759"/>
<trkpt lat="52.1308679" lon="5.9026329"/>
<trkpt lat="52.1301090" lon="5.9027735"/>
<trkpt lat="52.1295348" lon="5.9027109"/>
<trkpt lat="52.1296820" lon="5.9031980"/>
<trkpt lat="52.1298410" lon="5.9036292"/>
<trkpt lat="52.1299426" lon="5.9040410"/>
<trkpt lat="52.1299636" lon="5.9044893"/>
<trkpt lat="52.1300539" lon="5.9048637"/>
<trkpt lat="52.1301209" lon="5.9052939"/>
<trkpt lat="52.1301425" lon="5.9056115"/>
<trkpt lat="52.1303885" lon="5.9071452"/>
<trkpt lat="52.1305916" lon="5.9086707"/>
<trkpt lat="52.1305336" lon="5.9088864"/>
<trkpt lat="52.1300966" lon="5.9087576"/>
<trkpt lat="52.1296975" lon="5.9086602"/>
<trkpt lat="52.1296381" lon="5.9091851"/>
<trkpt lat="52.1292772" lon="5.9090572"/>
<trkpt lat="52.1289165" lon="5.9088675"/>
<trkpt lat="52.1285726" lon="5.9092035"/>
<trkpt lat="52.1284761" lon="5.9095115"/>
<trkpt lat="52.1279033" lon="5.9099685"/>
<trkpt lat="52.1276356" lon="5.9102745"/>
<trkpt lat="52.1277105" lon="5.9105535"/>
<trkpt lat="52.1280678" lon="5.9114851"/>
<trkpt lat="52.1282743" lon="5.9121058"/>
<trkpt lat="52.1283481" lon="5.9126321"/>
<trkpt lat="52.1279472" lon="5.9129365"/>
<trkpt lat="52.1276613" lon="5.9130568"/>
<trkpt lat="52.1274122" lon="5.9134557"/>
<trkpt lat="52.1270105" lon="5.9139456"/>
<trkpt lat="52.1264017" lon="5.9139384"/>
<trkpt lat="52.1261580" lon="5.9131318"/>
<trkpt lat="52.1260859" lon="5.9122346"/>
<trkpt lat="52.1259570" lon="5.9112748"/>
<trkpt lat="52.1258095" lon="5.9102222"/>
<trkpt lat="52.1258119" lon="5.9096658"/>
<trkpt lat="52.1258322" lon="5.9093879"/>
<trkpt lat="52.1257001" lon="5.9091390"/>
<trkpt lat="52.1255402" lon="5.9082551"/>
<trkpt lat="52.1254264" lon="5.9081610"/>
<trkpt lat="52.1253819" lon="5.9079607"/>
<trkpt lat="52.1253093" lon="5.9071562"/>
<trkpt lat="52.1251622" lon="5.9060109"/>
<trkpt lat="52.1250980" lon="5.9054839"/>
<trkpt lat="52.1227884" lon="5.9061248"/>
<trkpt lat="52.1211356" lon="5.9066111"/>
<trkpt lat="52.1207615" lon="5.9030236"/>
<trkpt lat="52.1206040" lon="5.9015796"/>
<trkpt lat="52.1213600" lon="5.9010215"/>
<trkpt lat="52.1221718" lon="5.9003459"/>
<trkpt lat="52.1225798" lon="5.9000376"/>
<trkpt lat="52.1229258" lon="5.8997105"/>
<trkpt lat="52.1231759" lon="5.8990643"/>
<trkpt lat="52.1236953" lon="5.8978018"/>
<trkpt lat="52.1239332" lon="5.8972366"/>
<trkpt lat="52.1244547" lon="5.8981208"/>
<trkpt lat="52.1249544" lon="5.8969519"/>
<trkpt lat="52.1252305" lon="5.8963569"/>
<trkpt lat="52.1254731" lon="5.8957833"/>
<trkpt lat="52.1255718" lon="5.8949498"/>
<trkpt lat="52.1258586" lon="5.8941289"/>
<trkpt lat="52.1238740" lon="5.8911044"/>
<trkpt lat="52.1229836" lon="5.8894706"/>
</trkseg></trk>
<trk><name>Plaggenstekerspad - Geimporteerde shapefile</name><type>mainRoute</type><trkseg>
<trkpt lat="52.1307715" lon="5.8832246"/>
<trkpt lat="52.1313646" lon="5.8838476"/>
<trkpt lat="52.1323050" lon="5.8830430"/>
<trkpt lat="52.1324471" lon="5.8829223"/>
<trkpt lat="52.1323104" lon="5.8826247"/>
<trkpt lat="52.1322955" lon="5.8822298"/>
<trkpt lat="52.1322578" lon="5.8820051"/>
<trkpt lat="52.1321320" lon="5.8817076"/>
<trkpt lat="52.1320171" lon="5.8814731"/>
<trkpt lat="52.1319408" lon="5.8812210"/>
<trkpt lat="52.1319033" lon="5.8809605"/>
<trkpt lat="52.1319320" lon="5.8807006"/>
<trkpt lat="52.1319767" lon="5.8805576"/>
<trkpt lat="52.1320433" lon="5.8804865"/>
<trkpt lat="52.1320986" lon="5.8804692"/>
<trkpt lat="52.1322253" lon="5.8805334"/>
<trkpt lat="52.1323353" lon="5.8806243"/>
<trkpt lat="52.1324012" lon="5.8807237"/>
<trkpt lat="52.1324355" lon="5.8808166"/>
<trkpt lat="52.1324776" lon="5.8809399"/>
<trkpt lat="52.1324936" lon="5.8810567"/>
<trkpt lat="52.1324650" lon="5.8813076"/>
<trkpt lat="52.1324258" lon="5.8814417"/>
<trkpt lat="52.1323809" lon="5.8816027"/>
<trkpt lat="52.1322976" lon="5.8817274"/>
<trkpt lat="52.1322142" lon="5.8818610"/>
</trkseg></trk>
<trk><name>Plaggenstekerspad - Geimporteerde shapefile</name><type>shorteningRoute</type><trkseg>
<trkpt lat="52.1239388" lon="5.8790788"/>
<trkpt lat="52.1236169" lon="5.8792878"/>
<trkpt lat="52.1233664" lon="5.8794782"/>
<trkpt lat="52.1231996" lon="5.8795536"/>
<trkpt lat="52.1227937" lon="5.8799355"/>
<trkpt lat="52.1222688" lon="5.8803547"/>
</trkseg></trk>
<trk><name>Plaggenstekerspad - Geimporteerde shapefile</name><type>approachRoute</type><trkseg>
<trkpt lat="52.1292033" lon="5.9023375"/>
<trkpt lat="52.1293098" lon="5.9024431"/>
<trkpt lat="52.1295162" lon="5.9026150"/>
<trkpt lat="52.1295396" lon="5.9026925"/>
</trkseg></trk>
</gpx>