<?xml version="1.0" encoding="UTF-8"?>
<gpx version="1.1" creator="klompenpaden.nl via Jimbo API" xmlns="http://www.topografix.com/GPX/1/1">
<metadata><name>Pleijenpad</name><desc>Ontdek het dynamische rivierenlandschap rondom Westervoort. Een landschap dat nog steeds aan veranderingen onderhevig is. Klompen aan, rugzak op en gaan!</desc><link href="https://www.klompenpaden.nl/klompenpaden/Pleijenpad/6ae379ca-5732-4213-8119-98dffef2c040"><text>klompenpaden.nl</text></link></metadata>
<wpt lat="51.96287571334423" lon="5.969090437443158"><name>Start Westervoort</name></wpt>
<trk><name>Pleijenpad - Geimporteerde shapefile</name><type>mainRoute</type><trkseg>
<trkpt lat="51.9628757" lon="5.9690904"/>
<trkpt lat="51.9625498" lon="5.9686928"/>
<trkpt lat="51.9627721" lon="5.9683295"/>
<trkpt lat="51.9630899" lon="5.9679780"/>
<trkpt lat="51.9633951" lon="5.9677432"/>
<trkpt lat="51.9635163" lon="5.9675645"/>
<trkpt lat="51.9634297" lon="5.9654290"/>
<trkpt lat="51.9634404" lon="5.9646547"/>
<trkpt lat="51.9637358" lon="5.9645610"/>
<trkpt lat="51.9639413" lon="5.9643980"/>
<trkpt lat="51.9640819" lon="5.9644369"/>
<trkpt lat="51.9641639" lon="5.9644741"/>
<trkpt lat="51.9642857" lon="5.9645433"/>
<trkpt lat="51.9644108" lon="5.9645810"/>
<trkpt lat="51.9643285" lon="5.9650051"/>
<trkpt lat="51.9645351" lon="5.9651115"/>
<trkpt lat="51.9646061" lon="5.9652162"/>
<trkpt lat="51.9647505" lon="5.9652880"/>
<trkpt lat="51.9647940" lon="5.9653563"/>
<trkpt lat="51.9649757" lon="5.9652709"/>
<trkpt lat="51.9658729" lon="5.9638255"/>
<trkpt lat="51.9665334" lon="5.9628859"/>
<trkpt lat="51.9667566" lon="5.9625271"/>
<trkpt lat="51.9669774" lon="5.9622711"/>
<trkpt lat="51.9670300" lon="5.9622951"/>
<trkpt lat="51.9671251" lon="5.9621481"/>
<trkpt lat="51.9665861" lon="5.9613149"/>
<trkpt lat="51.9660938" lon="5.9606791"/>
<trkpt lat="51.9659443" lon="5.9605280"/>
<trkpt lat="51.9656444" lon="5.9602461"/>
<trkpt lat="51.9652504" lon="5.9599138"/>
<trkpt lat="51.9641241" lon="5.9589043"/>
<trkpt lat="51.9640206" lon="5.9586252"/>
<trkpt lat="51.9639646" lon="5.9583858"/>
<trkpt lat="51.9638174" lon="5.9581401"/>
<trkpt lat="51.9636298" lon="5.9579186"/>
<trkpt lat="51.9641858" lon="5.9562155"/>
<trkpt lat="51.9646438" lon="5.9554349"/>
<trkpt lat="51.9646514" lon="5.9551592"/>
<trkpt lat="51.9645428" lon="5.9548468"/>
<trkpt lat="51.9643353" lon="5.9546663"/>
<trkpt lat="51.9643961" lon="5.9543714"/>
<trkpt lat="51.9646009" lon="5.9546224"/>
<trkpt lat="51.9650830" lon="5.9541202"/>
<trkpt lat="51.9650933" lon="5.9539737"/>
<trkpt lat="51.9645673" lon="5.9535398"/>
<trkpt lat="51.9631226" lon="5.9522896"/>
<trkpt lat="51.9616668" lon="5.9513704"/>
<trkpt lat="51.9612067" lon="5.9510954"/>
<trkpt lat="51.9602680" lon="5.9507044"/>
<trkpt lat="51.9594494" lon="5.9504467"/>
<trkpt lat="51.9582828" lon="5.9501867"/>
<trkpt lat="51.9572444" lon="5.9502049"/>
<trkpt lat="51.9562501" lon="5.9502891"/>
<trkpt lat="51.9555539" lon="5.9504393"/>
<trkpt lat="51.9547450" lon="5.9508158"/>
<trkpt lat="51.9541421" lon="5.9508527"/>
<trkpt lat="51.9534234" lon="5.9512575"/>
<trkpt lat="51.9530121" lon="5.9514643"/>
<trkpt lat="51.9522453" lon="5.9521834"/>
<trkpt lat="51.9523342" lon="5.9525947"/>
<trkpt lat="51.9520891" lon="5.9528184"/>
<trkpt lat="51.9519015" lon="5.9531113"/>
<trkpt lat="51.9517707" lon="5.9533713"/>
<trkpt lat="51.9516645" lon="5.9537296"/>
<trkpt lat="51.9516407" lon="5.9542849"/>
<trkpt lat="51.9515883" lon="5.9549148"/>
<trkpt lat="51.9514949" lon="5.9554146"/>
<trkpt lat="51.9507285" lon="5.9548554"/>
<trkpt lat="51.9503902" lon="5.9551130"/>
<trkpt lat="51.9499637" lon="5.9559666"/>
<trkpt lat="51.9496591" lon="5.9561185"/>
<trkpt lat="51.9492096" lon="5.9568525"/>
<trkpt lat="51.9487643" lon="5.9570935"/>
<trkpt lat="51.9483615" lon="5.9575530"/>
<trkpt lat="51.9484922" lon="5.9580192"/>
<trkpt lat="51.9484365" lon="5.9582369"/>
<trkpt lat="51.9478791" lon="5.9593019"/>
<trkpt lat="51.9472933" lon="5.9601701"/>
<trkpt lat="51.9465439" lon="5.9609463"/>
<trkpt lat="51.9463958" lon="5.9610237"/>
<trkpt lat="51.9461589" lon="5.9606636"/>
<trkpt lat="51.9455395" lon="5.9615101"/>
<trkpt lat="51.9453697" lon="5.9615559"/>
<trkpt lat="51.9447341" lon="5.9621769"/>
<trkpt lat="51.9445556" lon="5.9621989"/>
<trkpt lat="51.9443499" lon="5.9619546"/>
<trkpt lat="51.9439479" lon="5.9623843"/>
<trkpt lat="51.9431282" lon="5.9627971"/>
<trkpt lat="51.9429187" lon="5.9628421"/>
<trkpt lat="51.9430092" lon="5.9632949"/>
<trkpt lat="51.9431187" lon="5.9640432"/>
<trkpt lat="51.9431541" lon="5.9642275"/>
<trkpt lat="51.9432289" lon="5.9645821"/>
<trkpt lat="51.9431502" lon="5.9648620"/>
<trkpt lat="51.9426426" lon="5.9650827"/>
<trkpt lat="51.9423331" lon="5.9652986"/>
<trkpt lat="51.9421633" lon="5.9654929"/>
<trkpt lat="51.9421355" lon="5.9656557"/>
<trkpt lat="51.9421618" lon="5.9657994"/>
<trkpt lat="51.9423209" lon="5.9659526"/>
<trkpt lat="51.9423942" lon="5.9660690"/>
<trkpt lat="51.9423717" lon="5.9662308"/>
<trkpt lat="51.9423084" lon="5.9665243"/>
<trkpt lat="51.9423090" lon="5.9666896"/>
<trkpt lat="51.9424089" lon="5.9669886"/>
<trkpt lat="51.9425183" lon="5.9672826"/>
<trkpt lat="51.9424374" lon="5.9673610"/>
<trkpt lat="51.9421595" lon="5.9677841"/>
<trkpt lat="51.9419046" lon="5.9683518"/>
<trkpt lat="51.9416467" lon="5.9690476"/>
<trkpt lat="51.9410577" lon="5.9693760"/>
<trkpt lat="51.9409306" lon="5.9694623"/>
<trkpt lat="51.9409106" lon="5.9695796"/>
<trkpt lat="51.9409421" lon="5.9700588"/>
<trkpt lat="51.9408024" lon="5.9706118"/>
<trkpt lat="51.9408133" lon="5.9707503"/>
<trkpt lat="51.9410181" lon="5.9709738"/>
<trkpt lat="51.9411515" lon="5.9712845"/>
<trkpt lat="51.9411928" lon="5.9715454"/>
<trkpt lat="51.9411671" lon="5.9717953"/>
<trkpt lat="51.9410812" lon="5.9723363"/>
<trkpt lat="51.9411425" lon="5.9724576"/>
<trkpt lat="51.9413729" lon="5.9726163"/>
<trkpt lat="51.9414500" lon="5.9726559"/>
<trkpt lat="51.9415090" lon="5.9725818"/>
<trkpt lat="51.9415545" lon="5.9722024"/>
<trkpt lat="51.9415203" lon="5.9719735"/>
<trkpt lat="51.9416339" lon="5.9714067"/>
<trkpt lat="51.9418031" lon="5.9711331"/>
<trkpt lat="51.9420383" lon="5.9712925"/>
<trkpt lat="51.9419384" lon="5.9713554"/>
<trkpt lat="51.9418530" lon="5.9714261"/>
<trkpt lat="51.9417713" lon="5.9716097"/>
<trkpt lat="51.9417017" lon="5.9718510"/>
<trkpt lat="51.9420240" lon="5.9719969"/>
<trkpt lat="51.9421694" lon="5.9720127"/>
<trkpt lat="51.9422108" lon="5.9721150"/>
<trkpt lat="51.9426698" lon="5.9722985"/>
<trkpt lat="51.9426679" lon="5.9723741"/>
<trkpt lat="51.9423958" lon="5.9728072"/>
<trkpt lat="51.9425432" lon="5.9732065"/>
<trkpt lat="51.9425756" lon="5.9733745"/>
<trkpt lat="51.9424549" lon="5.9735104"/>
<trkpt lat="51.9423462" lon="5.9736547"/>
<trkpt lat="51.9423963" lon="5.9739865"/>
<trkpt lat="51.9420138" lon="5.9740403"/>
<trkpt lat="51.9416647" lon="5.9740807"/>
<trkpt lat="51.9413976" lon="5.9743682"/>
<trkpt lat="51.9413458" lon="5.9744934"/>
<trkpt lat="51.9413713" lon="5.9750682"/>
<trkpt lat="51.9414014" lon="5.9757069"/>
<trkpt lat="51.9416404" lon="5.9767214"/>
<trkpt lat="51.9417760" lon="5.9772159"/>
<trkpt lat="51.9418445" lon="5.9775659"/>
<trkpt lat="51.9419306" lon="5.9776229"/>
<trkpt lat="51.9420751" lon="5.9775669"/>
<trkpt lat="51.9421500" lon="5.9776238"/>
<trkpt lat="51.9422839" lon="5.9782080"/>
<trkpt lat="51.9424285" lon="5.9788762"/>
<trkpt lat="51.9427070" lon="5.9796259"/>
<trkpt lat="51.9428712" lon="5.9800789"/>
<trkpt lat="51.9429205" lon="5.9803189"/>
<trkpt lat="51.9429476" lon="5.9813087"/>
<trkpt lat="51.9429829" lon="5.9823744"/>
<trkpt lat="51.9430175" lon="5.9833144"/>
<trkpt lat="51.9429403" lon="5.9844364"/>
<trkpt lat="51.9437335" lon="5.9848360"/>
<trkpt lat="51.9440281" lon="5.9850932"/>
<trkpt lat="51.9442780" lon="5.9854058"/>
<trkpt lat="51.9445746" lon="5.9857469"/>
<trkpt lat="51.9448714" lon="5.9859835"/>
<trkpt lat="51.9451951" lon="5.9861870"/>
<trkpt lat="51.9455335" lon="5.9862823"/>
<trkpt lat="51.9464457" lon="5.9868663"/>
<trkpt lat="51.9465039" lon="5.9865117"/>
<trkpt lat="51.9472645" lon="5.9871858"/>
<trkpt lat="51.9481400" lon="5.9880045"/>
<trkpt lat="51.9497504" lon="5.9896824"/>
<trkpt lat="51.9498372" lon="5.9895737"/>
<trkpt lat="51.9500529" lon="5.9891742"/>
<trkpt lat="51.9502124" lon="5.9892956"/>
<trkpt lat="51.9506418" lon="5.9891850"/>
<trkpt lat="51.9508264" lon="5.9892470"/>
<trkpt lat="51.9510894" lon="5.9894263"/>
<trkpt lat="51.9511814" lon="5.9894666"/>
<trkpt lat="51.9512755" lon="5.9894234"/>
<trkpt lat="51.9513563" lon="5.9892105"/>
<trkpt lat="51.9515152" lon="5.9888611"/>
<trkpt lat="51.9517579" lon="5.9885471"/>
<trkpt lat="51.9519014" lon="5.9884740"/>
<trkpt lat="51.9520187" lon="5.9885337"/>
<trkpt lat="51.9521017" lon="5.9886289"/>
<trkpt lat="51.9523775" lon="5.9889515"/>
<trkpt lat="51.9524400" lon="5.9892015"/>
<trkpt lat="51.9524657" lon="5.9893404"/>
<trkpt lat="51.9524253" lon="5.9894970"/>
<trkpt lat="51.9521224" lon="5.9902507"/>
<trkpt lat="51.9518660" lon="5.9908885"/>
<trkpt lat="51.9516534" lon="5.9914607"/>
<trkpt lat="51.9518981" lon="5.9916997"/>
<trkpt lat="51.9521602" lon="5.9919260"/>
<trkpt lat="51.9521058" lon="5.9920686"/>
<trkpt lat="51.9520890" lon="5.9922154"/>
<trkpt lat="51.9521422" lon="5.9923248"/>
<trkpt lat="51.9522979" lon="5.9924928"/>
<trkpt lat="51.9524470" lon="5.9926582"/>
<trkpt lat="51.9522784" lon="5.9931447"/>
<trkpt lat="51.9522922" lon="5.9934971"/>
<trkpt lat="51.9527059" lon="5.9938598"/>
<trkpt lat="51.9529818" lon="5.9939961"/>
<trkpt lat="51.9531049" lon="5.9939551"/>
<trkpt lat="51.9533295" lon="5.9940685"/>
<trkpt lat="51.9536463" lon="5.9943212"/>
<trkpt lat="51.9540476" lon="5.9947434"/>
<trkpt lat="51.9545155" lon="5.9951896"/>
<trkpt lat="51.9545607" lon="5.9951070"/>
<trkpt lat="51.9547592" lon="5.9945642"/>
<trkpt lat="51.9542661" lon="5.9940981"/>
<trkpt lat="51.9543262" lon="5.9939145"/>
<trkpt lat="51.9551618" lon="5.9946742"/>
<trkpt lat="51.9556481" lon="5.9930704"/>
<trkpt lat="51.9560358" lon="5.9918675"/>
<trkpt lat="51.9568869" lon="5.9889428"/>
<trkpt lat="51.9576024" lon="5.9865017"/>
<trkpt lat="51.9560392" lon="5.9859508"/>
<trkpt lat="51.9554221" lon="5.9856931"/>
<trkpt lat="51.9553294" lon="5.9856629"/>
<trkpt lat="51.9554823" lon="5.9853490"/>
<trkpt lat="51.9557502" lon="5.9847909"/>
<trkpt lat="51.9561498" lon="5.9837883"/>
<trkpt lat="51.9566177" lon="5.9826538"/>
<trkpt lat="51.9568200" lon="5.9821504"/>
<trkpt lat="51.9562075" lon="5.9817485"/>
<trkpt lat="51.9560145" lon="5.9816677"/>
<trkpt lat="51.9560705" lon="5.9814363"/>
<trkpt lat="51.9562650" lon="5.9815302"/>
<trkpt lat="51.9562983" lon="5.9816454"/>
<trkpt lat="51.9567770" lon="5.9819596"/>
<trkpt lat="51.9567993" lon="5.9818947"/>
<trkpt lat="51.9569849" lon="5.9814051"/>
<trkpt lat="51.9570741" lon="5.9815283"/>
<trkpt lat="51.9571654" lon="5.9813162"/>
<trkpt lat="51.9576380" lon="5.9802476"/>
<trkpt lat="51.9579982" lon="5.9794135"/>
<trkpt lat="51.9583671" lon="5.9786689"/>
<trkpt lat="51.9585515" lon="5.9782455"/>
<trkpt lat="51.9588859" lon="5.9776481"/>
<trkpt lat="51.9590717" lon="5.9775479"/>
<trkpt lat="51.9592157" lon="5.9773131"/>
<trkpt lat="51.9592969" lon="5.9770420"/>
<trkpt lat="51.9597329" lon="5.9761778"/>
<trkpt lat="51.9600784" lon="5.9753097"/>
<trkpt lat="51.9604284" lon="5.9746501"/>
<trkpt lat="51.9608722" lon="5.9739576"/>
<trkpt lat="51.9608280" lon="5.9738824"/>
<trkpt lat="51.9618521" lon="5.9719899"/>
<trkpt lat="51.9621550" lon="5.9714360"/>
<trkpt lat="51.9626691" lon="5.9702868"/>
<trkpt lat="51.9628470" lon="5.9701728"/>
<trkpt lat="51.9630159" lon="5.9698390"/>
</trkseg></trk>
<trk><name>Pleijenpad - Geimporteerde shapefile</name><type>alternativeRoute</type><trkseg>
<trkpt lat="51.9640206" lon="5.9586252"/>
<trkpt lat="51.9638314" lon="5.9584014"/>
<trkpt lat="51.9636281" lon="5.9582180"/>
<trkpt lat="51.9635329" lon="5.9581312"/>
<trkpt lat="51.9631281" lon="5.9577304"/>
<trkpt lat="51.9622078" lon="5.9568888"/>
<trkpt lat="51.9611394" lon="5.9560322"/>
<trkpt lat="51.9604020" lon="5.9556096"/>
<trkpt lat="51.9596698" lon="5.9552543"/>
<trkpt lat="51.9585879" lon="5.9548806"/>
<trkpt lat="51.9578975" lon="5.9547686"/>
<trkpt lat="51.9572664" lon="5.9547012"/>
<trkpt lat="51.9564550" lon="5.9547275"/>
<trkpt lat="51.9555374" lon="5.9548498"/>
<trkpt lat="51.9549028" lon="5.9550127"/>
<trkpt lat="51.9540297" lon="5.9553436"/>
<trkpt lat="51.9534905" lon="5.9557927"/>
<trkpt lat="51.9529675" lon="5.9565412"/>
<trkpt lat="51.9521668" lon="5.9582692"/>
<trkpt lat="51.9512876" lon="5.9598537"/>
<trkpt lat="51.9501534" lon="5.9613636"/>
<trkpt lat="51.9484113" lon="5.9629654"/>
<trkpt lat="51.9471652" lon="5.9639466"/>
<trkpt lat="51.9456907" lon="5.9648251"/>
<trkpt lat="51.9446121" lon="5.9651423"/>
<trkpt lat="51.9437786" lon="5.9651993"/>
<trkpt lat="51.9426426" lon="5.9650827"/>
</trkseg></trk>
<trk><name>Pleijenpad - Geimporteerde shapefile</name><type>alternativeRoute</type><trkseg>
<trkpt lat="51.9643353" lon="5.9546663"/>
<trkpt lat="51.9634694" lon="5.9538257"/>
<trkpt lat="51.9625322" lon="5.9530562"/>
<trkpt lat="51.9615258" lon="5.9523473"/>
<trkpt lat="51.9609453" lon="5.9519900"/>
<trkpt lat="51.9603099" lon="5.9517051"/>
<trkpt lat="51.9598049" lon="5.9514872"/>
<trkpt lat="51.9597198" lon="5.9514015"/>
<trkpt lat="51.9596016" lon="5.9512577"/>
<trkpt lat="51.9595188" lon="5.9511990"/>
<trkpt lat="51.9594144" lon="5.9511592"/>
<trkpt lat="51.9590418" lon="5.9510738"/>
<trkpt lat="51.9588874" lon="5.9510603"/>
<trkpt lat="51.9587709" lon="5.9510665"/>
<trkpt lat="51.9586472" lon="5.9511111"/>
<trkpt lat="51.9584450" lon="5.9511586"/>
<trkpt lat="51.9582526" lon="5.9511485"/>
<trkpt lat="51.9579439" lon="5.9511023"/>
<trkpt lat="51.9576235" lon="5.9510329"/>
<trkpt lat="51.9574169" lon="5.9510110"/>
<trkpt lat="51.9571436" lon="5.9510153"/>
<trkpt lat="51.9564235" lon="5.9510409"/>
<trkpt lat="51.9559077" lon="5.9510882"/>
<trkpt lat="51.9556651" lon="5.9511313"/>
<trkpt lat="51.9550798" lon="5.9513047"/>
<trkpt lat="51.9542706" lon="5.9515753"/>
<trkpt lat="51.9536972" lon="5.9517411"/>
<trkpt lat="51.9535472" lon="5.9518046"/>
<trkpt lat="51.9534114" lon="5.9518875"/>
<trkpt lat="51.9529229" lon="5.9521774"/>
<trkpt lat="51.9527561" lon="5.9522830"/>
<trkpt lat="51.9525558" lon="5.9524189"/>
<trkpt lat="51.9523865" lon="5.9525514"/>
<trkpt lat="51.9523342" lon="5.9525947"/>
</trkseg></trk>
<trk><name>Pleijenpad - Geimporteerde shapefile</name><type>approachRoute</type><trkseg>
<trkpt lat="51.9482822" lon="5.9931030"/>
<trkpt lat="51.9484837" lon="5.9934837"/>
<trkpt lat="51.9485844" lon="5.9936982"/>
<trkpt lat="51.9486782" lon="5.9940773"/>
<trkpt lat="51.9488281" lon="5.9940309"/>
<trkpt lat="51.9494221" lon="5.9937677"/>
<trkpt lat="51.9494114" lon="5.9935060"/>
<trkpt lat="51.9494732" lon="5.9931290"/>
<trkpt lat="51.9488728" lon="5.9899822"/>
<trkpt lat="51.9493109" lon="5.9897847"/>
<trkpt lat="51.9496937" lon="5.9898286"/>
<trkpt lat="51.9497504" lon="5.9896824"/>
</trkseg></trk>
</gpx>