<?xml version="1.0" encoding="UTF-8"?>
<gpx version="1.1" creator="klompenpaden.nl via Jimbo API" xmlns="http://www.topografix.com/GPX/1/1">
<metadata><name>Posterpad</name><desc>Ontdek het mooie afwisselende buitengebied van Posterenk, Wilp, gelegen tussen het Fliertdal en de Twellose beek. Wandel over de mooie landgoederen Groot en Klein Noordijk, natuurgebied Bussloo, laat je verrassen door weidse vergezichten en ontdek karakteristieke landschapselementen. Klompen aan, rugzak op en gaan!</desc><link href="https://www.klompenpaden.nl/klompenpaden/Posterpad/50c0f766-4165-46fd-80e2-77d26a71339f"><text>klompenpaden.nl</text></link></metadata>
<wpt lat="52.213239150424755" lon="6.117804944515229"><name>Start Posterenk</name></wpt>
<trk><name>Posterpad - Hoofdroute</name><type>mainRoute</type><trkseg>
<trkpt lat="52.2130520" lon="6.1268842"/>
<trkpt lat="52.2130903" lon="6.1270413"/>
<trkpt lat="52.2130359" lon="6.1272679"/>
<trkpt lat="52.2128737" lon="6.1279176"/>
<trkpt lat="52.2127115" lon="6.1285244"/>
<trkpt lat="52.2126892" lon="6.1286481"/>
<trkpt lat="52.2126555" lon="6.1288597"/>
<trkpt lat="52.2125170" lon="6.1288080"/>
<trkpt lat="52.2123447" lon="6.1294359"/>
<trkpt lat="52.2122078" lon="6.1298672"/>
<trkpt lat="52.2100787" lon="6.1283608"/>
<trkpt lat="52.2088269" lon="6.1302376"/>
<trkpt lat="52.2086962" lon="6.1301289"/>
<trkpt lat="52.2083232" lon="6.1293673"/>
<trkpt lat="52.2076780" lon="6.1272585"/>
<trkpt lat="52.2069843" lon="6.1275726"/>
<trkpt lat="52.2067963" lon="6.1275955"/>
<trkpt lat="52.2066521" lon="6.1274039"/>
<trkpt lat="52.2062982" lon="6.1260008"/>
<trkpt lat="52.2061899" lon="6.1253696"/>
<trkpt lat="52.2060597" lon="6.1247385"/>
<trkpt lat="52.2059293" lon="6.1242364"/>
<trkpt lat="52.2058696" lon="6.1239890"/>
<trkpt lat="52.2057251" lon="6.1238775"/>
<trkpt lat="52.2055051" lon="6.1239844"/>
<trkpt lat="52.2052997" lon="6.1239840"/>
<trkpt lat="52.2052283" lon="6.1238703"/>
<trkpt lat="52.2051621" lon="6.1237376"/>
<trkpt lat="52.2050422" lon="6.1234655"/>
<trkpt lat="52.2049659" lon="6.1231792"/>
<trkpt lat="52.2043068" lon="6.1209495"/>
<trkpt lat="52.2040905" lon="6.1210731"/>
<trkpt lat="52.2040589" lon="6.1212716"/>
<trkpt lat="52.2037796" lon="6.1221496"/>
<trkpt lat="52.2035676" lon="6.1224920"/>
<trkpt lat="52.2032899" lon="6.1226736"/>
<trkpt lat="52.2028379" lon="6.1227633"/>
<trkpt lat="52.2024075" lon="6.1227435"/>
<trkpt lat="52.2021875" lon="6.1229168"/>
<trkpt lat="52.2018117" lon="6.1231567"/>
<trkpt lat="52.2012525" lon="6.1235692"/>
<trkpt lat="52.2011322" lon="6.1234195"/>
<trkpt lat="52.2008437" lon="6.1232514"/>
<trkpt lat="52.2005975" lon="6.1228628"/>
<trkpt lat="52.1999839" lon="6.1225330"/>
<trkpt lat="52.1999057" lon="6.1218664"/>
<trkpt lat="52.1997705" lon="6.1211736"/>
<trkpt lat="52.1995712" lon="6.1199973"/>
<trkpt lat="52.1995120" lon="6.1191672"/>
<trkpt lat="52.1996185" lon="6.1189443"/>
<trkpt lat="52.1997346" lon="6.1186306"/>
<trkpt lat="52.1997182" lon="6.1182506"/>
<trkpt lat="52.1996568" lon="6.1180124"/>
<trkpt lat="52.1993938" lon="6.1178173"/>
<trkpt lat="52.1991511" lon="6.1170303"/>
<trkpt lat="52.1990568" lon="6.1157488"/>
<trkpt lat="52.1990125" lon="6.1147631"/>
<trkpt lat="52.1992222" lon="6.1144639"/>
<trkpt lat="52.1996366" lon="6.1142599"/>
<trkpt lat="52.2004507" lon="6.1139235"/>
<trkpt lat="52.2008019" lon="6.1144478"/>
<trkpt lat="52.2006621" lon="6.1152009"/>
<trkpt lat="52.2012769" lon="6.1155486"/>
<trkpt lat="52.2015809" lon="6.1157494"/>
<trkpt lat="52.2017040" lon="6.1156820"/>
<trkpt lat="52.2020846" lon="6.1138425"/>
<trkpt lat="52.2017627" lon="6.1135755"/>
<trkpt lat="52.2017175" lon="6.1130448"/>
<trkpt lat="52.2017881" lon="6.1126075"/>
<trkpt lat="52.2019327" lon="6.1122775"/>
<trkpt lat="52.2022621" lon="6.1116719"/>
<trkpt lat="52.2029437" lon="6.1115993"/>
<trkpt lat="52.2033684" lon="6.1124243"/>
<trkpt lat="52.2037397" lon="6.1132830"/>
<trkpt lat="52.2046893" lon="6.1128163"/>
<trkpt lat="52.2049596" lon="6.1128266"/>
<trkpt lat="52.2050714" lon="6.1128538"/>
<trkpt lat="52.2057224" lon="6.1131252"/>
<trkpt lat="52.2069433" lon="6.1133131"/>
<trkpt lat="52.2077550" lon="6.1135249"/>
<trkpt lat="52.2081279" lon="6.1134922"/>
<trkpt lat="52.2085255" lon="6.1135132"/>
<trkpt lat="52.2094217" lon="6.1137668"/>
<trkpt lat="52.2098492" lon="6.1138056"/>
<trkpt lat="52.2102768" lon="6.1137252"/>
<trkpt lat="52.2112706" lon="6.1136658"/>
<trkpt lat="52.2122424" lon="6.1135706"/>
<trkpt lat="52.2128192" lon="6.1139627"/>
<trkpt lat="52.2132505" lon="6.1143808"/>
<trkpt lat="52.2133019" lon="6.1147871"/>
<trkpt lat="52.2132628" lon="6.1153721"/>
<trkpt lat="52.2132384" lon="6.1160015"/>
<trkpt lat="52.2132622" lon="6.1163641"/>
</trkseg></trk>
<trk><name>Posterpad - Hoofdroute</name><type>mainRoute</type><trkseg>
<trkpt lat="52.2132622" lon="6.1163641"/>
<trkpt lat="52.2134383" lon="6.1164135"/>
<trkpt lat="52.2136567" lon="6.1164674"/>
<trkpt lat="52.2159398" lon="6.1165340"/>
<trkpt lat="52.2166099" lon="6.1162512"/>
<trkpt lat="52.2167626" lon="6.1161381"/>
<trkpt lat="52.2171259" lon="6.1158792"/>
<trkpt lat="52.2180720" lon="6.1149519"/>
<trkpt lat="52.2187146" lon="6.1143290"/>
<trkpt lat="52.2197808" lon="6.1129318"/>
<trkpt lat="52.2198125" lon="6.1122507"/>
<trkpt lat="52.2199195" lon="6.1112862"/>
<trkpt lat="52.2202139" lon="6.1095730"/>
<trkpt lat="52.2203601" lon="6.1091942"/>
<trkpt lat="52.2204314" lon="6.1089370"/>
<trkpt lat="52.2205086" lon="6.1085974"/>
<trkpt lat="52.2205662" lon="6.1085134"/>
<trkpt lat="52.2205916" lon="6.1083141"/>
<trkpt lat="52.2206934" lon="6.1081733"/>
<trkpt lat="52.2206681" lon="6.1076399"/>
<trkpt lat="52.2206844" lon="6.1076434"/>
<trkpt lat="52.2206313" lon="6.1075505"/>
<trkpt lat="52.2207308" lon="6.1074916"/>
<trkpt lat="52.2209424" lon="6.1073547"/>
<trkpt lat="52.2210277" lon="6.1069951"/>
<trkpt lat="52.2212808" lon="6.1068731"/>
<trkpt lat="52.2209650" lon="6.1064488"/>
<trkpt lat="52.2208119" lon="6.1061578"/>
<trkpt lat="52.2203640" lon="6.1060834"/>
<trkpt lat="52.2202397" lon="6.1056531"/>
<trkpt lat="52.2200789" lon="6.1054398"/>
<trkpt lat="52.2199608" lon="6.1054273"/>
<trkpt lat="52.2194296" lon="6.1053114"/>
<trkpt lat="52.2194774" lon="6.1056415"/>
<trkpt lat="52.2187094" lon="6.1062882"/>
<trkpt lat="52.2186090" lon="6.1065850"/>
<trkpt lat="52.2181856" lon="6.1075028"/>
<trkpt lat="52.2177380" lon="6.1063462"/>
<trkpt lat="52.2182624" lon="6.1059858"/>
<trkpt lat="52.2183266" lon="6.1058819"/>
<trkpt lat="52.2183765" lon="6.1057118"/>
<trkpt lat="52.2184279" lon="6.1054350"/>
<trkpt lat="52.2185242" lon="6.1052372"/>
<trkpt lat="52.2186405" lon="6.1051544"/>
<trkpt lat="52.2187857" lon="6.1049896"/>
<trkpt lat="52.2190286" lon="6.1051606"/>
<trkpt lat="52.2194948" lon="6.1052624"/>
<trkpt lat="52.2197364" lon="6.1053026"/>
<trkpt lat="52.2198287" lon="6.1050800"/>
<trkpt lat="52.2201244" lon="6.1048669"/>
<trkpt lat="52.2203168" lon="6.1048925"/>
<trkpt lat="52.2207240" lon="6.1050922"/>
<trkpt lat="52.2210890" lon="6.1053793"/>
<trkpt lat="52.2211610" lon="6.1056219"/>
<trkpt lat="52.2212268" lon="6.1061438"/>
<trkpt lat="52.2213129" lon="6.1066490"/>
<trkpt lat="52.2214209" lon="6.1070420"/>
<trkpt lat="52.2216653" lon="6.1070667"/>
<trkpt lat="52.2220425" lon="6.1071464"/>
<trkpt lat="52.2222648" lon="6.1077916"/>
<trkpt lat="52.2222223" lon="6.1081651"/>
<trkpt lat="52.2220854" lon="6.1084025"/>
<trkpt lat="52.2221036" lon="6.1085409"/>
<trkpt lat="52.2224679" lon="6.1091117"/>
<trkpt lat="52.2226254" lon="6.1093587"/>
<trkpt lat="52.2226328" lon="6.1093706"/>
<trkpt lat="52.2231025" lon="6.1102787"/>
<trkpt lat="52.2235893" lon="6.1107945"/>
<trkpt lat="52.2244777" lon="6.1109941"/>
<trkpt lat="52.2246505" lon="6.1112039"/>
<trkpt lat="52.2255578" lon="6.1107252"/>
<trkpt lat="52.2256868" lon="6.1118246"/>
<trkpt lat="52.2252180" lon="6.1118956"/>
<trkpt lat="52.2242652" lon="6.1119421"/>
<trkpt lat="52.2239609" lon="6.1122438"/>
<trkpt lat="52.2239421" lon="6.1122625"/>
<trkpt lat="52.2237908" lon="6.1124127"/>
<trkpt lat="52.2234158" lon="6.1126682"/>
<trkpt lat="52.2230497" lon="6.1126345"/>
<trkpt lat="52.2231959" lon="6.1130017"/>
<trkpt lat="52.2236162" lon="6.1141909"/>
<trkpt lat="52.2231244" lon="6.1142336"/>
<trkpt lat="52.2226650" lon="6.1143845"/>
<trkpt lat="52.2224201" lon="6.1149785"/>
<trkpt lat="52.2223603" lon="6.1154101"/>
<trkpt lat="52.2222762" lon="6.1157045"/>
<trkpt lat="52.2221333" lon="6.1157133"/>
<trkpt lat="52.2220137" lon="6.1157018"/>
<trkpt lat="52.2219129" lon="6.1157002"/>
<trkpt lat="52.2218063" lon="6.1157958"/>
<trkpt lat="52.2215915" lon="6.1159625"/>
<trkpt lat="52.2212846" lon="6.1160488"/>
<trkpt lat="52.2211668" lon="6.1162460"/>
<trkpt lat="52.2210557" lon="6.1165098"/>
<trkpt lat="52.2211606" lon="6.1166519"/>
<trkpt lat="52.2212200" lon="6.1168429"/>
<trkpt lat="52.2212397" lon="6.1173677"/>
<trkpt lat="52.2212413" lon="6.1175038"/>
<trkpt lat="52.2212468" lon="6.1178838"/>
<trkpt lat="52.2212692" lon="6.1183389"/>
<trkpt lat="52.2212258" lon="6.1186512"/>
<trkpt lat="52.2212258" lon="6.1186513"/>
</trkseg></trk>
<trk><name>Posterpad - Hoofdroute</name><type>mainRoute</type><trkseg>
<trkpt lat="52.2212140" lon="6.1187393"/>
<trkpt lat="52.2214889" lon="6.1203754"/>
<trkpt lat="52.2230960" lon="6.1203909"/>
<trkpt lat="52.2238621" lon="6.1210962"/>
<trkpt lat="52.2252707" lon="6.1210305"/>
<trkpt lat="52.2254404" lon="6.1218471"/>
<trkpt lat="52.2252006" lon="6.1221512"/>
<trkpt lat="52.2250591" lon="6.1225371"/>
<trkpt lat="52.2254518" lon="6.1251592"/>
<trkpt lat="52.2255932" lon="6.1255668"/>
<trkpt lat="52.2256124" lon="6.1262512"/>
<trkpt lat="52.2253345" lon="6.1263201"/>
<trkpt lat="52.2245347" lon="6.1264196"/>
<trkpt lat="52.2238233" lon="6.1265123"/>
<trkpt lat="52.2232401" lon="6.1265762"/>
<trkpt lat="52.2229708" lon="6.1264503"/>
<trkpt lat="52.2228855" lon="6.1259928"/>
<trkpt lat="52.2228260" lon="6.1260479"/>
<trkpt lat="52.2227840" lon="6.1260596"/>
<trkpt lat="52.2227401" lon="6.1260077"/>
<trkpt lat="52.2225880" lon="6.1256572"/>
<trkpt lat="52.2223942" lon="6.1254797"/>
<trkpt lat="52.2221384" lon="6.1254109"/>
<trkpt lat="52.2218195" lon="6.1253250"/>
<trkpt lat="52.2214146" lon="6.1252035"/>
<trkpt lat="52.2205750" lon="6.1252165"/>
<trkpt lat="52.2205748" lon="6.1252200"/>
<trkpt lat="52.2205433" lon="6.1258043"/>
<trkpt lat="52.2198554" lon="6.1258125"/>
<trkpt lat="52.2196226" lon="6.1257460"/>
<trkpt lat="52.2194963" lon="6.1257844"/>
<trkpt lat="52.2193749" lon="6.1258165"/>
<trkpt lat="52.2193143" lon="6.1257856"/>
<trkpt lat="52.2192404" lon="6.1257201"/>
<trkpt lat="52.2190212" lon="6.1257522"/>
<trkpt lat="52.2189518" lon="6.1256591"/>
<trkpt lat="52.2187079" lon="6.1256587"/>
<trkpt lat="52.2186225" lon="6.1256289"/>
<trkpt lat="52.2185153" lon="6.1256768"/>
<trkpt lat="52.2183843" lon="6.1256622"/>
<trkpt lat="52.2178036" lon="6.1256504"/>
<trkpt lat="52.2173859" lon="6.1256065"/>
<trkpt lat="52.2171347" lon="6.1257068"/>
<trkpt lat="52.2170789" lon="6.1256056"/>
<trkpt lat="52.2170221" lon="6.1257280"/>
<trkpt lat="52.2169038" lon="6.1257048"/>
<trkpt lat="52.2167163" lon="6.1256661"/>
<trkpt lat="52.2165200" lon="6.1256482"/>
<trkpt lat="52.2160144" lon="6.1256214"/>
<trkpt lat="52.2154748" lon="6.1256014"/>
<trkpt lat="52.2152794" lon="6.1256490"/>
<trkpt lat="52.2150836" lon="6.1257016"/>
<trkpt lat="52.2150507" lon="6.1258332"/>
<trkpt lat="52.2149777" lon="6.1258562"/>
<trkpt lat="52.2148380" lon="6.1258196"/>
<trkpt lat="52.2147492" lon="6.1257306"/>
<trkpt lat="52.2146546" lon="6.1257663"/>
<trkpt lat="52.2145495" lon="6.1251282"/>
<trkpt lat="52.2144675" lon="6.1246299"/>
<trkpt lat="52.2141691" lon="6.1250163"/>
<trkpt lat="52.2137472" lon="6.1258993"/>
<trkpt lat="52.2135789" lon="6.1267073"/>
<trkpt lat="52.2136007" lon="6.1268894"/>
<trkpt lat="52.2135145" lon="6.1269392"/>
<trkpt lat="52.2135306" lon="6.1271166"/>
<trkpt lat="52.2130806" lon="6.1270006"/>
</trkseg></trk>
<trk><name>Posterpad - Routeverkorter</name><type>shorteningRoute</type><trkseg>
<trkpt lat="52.2130892" lon="6.1270419"/>
<trkpt lat="52.2130500" lon="6.1268835"/>
<trkpt lat="52.2129419" lon="6.1268675"/>
<trkpt lat="52.2126089" lon="6.1269538"/>
<trkpt lat="52.2121274" lon="6.1266927"/>
<trkpt lat="52.2103177" lon="6.1238346"/>
<trkpt lat="52.2102622" lon="6.1235770"/>
<trkpt lat="52.2104815" lon="6.1225251"/>
<trkpt lat="52.2106124" lon="6.1220217"/>
<trkpt lat="52.2105771" lon="6.1216817"/>
<trkpt lat="52.2103199" lon="6.1210848"/>
<trkpt lat="52.2102878" lon="6.1205640"/>
<trkpt lat="52.2106155" lon="6.1204463"/>
<trkpt lat="52.2105959" lon="6.1201790"/>
<trkpt lat="52.2103001" lon="6.1167173"/>
<trkpt lat="52.2122235" lon="6.1163147"/>
<trkpt lat="52.2132622" lon="6.1163641"/>
</trkseg></trk>
<trk><name>Posterpad - Overstaproute</name><type>connectionRoute</type><trkseg>
<trkpt lat="52.2334848" lon="6.1182588"/>
<trkpt lat="52.2334764" lon="6.1183089"/>
<trkpt lat="52.2330632" lon="6.1182913"/>
<trkpt lat="52.2314441" lon="6.1176892"/>
<trkpt lat="52.2311476" lon="6.1176864"/>
<trkpt lat="52.2303808" lon="6.1179692"/>
<trkpt lat="52.2293351" lon="6.1187119"/>
<trkpt lat="52.2283757" lon="6.1192688"/>
<trkpt lat="52.2284045" lon="6.1196000"/>
<trkpt lat="52.2253936" lon="6.1219065"/>
</trkseg></trk>
<trk><name>Posterpad - Aanlooproute </name><type>approachRoute</type><trkseg>
<trkpt lat="52.2012526" lon="6.1235695"/>
<trkpt lat="52.2004570" lon="6.1241508"/>
<trkpt lat="52.1992513" lon="6.1241914"/>
<trkpt lat="52.1993804" lon="6.1260416"/>
<trkpt lat="52.2005400" lon="6.1256932"/>
<trkpt lat="52.2005492" lon="6.1260681"/>
</trkseg></trk>
<trk><name>Posterpad - Aanlooproute startpunt</name><type>approachRoute</type><trkseg>
<trkpt lat="52.2133518" lon="6.1177777"/>
<trkpt lat="52.2132622" lon="6.1163641"/>
</trkseg></trk>
</gpx>