<?xml version="1.0" encoding="UTF-8"?>
<gpx version="1.1" creator="klompenpaden.nl via Jimbo API" xmlns="http://www.topografix.com/GPX/1/1">
<metadata><name>Rhenoijschepad</name><desc>Ontdek het rivierenlandschap rond de schilderachtige dorpen Rhenoy en Acquoy. Historische gebouwen en elementen van de Hollandse Waterlinie vertellen hier hun verhaal. Klompen aan, rugzak op en gaan!</desc><link href="https://www.klompenpaden.nl/klompenpaden/Rhenoijschepad/b7b6bf9e-f569-47e8-ab2f-597c5a1f1427"><text>klompenpaden.nl</text></link></metadata>
<wpt lat="51.880973705576274" lon="5.151114380497656"><name>Start Rhenoy</name></wpt>
<trk><name>Rhenoijschepad - hoofdroute1</name><type>mainRoute</type><trkseg>
<trkpt lat="51.8809737" lon="5.1511145"/>
<trkpt lat="51.8809788" lon="5.1517887"/>
<trkpt lat="51.8810703" lon="5.1521959"/>
<trkpt lat="51.8812066" lon="5.1528425"/>
<trkpt lat="51.8813874" lon="5.1537241"/>
<trkpt lat="51.8815085" lon="5.1541822"/>
<trkpt lat="51.8816645" lon="5.1545340"/>
<trkpt lat="51.8817903" lon="5.1550659"/>
<trkpt lat="51.8819226" lon="5.1554585"/>
<trkpt lat="51.8822293" lon="5.1554800"/>
<trkpt lat="51.8823372" lon="5.1556840"/>
<trkpt lat="51.8824733" lon="5.1560914"/>
<trkpt lat="51.8828029" lon="5.1560038"/>
<trkpt lat="51.8833977" lon="5.1559485"/>
<trkpt lat="51.8842152" lon="5.1556798"/>
<trkpt lat="51.8845328" lon="5.1555307"/>
<trkpt lat="51.8847526" lon="5.1553288"/>
<trkpt lat="51.8850411" lon="5.1552065"/>
<trkpt lat="51.8854439" lon="5.1549837"/>
<trkpt lat="51.8856256" lon="5.1548198"/>
<trkpt lat="51.8862378" lon="5.1545688"/>
<trkpt lat="51.8878880" lon="5.1541153"/>
<trkpt lat="51.8886370" lon="5.1539407"/>
<trkpt lat="51.8888947" lon="5.1539348"/>
<trkpt lat="51.8892138" lon="5.1538394"/>
<trkpt lat="51.8904031" lon="5.1539069"/>
<trkpt lat="51.8908880" lon="5.1539795"/>
<trkpt lat="51.8913855" lon="5.1541143"/>
<trkpt lat="51.8918731" lon="5.1542600"/>
<trkpt lat="51.8919989" lon="5.1544528"/>
<trkpt lat="51.8929025" lon="5.1550787"/>
<trkpt lat="51.8933921" lon="5.1554999"/>
<trkpt lat="51.8943918" lon="5.1558424"/>
<trkpt lat="51.8946062" lon="5.1557040"/>
<trkpt lat="51.8959094" lon="5.1535650"/>
<trkpt lat="51.8962613" lon="5.1530480"/>
<trkpt lat="51.8966145" lon="5.1526061"/>
<trkpt lat="51.8971141" lon="5.1522707"/>
<trkpt lat="51.8970965" lon="5.1515330"/>
<trkpt lat="51.8970687" lon="5.1505453"/>
<trkpt lat="51.8969586" lon="5.1478497"/>
<trkpt lat="51.8968475" lon="5.1462100"/>
<trkpt lat="51.8967869" lon="5.1448415"/>
<trkpt lat="51.8969190" lon="5.1446717"/>
<trkpt lat="51.8971648" lon="5.1446508"/>
<trkpt lat="51.8972323" lon="5.1444893"/>
<trkpt lat="51.8971377" lon="5.1416076"/>
<trkpt lat="51.8970319" lon="5.1392242"/>
<trkpt lat="51.8969281" lon="5.1371147"/>
<trkpt lat="51.8969329" lon="5.1362669"/>
<trkpt lat="51.8969049" lon="5.1358568"/>
<trkpt lat="51.8968253" lon="5.1339935"/>
<trkpt lat="51.8966996" lon="5.1333842"/>
<trkpt lat="51.8967153" lon="5.1331770"/>
<trkpt lat="51.8967765" lon="5.1331164"/>
<trkpt lat="51.8969744" lon="5.1331883"/>
<trkpt lat="51.8969542" lon="5.1329658"/>
<trkpt lat="51.8967372" lon="5.1284297"/>
<trkpt lat="51.8967777" lon="5.1280276"/>
<trkpt lat="51.8967315" lon="5.1271850"/>
<trkpt lat="51.8967168" lon="5.1269163"/>
<trkpt lat="51.8968011" lon="5.1267589"/>
<trkpt lat="51.8967561" lon="5.1266893"/>
<trkpt lat="51.8971128" lon="5.1258735"/>
<trkpt lat="51.8974887" lon="5.1249722"/>
<trkpt lat="51.8993748" lon="5.1207079"/>
</trkseg></trk>
<trk><name>Rhenoijschepad - hoofdroute2</name><type>mainRoute</type><trkseg>
<trkpt lat="51.8993565" lon="5.1206960"/>
<trkpt lat="51.8992574" lon="5.1205791"/>
<trkpt lat="51.8986135" lon="5.1198294"/>
<trkpt lat="51.8982915" lon="5.1194630"/>
<trkpt lat="51.8981779" lon="5.1195808"/>
<trkpt lat="51.8977954" lon="5.1199347"/>
<trkpt lat="51.8976298" lon="5.1200027"/>
<trkpt lat="51.8972667" lon="5.1197537"/>
<trkpt lat="51.8971114" lon="5.1197714"/>
<trkpt lat="51.8970186" lon="5.1199728"/>
<trkpt lat="51.8967504" lon="5.1204600"/>
<trkpt lat="51.8965029" lon="5.1209135"/>
<trkpt lat="51.8962545" lon="5.1210322"/>
<trkpt lat="51.8959439" lon="5.1210675"/>
<trkpt lat="51.8954985" lon="5.1210701"/>
<trkpt lat="51.8953015" lon="5.1210043"/>
<trkpt lat="51.8950631" lon="5.1209388"/>
<trkpt lat="51.8948555" lon="5.1207391"/>
<trkpt lat="51.8945338" lon="5.1204899"/>
<trkpt lat="51.8944085" lon="5.1200218"/>
<trkpt lat="51.8942724" lon="5.1194199"/>
<trkpt lat="51.8941361" lon="5.1186841"/>
<trkpt lat="51.8940418" lon="5.1181991"/>
<trkpt lat="51.8938241" lon="5.1181502"/>
<trkpt lat="51.8932645" lon="5.1180364"/>
<trkpt lat="51.8924874" lon="5.1179238"/>
<trkpt lat="51.8918969" lon="5.1178771"/>
<trkpt lat="51.8917310" lon="5.1178112"/>
<trkpt lat="51.8917408" lon="5.1175767"/>
<trkpt lat="51.8915437" lon="5.1174440"/>
<trkpt lat="51.8909117" lon="5.1173808"/>
<trkpt lat="51.8904557" lon="5.1172496"/>
<trkpt lat="51.8900511" lon="5.1170177"/>
<trkpt lat="51.8899990" lon="5.1168506"/>
<trkpt lat="51.8901111" lon="5.1160464"/>
<trkpt lat="51.8900587" lon="5.1158123"/>
<trkpt lat="51.8895194" lon="5.1154975"/>
<trkpt lat="51.8893117" lon="5.1152811"/>
<trkpt lat="51.8887506" lon="5.1145145"/>
<trkpt lat="51.8881612" lon="5.1149700"/>
<trkpt lat="51.8879466" lon="5.1151056"/>
<trkpt lat="51.8878194" lon="5.1152008"/>
<trkpt lat="51.8876145" lon="5.1154388"/>
<trkpt lat="51.8875614" lon="5.1153723"/>
<trkpt lat="51.8873271" lon="5.1156224"/>
<trkpt lat="51.8869003" lon="5.1161726"/>
<trkpt lat="51.8866734" lon="5.1165860"/>
<trkpt lat="51.8864568" lon="5.1170058"/>
<trkpt lat="51.8861888" lon="5.1175765"/>
<trkpt lat="51.8858689" lon="5.1181141"/>
<trkpt lat="51.8853315" lon="5.1186194"/>
<trkpt lat="51.8848349" lon="5.1188902"/>
<trkpt lat="51.8842767" lon="5.1194124"/>
<trkpt lat="51.8837808" lon="5.1199677"/>
<trkpt lat="51.8834087" lon="5.1203047"/>
<trkpt lat="51.8830985" lon="5.1205409"/>
<trkpt lat="51.8824458" lon="5.1205113"/>
<trkpt lat="51.8816480" lon="5.1204323"/>
<trkpt lat="51.8810057" lon="5.1203692"/>
<trkpt lat="51.8806016" lon="5.1203213"/>
<trkpt lat="51.8798660" lon="5.1202253"/>
<trkpt lat="51.8797365" lon="5.1201396"/>
<trkpt lat="51.8796309" lon="5.1201719"/>
<trkpt lat="51.8792181" lon="5.1198653"/>
<trkpt lat="51.8789411" lon="5.1196268"/>
<trkpt lat="51.8786850" lon="5.1194170"/>
<trkpt lat="51.8786337" lon="5.1193954"/>
<trkpt lat="51.8784740" lon="5.1194423"/>
<trkpt lat="51.8782174" lon="5.1195154"/>
<trkpt lat="51.8779488" lon="5.1198517"/>
<trkpt lat="51.8777010" lon="5.1202047"/>
<trkpt lat="51.8775353" lon="5.1202224"/>
<trkpt lat="51.8773383" lon="5.1201064"/>
<trkpt lat="51.8769754" lon="5.1199412"/>
<trkpt lat="51.8766955" lon="5.1198424"/>
<trkpt lat="51.8761055" lon="5.1200635"/>
<trkpt lat="51.8754645" lon="5.1205861"/>
<trkpt lat="51.8748645" lon="5.1209243"/>
<trkpt lat="51.8741713" lon="5.1212966"/>
<trkpt lat="51.8738818" lon="5.1215159"/>
<trkpt lat="51.8737788" lon="5.1217507"/>
<trkpt lat="51.8734599" lon="5.1227399"/>
<trkpt lat="51.8730774" lon="5.1230936"/>
<trkpt lat="51.8725701" lon="5.1231970"/>
<trkpt lat="51.8724459" lon="5.1232479"/>
<trkpt lat="51.8720232" lon="5.1241373"/>
<trkpt lat="51.8717660" lon="5.1249253"/>
<trkpt lat="51.8716439" lon="5.1259133"/>
<trkpt lat="51.8716865" lon="5.1264317"/>
<trkpt lat="51.8721776" lon="5.1283533"/>
<trkpt lat="51.8724289" lon="5.1295901"/>
<trkpt lat="51.8726801" lon="5.1307768"/>
<trkpt lat="51.8728581" lon="5.1316460"/>
<trkpt lat="51.8731390" lon="5.1321966"/>
<trkpt lat="51.8735650" lon="5.1328301"/>
<trkpt lat="51.8742403" lon="5.1337467"/>
<trkpt lat="51.8745516" lon="5.1340127"/>
<trkpt lat="51.8747692" lon="5.1340617"/>
<trkpt lat="51.8747286" lon="5.1344301"/>
<trkpt lat="51.8747706" lon="5.1346976"/>
<trkpt lat="51.8748953" lon="5.1348642"/>
<trkpt lat="51.8762017" lon="5.1354761"/>
<trkpt lat="51.8766373" lon="5.1357080"/>
<trkpt lat="51.8768870" lon="5.1362421"/>
<trkpt lat="51.8775211" lon="5.1372929"/>
<trkpt lat="51.8776355" lon="5.1375099"/>
<trkpt lat="51.8782680" lon="5.1378076"/>
<trkpt lat="51.8786616" lon="5.1378221"/>
<trkpt lat="51.8788065" lon="5.1377711"/>
<trkpt lat="51.8788996" lon="5.1376869"/>
<trkpt lat="51.8790547" lon="5.1375689"/>
<trkpt lat="51.8791997" lon="5.1375514"/>
<trkpt lat="51.8795085" lon="5.1366292"/>
<trkpt lat="51.8801173" lon="5.1355546"/>
<trkpt lat="51.8803239" lon="5.1352689"/>
<trkpt lat="51.8812967" lon="5.1348953"/>
<trkpt lat="51.8814102" lon="5.1346938"/>
<trkpt lat="51.8815340" lon="5.1344421"/>
<trkpt lat="51.8818031" lon="5.1343234"/>
<trkpt lat="51.8821139" lon="5.1343551"/>
<trkpt lat="51.8822385" lon="5.1344883"/>
<trkpt lat="51.8823745" lon="5.1351236"/>
<trkpt lat="51.8824791" lon="5.1355916"/>
<trkpt lat="51.8827495" lon="5.1361257"/>
<trkpt lat="51.8829678" lon="5.1364593"/>
<trkpt lat="51.8830824" lon="5.1367934"/>
<trkpt lat="51.8836255" lon="5.1389161"/>
<trkpt lat="51.8836365" lon="5.1391838"/>
<trkpt lat="51.8835441" lon="5.1396028"/>
<trkpt lat="51.8834408" lon="5.1397205"/>
<trkpt lat="51.8827374" lon="5.1401763"/>
<trkpt lat="51.8826655" lon="5.1404613"/>
<trkpt lat="51.8827493" lon="5.1409294"/>
<trkpt lat="51.8828226" lon="5.1413140"/>
<trkpt lat="51.8825635" lon="5.1412485"/>
<trkpt lat="51.8822939" lon="5.1410993"/>
<trkpt lat="51.8821589" lon="5.1409494"/>
<trkpt lat="51.8819725" lon="5.1409337"/>
<trkpt lat="51.8817657" lon="5.1411022"/>
<trkpt lat="51.8806017" lon="5.1427947"/>
<trkpt lat="51.8804902" lon="5.1428931"/>
<trkpt lat="51.8809232" lon="5.1435820"/>
<trkpt lat="51.8805291" lon="5.1441718"/>
<trkpt lat="51.8801779" lon="5.1446758"/>
<trkpt lat="51.8797855" lon="5.1452637"/>
<trkpt lat="51.8796410" lon="5.1455323"/>
<trkpt lat="51.8795448" lon="5.1457469"/>
<trkpt lat="51.8792577" lon="5.1463680"/>
<trkpt lat="51.8790802" lon="5.1468705"/>
<trkpt lat="51.8788793" lon="5.1473883"/>
<trkpt lat="51.8787762" lon="5.1478548"/>
<trkpt lat="51.8786349" lon="5.1484992"/>
<trkpt lat="51.8788404" lon="5.1487142"/>
<trkpt lat="51.8788519" lon="5.1488950"/>
<trkpt lat="51.8788197" lon="5.1491182"/>
<trkpt lat="51.8788098" lon="5.1493526"/>
<trkpt lat="51.8794353" lon="5.1513409"/>
<trkpt lat="51.8797881" lon="5.1516571"/>
<trkpt lat="51.8800488" lon="5.1525093"/>
<trkpt lat="51.8802357" lon="5.1527426"/>
<trkpt lat="51.8807500" lon="5.1509491"/>
<trkpt lat="51.8809990" lon="5.1511319"/>
</trkseg></trk>
<trk><name>Rhenoijschepad - routeverkorter</name><type>shorteningRoute</type><trkseg>
<trkpt lat="51.8824265" lon="5.1352572"/>
<trkpt lat="51.8826024" lon="5.1351390"/>
<trkpt lat="51.8835642" lon="5.1344474"/>
<trkpt lat="51.8839367" lon="5.1342779"/>
<trkpt lat="51.8842165" lon="5.1343098"/>
<trkpt lat="51.8851917" lon="5.1350408"/>
<trkpt lat="51.8856065" lon="5.1352561"/>
<trkpt lat="51.8856889" lon="5.1350213"/>
<trkpt lat="51.8856983" lon="5.1345693"/>
<trkpt lat="51.8864386" lon="5.1320376"/>
<trkpt lat="51.8865722" lon="5.1315681"/>
<trkpt lat="51.8868318" lon="5.1318512"/>
<trkpt lat="51.8872148" lon="5.1317486"/>
<trkpt lat="51.8891900" lon="5.1302643"/>
<trkpt lat="51.8897691" lon="5.1298257"/>
<trkpt lat="51.8898621" lon="5.1296912"/>
<trkpt lat="51.8937813" lon="5.1267390"/>
<trkpt lat="51.8936248" lon="5.1262042"/>
<trkpt lat="51.8936962" lon="5.1257350"/>
<trkpt lat="51.8951579" lon="5.1216079"/>
<trkpt lat="51.8952605" lon="5.1211887"/>
<trkpt lat="51.8952186" lon="5.1209713"/>
</trkseg></trk>
<trk><name>Rhenoijschepad - Overstaproute Merckenburgsepad</name><type>connectionRoute</type><trkseg>
<trkpt lat="51.8774116" lon="5.1167941"/>
<trkpt lat="51.8778647" lon="5.1183532"/>
<trkpt lat="51.8781570" lon="5.1183696"/>
<trkpt lat="51.8783151" lon="5.1186956"/>
<trkpt lat="51.8784399" lon="5.1192033"/>
<trkpt lat="51.8786201" lon="5.1193657"/>
</trkseg></trk>
<trk><name>Rhenoijschepad - Overstaproute Rumptse Veerpad</name><type>connectionRoute</type><trkseg>
<trkpt lat="51.8831060" lon="5.1600443"/>
<trkpt lat="51.8823367" lon="5.1598773"/>
<trkpt lat="51.8815197" lon="5.1594594"/>
<trkpt lat="51.8810302" lon="5.1596195"/>
<trkpt lat="51.8807047" lon="5.1598586"/>
<trkpt lat="51.8803928" lon="5.1598733"/>
<trkpt lat="51.8801633" lon="5.1595180"/>
<trkpt lat="51.8800023" lon="5.1587384"/>
<trkpt lat="51.8794442" lon="5.1581183"/>
<trkpt lat="51.8795538" lon="5.1573114"/>
<trkpt lat="51.8794421" lon="5.1571629"/>
<trkpt lat="51.8798142" lon="5.1544835"/>
<trkpt lat="51.8801757" lon="5.1538718"/>
<trkpt lat="51.8800941" lon="5.1532336"/>
<trkpt lat="51.8801858" lon="5.1526378"/>
</trkseg></trk>
</gpx>