<?xml version="1.0" encoding="UTF-8"?>
<gpx version="1.1" creator="klompenpaden.nl via Jimbo API" xmlns="http://www.topografix.com/GPX/1/1">
<metadata><name>Rijnstrangenpad</name><desc>Ontdek het mooie buitengebied van Aerdt, Pannerden en Oud-Zevenaar. Wandelen door ruig rivierenlandschap met uiterwaarden en rabatten, over dijken, via twee trekpontjes, langs een gemaal en oude verdedigingswerken. Klompen aan, rugzak op en gaan!</desc><link href="https://www.klompenpaden.nl/klompenpaden/Rijnstrangenpad/521a59a0-ee84-441c-a6aa-7a25546510c4"><text>klompenpaden.nl</text></link></metadata>
<wpt lat="51.91344175571768" lon="6.082574129104613"><name>Start Oud-Zevenaar</name></wpt>
<trk><name>Rijnstrangenpad - mainRoute</name><type>mainRoute</type><trkseg>
<trkpt lat="51.9135800" lon="6.0829100"/>
<trkpt lat="51.9133600" lon="6.0828400"/>
<trkpt lat="51.9131200" lon="6.0828300"/>
<trkpt lat="51.9128300" lon="6.0830400"/>
<trkpt lat="51.9127700" lon="6.0830300"/>
<trkpt lat="51.9127900" lon="6.0829200"/>
<trkpt lat="51.9129700" lon="6.0826800"/>
<trkpt lat="51.9134300" lon="6.0824300"/>
<trkpt lat="51.9136700" lon="6.0820600"/>
<trkpt lat="51.9137400" lon="6.0817400"/>
<trkpt lat="51.9135400" lon="6.0820200"/>
<trkpt lat="51.9133700" lon="6.0821700"/>
<trkpt lat="51.9132700" lon="6.0821800"/>
<trkpt lat="51.9127800" lon="6.0807500"/>
<trkpt lat="51.9131700" lon="6.0788900"/>
<trkpt lat="51.9133900" lon="6.0782100"/>
<trkpt lat="51.9136600" lon="6.0771200"/>
<trkpt lat="51.9135800" lon="6.0760000"/>
<trkpt lat="51.9136200" lon="6.0752800"/>
<trkpt lat="51.9137900" lon="6.0733500"/>
<trkpt lat="51.9139200" lon="6.0726400"/>
<trkpt lat="51.9140100" lon="6.0724800"/>
<trkpt lat="51.9138400" lon="6.0722800"/>
<trkpt lat="51.9134600" lon="6.0721200"/>
<trkpt lat="51.9115700" lon="6.0715900"/>
<trkpt lat="51.9113700" lon="6.0715700"/>
<trkpt lat="51.9115500" lon="6.0702700"/>
<trkpt lat="51.9115700" lon="6.0695300"/>
<trkpt lat="51.9115600" lon="6.0689300"/>
<trkpt lat="51.9118400" lon="6.0675700"/>
<trkpt lat="51.9106300" lon="6.0670300"/>
<trkpt lat="51.9105000" lon="6.0669100"/>
<trkpt lat="51.9105900" lon="6.0665700"/>
<trkpt lat="51.9106100" lon="6.0659400"/>
<trkpt lat="51.9104900" lon="6.0654700"/>
<trkpt lat="51.9104100" lon="6.0649300"/>
<trkpt lat="51.9104200" lon="6.0644500"/>
<trkpt lat="51.9104700" lon="6.0641800"/>
<trkpt lat="51.9106700" lon="6.0639400"/>
<trkpt lat="51.9110500" lon="6.0635900"/>
<trkpt lat="51.9113900" lon="6.0632200"/>
<trkpt lat="51.9115800" lon="6.0628600"/>
<trkpt lat="51.9117000" lon="6.0620000"/>
<trkpt lat="51.9116500" lon="6.0613900"/>
<trkpt lat="51.9115200" lon="6.0605700"/>
<trkpt lat="51.9111500" lon="6.0601000"/>
<trkpt lat="51.9108800" lon="6.0600000"/>
<trkpt lat="51.9107200" lon="6.0598900"/>
<trkpt lat="51.9105300" lon="6.0592100"/>
<trkpt lat="51.9103800" lon="6.0589100"/>
<trkpt lat="51.9100400" lon="6.0574000"/>
<trkpt lat="51.9099000" lon="6.0569600"/>
<trkpt lat="51.9097100" lon="6.0559700"/>
<trkpt lat="51.9097100" lon="6.0554700"/>
<trkpt lat="51.9097800" lon="6.0549200"/>
<trkpt lat="51.9098200" lon="6.0537700"/>
<trkpt lat="51.9098400" lon="6.0523400"/>
<trkpt lat="51.9101000" lon="6.0517300"/>
<trkpt lat="51.9108600" lon="6.0496900"/>
<trkpt lat="51.9110500" lon="6.0493200"/>
<trkpt lat="51.9112400" lon="6.0491800"/>
<trkpt lat="51.9113800" lon="6.0489500"/>
<trkpt lat="51.9115300" lon="6.0485900"/>
<trkpt lat="51.9117300" lon="6.0482700"/>
<trkpt lat="51.9123400" lon="6.0476300"/>
<trkpt lat="51.9125300" lon="6.0473500"/>
<trkpt lat="51.9128100" lon="6.0473000"/>
<trkpt lat="51.9126700" lon="6.0466400"/>
<trkpt lat="51.9125200" lon="6.0455900"/>
<trkpt lat="51.9124000" lon="6.0453800"/>
<trkpt lat="51.9122700" lon="6.0452700"/>
<trkpt lat="51.9122800" lon="6.0452300"/>
<trkpt lat="51.9127100" lon="6.0452900"/>
<trkpt lat="51.9127900" lon="6.0451400"/>
<trkpt lat="51.9128200" lon="6.0448900"/>
<trkpt lat="51.9132300" lon="6.0439700"/>
<trkpt lat="51.9132400" lon="6.0438300"/>
<trkpt lat="51.9131800" lon="6.0436800"/>
<trkpt lat="51.9130100" lon="6.0434500"/>
<trkpt lat="51.9113000" lon="6.0382600"/>
<trkpt lat="51.9112400" lon="6.0381600"/>
<trkpt lat="51.9108500" lon="6.0377300"/>
<trkpt lat="51.9103900" lon="6.0372700"/>
<trkpt lat="51.9100700" lon="6.0370600"/>
<trkpt lat="51.9094900" lon="6.0369300"/>
<trkpt lat="51.9088000" lon="6.0366700"/>
<trkpt lat="51.9082800" lon="6.0365200"/>
<trkpt lat="51.9081400" lon="6.0364000"/>
<trkpt lat="51.9078500" lon="6.0362600"/>
<trkpt lat="51.9076200" lon="6.0361000"/>
<trkpt lat="51.9071800" lon="6.0359000"/>
<trkpt lat="51.9070700" lon="6.0359200"/>
<trkpt lat="51.9069200" lon="6.0360200"/>
<trkpt lat="51.9062100" lon="6.0366800"/>
<trkpt lat="51.9057800" lon="6.0369000"/>
<trkpt lat="51.9052800" lon="6.0370600"/>
<trkpt lat="51.9051900" lon="6.0371000"/>
<trkpt lat="51.9051700" lon="6.0373300"/>
<trkpt lat="51.9051800" lon="6.0374700"/>
<trkpt lat="51.9052600" lon="6.0376800"/>
<trkpt lat="51.9053800" lon="6.0377800"/>
<trkpt lat="51.9054600" lon="6.0378100"/>
<trkpt lat="51.9055900" lon="6.0380800"/>
<trkpt lat="51.9055800" lon="6.0382000"/>
<trkpt lat="51.9054700" lon="6.0383000"/>
<trkpt lat="51.9051000" lon="6.0388000"/>
<trkpt lat="51.9048800" lon="6.0389800"/>
<trkpt lat="51.9048500" lon="6.0390600"/>
<trkpt lat="51.9049000" lon="6.0393600"/>
<trkpt lat="51.9045200" lon="6.0400300"/>
<trkpt lat="51.9042100" lon="6.0403400"/>
<trkpt lat="51.9039600" lon="6.0404900"/>
<trkpt lat="51.9038900" lon="6.0405900"/>
<trkpt lat="51.9037700" lon="6.0406900"/>
<trkpt lat="51.9035100" lon="6.0410400"/>
<trkpt lat="51.9033700" lon="6.0413200"/>
<trkpt lat="51.9029500" lon="6.0419100"/>
<trkpt lat="51.9026700" lon="6.0422000"/>
<trkpt lat="51.9024500" lon="6.0423700"/>
<trkpt lat="51.9024100" lon="6.0428500"/>
<trkpt lat="51.9024900" lon="6.0429700"/>
<trkpt lat="51.9024500" lon="6.0431200"/>
<trkpt lat="51.9017200" lon="6.0442600"/>
<trkpt lat="51.9013900" lon="6.0447300"/>
<trkpt lat="51.9010600" lon="6.0450900"/>
<trkpt lat="51.9009700" lon="6.0450800"/>
<trkpt lat="51.9002800" lon="6.0442600"/>
<trkpt lat="51.9000100" lon="6.0442700"/>
<trkpt lat="51.8980800" lon="6.0448900"/>
<trkpt lat="51.8979800" lon="6.0449000"/>
<trkpt lat="51.8978500" lon="6.0448400"/>
<trkpt lat="51.8975800" lon="6.0445100"/>
<trkpt lat="51.8973700" lon="6.0449600"/>
<trkpt lat="51.8973300" lon="6.0452400"/>
<trkpt lat="51.8973600" lon="6.0456900"/>
<trkpt lat="51.8974700" lon="6.0463900"/>
<trkpt lat="51.8976300" lon="6.0475200"/>
<trkpt lat="51.8976600" lon="6.0481200"/>
<trkpt lat="51.8976300" lon="6.0485100"/>
<trkpt lat="51.8974500" lon="6.0497600"/>
<trkpt lat="51.8975800" lon="6.0503800"/>
<trkpt lat="51.8976300" lon="6.0507700"/>
<trkpt lat="51.8976600" lon="6.0511900"/>
<trkpt lat="51.8975000" lon="6.0538700"/>
<trkpt lat="51.8975000" lon="6.0543800"/>
<trkpt lat="51.8977300" lon="6.0568700"/>
<trkpt lat="51.8977200" lon="6.0584700"/>
<trkpt lat="51.8977000" lon="6.0597700"/>
<trkpt lat="51.8978900" lon="6.0596000"/>
<trkpt lat="51.8980600" lon="6.0594900"/>
<trkpt lat="51.8985400" lon="6.0594000"/>
<trkpt lat="51.8987300" lon="6.0593800"/>
<trkpt lat="51.8988000" lon="6.0592300"/>
<trkpt lat="51.8993800" lon="6.0591400"/>
<trkpt lat="51.8999200" lon="6.0592300"/>
<trkpt lat="51.9001700" lon="6.0604500"/>
<trkpt lat="51.9004400" lon="6.0615200"/>
<trkpt lat="51.9006900" lon="6.0613900"/>
<trkpt lat="51.9008000" lon="6.0616700"/>
<trkpt lat="51.9008300" lon="6.0618700"/>
<trkpt lat="51.9008300" lon="6.0621100"/>
<trkpt lat="51.9008500" lon="6.0623500"/>
<trkpt lat="51.9011100" lon="6.0635000"/>
<trkpt lat="51.9012800" lon="6.0640800"/>
<trkpt lat="51.9013700" lon="6.0647700"/>
<trkpt lat="51.9015000" lon="6.0654200"/>
<trkpt lat="51.9015400" lon="6.0660100"/>
<trkpt lat="51.9016100" lon="6.0667600"/>
<trkpt lat="51.9016200" lon="6.0672900"/>
<trkpt lat="51.9017300" lon="6.0680500"/>
<trkpt lat="51.9018200" lon="6.0685000"/>
<trkpt lat="51.9018800" lon="6.0701300"/>
<trkpt lat="51.9018400" lon="6.0717600"/>
<trkpt lat="51.9017700" lon="6.0717400"/>
<trkpt lat="51.9018000" lon="6.0723900"/>
<trkpt lat="51.9007100" lon="6.0722200"/>
<trkpt lat="51.9006100" lon="6.0729500"/>
<trkpt lat="51.8995600" lon="6.0753600"/>
<trkpt lat="51.8993100" lon="6.0768100"/>
<trkpt lat="51.8995600" lon="6.0779900"/>
<trkpt lat="51.8994300" lon="6.0794700"/>
<trkpt lat="51.8992400" lon="6.0801200"/>
<trkpt lat="51.8982000" lon="6.0820400"/>
<trkpt lat="51.8979200" lon="6.0823900"/>
<trkpt lat="51.8976000" lon="6.0827500"/>
<trkpt lat="51.8972400" lon="6.0833300"/>
<trkpt lat="51.8971400" lon="6.0836400"/>
<trkpt lat="51.8970500" lon="6.0840900"/>
<trkpt lat="51.8963600" lon="6.0865100"/>
<trkpt lat="51.8959500" lon="6.0876600"/>
<trkpt lat="51.8951400" lon="6.0897700"/>
<trkpt lat="51.8947000" lon="6.0911300"/>
<trkpt lat="51.8948100" lon="6.0913100"/>
<trkpt lat="51.8954300" lon="6.0918900"/>
<trkpt lat="51.8958100" lon="6.0920800"/>
<trkpt lat="51.8959600" lon="6.0920800"/>
<trkpt lat="51.8963400" lon="6.0907400"/>
<trkpt lat="51.8968400" lon="6.0928900"/>
<trkpt lat="51.8971600" lon="6.0945000"/>
<trkpt lat="51.8973100" lon="6.0957000"/>
<trkpt lat="51.8974100" lon="6.0957800"/>
<trkpt lat="51.8974800" lon="6.0959100"/>
<trkpt lat="51.8979200" lon="6.0959000"/>
<trkpt lat="51.8981600" lon="6.0957500"/>
<trkpt lat="51.8983000" lon="6.0955500"/>
<trkpt lat="51.8984200" lon="6.0952000"/>
<trkpt lat="51.8986000" lon="6.0949700"/>
<trkpt lat="51.8987800" lon="6.0949000"/>
<trkpt lat="51.8988400" lon="6.0946800"/>
<trkpt lat="51.8990000" lon="6.0942400"/>
<trkpt lat="51.8991700" lon="6.0939400"/>
<trkpt lat="51.8999200" lon="6.0930600"/>
<trkpt lat="51.9011600" lon="6.0938200"/>
<trkpt lat="51.9012800" lon="6.0937900"/>
<trkpt lat="51.9013600" lon="6.0938700"/>
<trkpt lat="51.9014800" lon="6.0939000"/>
<trkpt lat="51.9016300" lon="6.0939000"/>
<trkpt lat="51.9020700" lon="6.0936900"/>
<trkpt lat="51.9021600" lon="6.0937600"/>
<trkpt lat="51.9023000" lon="6.0943200"/>
<trkpt lat="51.9025500" lon="6.0948700"/>
<trkpt lat="51.9026000" lon="6.0951000"/>
<trkpt lat="51.9026900" lon="6.0952100"/>
<trkpt lat="51.9028100" lon="6.0950900"/>
<trkpt lat="51.9029800" lon="6.0950300"/>
<trkpt lat="51.9046100" lon="6.0951900"/>
<trkpt lat="51.9047900" lon="6.0950700"/>
<trkpt lat="51.9050800" lon="6.0946200"/>
<trkpt lat="51.9066600" lon="6.0923800"/>
<trkpt lat="51.9070600" lon="6.0915400"/>
<trkpt lat="51.9077500" lon="6.0920800"/>
<trkpt lat="51.9086200" lon="6.0929400"/>
<trkpt lat="51.9096100" lon="6.0938300"/>
<trkpt lat="51.9099900" lon="6.0927700"/>
<trkpt lat="51.9103200" lon="6.0915000"/>
<trkpt lat="51.9107600" lon="6.0893200"/>
<trkpt lat="51.9108300" lon="6.0890700"/>
<trkpt lat="51.9109800" lon="6.0887300"/>
<trkpt lat="51.9110400" lon="6.0882700"/>
<trkpt lat="51.9109600" lon="6.0869000"/>
<trkpt lat="51.9110400" lon="6.0856400"/>
<trkpt lat="51.9110300" lon="6.0848200"/>
<trkpt lat="51.9110600" lon="6.0841200"/>
<trkpt lat="51.9115200" lon="6.0833400"/>
<trkpt lat="51.9118900" lon="6.0832700"/>
<trkpt lat="51.9122600" lon="6.0830600"/>
<trkpt lat="51.9126000" lon="6.0830900"/>
<trkpt lat="51.9127400" lon="6.0826200"/>
<trkpt lat="51.9128900" lon="6.0824700"/>
<trkpt lat="51.9132200" lon="6.0822700"/>
<trkpt lat="51.9134000" lon="6.0822000"/>
<trkpt lat="51.9135700" lon="6.0820500"/>
<trkpt lat="51.9137600" lon="6.0817600"/>
<trkpt lat="51.9137900" lon="6.0817700"/>
<trkpt lat="51.9137300" lon="6.0821700"/>
<trkpt lat="51.9137100" lon="6.0825100"/>
<trkpt lat="51.9137200" lon="6.0828200"/>
<trkpt lat="51.9135800" lon="6.0829100"/>
</trkseg></trk>
<trk><name>Rijnstrangenpad - alternativeRoute</name><type>alternativeRoute</type><trkseg>
<trkpt lat="51.9113000" lon="6.0382600"/>
<trkpt lat="51.9112800" lon="6.0371800"/>
<trkpt lat="51.9110400" lon="6.0365600"/>
<trkpt lat="51.9107100" lon="6.0363400"/>
<trkpt lat="51.9102200" lon="6.0362400"/>
<trkpt lat="51.9089300" lon="6.0363400"/>
<trkpt lat="51.9087000" lon="6.0363400"/>
<trkpt lat="51.9085900" lon="6.0366100"/>
</trkseg></trk>
<trk><name>Rijnstrangenpad - alternativeRoute</name><type>alternativeRoute</type><trkseg>
<trkpt lat="51.9127100" lon="6.0452900"/>
<trkpt lat="51.9127400" lon="6.0456200"/>
<trkpt lat="51.9127400" lon="6.0461700"/>
<trkpt lat="51.9128200" lon="6.0467400"/>
<trkpt lat="51.9129300" lon="6.0472400"/>
<trkpt lat="51.9128100" lon="6.0473000"/>
</trkseg></trk>
<trk><name>Rijnstrangenpad - overstaproute</name><type>connectionRoute</type><trkseg>
<trkpt lat="51.9049600" lon="6.1171200"/>
<trkpt lat="51.9048600" lon="6.1162400"/>
<trkpt lat="51.9049500" lon="6.1159600"/>
<trkpt lat="51.9049700" lon="6.1147900"/>
<trkpt lat="51.9049600" lon="6.1142300"/>
<trkpt lat="51.9049100" lon="6.1133800"/>
<trkpt lat="51.9052800" lon="6.1123800"/>
<trkpt lat="51.9053000" lon="6.1121200"/>
<trkpt lat="51.9055400" lon="6.1112000"/>
<trkpt lat="51.9058100" lon="6.1104200"/>
<trkpt lat="51.9062900" lon="6.1094800"/>
<trkpt lat="51.9062600" lon="6.1086700"/>
<trkpt lat="51.9057800" lon="6.1088500"/>
<trkpt lat="51.9057600" lon="6.1072800"/>
<trkpt lat="51.9058000" lon="6.1070500"/>
<trkpt lat="51.9059700" lon="6.1067100"/>
<trkpt lat="51.9061700" lon="6.1062700"/>
<trkpt lat="51.9065900" lon="6.1048900"/>
<trkpt lat="51.9070100" lon="6.1032600"/>
<trkpt lat="51.9076100" lon="6.1013000"/>
<trkpt lat="51.9079800" lon="6.0995100"/>
<trkpt lat="51.9083400" lon="6.0979700"/>
<trkpt lat="51.9088200" lon="6.0969400"/>
<trkpt lat="51.9100600" lon="6.0953400"/>
<trkpt lat="51.9103800" lon="6.0948300"/>
<trkpt lat="51.9101900" lon="6.0947000"/>
<trkpt lat="51.9100200" lon="6.0944800"/>
<trkpt lat="51.9096100" lon="6.0938300"/>
</trkseg></trk>
<trk><name>Rijnstrangenpad - approachRoute</name><type>approachRoute</type><trkseg>
<trkpt lat="51.9135800" lon="6.0829100"/>
<trkpt lat="51.9137800" lon="6.0828700"/>
<trkpt lat="51.9138700" lon="6.0826800"/>
<trkpt lat="51.9139700" lon="6.0826000"/>
<trkpt lat="51.9142700" lon="6.0826600"/>
<trkpt lat="51.9144000" lon="6.0825300"/>
<trkpt lat="51.9144800" lon="6.0823800"/>
<trkpt lat="51.9145400" lon="6.0821400"/>
<trkpt lat="51.9146200" lon="6.0821000"/>
<trkpt lat="51.9149800" lon="6.0822900"/>
<trkpt lat="51.9152500" lon="6.0826600"/>
<trkpt lat="51.9156100" lon="6.0830000"/>
<trkpt lat="51.9160900" lon="6.0816900"/>
<trkpt lat="51.9163400" lon="6.0818800"/>
<trkpt lat="51.9164600" lon="6.0816300"/>
<trkpt lat="51.9170200" lon="6.0816100"/>
<trkpt lat="51.9170900" lon="6.0814300"/>
<trkpt lat="51.9171300" lon="6.0810900"/>
<trkpt lat="51.9172200" lon="6.0808300"/>
<trkpt lat="51.9173900" lon="6.0806500"/>
<trkpt lat="51.9176300" lon="6.0805700"/>
<trkpt lat="51.9177600" lon="6.0806000"/>
<trkpt lat="51.9180300" lon="6.0806300"/>
<trkpt lat="51.9182600" lon="6.0805900"/>
<trkpt lat="51.9183600" lon="6.0804800"/>
<trkpt lat="51.9184300" lon="6.0803000"/>
<trkpt lat="51.9186600" lon="6.0801400"/>
<trkpt lat="51.9190900" lon="6.0800300"/>
<trkpt lat="51.9191600" lon="6.0799800"/>
<trkpt lat="51.9191400" lon="6.0797700"/>
<trkpt lat="51.9191900" lon="6.0796000"/>
<trkpt lat="51.9193700" lon="6.0795300"/>
<trkpt lat="51.9195600" lon="6.0794000"/>
<trkpt lat="51.9196600" lon="6.0791900"/>
<trkpt lat="51.9197300" lon="6.0789700"/>
<trkpt lat="51.9198100" lon="6.0789400"/>
<trkpt lat="51.9199100" lon="6.0785600"/>
<trkpt lat="51.9192100" lon="6.0767800"/>
<trkpt lat="51.9183700" lon="6.0745600"/>
<trkpt lat="51.9190900" lon="6.0746300"/>
<trkpt lat="51.9200000" lon="6.0746500"/>
<trkpt lat="51.9205400" lon="6.0747900"/>
<trkpt lat="51.9207900" lon="6.0747600"/>
<trkpt lat="51.9218600" lon="6.0742500"/>
<trkpt lat="51.9219000" lon="6.0746700"/>
<trkpt lat="51.9220100" lon="6.0746100"/>
<trkpt lat="51.9222200" lon="6.0747000"/>
<trkpt lat="51.9226000" lon="6.0745800"/>
<trkpt lat="51.9227400" lon="6.0743700"/>
<trkpt lat="51.9228600" lon="6.0740200"/>
<trkpt lat="51.9230200" lon="6.0736500"/>
<trkpt lat="51.9230600" lon="6.0734900"/>
<trkpt lat="51.9230700" lon="6.0735000"/>
</trkseg></trk>
</gpx>