<?xml version="1.0" encoding="UTF-8"?>
<gpx version="1.1" creator="klompenpaden.nl via Jimbo API" xmlns="http://www.topografix.com/GPX/1/1">
<metadata><name>Rijnweidepad</name><desc>Ontdek het landschap van Spijk. Beleef de historie van de baksteenindustrie en de dynamiek van dit bewogen rivierlandschap. U wandelt langs de grens van Nederland met uitzicht op de Eltenberg. Klompen aan, rugzak op en gaan!</desc><link href="https://www.klompenpaden.nl/klompenpaden/Rijnweidepad/d7815a3f-a0bb-40cc-874c-8f17037d03dd"><text>klompenpaden.nl</text></link></metadata>
<wpt lat="51.85044960777227" lon="6.151453256607056"><name>Start Spijk</name></wpt>
<trk><name>Rijnweidepad - mainRoute</name><type>mainRoute</type><trkseg>
<trkpt lat="51.8502800" lon="6.1510000"/>
<trkpt lat="51.8503000" lon="6.1509500"/>
<trkpt lat="51.8490500" lon="6.1493200"/>
<trkpt lat="51.8496600" lon="6.1484100"/>
<trkpt lat="51.8504000" lon="6.1474700"/>
<trkpt lat="51.8519700" lon="6.1453300"/>
<trkpt lat="51.8523700" lon="6.1444100"/>
<trkpt lat="51.8524900" lon="6.1437800"/>
<trkpt lat="51.8526300" lon="6.1422300"/>
<trkpt lat="51.8526700" lon="6.1415400"/>
<trkpt lat="51.8530400" lon="6.1414600"/>
<trkpt lat="51.8534000" lon="6.1414500"/>
<trkpt lat="51.8533100" lon="6.1397200"/>
<trkpt lat="51.8527200" lon="6.1398400"/>
<trkpt lat="51.8526600" lon="6.1384400"/>
<trkpt lat="51.8524900" lon="6.1355700"/>
<trkpt lat="51.8522200" lon="6.1320100"/>
<trkpt lat="51.8526900" lon="6.1318000"/>
<trkpt lat="51.8533600" lon="6.1317400"/>
<trkpt lat="51.8536000" lon="6.1315500"/>
<trkpt lat="51.8538200" lon="6.1310900"/>
<trkpt lat="51.8540800" lon="6.1298400"/>
<trkpt lat="51.8541700" lon="6.1294800"/>
<trkpt lat="51.8543700" lon="6.1290400"/>
<trkpt lat="51.8547700" lon="6.1285400"/>
<trkpt lat="51.8549500" lon="6.1283900"/>
<trkpt lat="51.8548600" lon="6.1275500"/>
<trkpt lat="51.8548800" lon="6.1271900"/>
<trkpt lat="51.8550800" lon="6.1266400"/>
<trkpt lat="51.8555000" lon="6.1261400"/>
<trkpt lat="51.8565600" lon="6.1247100"/>
<trkpt lat="51.8568100" lon="6.1244600"/>
<trkpt lat="51.8570900" lon="6.1242800"/>
<trkpt lat="51.8579200" lon="6.1236100"/>
<trkpt lat="51.8585800" lon="6.1231700"/>
<trkpt lat="51.8590300" lon="6.1229100"/>
<trkpt lat="51.8592900" lon="6.1226300"/>
<trkpt lat="51.8594800" lon="6.1225200"/>
<trkpt lat="51.8596100" lon="6.1228800"/>
<trkpt lat="51.8596400" lon="6.1229200"/>
<trkpt lat="51.8599700" lon="6.1227400"/>
<trkpt lat="51.8601500" lon="6.1225300"/>
<trkpt lat="51.8601800" lon="6.1225600"/>
<trkpt lat="51.8603600" lon="6.1228700"/>
<trkpt lat="51.8601200" lon="6.1232400"/>
<trkpt lat="51.8601100" lon="6.1234600"/>
<trkpt lat="51.8603000" lon="6.1242800"/>
<trkpt lat="51.8604500" lon="6.1246200"/>
<trkpt lat="51.8603600" lon="6.1251900"/>
<trkpt lat="51.8602600" lon="6.1253700"/>
<trkpt lat="51.8605700" lon="6.1265900"/>
<trkpt lat="51.8606200" lon="6.1269500"/>
<trkpt lat="51.8607900" lon="6.1275500"/>
<trkpt lat="51.8609200" lon="6.1278800"/>
<trkpt lat="51.8611800" lon="6.1284700"/>
<trkpt lat="51.8613400" lon="6.1299700"/>
<trkpt lat="51.8615800" lon="6.1311100"/>
<trkpt lat="51.8617100" lon="6.1314800"/>
<trkpt lat="51.8619500" lon="6.1319200"/>
<trkpt lat="51.8620200" lon="6.1321000"/>
<trkpt lat="51.8625600" lon="6.1338000"/>
<trkpt lat="51.8628900" lon="6.1347400"/>
<trkpt lat="51.8636200" lon="6.1361700"/>
<trkpt lat="51.8636900" lon="6.1365100"/>
<trkpt lat="51.8645800" lon="6.1380900"/>
<trkpt lat="51.8646900" lon="6.1383500"/>
<trkpt lat="51.8648400" lon="6.1392600"/>
<trkpt lat="51.8648900" lon="6.1394600"/>
<trkpt lat="51.8649600" lon="6.1396200"/>
<trkpt lat="51.8650300" lon="6.1396800"/>
<trkpt lat="51.8675700" lon="6.1407900"/>
<trkpt lat="51.8684700" lon="6.1411400"/>
<trkpt lat="51.8687800" lon="6.1412900"/>
<trkpt lat="51.8706300" lon="6.1430500"/>
<trkpt lat="51.8707300" lon="6.1431100"/>
<trkpt lat="51.8709200" lon="6.1430800"/>
<trkpt lat="51.8710100" lon="6.1430300"/>
<trkpt lat="51.8714000" lon="6.1442000"/>
<trkpt lat="51.8712500" lon="6.1440200"/>
<trkpt lat="51.8706000" lon="6.1441500"/>
<trkpt lat="51.8703400" lon="6.1442200"/>
<trkpt lat="51.8699100" lon="6.1438800"/>
<trkpt lat="51.8695200" lon="6.1436800"/>
<trkpt lat="51.8693600" lon="6.1437300"/>
<trkpt lat="51.8692300" lon="6.1438300"/>
<trkpt lat="51.8691800" lon="6.1440300"/>
<trkpt lat="51.8692000" lon="6.1442400"/>
<trkpt lat="51.8696000" lon="6.1445100"/>
<trkpt lat="51.8692000" lon="6.1455500"/>
<trkpt lat="51.8691300" lon="6.1458100"/>
<trkpt lat="51.8691300" lon="6.1462400"/>
<trkpt lat="51.8691000" lon="6.1464400"/>
<trkpt lat="51.8686600" lon="6.1475200"/>
<trkpt lat="51.8684100" lon="6.1480000"/>
<trkpt lat="51.8681100" lon="6.1484600"/>
<trkpt lat="51.8679400" lon="6.1486800"/>
<trkpt lat="51.8676200" lon="6.1488900"/>
<trkpt lat="51.8674700" lon="6.1489600"/>
<trkpt lat="51.8671700" lon="6.1490000"/>
<trkpt lat="51.8670000" lon="6.1491300"/>
<trkpt lat="51.8665700" lon="6.1496000"/>
<trkpt lat="51.8663900" lon="6.1499400"/>
<trkpt lat="51.8661200" lon="6.1508000"/>
<trkpt lat="51.8660900" lon="6.1509400"/>
<trkpt lat="51.8661200" lon="6.1513500"/>
<trkpt lat="51.8660800" lon="6.1524100"/>
<trkpt lat="51.8658600" lon="6.1539400"/>
<trkpt lat="51.8655200" lon="6.1535500"/>
<trkpt lat="51.8645100" lon="6.1529100"/>
<trkpt lat="51.8641700" lon="6.1525500"/>
<trkpt lat="51.8637000" lon="6.1519700"/>
<trkpt lat="51.8630600" lon="6.1509200"/>
<trkpt lat="51.8624600" lon="6.1519500"/>
<trkpt lat="51.8617000" lon="6.1530900"/>
<trkpt lat="51.8607200" lon="6.1544900"/>
<trkpt lat="51.8601100" lon="6.1559700"/>
<trkpt lat="51.8594100" lon="6.1575600"/>
<trkpt lat="51.8587400" lon="6.1589800"/>
<trkpt lat="51.8580800" lon="6.1599800"/>
<trkpt lat="51.8578200" lon="6.1605500"/>
<trkpt lat="51.8576900" lon="6.1607600"/>
<trkpt lat="51.8575100" lon="6.1607800"/>
<trkpt lat="51.8570900" lon="6.1601800"/>
<trkpt lat="51.8564400" lon="6.1587700"/>
<trkpt lat="51.8562600" lon="6.1585000"/>
<trkpt lat="51.8559000" lon="6.1584400"/>
<trkpt lat="51.8557100" lon="6.1586000"/>
<trkpt lat="51.8553700" lon="6.1590700"/>
<trkpt lat="51.8546900" lon="6.1604900"/>
<trkpt lat="51.8545600" lon="6.1608800"/>
<trkpt lat="51.8543900" lon="6.1611800"/>
<trkpt lat="51.8543100" lon="6.1612300"/>
<trkpt lat="51.8544200" lon="6.1618900"/>
<trkpt lat="51.8544400" lon="6.1623100"/>
<trkpt lat="51.8543300" lon="6.1629500"/>
<trkpt lat="51.8542100" lon="6.1634300"/>
<trkpt lat="51.8541200" lon="6.1637400"/>
<trkpt lat="51.8538300" lon="6.1652600"/>
<trkpt lat="51.8534600" lon="6.1664600"/>
<trkpt lat="51.8525500" lon="6.1687200"/>
<trkpt lat="51.8522600" lon="6.1695900"/>
<trkpt lat="51.8522500" lon="6.1700400"/>
<trkpt lat="51.8521500" lon="6.1704200"/>
<trkpt lat="51.8518100" lon="6.1698500"/>
<trkpt lat="51.8514100" lon="6.1691200"/>
<trkpt lat="51.8511100" lon="6.1685100"/>
<trkpt lat="51.8510300" lon="6.1679300"/>
<trkpt lat="51.8507800" lon="6.1676100"/>
<trkpt lat="51.8501200" lon="6.1671500"/>
<trkpt lat="51.8492700" lon="6.1666800"/>
<trkpt lat="51.8488500" lon="6.1670400"/>
<trkpt lat="51.8485000" lon="6.1672100"/>
<trkpt lat="51.8477100" lon="6.1674000"/>
<trkpt lat="51.8468600" lon="6.1673200"/>
<trkpt lat="51.8463800" lon="6.1668600"/>
<trkpt lat="51.8460900" lon="6.1664700"/>
<trkpt lat="51.8460600" lon="6.1661100"/>
<trkpt lat="51.8457900" lon="6.1660200"/>
<trkpt lat="51.8456500" lon="6.1658200"/>
<trkpt lat="51.8456400" lon="6.1654700"/>
<trkpt lat="51.8457100" lon="6.1645300"/>
<trkpt lat="51.8458200" lon="6.1624800"/>
<trkpt lat="51.8457900" lon="6.1618900"/>
<trkpt lat="51.8457100" lon="6.1613700"/>
<trkpt lat="51.8457100" lon="6.1606800"/>
<trkpt lat="51.8458500" lon="6.1596100"/>
<trkpt lat="51.8464900" lon="6.1564200"/>
<trkpt lat="51.8468700" lon="6.1547600"/>
<trkpt lat="51.8474000" lon="6.1551200"/>
<trkpt lat="51.8481400" lon="6.1552600"/>
<trkpt lat="51.8483800" lon="6.1553400"/>
<trkpt lat="51.8487500" lon="6.1555800"/>
<trkpt lat="51.8490000" lon="6.1557100"/>
<trkpt lat="51.8491400" lon="6.1556700"/>
<trkpt lat="51.8492900" lon="6.1554700"/>
<trkpt lat="51.8493600" lon="6.1548600"/>
<trkpt lat="51.8494100" lon="6.1546100"/>
<trkpt lat="51.8501800" lon="6.1533500"/>
<trkpt lat="51.8499700" lon="6.1529900"/>
<trkpt lat="51.8497600" lon="6.1526900"/>
<trkpt lat="51.8496600" lon="6.1522800"/>
<trkpt lat="51.8497300" lon="6.1519800"/>
<trkpt lat="51.8502800" lon="6.1510000"/>
<trkpt lat="51.8505200" lon="6.1513600"/>
</trkseg></trk>
<trk><name>Rijnweidepad - approachRoute</name><type>approachRoute</type><trkseg>
<trkpt lat="51.8568100" lon="6.1244600"/>
<trkpt lat="51.8563500" lon="6.1235700"/>
<trkpt lat="51.8560700" lon="6.1227900"/>
<trkpt lat="51.8558800" lon="6.1219000"/>
<trkpt lat="51.8556100" lon="6.1200900"/>
<trkpt lat="51.8552400" lon="6.1178500"/>
<trkpt lat="51.8550000" lon="6.1166300"/>
<trkpt lat="51.8543300" lon="6.1144600"/>
<trkpt lat="51.8537100" lon="6.1125900"/>
<trkpt lat="51.8535600" lon="6.1113500"/>
<trkpt lat="51.8533900" lon="6.1111500"/>
<trkpt lat="51.8534500" lon="6.1092100"/>
<trkpt lat="51.8524800" lon="6.1089000"/>
<trkpt lat="51.8527600" lon="6.1081400"/>
<trkpt lat="51.8531800" lon="6.1067000"/>
</trkseg></trk>
<trk><name>Rijnweidepad - approachRoute</name><type>approachRoute</type><trkseg>
<trkpt lat="51.8743500" lon="6.1540700"/>
<trkpt lat="51.8745000" lon="6.1535000"/>
<trkpt lat="51.8744000" lon="6.1534500"/>
<trkpt lat="51.8711800" lon="6.1553900"/>
<trkpt lat="51.8689300" lon="6.1566700"/>
<trkpt lat="51.8688600" lon="6.1564500"/>
<trkpt lat="51.8677100" lon="6.1544000"/>
<trkpt lat="51.8675600" lon="6.1543200"/>
<trkpt lat="51.8673700" lon="6.1542700"/>
<trkpt lat="51.8664900" lon="6.1543100"/>
<trkpt lat="51.8663200" lon="6.1542900"/>
<trkpt lat="51.8658700" lon="6.1539400"/>
</trkseg></trk>
</gpx>