<?xml version="1.0" encoding="UTF-8"?>
<gpx version="1.1" creator="klompenpaden.nl via Jimbo API" xmlns="http://www.topografix.com/GPX/1/1">
<metadata><name>Rosandepad</name><desc>Ontdek het afwisselende landschap rond Oosterbeek. Kijk met de ogen van de schilders van de Oosterbeekse school naar beboste hellingen en snelstromende beken. Wandel door de uiterwaarden van Rosande en door landgoederen met beukenlanen op de stuwwal. Klompen aan, rugzak op en gaan!
</desc><link href="https://www.klompenpaden.nl/klompenpaden/Rosandepad/75aedc8c-4369-42f8-ba93-f8d67fc0590c"><text>klompenpaden.nl</text></link></metadata>
<wpt lat="51.98801862183192" lon="5.83348274230957"><name>Start Oosterbeek</name></wpt>
<trk><name>Rosandepad - hoofdroute</name><type>mainRoute</type><trkseg>
<trkpt lat="51.9877566" lon="5.8331475"/>
<trkpt lat="51.9876294" lon="5.8329678"/>
<trkpt lat="51.9876017" lon="5.8329139"/>
<trkpt lat="51.9875503" lon="5.8327544"/>
<trkpt lat="51.9875113" lon="5.8327685"/>
<trkpt lat="51.9872073" lon="5.8328519"/>
<trkpt lat="51.9871924" lon="5.8328010"/>
<trkpt lat="51.9870485" lon="5.8325366"/>
<trkpt lat="51.9869545" lon="5.8323929"/>
<trkpt lat="51.9868130" lon="5.8322754"/>
<trkpt lat="51.9866779" lon="5.8322582"/>
<trkpt lat="51.9864147" lon="5.8321738"/>
<trkpt lat="51.9862624" lon="5.8319977"/>
<trkpt lat="51.9861383" lon="5.8320058"/>
<trkpt lat="51.9860158" lon="5.8318884"/>
<trkpt lat="51.9860251" lon="5.8318000"/>
<trkpt lat="51.9860394" lon="5.8311807"/>
<trkpt lat="51.9860101" lon="5.8309720"/>
<trkpt lat="51.9859558" lon="5.8309095"/>
<trkpt lat="51.9859065" lon="5.8310724"/>
<trkpt lat="51.9857595" lon="5.8310724"/>
<trkpt lat="51.9855063" lon="5.8311532"/>
<trkpt lat="51.9852395" lon="5.8311353"/>
<trkpt lat="51.9851029" lon="5.8310114"/>
<trkpt lat="51.9850183" lon="5.8308844"/>
<trkpt lat="51.9849518" lon="5.8307490"/>
<trkpt lat="51.9848577" lon="5.8305783"/>
<trkpt lat="51.9846759" lon="5.8304117"/>
<trkpt lat="51.9845982" lon="5.8303699"/>
<trkpt lat="51.9842485" lon="5.8303543"/>
<trkpt lat="51.9841386" lon="5.8297846"/>
<trkpt lat="51.9840340" lon="5.8291910"/>
<trkpt lat="51.9838785" lon="5.8284044"/>
<trkpt lat="51.9836350" lon="5.8269197"/>
<trkpt lat="51.9832194" lon="5.8265467"/>
<trkpt lat="51.9830368" lon="5.8264418"/>
<trkpt lat="51.9827972" lon="5.8261920"/>
<trkpt lat="51.9827071" lon="5.8260857"/>
<trkpt lat="51.9817287" lon="5.8265276"/>
<trkpt lat="51.9817657" lon="5.8261417"/>
<trkpt lat="51.9817131" lon="5.8262917"/>
<trkpt lat="51.9816582" lon="5.8263878"/>
<trkpt lat="51.9815426" lon="5.8261926"/>
<trkpt lat="51.9815178" lon="5.8262231"/>
<trkpt lat="51.9814685" lon="5.8260850"/>
<trkpt lat="51.9811284" lon="5.8263910"/>
<trkpt lat="51.9810988" lon="5.8262532"/>
<trkpt lat="51.9810920" lon="5.8260426"/>
<trkpt lat="51.9809285" lon="5.8260463"/>
<trkpt lat="51.9807324" lon="5.8257241"/>
<trkpt lat="51.9806744" lon="5.8255463"/>
<trkpt lat="51.9806592" lon="5.8254627"/>
<trkpt lat="51.9807020" lon="5.8251953"/>
<trkpt lat="51.9806997" lon="5.8250388"/>
<trkpt lat="51.9807082" lon="5.8248980"/>
<trkpt lat="51.9806193" lon="5.8249438"/>
<trkpt lat="51.9805270" lon="5.8249312"/>
<trkpt lat="51.9803661" lon="5.8249627"/>
<trkpt lat="51.9802653" lon="5.8249947"/>
<trkpt lat="51.9801188" lon="5.8250321"/>
<trkpt lat="51.9801540" lon="5.8252306"/>
<trkpt lat="51.9802357" lon="5.8253690"/>
<trkpt lat="51.9802601" lon="5.8254181"/>
<trkpt lat="51.9802622" lon="5.8254919"/>
<trkpt lat="51.9802401" lon="5.8256199"/>
<trkpt lat="51.9802051" lon="5.8256895"/>
<trkpt lat="51.9802043" lon="5.8258973"/>
<trkpt lat="51.9801921" lon="5.8263856"/>
<trkpt lat="51.9801867" lon="5.8264527"/>
<trkpt lat="51.9800820" lon="5.8265313"/>
<trkpt lat="51.9798131" lon="5.8265986"/>
<trkpt lat="51.9797236" lon="5.8266157"/>
<trkpt lat="51.9797178" lon="5.8267278"/>
<trkpt lat="51.9796751" lon="5.8269294"/>
<trkpt lat="51.9796557" lon="5.8269797"/>
<trkpt lat="51.9794841" lon="5.8270130"/>
<trkpt lat="51.9794382" lon="5.8269991"/>
<trkpt lat="51.9793580" lon="5.8271614"/>
<trkpt lat="51.9792711" lon="5.8272751"/>
<trkpt lat="51.9792991" lon="5.8274380"/>
<trkpt lat="51.9793338" lon="5.8275693"/>
<trkpt lat="51.9793412" lon="5.8276559"/>
<trkpt lat="51.9793279" lon="5.8277434"/>
<trkpt lat="51.9792530" lon="5.8282337"/>
<trkpt lat="51.9792350" lon="5.8287650"/>
<trkpt lat="51.9792506" lon="5.8288907"/>
<trkpt lat="51.9792338" lon="5.8289963"/>
<trkpt lat="51.9790704" lon="5.8294620"/>
<trkpt lat="51.9790317" lon="5.8296980"/>
<trkpt lat="51.9790082" lon="5.8298729"/>
<trkpt lat="51.9789976" lon="5.8304433"/>
<trkpt lat="51.9790067" lon="5.8306647"/>
<trkpt lat="51.9790452" lon="5.8308119"/>
<trkpt lat="51.9791095" lon="5.8309271"/>
<trkpt lat="51.9793596" lon="5.8310850"/>
<trkpt lat="51.9799727" lon="5.8315141"/>
<trkpt lat="51.9800158" lon="5.8316975"/>
<trkpt lat="51.9801287" lon="5.8316617"/>
<trkpt lat="51.9803776" lon="5.8318234"/>
<trkpt lat="51.9804206" lon="5.8318608"/>
<trkpt lat="51.9805501" lon="5.8320667"/>
<trkpt lat="51.9805730" lon="5.8321595"/>
<trkpt lat="51.9806180" lon="5.8323056"/>
<trkpt lat="51.9808145" lon="5.8325047"/>
<trkpt lat="51.9809852" lon="5.8325929"/>
<trkpt lat="51.9810788" lon="5.8325705"/>
<trkpt lat="51.9813007" lon="5.8325785"/>
<trkpt lat="51.9814206" lon="5.8325797"/>
<trkpt lat="51.9815749" lon="5.8325934"/>
<trkpt lat="51.9815492" lon="5.8327882"/>
<trkpt lat="51.9816906" lon="5.8330645"/>
<trkpt lat="51.9816757" lon="5.8331576"/>
<trkpt lat="51.9815837" lon="5.8333195"/>
<trkpt lat="51.9815284" lon="5.8333302"/>
<trkpt lat="51.9814451" lon="5.8334412"/>
<trkpt lat="51.9812612" lon="5.8335326"/>
<trkpt lat="51.9810225" lon="5.8335464"/>
<trkpt lat="51.9808861" lon="5.8334829"/>
<trkpt lat="51.9806518" lon="5.8333053"/>
<trkpt lat="51.9805902" lon="5.8331605"/>
<trkpt lat="51.9805643" lon="5.8330397"/>
<trkpt lat="51.9805578" lon="5.8329948"/>
<trkpt lat="51.9805783" lon="5.8328583"/>
<trkpt lat="51.9805739" lon="5.8328122"/>
<trkpt lat="51.9805593" lon="5.8327957"/>
<trkpt lat="51.9805163" lon="5.8328042"/>
<trkpt lat="51.9804891" lon="5.8327561"/>
<trkpt lat="51.9803992" lon="5.8327235"/>
<trkpt lat="51.9803227" lon="5.8326444"/>
<trkpt lat="51.9803008" lon="5.8325435"/>
<trkpt lat="51.9803943" lon="5.8323903"/>
<trkpt lat="51.9803465" lon="5.8323391"/>
<trkpt lat="51.9802877" lon="5.8322761"/>
<trkpt lat="51.9801097" lon="5.8321438"/>
<trkpt lat="51.9799166" lon="5.8320437"/>
<trkpt lat="51.9798850" lon="5.8320856"/>
<trkpt lat="51.9798353" lon="5.8322107"/>
<trkpt lat="51.9798396" lon="5.8323139"/>
<trkpt lat="51.9796366" lon="5.8324064"/>
<trkpt lat="51.9795863" lon="5.8325003"/>
<trkpt lat="51.9794743" lon="5.8325726"/>
<trkpt lat="51.9792075" lon="5.8328036"/>
<trkpt lat="51.9791672" lon="5.8328828"/>
<trkpt lat="51.9790635" lon="5.8329178"/>
<trkpt lat="51.9789353" lon="5.8329004"/>
<trkpt lat="51.9788941" lon="5.8328341"/>
<trkpt lat="51.9788690" lon="5.8325927"/>
<trkpt lat="51.9788960" lon="5.8325345"/>
<trkpt lat="51.9789708" lon="5.8323300"/>
<trkpt lat="51.9790885" lon="5.8319795"/>
<trkpt lat="51.9790182" lon="5.8319442"/>
<trkpt lat="51.9789874" lon="5.8319078"/>
<trkpt lat="51.9788309" lon="5.8318937"/>
<trkpt lat="51.9786607" lon="5.8318485"/>
<trkpt lat="51.9786040" lon="5.8318044"/>
<trkpt lat="51.9780800" lon="5.8318899"/>
<trkpt lat="51.9779195" lon="5.8319348"/>
<trkpt lat="51.9777314" lon="5.8319797"/>
<trkpt lat="51.9775875" lon="5.8320066"/>
<trkpt lat="51.9775156" lon="5.8320695"/>
<trkpt lat="51.9775045" lon="5.8321683"/>
<trkpt lat="51.9775377" lon="5.8324019"/>
<trkpt lat="51.9775820" lon="5.8327971"/>
<trkpt lat="51.9775986" lon="5.8329499"/>
<trkpt lat="51.9775764" lon="5.8333361"/>
<trkpt lat="51.9775654" lon="5.8334529"/>
<trkpt lat="51.9775488" lon="5.8336236"/>
<trkpt lat="51.9775377" lon="5.8337763"/>
<trkpt lat="51.9775432" lon="5.8339380"/>
<trkpt lat="51.9775598" lon="5.8340997"/>
<trkpt lat="51.9776484" lon="5.8346926"/>
<trkpt lat="51.9777258" lon="5.8352046"/>
<trkpt lat="51.9777535" lon="5.8355550"/>
<trkpt lat="51.9778586" lon="5.8366689"/>
<trkpt lat="51.9778863" lon="5.8370013"/>
<trkpt lat="51.9779084" lon="5.8372169"/>
<trkpt lat="51.9779297" lon="5.8373430"/>
<trkpt lat="51.9780070" lon="5.8374463"/>
<trkpt lat="51.9779746" lon="5.8375266"/>
<trkpt lat="51.9778959" lon="5.8375751"/>
<trkpt lat="51.9779130" lon="5.8377420"/>
<trkpt lat="51.9779005" lon="5.8379113"/>
<trkpt lat="51.9778885" lon="5.8379577"/>
<trkpt lat="51.9778739" lon="5.8380096"/>
<trkpt lat="51.9778889" lon="5.8380698"/>
<trkpt lat="51.9779277" lon="5.8380770"/>
<trkpt lat="51.9779683" lon="5.8380665"/>
<trkpt lat="51.9780333" lon="5.8380562"/>
<trkpt lat="51.9780892" lon="5.8380212"/>
<trkpt lat="51.9781408" lon="5.8379804"/>
<trkpt lat="51.9781740" lon="5.8379984"/>
<trkpt lat="51.9782072" lon="5.8380253"/>
<trkpt lat="51.9782128" lon="5.8381601"/>
<trkpt lat="51.9782017" lon="5.8382859"/>
<trkpt lat="51.9781906" lon="5.8385464"/>
<trkpt lat="51.9781519" lon="5.8391033"/>
<trkpt lat="51.9781335" lon="5.8393935"/>
<trkpt lat="51.9781262" lon="5.8395088"/>
<trkpt lat="51.9781184" lon="5.8396327"/>
<trkpt lat="51.9780910" lon="5.8400645"/>
<trkpt lat="51.9775222" lon="5.8396027"/>
<trkpt lat="51.9774547" lon="5.8395704"/>
<trkpt lat="51.9774104" lon="5.8395704"/>
<trkpt lat="51.9773440" lon="5.8396513"/>
<trkpt lat="51.9771338" lon="5.8401274"/>
<trkpt lat="51.9769205" lon="5.8405313"/>
<trkpt lat="51.9767077" lon="5.8408730"/>
<trkpt lat="51.9764864" lon="5.8411425"/>
<trkpt lat="51.9761988" lon="5.8414383"/>
<trkpt lat="51.9758389" lon="5.8418073"/>
<trkpt lat="51.9756176" lon="5.8421396"/>
<trkpt lat="51.9753409" lon="5.8426517"/>
<trkpt lat="51.9750476" lon="5.8431547"/>
<trkpt lat="51.9748162" lon="5.8434858"/>
<trkpt lat="51.9747045" lon="5.8436308"/>
<trkpt lat="51.9745590" lon="5.8439151"/>
<trkpt lat="51.9745110" lon="5.8439917"/>
<trkpt lat="51.9743670" lon="5.8442507"/>
<trkpt lat="51.9741733" lon="5.8446459"/>
<trkpt lat="51.9740073" lon="5.8450681"/>
<trkpt lat="51.9739243" lon="5.8453466"/>
<trkpt lat="51.9738634" lon="5.8457868"/>
<trkpt lat="51.9737804" lon="5.8462359"/>
<trkpt lat="51.9737306" lon="5.8464246"/>
<trkpt lat="51.9735756" lon="5.8467660"/>
<trkpt lat="51.9735203" lon="5.8469187"/>
<trkpt lat="51.9734428" lon="5.8469636"/>
<trkpt lat="51.9733598" lon="5.8469546"/>
<trkpt lat="51.9733211" lon="5.8470265"/>
<trkpt lat="51.9732713" lon="5.8473319"/>
<trkpt lat="51.9732657" lon="5.8474666"/>
<trkpt lat="51.9734650" lon="5.8476104"/>
<trkpt lat="51.9733709" lon="5.8481314"/>
<trkpt lat="51.9733266" lon="5.8482841"/>
<trkpt lat="51.9732823" lon="5.8488950"/>
<trkpt lat="51.9732499" lon="5.8490811"/>
<trkpt lat="51.9732159" lon="5.8493172"/>
<trkpt lat="51.9731602" lon="5.8496035"/>
<trkpt lat="51.9731053" lon="5.8499280"/>
<trkpt lat="51.9730389" lon="5.8502514"/>
<trkpt lat="51.9730167" lon="5.8503143"/>
<trkpt lat="51.9729503" lon="5.8503502"/>
<trkpt lat="51.9728618" lon="5.8503412"/>
<trkpt lat="51.9727677" lon="5.8503053"/>
<trkpt lat="51.9726681" lon="5.8502604"/>
<trkpt lat="51.9725906" lon="5.8503143"/>
<trkpt lat="51.9725463" lon="5.8505658"/>
<trkpt lat="51.9724910" lon="5.8507185"/>
<trkpt lat="51.9724523" lon="5.8509252"/>
<trkpt lat="51.9723969" lon="5.8511497"/>
<trkpt lat="51.9722254" lon="5.8519492"/>
<trkpt lat="51.9718823" lon="5.8533865"/>
<trkpt lat="51.9717218" lon="5.8540423"/>
<trkpt lat="51.9716222" lon="5.8544645"/>
<trkpt lat="51.9716056" lon="5.8545903"/>
<trkpt lat="51.9716111" lon="5.8546891"/>
<trkpt lat="51.9716277" lon="5.8548149"/>
<trkpt lat="51.9716554" lon="5.8549137"/>
<trkpt lat="51.9716886" lon="5.8550125"/>
<trkpt lat="51.9717107" lon="5.8550844"/>
<trkpt lat="51.9717550" lon="5.8552550"/>
<trkpt lat="51.9717494" lon="5.8554347"/>
<trkpt lat="51.9717052" lon="5.8557761"/>
<trkpt lat="51.9716996" lon="5.8561713"/>
<trkpt lat="51.9717107" lon="5.8565666"/>
<trkpt lat="51.9717328" lon="5.8569079"/>
<trkpt lat="51.9717716" lon="5.8572403"/>
<trkpt lat="51.9717771" lon="5.8573661"/>
<trkpt lat="51.9718048" lon="5.8574559"/>
<trkpt lat="51.9718324" lon="5.8575188"/>
<trkpt lat="51.9719431" lon="5.8575637"/>
<trkpt lat="51.9720815" lon="5.8576446"/>
<trkpt lat="51.9723526" lon="5.8578062"/>
<trkpt lat="51.9724965" lon="5.8578961"/>
<trkpt lat="51.9726404" lon="5.8579679"/>
<trkpt lat="51.9727400" lon="5.8580398"/>
<trkpt lat="51.9728120" lon="5.8581207"/>
<trkpt lat="51.9728950" lon="5.8581835"/>
<trkpt lat="51.9738081" lon="5.8587495"/>
<trkpt lat="51.9749978" lon="5.8595041"/>
<trkpt lat="51.9751749" lon="5.8596927"/>
<trkpt lat="51.9753188" lon="5.8598993"/>
<trkpt lat="51.9754184" lon="5.8602137"/>
<trkpt lat="51.9754903" lon="5.8605461"/>
<trkpt lat="51.9755014" lon="5.8610042"/>
<trkpt lat="51.9755014" lon="5.8614534"/>
<trkpt lat="51.9755235" lon="5.8630883"/>
<trkpt lat="51.9754682" lon="5.8633938"/>
<trkpt lat="51.9753962" lon="5.8636722"/>
<trkpt lat="51.9753686" lon="5.8638070"/>
<trkpt lat="51.9753741" lon="5.8638519"/>
<trkpt lat="51.9753962" lon="5.8638789"/>
<trkpt lat="51.9755567" lon="5.8637172"/>
<trkpt lat="51.9759828" lon="5.8632141"/>
<trkpt lat="51.9760935" lon="5.8629985"/>
<trkpt lat="51.9761488" lon="5.8628099"/>
<trkpt lat="51.9761986" lon="5.8623068"/>
<trkpt lat="51.9762705" lon="5.8621271"/>
<trkpt lat="51.9763923" lon="5.8620283"/>
<trkpt lat="51.9765583" lon="5.8620283"/>
<trkpt lat="51.9769788" lon="5.8620553"/>
<trkpt lat="51.9773241" lon="5.8620495"/>
<trkpt lat="51.9776278" lon="5.8619799"/>
<trkpt lat="51.9779887" lon="5.8618670"/>
<trkpt lat="51.9782292" lon="5.8617917"/>
<trkpt lat="51.9783150" lon="5.8617861"/>
<trkpt lat="51.9782362" lon="5.8614049"/>
<trkpt lat="51.9781549" lon="5.8611304"/>
<trkpt lat="51.9779422" lon="5.8602105"/>
<trkpt lat="51.9777006" lon="5.8592115"/>
<trkpt lat="51.9776705" lon="5.8589112"/>
<trkpt lat="51.9776248" lon="5.8586922"/>
<trkpt lat="51.9782128" lon="5.8590549"/>
<trkpt lat="51.9784894" lon="5.8592436"/>
<trkpt lat="51.9787440" lon="5.8594951"/>
<trkpt lat="51.9789930" lon="5.8597556"/>
<trkpt lat="51.9794688" lon="5.8599442"/>
<trkpt lat="51.9798451" lon="5.8601598"/>
<trkpt lat="51.9802102" lon="5.8603754"/>
<trkpt lat="51.9809793" lon="5.8607437"/>
<trkpt lat="51.9814662" lon="5.8609773"/>
<trkpt lat="51.9815437" lon="5.8609503"/>
<trkpt lat="51.9819918" lon="5.8613456"/>
<trkpt lat="51.9821965" lon="5.8616510"/>
<trkpt lat="51.9823791" lon="5.8619026"/>
<trkpt lat="51.9825230" lon="5.8620283"/>
<trkpt lat="51.9826060" lon="5.8621002"/>
<trkpt lat="51.9826668" lon="5.8620822"/>
<trkpt lat="51.9827000" lon="5.8619744"/>
<trkpt lat="51.9825728" lon="5.8610312"/>
<trkpt lat="51.9827000" lon="5.8609863"/>
<trkpt lat="51.9830209" lon="5.8609324"/>
<trkpt lat="51.9833584" lon="5.8608785"/>
<trkpt lat="51.9840279" lon="5.8607887"/>
<trkpt lat="51.9853612" lon="5.8605910"/>
<trkpt lat="51.9854995" lon="5.8605731"/>
<trkpt lat="51.9855548" lon="5.8605281"/>
<trkpt lat="51.9855825" lon="5.8604653"/>
<trkpt lat="51.9856212" lon="5.8603754"/>
<trkpt lat="51.9856433" lon="5.8602227"/>
<trkpt lat="51.9857097" lon="5.8602047"/>
<trkpt lat="51.9865949" lon="5.8600790"/>
<trkpt lat="51.9866281" lon="5.8601598"/>
<trkpt lat="51.9866226" lon="5.8603036"/>
<trkpt lat="51.9865838" lon="5.8610402"/>
<trkpt lat="51.9865451" lon="5.8617768"/>
<trkpt lat="51.9864732" lon="5.8632590"/>
<trkpt lat="51.9864455" lon="5.8635016"/>
<trkpt lat="51.9864345" lon="5.8640226"/>
<trkpt lat="51.9864289" lon="5.8641214"/>
<trkpt lat="51.9864621" lon="5.8641933"/>
<trkpt lat="51.9865783" lon="5.8642023"/>
<trkpt lat="51.9869987" lon="5.8642472"/>
<trkpt lat="51.9871094" lon="5.8642023"/>
<trkpt lat="51.9871758" lon="5.8640855"/>
<trkpt lat="51.9872256" lon="5.8638699"/>
<trkpt lat="51.9873085" lon="5.8636902"/>
<trkpt lat="51.9876847" lon="5.8637800"/>
<trkpt lat="51.9877290" lon="5.8639238"/>
<trkpt lat="51.9877179" lon="5.8640945"/>
<trkpt lat="51.9877235" lon="5.8642202"/>
<trkpt lat="51.9877591" lon="5.8644038"/>
<trkpt lat="51.9880505" lon="5.8643960"/>
<trkpt lat="51.9881955" lon="5.8644199"/>
<trkpt lat="51.9885012" lon="5.8645624"/>
<trkpt lat="51.9885627" lon="5.8646101"/>
<trkpt lat="51.9885484" lon="5.8644490"/>
<trkpt lat="51.9886765" lon="5.8644934"/>
<trkpt lat="51.9887989" lon="5.8645974"/>
<trkpt lat="51.9890752" lon="5.8648766"/>
<trkpt lat="51.9891962" lon="5.8650661"/>
<trkpt lat="51.9893263" lon="5.8648732"/>
<trkpt lat="51.9894181" lon="5.8648924"/>
<trkpt lat="51.9895039" lon="5.8649965"/>
<trkpt lat="51.9896048" lon="5.8650704"/>
<trkpt lat="51.9896717" lon="5.8651986"/>
<trkpt lat="51.9896864" lon="5.8652808"/>
<trkpt lat="51.9896710" lon="5.8653686"/>
<trkpt lat="51.9895938" lon="5.8654558"/>
<trkpt lat="51.9895542" lon="5.8655252"/>
<trkpt lat="51.9895058" lon="5.8656405"/>
<trkpt lat="51.9894656" lon="5.8657659"/>
<trkpt lat="51.9897148" lon="5.8657953"/>
<trkpt lat="51.9899905" lon="5.8659084"/>
<trkpt lat="51.9899634" lon="5.8654909"/>
<trkpt lat="51.9900910" lon="5.8655289"/>
<trkpt lat="51.9901996" lon="5.8656669"/>
<trkpt lat="51.9906113" lon="5.8658849"/>
<trkpt lat="51.9907406" lon="5.8659097"/>
<trkpt lat="51.9908312" lon="5.8659174"/>
<trkpt lat="51.9910128" lon="5.8658525"/>
<trkpt lat="51.9911179" lon="5.8658603"/>
<trkpt lat="51.9912222" lon="5.8660417"/>
<trkpt lat="51.9913085" lon="5.8657807"/>
<trkpt lat="51.9914132" lon="5.8657204"/>
<trkpt lat="51.9919166" lon="5.8656845"/>
<trkpt lat="51.9924863" lon="5.8656396"/>
<trkpt lat="51.9924144" lon="5.8650377"/>
<trkpt lat="51.9924476" lon="5.8649119"/>
<trkpt lat="51.9953239" lon="5.8655407"/>
<trkpt lat="51.9952354" lon="5.8639328"/>
<trkpt lat="51.9953095" lon="5.8637586"/>
<trkpt lat="51.9954622" lon="5.8637441"/>
<trkpt lat="51.9956558" lon="5.8637890"/>
<trkpt lat="51.9957941" lon="5.8637621"/>
<trkpt lat="51.9958881" lon="5.8636453"/>
<trkpt lat="51.9963859" lon="5.8624865"/>
<trkpt lat="51.9968462" lon="5.8613614"/>
<trkpt lat="51.9968794" lon="5.8612883"/>
<trkpt lat="51.9969190" lon="5.8611886"/>
<trkpt lat="51.9962199" lon="5.8604653"/>
<trkpt lat="51.9961815" lon="5.8603408"/>
<trkpt lat="51.9961545" lon="5.8601657"/>
<trkpt lat="51.9962365" lon="5.8596837"/>
<trkpt lat="51.9962255" lon="5.8593334"/>
<trkpt lat="51.9961751" lon="5.8591410"/>
<trkpt lat="51.9958162" lon="5.8594322"/>
<trkpt lat="51.9955452" lon="5.8594502"/>
<trkpt lat="51.9951414" lon="5.8593963"/>
<trkpt lat="51.9948578" lon="5.8592841"/>
<trkpt lat="51.9947758" lon="5.8591563"/>
<trkpt lat="51.9948294" lon="5.8586395"/>
<trkpt lat="51.9949201" lon="5.8580757"/>
<trkpt lat="51.9949367" lon="5.8578601"/>
<trkpt lat="51.9950805" lon="5.8563330"/>
<trkpt lat="51.9956050" lon="5.8564010"/>
<trkpt lat="51.9960823" lon="5.8565796"/>
<trkpt lat="51.9965492" lon="5.8568115"/>
<trkpt lat="51.9973382" lon="5.8527003"/>
<trkpt lat="51.9973864" lon="5.8525072"/>
<trkpt lat="51.9971643" lon="5.8523914"/>
<trkpt lat="51.9968798" lon="5.8524251"/>
<trkpt lat="51.9967011" lon="5.8526319"/>
<trkpt lat="51.9965242" lon="5.8526858"/>
<trkpt lat="51.9961994" lon="5.8525215"/>
<trkpt lat="51.9957222" lon="5.8520480"/>
<trkpt lat="51.9954788" lon="5.8518145"/>
<trkpt lat="51.9953165" lon="5.8517079"/>
<trkpt lat="51.9950473" lon="5.8512485"/>
<trkpt lat="51.9949367" lon="5.8511587"/>
<trkpt lat="51.9947698" lon="5.8512485"/>
<trkpt lat="51.9947057" lon="5.8514422"/>
<trkpt lat="51.9946449" lon="5.8514929"/>
<trkpt lat="51.9945745" lon="5.8512678"/>
<trkpt lat="51.9943552" lon="5.8510519"/>
<trkpt lat="51.9939583" lon="5.8506825"/>
<trkpt lat="51.9936560" lon="5.8504273"/>
<trkpt lat="51.9934143" lon="5.8501941"/>
<trkpt lat="51.9938944" lon="5.8488296"/>
<trkpt lat="51.9940904" lon="5.8482392"/>
<trkpt lat="51.9942619" lon="5.8477810"/>
<trkpt lat="51.9944785" lon="5.8471778"/>
<trkpt lat="51.9943919" lon="5.8470743"/>
<trkpt lat="51.9943289" lon="5.8469925"/>
<trkpt lat="51.9942203" lon="5.8468045"/>
<trkpt lat="51.9941210" lon="5.8467035"/>
<trkpt lat="51.9940596" lon="5.8467270"/>
<trkpt lat="51.9938423" lon="5.8469811"/>
<trkpt lat="51.9936050" lon="5.8472906"/>
<trkpt lat="51.9935428" lon="5.8473583"/>
<trkpt lat="51.9934410" lon="5.8474021"/>
<trkpt lat="51.9933050" lon="5.8473229"/>
<trkpt lat="51.9926485" lon="5.8470543"/>
<trkpt lat="51.9925907" lon="5.8469832"/>
<trkpt lat="51.9927131" lon="5.8467210"/>
<trkpt lat="51.9938415" lon="5.8436308"/>
<trkpt lat="51.9939300" lon="5.8433254"/>
<trkpt lat="51.9941568" lon="5.8427146"/>
<trkpt lat="51.9943006" lon="5.8423642"/>
<trkpt lat="51.9944565" lon="5.8419947"/>
<trkpt lat="51.9943891" lon="5.8419330"/>
<trkpt lat="51.9939688" lon="5.8415018"/>
<trkpt lat="51.9938139" lon="5.8413671"/>
<trkpt lat="51.9936369" lon="5.8412144"/>
<trkpt lat="51.9934211" lon="5.8410527"/>
<trkpt lat="51.9932497" lon="5.8409628"/>
<trkpt lat="51.9926458" lon="5.8406048"/>
<trkpt lat="51.9923643" lon="5.8404332"/>
<trkpt lat="51.9921130" lon="5.8402768"/>
<trkpt lat="51.9920234" lon="5.8402353"/>
<trkpt lat="51.9918270" lon="5.8400969"/>
<trkpt lat="51.9917705" lon="5.8404466"/>
<trkpt lat="51.9917340" lon="5.8404508"/>
<trkpt lat="51.9916692" lon="5.8404496"/>
<trkpt lat="51.9914101" lon="5.8405923"/>
<trkpt lat="51.9912675" lon="5.8406464"/>
<trkpt lat="51.9910935" lon="5.8406318"/>
<trkpt lat="51.9909669" lon="5.8406220"/>
<trkpt lat="51.9906993" lon="5.8405979"/>
<trkpt lat="51.9903395" lon="5.8405409"/>
<trkpt lat="51.9900358" lon="5.8405137"/>
<trkpt lat="51.9899812" lon="5.8411097"/>
<trkpt lat="51.9898728" lon="5.8411770"/>
<trkpt lat="51.9897018" lon="5.8414038"/>
<trkpt lat="51.9895443" lon="5.8415368"/>
<trkpt lat="51.9893841" lon="5.8413664"/>
<trkpt lat="51.9892911" lon="5.8411839"/>
<trkpt lat="51.9891955" lon="5.8410249"/>
<trkpt lat="51.9890733" lon="5.8409000"/>
<trkpt lat="51.9890124" lon="5.8408371"/>
<trkpt lat="51.9889460" lon="5.8408281"/>
<trkpt lat="51.9886086" lon="5.8407652"/>
<trkpt lat="51.9882711" lon="5.8407293"/>
<trkpt lat="51.9881771" lon="5.8407023"/>
<trkpt lat="51.9880941" lon="5.8406394"/>
<trkpt lat="51.9880111" lon="5.8405676"/>
<trkpt lat="51.9879337" lon="5.8404508"/>
<trkpt lat="51.9877898" lon="5.8402711"/>
<trkpt lat="51.9877124" lon="5.8401993"/>
<trkpt lat="51.9876017" lon="5.8401723"/>
<trkpt lat="51.9878618" lon="5.8380074"/>
<trkpt lat="51.9878562" lon="5.8378996"/>
<trkpt lat="51.9877732" lon="5.8378816"/>
<trkpt lat="51.9876239" lon="5.8378367"/>
<trkpt lat="51.9874247" lon="5.8377648"/>
<trkpt lat="51.9872090" lon="5.8377020"/>
<trkpt lat="51.9872311" lon="5.8376211"/>
<trkpt lat="51.9872588" lon="5.8375043"/>
<trkpt lat="51.9872809" lon="5.8372797"/>
<trkpt lat="51.9872975" lon="5.8371180"/>
<trkpt lat="51.9873030" lon="5.8369563"/>
<trkpt lat="51.9872558" lon="5.8367154"/>
<trkpt lat="51.9872163" lon="5.8362778"/>
<trkpt lat="51.9872052" lon="5.8359372"/>
<trkpt lat="51.9872456" lon="5.8356206"/>
<trkpt lat="51.9872353" lon="5.8354289"/>
<trkpt lat="51.9871934" lon="5.8352496"/>
<trkpt lat="51.9870973" lon="5.8350484"/>
<trkpt lat="51.9870222" lon="5.8347506"/>
<trkpt lat="51.9869141" lon="5.8344524"/>
<trkpt lat="51.9868719" lon="5.8341446"/>
<trkpt lat="51.9868466" lon="5.8339904"/>
<trkpt lat="51.9868962" lon="5.8338728"/>
<trkpt lat="51.9869796" lon="5.8336741"/>
<trkpt lat="51.9870628" lon="5.8335271"/>
<trkpt lat="51.9871260" lon="5.8333361"/>
<trkpt lat="51.9872107" lon="5.8330813"/>
<trkpt lat="51.9872272" lon="5.8329685"/>
<trkpt lat="51.9872073" lon="5.8328519"/>
<trkpt lat="51.9875113" lon="5.8327685"/>
<trkpt lat="51.9875503" lon="5.8327544"/>
<trkpt lat="51.9876017" lon="5.8329139"/>
<trkpt lat="51.9876294" lon="5.8329678"/>
<trkpt lat="51.9877566" lon="5.8331475"/>
</trkseg></trk>
<trk><name>Rosandepad - hoofdroute</name><type>mainRoute</type><trkseg>
<trkpt lat="51.9877566" lon="5.8331475"/>
<trkpt lat="51.9880498" lon="5.8334889"/>
</trkseg></trk>
<trk><name>Rosandepad - overstaproute</name><type>connectionRoute</type><trkseg>
<trkpt lat="51.9775045" lon="5.8320515"/>
<trkpt lat="51.9773108" lon="5.8310814"/>
<trkpt lat="51.9770784" lon="5.8299764"/>
<trkpt lat="51.9766358" lon="5.8278923"/>
<trkpt lat="51.9766026" lon="5.8278205"/>
<trkpt lat="51.9764808" lon="5.8278474"/>
<trkpt lat="51.9764089" lon="5.8278564"/>
<trkpt lat="51.9763314" lon="5.8278295"/>
<trkpt lat="51.9762429" lon="5.8277666"/>
<trkpt lat="51.9761599" lon="5.8276588"/>
<trkpt lat="51.9760049" lon="5.8273084"/>
<trkpt lat="51.9758666" lon="5.8269312"/>
<trkpt lat="51.9757947" lon="5.8265449"/>
<trkpt lat="51.9756951" lon="5.8261586"/>
<trkpt lat="51.9755955" lon="5.8257454"/>
<trkpt lat="51.9754128" lon="5.8251435"/>
<trkpt lat="51.9751030" lon="5.8241194"/>
<trkpt lat="51.9750476" lon="5.8238859"/>
<trkpt lat="51.9749978" lon="5.8237331"/>
<trkpt lat="51.9749369" lon="5.8236433"/>
<trkpt lat="51.9749097" lon="5.8233353"/>
<trkpt lat="51.9749037" lon="5.8230355"/>
<trkpt lat="51.9748861" lon="5.8227510"/>
<trkpt lat="51.9748951" lon="5.8226008"/>
<trkpt lat="51.9749338" lon="5.8224942"/>
<trkpt lat="51.9749753" lon="5.8224954"/>
<trkpt lat="51.9750031" lon="5.8225336"/>
<trkpt lat="51.9750747" lon="5.8225306"/>
<trkpt lat="51.9750805" lon="5.8224430"/>
<trkpt lat="51.9750751" lon="5.8223440"/>
<trkpt lat="51.9751180" lon="5.8222852"/>
<trkpt lat="51.9751690" lon="5.8222804"/>
<trkpt lat="51.9752817" lon="5.8223254"/>
<trkpt lat="51.9753064" lon="5.8223178"/>
<trkpt lat="51.9753543" lon="5.8221406"/>
<trkpt lat="51.9753854" lon="5.8219632"/>
<trkpt lat="51.9753670" lon="5.8219083"/>
<trkpt lat="51.9753099" lon="5.8218258"/>
<trkpt lat="51.9751502" lon="5.8217629"/>
<trkpt lat="51.9750721" lon="5.8217622"/>
<trkpt lat="51.9750172" lon="5.8216586"/>
<trkpt lat="51.9749555" lon="5.8215792"/>
<trkpt lat="51.9748811" lon="5.8214833"/>
<trkpt lat="51.9748355" lon="5.8214776"/>
<trkpt lat="51.9747925" lon="5.8216652"/>
<trkpt lat="51.9747611" lon="5.8216853"/>
<trkpt lat="51.9746744" lon="5.8215990"/>
<trkpt lat="51.9746524" lon="5.8215154"/>
<trkpt lat="51.9746375" lon="5.8213280"/>
<trkpt lat="51.9744688" lon="5.8209913"/>
<trkpt lat="51.9743641" lon="5.8207207"/>
<trkpt lat="51.9743101" lon="5.8204480"/>
<trkpt lat="51.9743581" lon="5.8202297"/>
<trkpt lat="51.9743287" lon="5.8201644"/>
</trkseg></trk>
<trk><name>Rosandepad - overstaproute</name><type>connectionRoute</type><trkseg>
<trkpt lat="52.0099299" lon="5.8513575"/>
<trkpt lat="52.0099050" lon="5.8511348"/>
<trkpt lat="52.0098901" lon="5.8508531"/>
<trkpt lat="52.0098527" lon="5.8506105"/>
<trkpt lat="52.0098747" lon="5.8503357"/>
<trkpt lat="52.0098860" lon="5.8502352"/>
<trkpt lat="52.0098709" lon="5.8500919"/>
<trkpt lat="52.0097449" lon="5.8499127"/>
<trkpt lat="52.0096222" lon="5.8497136"/>
<trkpt lat="52.0095491" lon="5.8495145"/>
<trkpt lat="52.0095162" lon="5.8484019"/>
<trkpt lat="52.0094817" lon="5.8474220"/>
<trkpt lat="52.0095245" lon="5.8469347"/>
<trkpt lat="52.0095400" lon="5.8468454"/>
<trkpt lat="52.0091196" lon="5.8466595"/>
<trkpt lat="52.0086618" lon="5.8464486"/>
<trkpt lat="52.0077727" lon="5.8460376"/>
<trkpt lat="52.0071243" lon="5.8457305"/>
<trkpt lat="52.0070892" lon="5.8457244"/>
<trkpt lat="52.0070540" lon="5.8457398"/>
<trkpt lat="52.0070127" lon="5.8457664"/>
<trkpt lat="52.0069681" lon="5.8458198"/>
<trkpt lat="52.0068967" lon="5.8458668"/>
<trkpt lat="52.0068252" lon="5.8458763"/>
<trkpt lat="52.0067699" lon="5.8458509"/>
<trkpt lat="52.0067213" lon="5.8459329"/>
<trkpt lat="52.0066691" lon="5.8460625"/>
<trkpt lat="52.0065846" lon="5.8459625"/>
<trkpt lat="52.0065099" lon="5.8459002"/>
<trkpt lat="52.0063833" lon="5.8457831"/>
<trkpt lat="52.0063118" lon="5.8456979"/>
<trkpt lat="52.0062336" lon="5.8456608"/>
<trkpt lat="52.0061476" lon="5.8456521"/>
<trkpt lat="52.0059662" lon="5.8455987"/>
<trkpt lat="52.0057985" lon="5.8455329"/>
<trkpt lat="52.0057968" lon="5.8454521"/>
<trkpt lat="52.0058098" lon="5.8448622"/>
<trkpt lat="52.0058262" lon="5.8442508"/>
<trkpt lat="52.0058374" lon="5.8430223"/>
<trkpt lat="52.0058619" lon="5.8424541"/>
<trkpt lat="52.0058549" lon="5.8419182"/>
<trkpt lat="52.0058161" lon="5.8411609"/>
<trkpt lat="52.0057970" lon="5.8405827"/>
<trkpt lat="52.0057307" lon="5.8395248"/>
<trkpt lat="52.0056840" lon="5.8390915"/>
<trkpt lat="52.0056274" lon="5.8387281"/>
<trkpt lat="52.0055610" lon="5.8382907"/>
<trkpt lat="52.0055311" lon="5.8380600"/>
<trkpt lat="52.0054897" lon="5.8378185"/>
<trkpt lat="52.0053957" lon="5.8373071"/>
<trkpt lat="52.0041654" lon="5.8290813"/>
<trkpt lat="52.0024892" lon="5.8299535"/>
<trkpt lat="52.0023708" lon="5.8279547"/>
<trkpt lat="52.0007860" lon="5.8262402"/>
<trkpt lat="51.9998876" lon="5.8313124"/>
<trkpt lat="51.9989363" lon="5.8318030"/>
<trkpt lat="51.9988900" lon="5.8317023"/>
<trkpt lat="51.9986456" lon="5.8316766"/>
<trkpt lat="51.9985069" lon="5.8316133"/>
<trkpt lat="51.9982294" lon="5.8316789"/>
<trkpt lat="51.9980089" lon="5.8320242"/>
<trkpt lat="51.9979505" lon="5.8320988"/>
<trkpt lat="51.9978987" lon="5.8322644"/>
<trkpt lat="51.9975533" lon="5.8334714"/>
<trkpt lat="51.9971847" lon="5.8346652"/>
<trkpt lat="51.9969047" lon="5.8354573"/>
<trkpt lat="51.9965350" lon="5.8365682"/>
<trkpt lat="51.9962309" lon="5.8374265"/>
<trkpt lat="51.9953256" lon="5.8399331"/>
<trkpt lat="51.9946662" lon="5.8417314"/>
<trkpt lat="51.9945779" lon="5.8419204"/>
<trkpt lat="51.9945227" lon="5.8419323"/>
</trkseg></trk>
<trk><name>Rosandepad - aanlooproute</name><type>approachRoute</type><trkseg>
<trkpt lat="51.9742200" lon="5.8238300"/>
<trkpt lat="51.9742400" lon="5.8238400"/>
<trkpt lat="51.9744100" lon="5.8238000"/>
<trkpt lat="51.9748700" lon="5.8236400"/>
<trkpt lat="51.9749300" lon="5.8236400"/>
<trkpt lat="51.9749900" lon="5.8237300"/>
<trkpt lat="51.9755900" lon="5.8257400"/>
<trkpt lat="51.9757900" lon="5.8265400"/>
<trkpt lat="51.9758600" lon="5.8269300"/>
<trkpt lat="51.9760000" lon="5.8273000"/>
<trkpt lat="51.9761500" lon="5.8276500"/>
<trkpt lat="51.9762400" lon="5.8277600"/>
<trkpt lat="51.9763300" lon="5.8278200"/>
<trkpt lat="51.9764000" lon="5.8278500"/>
<trkpt lat="51.9766000" lon="5.8278200"/>
<trkpt lat="51.9766300" lon="5.8278900"/>
<trkpt lat="51.9775100" lon="5.8320600"/>
</trkseg></trk>
</gpx>