<?xml version="1.0" encoding="UTF-8"?>
<gpx version="1.1" creator="klompenpaden.nl via Jimbo API" xmlns="http://www.topografix.com/GPX/1/1">
<metadata><name>Rumptsche Veerpad</name><desc>Wandel over het Rumptsche Veerpad in het prachtige buitengebied van Rumpt. Ontdek de rijke geschiedenis van dit dorp op de stroomrug, wandel langs kerken, molens en boomgaarden langs de Linge en ervaar de oude kavelstructuren.
Klompen aan, rugzak op en gaan!
</desc><link href="https://www.klompenpaden.nl/klompenpaden/Rumptsche_Veerpad/fda01cc0-4a43-417c-96e4-87a7688d3fae"><text>klompenpaden.nl</text></link></metadata>
<wpt lat="51.882743158011394" lon="5.180053710937501"><name>Start Rumpt</name></wpt>
<trk><name>Rumptsche Veerpad - Hoofdroute</name><type>mainRoute</type><trkseg>
<trkpt lat="51.8800150" lon="5.1943638"/>
<trkpt lat="51.8800092" lon="5.1944162"/>
</trkseg></trk>
<trk><name>Rumptsche Veerpad - Hoofdroute</name><type>mainRoute</type><trkseg>
<trkpt lat="51.8800284" lon="5.1943654"/>
<trkpt lat="51.8800166" lon="5.1948609"/>
<trkpt lat="51.8800464" lon="5.1951379"/>
<trkpt lat="51.8801061" lon="5.1957572"/>
<trkpt lat="51.8801568" lon="5.1962920"/>
<trkpt lat="51.8802097" lon="5.1965645"/>
<trkpt lat="51.8804047" lon="5.1971959"/>
<trkpt lat="51.8806273" lon="5.1977770"/>
<trkpt lat="51.8809584" lon="5.1983662"/>
<trkpt lat="51.8813913" lon="5.1986994"/>
<trkpt lat="51.8812741" lon="5.1988122"/>
<trkpt lat="51.8811921" lon="5.1988956"/>
<trkpt lat="51.8811048" lon="5.1991735"/>
<trkpt lat="51.8809649" lon="5.1994594"/>
<trkpt lat="51.8808236" lon="5.1997138"/>
<trkpt lat="51.8806181" lon="5.1999591"/>
<trkpt lat="51.8804970" lon="5.1999766"/>
<trkpt lat="51.8801964" lon="5.2000282"/>
<trkpt lat="51.8801378" lon="5.1999871"/>
<trkpt lat="51.8800772" lon="5.1999453"/>
<trkpt lat="51.8798135" lon="5.1994941"/>
<trkpt lat="51.8796324" lon="5.1991005"/>
<trkpt lat="51.8794322" lon="5.1987491"/>
<trkpt lat="51.8789661" lon="5.1981207"/>
<trkpt lat="51.8787637" lon="5.1976498"/>
<trkpt lat="51.8787876" lon="5.1974685"/>
<trkpt lat="51.8788128" lon="5.1972460"/>
<trkpt lat="51.8787889" lon="5.1971335"/>
<trkpt lat="51.8788131" lon="5.1970172"/>
<trkpt lat="51.8787673" lon="5.1966572"/>
<trkpt lat="51.8785792" lon="5.1966196"/>
<trkpt lat="51.8784927" lon="5.1964867"/>
<trkpt lat="51.8783038" lon="5.1950819"/>
<trkpt lat="51.8783163" lon="5.1943525"/>
<trkpt lat="51.8783595" lon="5.1941225"/>
<trkpt lat="51.8783885" lon="5.1938432"/>
<trkpt lat="51.8784291" lon="5.1936562"/>
<trkpt lat="51.8784843" lon="5.1935542"/>
<trkpt lat="51.8785298" lon="5.1934862"/>
<trkpt lat="51.8786244" lon="5.1935485"/>
<trkpt lat="51.8788660" lon="5.1937388"/>
<trkpt lat="51.8793798" lon="5.1941142"/>
<trkpt lat="51.8794805" lon="5.1943334"/>
<trkpt lat="51.8797484" lon="5.1942541"/>
<trkpt lat="51.8798281" lon="5.1942864"/>
<trkpt lat="51.8799141" lon="5.1943529"/>
<trkpt lat="51.8800150" lon="5.1943638"/>
</trkseg></trk>
<trk><name>Rumptsche Veerpad - Hoofdroute</name><type>mainRoute</type><trkseg>
<trkpt lat="51.8824192" lon="5.1734338"/>
<trkpt lat="51.8810101" lon="5.1714057"/>
<trkpt lat="51.8814189" lon="5.1707199"/>
<trkpt lat="51.8818186" lon="5.1699136"/>
<trkpt lat="51.8818711" lon="5.1702562"/>
<trkpt lat="51.8819599" lon="5.1705037"/>
<trkpt lat="51.8822121" lon="5.1705232"/>
<trkpt lat="51.8823470" lon="5.1703988"/>
<trkpt lat="51.8825068" lon="5.1703353"/>
<trkpt lat="51.8825978" lon="5.1703322"/>
<trkpt lat="51.8826831" lon="5.1701980"/>
<trkpt lat="51.8826640" lon="5.1704977"/>
<trkpt lat="51.8827245" lon="5.1706294"/>
<trkpt lat="51.8829539" lon="5.1706771"/>
<trkpt lat="51.8831241" lon="5.1705334"/>
<trkpt lat="51.8832550" lon="5.1703079"/>
<trkpt lat="51.8833131" lon="5.1701389"/>
<trkpt lat="51.8833169" lon="5.1699650"/>
<trkpt lat="51.8832919" lon="5.1697887"/>
<trkpt lat="51.8832518" lon="5.1696761"/>
<trkpt lat="51.8831937" lon="5.1695378"/>
<trkpt lat="51.8831369" lon="5.1694091"/>
<trkpt lat="51.8832966" lon="5.1690459"/>
<trkpt lat="51.8835486" lon="5.1691509"/>
<trkpt lat="51.8837950" lon="5.1690550"/>
<trkpt lat="51.8839598" lon="5.1689068"/>
<trkpt lat="51.8841777" lon="5.1684649"/>
<trkpt lat="51.8842232" lon="5.1682046"/>
<trkpt lat="51.8841737" lon="5.1679340"/>
</trkseg></trk>
<trk><name>Rumptsche Veerpad - Hoofdroute</name><type>mainRoute</type><trkseg>
<trkpt lat="51.8841759" lon="5.1679215"/>
<trkpt lat="51.8840913" lon="5.1677685"/>
<trkpt lat="51.8839739" lon="5.1676638"/>
<trkpt lat="51.8838521" lon="5.1676222"/>
<trkpt lat="51.8837437" lon="5.1676313"/>
<trkpt lat="51.8837473" lon="5.1663142"/>
<trkpt lat="51.8842771" lon="5.1651878"/>
<trkpt lat="51.8845187" lon="5.1645978"/>
<trkpt lat="51.8848010" lon="5.1637122"/>
</trkseg></trk>
<trk><name>Rumptsche Veerpad - hoofdroute</name><type>mainRoute</type><trkseg>
<trkpt lat="51.8826152" lon="5.1875593"/>
<trkpt lat="51.8824119" lon="5.1878677"/>
<trkpt lat="51.8822054" lon="5.1880789"/>
<trkpt lat="51.8817551" lon="5.1885748"/>
<trkpt lat="51.8814640" lon="5.1888874"/>
<trkpt lat="51.8812221" lon="5.1893761"/>
<trkpt lat="51.8807943" lon="5.1904649"/>
<trkpt lat="51.8805352" lon="5.1913880"/>
<trkpt lat="51.8803714" lon="5.1920599"/>
<trkpt lat="51.8801800" lon="5.1927250"/>
<trkpt lat="51.8801050" lon="5.1931074"/>
<trkpt lat="51.8800699" lon="5.1938705"/>
<trkpt lat="51.8800150" lon="5.1943638"/>
</trkseg></trk>
<trk><name>Rumptsche Veerpad - hoofdroute</name><type>mainRoute</type><trkseg>
<trkpt lat="51.8827526" lon="5.1807269"/>
<trkpt lat="51.8827847" lon="5.1800926"/>
<trkpt lat="51.8828203" lon="5.1798810"/>
<trkpt lat="51.8828333" lon="5.1797373"/>
<trkpt lat="51.8828201" lon="5.1795979"/>
<trkpt lat="51.8827926" lon="5.1794525"/>
<trkpt lat="51.8827524" lon="5.1793459"/>
<trkpt lat="51.8827178" lon="5.1792048"/>
<trkpt lat="51.8825810" lon="5.1788983"/>
<trkpt lat="51.8824762" lon="5.1786621"/>
<trkpt lat="51.8823914" lon="5.1784178"/>
<trkpt lat="51.8823473" lon="5.1782056"/>
<trkpt lat="51.8823552" lon="5.1780455"/>
<trkpt lat="51.8824073" lon="5.1779115"/>
<trkpt lat="51.8831238" lon="5.1768422"/>
<trkpt lat="51.8837626" lon="5.1759489"/>
<trkpt lat="51.8839053" lon="5.1757263"/>
<trkpt lat="51.8824188" lon="5.1734379"/>
<trkpt lat="51.8824196" lon="5.1734359"/>
<trkpt lat="51.8824179" lon="5.1734378"/>
</trkseg></trk>
<trk><name>Rumptsche Veerpad - hoofdroute</name><type>mainRoute</type><trkseg>
<trkpt lat="51.8828575" lon="5.1815301"/>
<trkpt lat="51.8825465" lon="5.1819994"/>
<trkpt lat="51.8822167" lon="5.1826573"/>
<trkpt lat="51.8819089" lon="5.1832487"/>
<trkpt lat="51.8817579" lon="5.1834930"/>
<trkpt lat="51.8810981" lon="5.1844620"/>
<trkpt lat="51.8811189" lon="5.1844829"/>
<trkpt lat="51.8810240" lon="5.1847252"/>
<trkpt lat="51.8809707" lon="5.1848237"/>
<trkpt lat="51.8815305" lon="5.1857443"/>
<trkpt lat="51.8817457" lon="5.1859964"/>
<trkpt lat="51.8825103" lon="5.1867215"/>
<trkpt lat="51.8826091" lon="5.1867705"/>
<trkpt lat="51.8826405" lon="5.1867978"/>
<trkpt lat="51.8826639" lon="5.1868627"/>
<trkpt lat="51.8825976" lon="5.1870550"/>
<trkpt lat="51.8826529" lon="5.1871148"/>
<trkpt lat="51.8828147" lon="5.1872553"/>
<trkpt lat="51.8826890" lon="5.1874437"/>
<trkpt lat="51.8826108" lon="5.1875662"/>
</trkseg></trk>
<trk><name>Rumptsche Veerpad - Hoofdroute</name><type>mainRoute</type><trkseg>
<trkpt lat="51.8830918" lon="5.1599366"/>
<trkpt lat="51.8833733" lon="5.1600224"/>
<trkpt lat="51.8836480" lon="5.1600547"/>
<trkpt lat="51.8839758" lon="5.1600279"/>
<trkpt lat="51.8844725" lon="5.1599152"/>
<trkpt lat="51.8850684" lon="5.1596953"/>
</trkseg></trk>
<trk><name>Rumptsche Veerpad - hoofdroute</name><type>mainRoute</type><trkseg>
<trkpt lat="51.8848010" lon="5.1637115"/>
<trkpt lat="51.8844100" lon="5.1635144"/>
<trkpt lat="51.8841145" lon="5.1633567"/>
<trkpt lat="51.8838090" lon="5.1631254"/>
<trkpt lat="51.8837167" lon="5.1630222"/>
<trkpt lat="51.8835752" lon="5.1627185"/>
<trkpt lat="51.8835206" lon="5.1625630"/>
<trkpt lat="51.8834362" lon="5.1621600"/>
<trkpt lat="51.8831642" lon="5.1606641"/>
<trkpt lat="51.8831444" lon="5.1604844"/>
<trkpt lat="51.8831373" lon="5.1602269"/>
<trkpt lat="51.8831481" lon="5.1601069"/>
<trkpt lat="51.8830567" lon="5.1600688"/>
<trkpt lat="51.8830562" lon="5.1599280"/>
<trkpt lat="51.8830897" lon="5.1599354"/>
</trkseg></trk>
<trk><name>Rumptsche Veerpad - hoofdroute</name><type>mainRoute</type><trkseg>
<trkpt lat="51.8850713" lon="5.1596941"/>
<trkpt lat="51.8868906" lon="5.1588300"/>
</trkseg></trk>
<trk><name>Rumptsche Veerpad - Hoofdroute</name><type>mainRoute</type><trkseg>
<trkpt lat="51.8858951" lon="5.1763584"/>
<trkpt lat="51.8859003" lon="5.1763432"/>
<trkpt lat="51.8858111" lon="5.1763622"/>
<trkpt lat="51.8856954" lon="5.1764576"/>
<trkpt lat="51.8853589" lon="5.1768953"/>
<trkpt lat="51.8849500" lon="5.1774983"/>
<trkpt lat="51.8847458" lon="5.1778164"/>
<trkpt lat="51.8850161" lon="5.1783218"/>
<trkpt lat="51.8849736" lon="5.1784561"/>
<trkpt lat="51.8848072" lon="5.1786935"/>
<trkpt lat="51.8846053" lon="5.1790108"/>
<trkpt lat="51.8843469" lon="5.1794672"/>
<trkpt lat="51.8841249" lon="5.1797678"/>
<trkpt lat="51.8838241" lon="5.1801791"/>
<trkpt lat="51.8833638" lon="5.1808204"/>
<trkpt lat="51.8831364" lon="5.1811599"/>
<trkpt lat="51.8830407" lon="5.1812956"/>
<trkpt lat="51.8829259" lon="5.1814491"/>
<trkpt lat="51.8828605" lon="5.1815348"/>
<trkpt lat="51.8827852" lon="5.1813094"/>
<trkpt lat="51.8827450" lon="5.1809429"/>
<trkpt lat="51.8827422" lon="5.1807127"/>
</trkseg></trk>
<trk><name>Rumptsche Veerpad - Hoofdroute</name><type>mainRoute</type><trkseg>
<trkpt lat="51.8869049" lon="5.1588042"/>
<trkpt lat="51.8883023" lon="5.1582048"/>
<trkpt lat="51.8882229" lon="5.1558876"/>
<trkpt lat="51.8898267" lon="5.1558394"/>
<trkpt lat="51.8902126" lon="5.1558501"/>
<trkpt lat="51.8906115" lon="5.1559306"/>
<trkpt lat="51.8913977" lon="5.1561575"/>
<trkpt lat="51.8915665" lon="5.1562283"/>
<trkpt lat="51.8916029" lon="5.1564268"/>
<trkpt lat="51.8918951" lon="5.1567298"/>
<trkpt lat="51.8919696" lon="5.1570825"/>
<trkpt lat="51.8920671" lon="5.1572742"/>
<trkpt lat="51.8922360" lon="5.1573131"/>
<trkpt lat="51.8923676" lon="5.1573037"/>
<trkpt lat="51.8924536" lon="5.1573590"/>
<trkpt lat="51.8922401" lon="5.1580613"/>
<trkpt lat="51.8922186" lon="5.1581580"/>
<trkpt lat="51.8922070" lon="5.1582518"/>
<trkpt lat="51.8922252" lon="5.1584408"/>
<trkpt lat="51.8922529" lon="5.1586212"/>
<trkpt lat="51.8922997" lon="5.1587707"/>
<trkpt lat="51.8925058" lon="5.1590134"/>
<trkpt lat="51.8925049" lon="5.1590142"/>
<trkpt lat="51.8925050" lon="5.1590142"/>
</trkseg></trk>
<trk><name>Rumptsche Veerpad - hoofdroute</name><type>mainRoute</type><trkseg>
<trkpt lat="51.8899263" lon="5.1734795"/>
<trkpt lat="51.8895700" lon="5.1737554"/>
<trkpt lat="51.8893112" lon="5.1739971"/>
<trkpt lat="51.8890977" lon="5.1741101"/>
<trkpt lat="51.8889210" lon="5.1741991"/>
<trkpt lat="51.8887738" lon="5.1742637"/>
<trkpt lat="51.8885862" lon="5.1743432"/>
<trkpt lat="51.8882805" lon="5.1745093"/>
<trkpt lat="51.8880394" lon="5.1746942"/>
<trkpt lat="51.8877474" lon="5.1749277"/>
<trkpt lat="51.8876211" lon="5.1750183"/>
<trkpt lat="51.8874023" lon="5.1752692"/>
<trkpt lat="51.8871698" lon="5.1755461"/>
<trkpt lat="51.8867038" lon="5.1761441"/>
<trkpt lat="51.8864609" lon="5.1764647"/>
<trkpt lat="51.8861124" lon="5.1768085"/>
<trkpt lat="51.8860871" lon="5.1766891"/>
<trkpt lat="51.8860383" lon="5.1766415"/>
<trkpt lat="51.8859999" lon="5.1765784"/>
<trkpt lat="51.8858939" lon="5.1763619"/>
</trkseg></trk>
<trk><name>Rumptsche Veerpad - Hoofdroute</name><type>mainRoute</type><trkseg>
<trkpt lat="51.8925052" lon="5.1589859"/>
<trkpt lat="51.8926293" lon="5.1590831"/>
<trkpt lat="51.8928602" lon="5.1592018"/>
<trkpt lat="51.8930734" lon="5.1593531"/>
<trkpt lat="51.8932390" lon="5.1595201"/>
<trkpt lat="51.8933896" lon="5.1596911"/>
<trkpt lat="51.8934707" lon="5.1598010"/>
<trkpt lat="51.8936358" lon="5.1600611"/>
<trkpt lat="51.8937804" lon="5.1603135"/>
<trkpt lat="51.8938293" lon="5.1604362"/>
<trkpt lat="51.8938461" lon="5.1605308"/>
<trkpt lat="51.8938512" lon="5.1606051"/>
<trkpt lat="51.8938479" lon="5.1606695"/>
<trkpt lat="51.8938380" lon="5.1607299"/>
<trkpt lat="51.8937829" lon="5.1610000"/>
<trkpt lat="51.8937118" lon="5.1612917"/>
<trkpt lat="51.8936153" lon="5.1616571"/>
<trkpt lat="51.8934916" lon="5.1620903"/>
<trkpt lat="51.8934076" lon="5.1623845"/>
<trkpt lat="51.8933323" lon="5.1626635"/>
<trkpt lat="51.8932326" lon="5.1630893"/>
<trkpt lat="51.8932003" lon="5.1632722"/>
<trkpt lat="51.8931792" lon="5.1634452"/>
<trkpt lat="51.8931622" lon="5.1636109"/>
<trkpt lat="51.8931527" lon="5.1637733"/>
<trkpt lat="51.8931477" lon="5.1639353"/>
<trkpt lat="51.8931461" lon="5.1640641"/>
<trkpt lat="51.8931499" lon="5.1641553"/>
<trkpt lat="51.8931634" lon="5.1643323"/>
<trkpt lat="51.8931923" lon="5.1646883"/>
<trkpt lat="51.8932189" lon="5.1648986"/>
<trkpt lat="51.8932512" lon="5.1650663"/>
<trkpt lat="51.8932909" lon="5.1652589"/>
<trkpt lat="51.8933066" lon="5.1653486"/>
<trkpt lat="51.8933145" lon="5.1654579"/>
<trkpt lat="51.8933281" lon="5.1654788"/>
</trkseg></trk>
<trk><name>Rumptsche Veerpad - hoofdroute</name><type>mainRoute</type><trkseg>
<trkpt lat="51.8933318" lon="5.1654842"/>
<trkpt lat="51.8933140" lon="5.1655070"/>
<trkpt lat="51.8932263" lon="5.1661259"/>
<trkpt lat="51.8930422" lon="5.1672100"/>
<trkpt lat="51.8928266" lon="5.1683545"/>
<trkpt lat="51.8927181" lon="5.1689539"/>
<trkpt lat="51.8926519" lon="5.1692556"/>
<trkpt lat="51.8926031" lon="5.1694265"/>
<trkpt lat="51.8925112" lon="5.1697185"/>
<trkpt lat="51.8924120" lon="5.1699823"/>
<trkpt lat="51.8922750" lon="5.1702894"/>
<trkpt lat="51.8921253" lon="5.1705986"/>
<trkpt lat="51.8916828" lon="5.1714763"/>
<trkpt lat="51.8916229" lon="5.1716063"/>
<trkpt lat="51.8915923" lon="5.1716800"/>
<trkpt lat="51.8915792" lon="5.1717283"/>
<trkpt lat="51.8915690" lon="5.1717823"/>
<trkpt lat="51.8915629" lon="5.1718343"/>
<trkpt lat="51.8915571" lon="5.1719007"/>
<trkpt lat="51.8915576" lon="5.1719744"/>
<trkpt lat="51.8915633" lon="5.1720531"/>
<trkpt lat="51.8915965" lon="5.1722406"/>
<trkpt lat="51.8916204" lon="5.1723733"/>
<trkpt lat="51.8916191" lon="5.1724658"/>
<trkpt lat="51.8916013" lon="5.1725409"/>
<trkpt lat="51.8915798" lon="5.1725959"/>
<trkpt lat="51.8915492" lon="5.1726516"/>
<trkpt lat="51.8915112" lon="5.1726952"/>
<trkpt lat="51.8914471" lon="5.1727656"/>
<trkpt lat="51.8914044" lon="5.1728065"/>
<trkpt lat="51.8913229" lon="5.1728635"/>
<trkpt lat="51.8912385" lon="5.1729178"/>
<trkpt lat="51.8909827" lon="5.1730593"/>
<trkpt lat="51.8908790" lon="5.1731290"/>
<trkpt lat="51.8907900" lon="5.1731913"/>
<trkpt lat="51.8907008" lon="5.1732724"/>
<trkpt lat="51.8906039" lon="5.1733550"/>
<trkpt lat="51.8904715" lon="5.1734683"/>
<trkpt lat="51.8903962" lon="5.1735181"/>
<trkpt lat="51.8903488" lon="5.1735454"/>
<trkpt lat="51.8902795" lon="5.1735495"/>
<trkpt lat="51.8902385" lon="5.1735388"/>
<trkpt lat="51.8901379" lon="5.1735012"/>
<trkpt lat="51.8900565" lon="5.1734804"/>
<trkpt lat="51.8900076" lon="5.1734799"/>
<trkpt lat="51.8899315" lon="5.1734764"/>
</trkseg></trk>
<trk><name>Rumptsche Veerpad - Overstaproute</name><type>connectionRoute</type><trkseg>
<trkpt lat="51.8834953" lon="5.1992609"/>
<trkpt lat="51.8835400" lon="5.1992015"/>
<trkpt lat="51.8836145" lon="5.1990852"/>
<trkpt lat="51.8838343" lon="5.1987815"/>
<trkpt lat="51.8840407" lon="5.1985684"/>
<trkpt lat="51.8845004" lon="5.1982644"/>
<trkpt lat="51.8847822" lon="5.1981365"/>
<trkpt lat="51.8849826" lon="5.1980779"/>
<trkpt lat="51.8854674" lon="5.1977130"/>
<trkpt lat="51.8855425" lon="5.1978438"/>
<trkpt lat="51.8857379" lon="5.1977788"/>
<trkpt lat="51.8858776" lon="5.1977381"/>
<trkpt lat="51.8863022" lon="5.1978111"/>
<trkpt lat="51.8868488" lon="5.1978328"/>
<trkpt lat="51.8870358" lon="5.1980317"/>
<trkpt lat="51.8873112" lon="5.1983020"/>
<trkpt lat="51.8874525" lon="5.1983677"/>
<trkpt lat="51.8875946" lon="5.1983582"/>
<trkpt lat="51.8877534" lon="5.1982151"/>
<trkpt lat="51.8879583" lon="5.1980991"/>
<trkpt lat="51.8880783" lon="5.1982358"/>
<trkpt lat="51.8882636" lon="5.1988205"/>
<trkpt lat="51.8884756" lon="5.1992517"/>
<trkpt lat="51.8884871" lon="5.1994741"/>
<trkpt lat="51.8888975" lon="5.2009397"/>
<trkpt lat="51.8891019" lon="5.2011089"/>
<trkpt lat="51.8895215" lon="5.2010786"/>
<trkpt lat="51.8896560" lon="5.2011903"/>
<trkpt lat="51.8899857" lon="5.2012242"/>
<trkpt lat="51.8903701" lon="5.2011396"/>
<trkpt lat="51.8906704" lon="5.2011702"/>
<trkpt lat="51.8913459" lon="5.2013931"/>
<trkpt lat="51.8924833" lon="5.2017613"/>
<trkpt lat="51.8934437" lon="5.2020374"/>
<trkpt lat="51.8939843" lon="5.2022073"/>
<trkpt lat="51.8945373" lon="5.2024029"/>
<trkpt lat="51.8949987" lon="5.2025890"/>
</trkseg></trk>
<trk><name>Rumptsche Veerpad - Overstaproute</name><type>connectionRoute</type><trkseg>
<trkpt lat="51.8831060" lon="5.1600443"/>
<trkpt lat="51.8823367" lon="5.1598773"/>
<trkpt lat="51.8815197" lon="5.1594594"/>
<trkpt lat="51.8810302" lon="5.1596195"/>
<trkpt lat="51.8807047" lon="5.1598586"/>
<trkpt lat="51.8803928" lon="5.1598733"/>
<trkpt lat="51.8801633" lon="5.1595180"/>
<trkpt lat="51.8800023" lon="5.1587384"/>
<trkpt lat="51.8794442" lon="5.1581183"/>
<trkpt lat="51.8795538" lon="5.1573114"/>
<trkpt lat="51.8794421" lon="5.1571629"/>
<trkpt lat="51.8798142" lon="5.1544835"/>
<trkpt lat="51.8801757" lon="5.1538718"/>
<trkpt lat="51.8800941" lon="5.1532336"/>
<trkpt lat="51.8801858" lon="5.1526378"/>
</trkseg></trk>
<trk><name>Rumptsche Veerpad - Aanlooproute</name><type>approachRoute</type><trkseg>
<trkpt lat="51.8813915" lon="5.1986993"/>
<trkpt lat="51.8823066" lon="5.1990031"/>
<trkpt lat="51.8832136" lon="5.1993564"/>
<trkpt lat="51.8834970" lon="5.1992713"/>
</trkseg></trk>
</gpx>