<?xml version="1.0" encoding="UTF-8"?>
<gpx version="1.1" creator="klompenpaden.nl via Jimbo API" xmlns="http://www.topografix.com/GPX/1/1">
<metadata><name>Schaarsbergenpad</name><desc>Ontdek het afwisselende buitengebied ten noordwesten van Arnhem. Wandel over de landgoederen Warnsborn en Vijverberg, langs weitjes en heidevelden, over lanen en schaapsdrift, langs vijvers en sprengen. 
Klompen aan, rugzak op en gaan! </desc><link href="https://www.klompenpaden.nl/klompenpaden/Schaarsbergenpad/c5e28381-81d4-460c-8acf-99e838bbf571"><text>klompenpaden.nl</text></link></metadata>
<wpt lat="52.01957951567408" lon="5.867879390716554"><name>Start Schaarsbergen</name></wpt>
<trk><name>Schaarsbergenpad - hoofdroute</name><type>mainRoute</type><trkseg>
<trkpt lat="52.0196351" lon="5.8676704"/>
<trkpt lat="52.0189605" lon="5.8660450"/>
<trkpt lat="52.0186199" lon="5.8652001"/>
<trkpt lat="52.0184480" lon="5.8648635"/>
<trkpt lat="52.0182579" lon="5.8645456"/>
<trkpt lat="52.0184836" lon="5.8637745"/>
<trkpt lat="52.0187527" lon="5.8625353"/>
<trkpt lat="52.0188063" lon="5.8624351"/>
<trkpt lat="52.0188632" lon="5.8623778"/>
<trkpt lat="52.0193839" lon="5.8619731"/>
<trkpt lat="52.0199013" lon="5.8615819"/>
<trkpt lat="52.0198246" lon="5.8614814"/>
<trkpt lat="52.0195883" lon="5.8611476"/>
<trkpt lat="52.0194015" lon="5.8609113"/>
<trkpt lat="52.0193174" lon="5.8608291"/>
<trkpt lat="52.0192252" lon="5.8607818"/>
<trkpt lat="52.0191380" lon="5.8607433"/>
<trkpt lat="52.0190458" lon="5.8607127"/>
<trkpt lat="52.0190213" lon="5.8607065"/>
<trkpt lat="52.0190050" lon="5.8606734"/>
<trkpt lat="52.0189301" lon="5.8601958"/>
<trkpt lat="52.0187604" lon="5.8595596"/>
<trkpt lat="52.0185576" lon="5.8589288"/>
<trkpt lat="52.0183213" lon="5.8583115"/>
<trkpt lat="52.0180719" lon="5.8576699"/>
<trkpt lat="52.0185329" lon="5.8571232"/>
<trkpt lat="52.0189939" lon="5.8566139"/>
<trkpt lat="52.0199323" lon="5.8555418"/>
<trkpt lat="52.0208724" lon="5.8545072"/>
<trkpt lat="52.0218043" lon="5.8534538"/>
<trkpt lat="52.0221576" lon="5.8530463"/>
<trkpt lat="52.0222635" lon="5.8529221"/>
<trkpt lat="52.0223804" lon="5.8527931"/>
<trkpt lat="52.0225287" lon="5.8526266"/>
<trkpt lat="52.0226360" lon="5.8525221"/>
<trkpt lat="52.0226864" lon="5.8524644"/>
<trkpt lat="52.0227417" lon="5.8524094"/>
<trkpt lat="52.0227451" lon="5.8522796"/>
<trkpt lat="52.0227452" lon="5.8521043"/>
<trkpt lat="52.0227348" lon="5.8519752"/>
<trkpt lat="52.0227260" lon="5.8518005"/>
<trkpt lat="52.0227040" lon="5.8517103"/>
<trkpt lat="52.0226655" lon="5.8516254"/>
<trkpt lat="52.0225141" lon="5.8509710"/>
<trkpt lat="52.0223891" lon="5.8503192"/>
<trkpt lat="52.0212932" lon="5.8449365"/>
<trkpt lat="52.0211882" lon="5.8449820"/>
<trkpt lat="52.0210832" lon="5.8450435"/>
<trkpt lat="52.0208384" lon="5.8451887"/>
<trkpt lat="52.0205969" lon="5.8453205"/>
<trkpt lat="52.0204579" lon="5.8454343"/>
<trkpt lat="52.0203320" lon="5.8455909"/>
<trkpt lat="52.0198360" lon="5.8466430"/>
<trkpt lat="52.0195814" lon="5.8471851"/>
<trkpt lat="52.0193334" lon="5.8477138"/>
<trkpt lat="52.0187982" lon="5.8488242"/>
<trkpt lat="52.0182663" lon="5.8498595"/>
<trkpt lat="52.0180115" lon="5.8502795"/>
<trkpt lat="52.0177649" lon="5.8507104"/>
<trkpt lat="52.0175413" lon="5.8509993"/>
<trkpt lat="52.0173277" lon="5.8513150"/>
<trkpt lat="52.0172324" lon="5.8514321"/>
<trkpt lat="52.0171720" lon="5.8514490"/>
<trkpt lat="52.0169069" lon="5.8511871"/>
<trkpt lat="52.0168567" lon="5.8511161"/>
<trkpt lat="52.0168198" lon="5.8510344"/>
<trkpt lat="52.0167885" lon="5.8509553"/>
<trkpt lat="52.0167804" lon="5.8508387"/>
<trkpt lat="52.0166809" lon="5.8503227"/>
<trkpt lat="52.0166908" lon="5.8500781"/>
<trkpt lat="52.0166611" lon="5.8498798"/>
<trkpt lat="52.0166314" lon="5.8498288"/>
<trkpt lat="52.0165818" lon="5.8498155"/>
<trkpt lat="52.0164837" lon="5.8497754"/>
<trkpt lat="52.0162618" lon="5.8497030"/>
<trkpt lat="52.0159121" lon="5.8496011"/>
<trkpt lat="52.0159026" lon="5.8496629"/>
<trkpt lat="52.0158566" lon="5.8497895"/>
<trkpt lat="52.0158074" lon="5.8498896"/>
<trkpt lat="52.0157137" lon="5.8500057"/>
<trkpt lat="52.0156199" lon="5.8501080"/>
<trkpt lat="52.0155195" lon="5.8502131"/>
<trkpt lat="52.0153749" lon="5.8503724"/>
<trkpt lat="52.0151973" lon="5.8505103"/>
<trkpt lat="52.0148631" lon="5.8506378"/>
<trkpt lat="52.0146611" lon="5.8507866"/>
<trkpt lat="52.0143425" lon="5.8509967"/>
<trkpt lat="52.0142505" lon="5.8510717"/>
<trkpt lat="52.0141652" lon="5.8511842"/>
<trkpt lat="52.0138896" lon="5.8516558"/>
<trkpt lat="52.0135843" lon="5.8521140"/>
<trkpt lat="52.0134392" lon="5.8523973"/>
<trkpt lat="52.0133047" lon="5.8525681"/>
<trkpt lat="52.0131142" lon="5.8527335"/>
<trkpt lat="52.0129463" lon="5.8529253"/>
<trkpt lat="52.0124699" lon="5.8533050"/>
<trkpt lat="52.0120675" lon="5.8537285"/>
<trkpt lat="52.0119982" lon="5.8538470"/>
<trkpt lat="52.0119239" lon="5.8539467"/>
<trkpt lat="52.0118586" lon="5.8540076"/>
<trkpt lat="52.0118066" lon="5.8539933"/>
<trkpt lat="52.0116376" lon="5.8536726"/>
<trkpt lat="52.0115515" lon="5.8535096"/>
<trkpt lat="52.0114604" lon="5.8533599"/>
<trkpt lat="52.0113064" lon="5.8531761"/>
<trkpt lat="52.0111387" lon="5.8530958"/>
<trkpt lat="52.0110449" lon="5.8530477"/>
<trkpt lat="52.0109743" lon="5.8529674"/>
<trkpt lat="52.0106933" lon="5.8521016"/>
<trkpt lat="52.0106388" lon="5.8519363"/>
<trkpt lat="52.0105611" lon="5.8518139"/>
<trkpt lat="52.0104736" lon="5.8517264"/>
<trkpt lat="52.0103694" lon="5.8516495"/>
<trkpt lat="52.0101709" lon="5.8514641"/>
<trkpt lat="52.0101013" lon="5.8513980"/>
<trkpt lat="52.0100086" lon="5.8513587"/>
<trkpt lat="52.0099520" lon="5.8513441"/>
<trkpt lat="52.0099103" lon="5.8513726"/>
<trkpt lat="52.0098119" lon="5.8519666"/>
<trkpt lat="52.0096456" lon="5.8526033"/>
<trkpt lat="52.0095715" lon="5.8528507"/>
<trkpt lat="52.0094645" lon="5.8530766"/>
<trkpt lat="52.0093966" lon="5.8531827"/>
<trkpt lat="52.0093742" lon="5.8532544"/>
<trkpt lat="52.0093700" lon="5.8533556"/>
<trkpt lat="52.0093449" lon="5.8535221"/>
<trkpt lat="52.0091563" lon="5.8541287"/>
<trkpt lat="52.0090995" lon="5.8542950"/>
<trkpt lat="52.0090574" lon="5.8544828"/>
<trkpt lat="52.0090082" lon="5.8547831"/>
<trkpt lat="52.0089310" lon="5.8548665"/>
<trkpt lat="52.0089098" lon="5.8549242"/>
<trkpt lat="52.0088919" lon="5.8550195"/>
<trkpt lat="52.0087612" lon="5.8552658"/>
<trkpt lat="52.0086245" lon="5.8555536"/>
<trkpt lat="52.0085893" lon="5.8557039"/>
<trkpt lat="52.0084930" lon="5.8557361"/>
<trkpt lat="52.0083988" lon="5.8557696"/>
<trkpt lat="52.0082806" lon="5.8558539"/>
<trkpt lat="52.0082216" lon="5.8558666"/>
<trkpt lat="52.0081493" lon="5.8558499"/>
<trkpt lat="52.0080364" lon="5.8557885"/>
<trkpt lat="52.0080064" lon="5.8557515"/>
<trkpt lat="52.0079897" lon="5.8556878"/>
<trkpt lat="52.0080001" lon="5.8554917"/>
<trkpt lat="52.0080369" lon="5.8552687"/>
<trkpt lat="52.0081134" lon="5.8551356"/>
<trkpt lat="52.0081008" lon="5.8549649"/>
<trkpt lat="52.0080513" lon="5.8548363"/>
<trkpt lat="52.0079820" lon="5.8547132"/>
<trkpt lat="52.0078728" lon="5.8545723"/>
<trkpt lat="52.0077504" lon="5.8544421"/>
<trkpt lat="52.0077026" lon="5.8543985"/>
<trkpt lat="52.0076547" lon="5.8543629"/>
<trkpt lat="52.0076602" lon="5.8544395"/>
<trkpt lat="52.0076921" lon="5.8545160"/>
<trkpt lat="52.0076900" lon="5.8546207"/>
<trkpt lat="52.0076537" lon="5.8547266"/>
<trkpt lat="52.0075909" lon="5.8548243"/>
<trkpt lat="52.0074886" lon="5.8549501"/>
<trkpt lat="52.0074624" lon="5.8549958"/>
<trkpt lat="52.0074429" lon="5.8550468"/>
<trkpt lat="52.0074054" lon="5.8551356"/>
<trkpt lat="52.0072123" lon="5.8551307"/>
<trkpt lat="52.0071660" lon="5.8551538"/>
<trkpt lat="52.0071330" lon="5.8552197"/>
<trkpt lat="52.0070912" lon="5.8553287"/>
<trkpt lat="52.0070115" lon="5.8553251"/>
<trkpt lat="52.0069246" lon="5.8555002"/>
<trkpt lat="52.0069290" lon="5.8555823"/>
<trkpt lat="52.0069133" lon="5.8556904"/>
<trkpt lat="52.0068563" lon="5.8557234"/>
<trkpt lat="52.0067456" lon="5.8557251"/>
<trkpt lat="52.0067009" lon="5.8557349"/>
<trkpt lat="52.0066562" lon="5.8557929"/>
<trkpt lat="52.0065435" lon="5.8558427"/>
<trkpt lat="52.0064400" lon="5.8558545"/>
<trkpt lat="52.0063365" lon="5.8559200"/>
<trkpt lat="52.0062447" lon="5.8559859"/>
<trkpt lat="52.0062190" lon="5.8560411"/>
<trkpt lat="52.0061574" lon="5.8561345"/>
<trkpt lat="52.0060943" lon="5.8561383"/>
<trkpt lat="52.0060313" lon="5.8561743"/>
<trkpt lat="52.0059721" lon="5.8562214"/>
<trkpt lat="52.0059062" lon="5.8561693"/>
<trkpt lat="52.0057863" lon="5.8560775"/>
<trkpt lat="52.0057186" lon="5.8559996"/>
<trkpt lat="52.0056013" lon="5.8559484"/>
<trkpt lat="52.0054902" lon="5.8559776"/>
<trkpt lat="52.0053923" lon="5.8560603"/>
<trkpt lat="52.0053021" lon="5.8560649"/>
<trkpt lat="52.0051878" lon="5.8559560"/>
<trkpt lat="52.0050924" lon="5.8559536"/>
<trkpt lat="52.0049938" lon="5.8559137"/>
<trkpt lat="52.0049101" lon="5.8558657"/>
<trkpt lat="52.0048230" lon="5.8558607"/>
<trkpt lat="52.0046143" lon="5.8558773"/>
<trkpt lat="52.0044304" lon="5.8559046"/>
<trkpt lat="52.0043938" lon="5.8559439"/>
<trkpt lat="52.0043639" lon="5.8560098"/>
<trkpt lat="52.0043056" lon="5.8560747"/>
<trkpt lat="52.0042424" lon="5.8560888"/>
<trkpt lat="52.0042023" lon="5.8561188"/>
<trkpt lat="52.0039551" lon="5.8566968"/>
<trkpt lat="52.0037949" lon="5.8570687"/>
<trkpt lat="52.0037875" lon="5.8571862"/>
<trkpt lat="52.0037901" lon="5.8572983"/>
<trkpt lat="52.0037728" lon="5.8574636"/>
<trkpt lat="52.0037143" lon="5.8577657"/>
<trkpt lat="52.0036564" lon="5.8578575"/>
<trkpt lat="52.0035985" lon="5.8579867"/>
<trkpt lat="52.0035721" lon="5.8580460"/>
<trkpt lat="52.0035621" lon="5.8581376"/>
<trkpt lat="52.0035340" lon="5.8582075"/>
<trkpt lat="52.0035357" lon="5.8582883"/>
<trkpt lat="52.0035380" lon="5.8584504"/>
<trkpt lat="52.0035471" lon="5.8585911"/>
<trkpt lat="52.0035462" lon="5.8587251"/>
<trkpt lat="52.0035156" lon="5.8588270"/>
<trkpt lat="52.0033579" lon="5.8590537"/>
<trkpt lat="52.0033095" lon="5.8591362"/>
<trkpt lat="52.0032910" lon="5.8592188"/>
<trkpt lat="52.0030529" lon="5.8598636"/>
<trkpt lat="52.0029312" lon="5.8601283"/>
<trkpt lat="52.0027962" lon="5.8603930"/>
<trkpt lat="52.0024801" lon="5.8609118"/>
<trkpt lat="52.0020419" lon="5.8618935"/>
<trkpt lat="52.0015166" lon="5.8630715"/>
<trkpt lat="52.0011417" lon="5.8639593"/>
<trkpt lat="52.0009371" lon="5.8644292"/>
<trkpt lat="52.0007210" lon="5.8649018"/>
<trkpt lat="52.0007337" lon="5.8650209"/>
<trkpt lat="52.0007807" lon="5.8651340"/>
<trkpt lat="52.0008475" lon="5.8652149"/>
<trkpt lat="52.0010465" lon="5.8654348"/>
<trkpt lat="52.0010695" lon="5.8655804"/>
<trkpt lat="52.0010529" lon="5.8657581"/>
<trkpt lat="52.0010132" lon="5.8661164"/>
<trkpt lat="52.0008609" lon="5.8675727"/>
<trkpt lat="52.0005738" lon="5.8701357"/>
<trkpt lat="52.0004666" lon="5.8710994"/>
<trkpt lat="52.0004508" lon="5.8712807"/>
<trkpt lat="52.0004497" lon="5.8713414"/>
<trkpt lat="52.0004950" lon="5.8713377"/>
<trkpt lat="52.0007922" lon="5.8711786"/>
<trkpt lat="52.0011963" lon="5.8709394"/>
<trkpt lat="52.0015977" lon="5.8707080"/>
<trkpt lat="52.0017322" lon="5.8705997"/>
<trkpt lat="52.0017457" lon="5.8697226"/>
<trkpt lat="52.0017922" lon="5.8688295"/>
<trkpt lat="52.0018654" lon="5.8670592"/>
<trkpt lat="52.0020250" lon="5.8635401"/>
<trkpt lat="52.0020954" lon="5.8634718"/>
<trkpt lat="52.0021822" lon="5.8634840"/>
<trkpt lat="52.0035672" lon="5.8635957"/>
<trkpt lat="52.0049521" lon="5.8637878"/>
<trkpt lat="52.0053914" lon="5.8638071"/>
<trkpt lat="52.0062751" lon="5.8638936"/>
<trkpt lat="52.0063850" lon="5.8639124"/>
<trkpt lat="52.0064645" lon="5.8639516"/>
<trkpt lat="52.0064978" lon="5.8640017"/>
<trkpt lat="52.0065150" lon="5.8641821"/>
<trkpt lat="52.0065822" lon="5.8646366"/>
<trkpt lat="52.0066167" lon="5.8650005"/>
<trkpt lat="52.0066412" lon="5.8653618"/>
<trkpt lat="52.0066294" lon="5.8658081"/>
<trkpt lat="52.0065677" lon="5.8661565"/>
<trkpt lat="52.0065286" lon="5.8662648"/>
<trkpt lat="52.0064565" lon="5.8663410"/>
<trkpt lat="52.0062797" lon="5.8664824"/>
<trkpt lat="52.0062142" lon="5.8665481"/>
<trkpt lat="52.0061767" lon="5.8666058"/>
<trkpt lat="52.0061414" lon="5.8667265"/>
<trkpt lat="52.0061030" lon="5.8668453"/>
<trkpt lat="52.0060631" lon="5.8669157"/>
<trkpt lat="52.0060012" lon="5.8669040"/>
<trkpt lat="52.0059574" lon="5.8669701"/>
<trkpt lat="52.0059504" lon="5.8670887"/>
<trkpt lat="52.0059532" lon="5.8671914"/>
<trkpt lat="52.0059644" lon="5.8672627"/>
<trkpt lat="52.0060052" lon="5.8672725"/>
<trkpt lat="52.0060465" lon="5.8672378"/>
<trkpt lat="52.0060944" lon="5.8672086"/>
<trkpt lat="52.0061837" lon="5.8672143"/>
<trkpt lat="52.0062919" lon="5.8672624"/>
<trkpt lat="52.0063903" lon="5.8673131"/>
<trkpt lat="52.0066317" lon="5.8677747"/>
<trkpt lat="52.0068054" lon="5.8680183"/>
<trkpt lat="52.0068882" lon="5.8680418"/>
<trkpt lat="52.0069195" lon="5.8679253"/>
<trkpt lat="52.0069806" lon="5.8677524"/>
<trkpt lat="52.0070639" lon="5.8676508"/>
<trkpt lat="52.0071859" lon="5.8675284"/>
<trkpt lat="52.0074169" lon="5.8675550"/>
<trkpt lat="52.0076562" lon="5.8676621"/>
<trkpt lat="52.0077721" lon="5.8675346"/>
<trkpt lat="52.0079247" lon="5.8674697"/>
<trkpt lat="52.0079942" lon="5.8675043"/>
<trkpt lat="52.0080341" lon="5.8675952"/>
<trkpt lat="52.0080436" lon="5.8677545"/>
<trkpt lat="52.0081256" lon="5.8679715"/>
<trkpt lat="52.0083140" lon="5.8682502"/>
<trkpt lat="52.0086352" lon="5.8685190"/>
<trkpt lat="52.0087899" lon="5.8686001"/>
<trkpt lat="52.0088539" lon="5.8686221"/>
<trkpt lat="52.0089469" lon="5.8687104"/>
<trkpt lat="52.0089951" lon="5.8687761"/>
<trkpt lat="52.0090368" lon="5.8687883"/>
<trkpt lat="52.0090557" lon="5.8687590"/>
<trkpt lat="52.0090950" lon="5.8686817"/>
<trkpt lat="52.0092011" lon="5.8683825"/>
<trkpt lat="52.0092643" lon="5.8681477"/>
<trkpt lat="52.0093444" lon="5.8678342"/>
<trkpt lat="52.0093908" lon="5.8677257"/>
<trkpt lat="52.0094405" lon="5.8676388"/>
<trkpt lat="52.0095748" lon="5.8674686"/>
<trkpt lat="52.0096387" lon="5.8673729"/>
<trkpt lat="52.0096894" lon="5.8672717"/>
<trkpt lat="52.0097515" lon="5.8671107"/>
<trkpt lat="52.0098232" lon="5.8668843"/>
<trkpt lat="52.0098731" lon="5.8667183"/>
<trkpt lat="52.0099514" lon="5.8664896"/>
<trkpt lat="52.0099547" lon="5.8663565"/>
<trkpt lat="52.0099398" lon="5.8662240"/>
<trkpt lat="52.0099277" lon="5.8660871"/>
<trkpt lat="52.0099422" lon="5.8659372"/>
<trkpt lat="52.0099500" lon="5.8658118"/>
<trkpt lat="52.0099795" lon="5.8657765"/>
<trkpt lat="52.0100388" lon="5.8657574"/>
<trkpt lat="52.0101188" lon="5.8657234"/>
<trkpt lat="52.0102154" lon="5.8656795"/>
<trkpt lat="52.0102760" lon="5.8656762"/>
<trkpt lat="52.0102970" lon="5.8657437"/>
<trkpt lat="52.0103112" lon="5.8657740"/>
<trkpt lat="52.0103354" lon="5.8657802"/>
<trkpt lat="52.0103668" lon="5.8657666"/>
<trkpt lat="52.0103949" lon="5.8657450"/>
<trkpt lat="52.0104385" lon="5.8657084"/>
<trkpt lat="52.0104765" lon="5.8656883"/>
<trkpt lat="52.0105528" lon="5.8656569"/>
<trkpt lat="52.0106086" lon="5.8656473"/>
<trkpt lat="52.0106645" lon="5.8656565"/>
<trkpt lat="52.0107164" lon="5.8656238"/>
<trkpt lat="52.0107842" lon="5.8655991"/>
<trkpt lat="52.0108537" lon="5.8655717"/>
<trkpt lat="52.0109082" lon="5.8655404"/>
<trkpt lat="52.0109918" lon="5.8655153"/>
<trkpt lat="52.0110595" lon="5.8655071"/>
<trkpt lat="52.0111056" lon="5.8655179"/>
<trkpt lat="52.0111535" lon="5.8655315"/>
<trkpt lat="52.0112286" lon="5.8655162"/>
<trkpt lat="52.0113230" lon="5.8654812"/>
<trkpt lat="52.0113950" lon="5.8654253"/>
<trkpt lat="52.0114299" lon="5.8653915"/>
<trkpt lat="52.0114746" lon="5.8653255"/>
<trkpt lat="52.0114994" lon="5.8652609"/>
<trkpt lat="52.0115142" lon="5.8651803"/>
<trkpt lat="52.0115096" lon="5.8650342"/>
<trkpt lat="52.0115086" lon="5.8649478"/>
<trkpt lat="52.0115192" lon="5.8648881"/>
<trkpt lat="52.0115241" lon="5.8648085"/>
<trkpt lat="52.0114533" lon="5.8644994"/>
<trkpt lat="52.0113769" lon="5.8641698"/>
<trkpt lat="52.0113164" lon="5.8638949"/>
<trkpt lat="52.0112956" lon="5.8637916"/>
<trkpt lat="52.0112847" lon="5.8636964"/>
<trkpt lat="52.0113224" lon="5.8636160"/>
<trkpt lat="52.0113995" lon="5.8634891"/>
<trkpt lat="52.0114983" lon="5.8633675"/>
<trkpt lat="52.0117250" lon="5.8631371"/>
<trkpt lat="52.0118800" lon="5.8630580"/>
<trkpt lat="52.0120048" lon="5.8630299"/>
<trkpt lat="52.0122187" lon="5.8629946"/>
<trkpt lat="52.0123251" lon="5.8629773"/>
<trkpt lat="52.0124262" lon="5.8629945"/>
<trkpt lat="52.0125313" lon="5.8629960"/>
<trkpt lat="52.0126073" lon="5.8630362"/>
<trkpt lat="52.0126954" lon="5.8631624"/>
<trkpt lat="52.0127620" lon="5.8633905"/>
<trkpt lat="52.0128403" lon="5.8635119"/>
<trkpt lat="52.0129352" lon="5.8635449"/>
<trkpt lat="52.0130657" lon="5.8635040"/>
<trkpt lat="52.0131518" lon="5.8633930"/>
<trkpt lat="52.0132746" lon="5.8632144"/>
<trkpt lat="52.0133809" lon="5.8630036"/>
<trkpt lat="52.0134654" lon="5.8627599"/>
<trkpt lat="52.0135669" lon="5.8625204"/>
<trkpt lat="52.0136601" lon="5.8623778"/>
<trkpt lat="52.0137372" lon="5.8622758"/>
<trkpt lat="52.0138593" lon="5.8621907"/>
<trkpt lat="52.0140062" lon="5.8621585"/>
<trkpt lat="52.0141498" lon="5.8621466"/>
<trkpt lat="52.0143609" lon="5.8622001"/>
<trkpt lat="52.0145060" lon="5.8622719"/>
<trkpt lat="52.0146325" lon="5.8623652"/>
<trkpt lat="52.0147538" lon="5.8625229"/>
<trkpt lat="52.0148388" lon="5.8626449"/>
<trkpt lat="52.0149272" lon="5.8627079"/>
<trkpt lat="52.0150134" lon="5.8627662"/>
<trkpt lat="52.0150932" lon="5.8628514"/>
<trkpt lat="52.0151860" lon="5.8629279"/>
<trkpt lat="52.0152472" lon="5.8630217"/>
<trkpt lat="52.0154182" lon="5.8633015"/>
<trkpt lat="52.0155322" lon="5.8633725"/>
<trkpt lat="52.0156561" lon="5.8634167"/>
<trkpt lat="52.0159236" lon="5.8634996"/>
<trkpt lat="52.0166894" lon="5.8636110"/>
<trkpt lat="52.0168123" lon="5.8641484"/>
<trkpt lat="52.0173633" lon="5.8664376"/>
<trkpt lat="52.0172615" lon="5.8666542"/>
<trkpt lat="52.0172056" lon="5.8667778"/>
<trkpt lat="52.0171414" lon="5.8668906"/>
<trkpt lat="52.0170929" lon="5.8670537"/>
<trkpt lat="52.0170991" lon="5.8673082"/>
<trkpt lat="52.0172216" lon="5.8675826"/>
<trkpt lat="52.0173506" lon="5.8679864"/>
<trkpt lat="52.0174527" lon="5.8683885"/>
<trkpt lat="52.0176349" lon="5.8689302"/>
<trkpt lat="52.0176666" lon="5.8690723"/>
<trkpt lat="52.0188775" lon="5.8682099"/>
<trkpt lat="52.0196441" lon="5.8676832"/>
</trkseg></trk>
<trk><name>Schaarsbergenpad - overstaproute</name><type>connectionRoute</type><trkseg>
<trkpt lat="52.0099299" lon="5.8513575"/>
<trkpt lat="52.0099050" lon="5.8511348"/>
<trkpt lat="52.0098901" lon="5.8508531"/>
<trkpt lat="52.0098527" lon="5.8506105"/>
<trkpt lat="52.0098747" lon="5.8503357"/>
<trkpt lat="52.0098860" lon="5.8502352"/>
<trkpt lat="52.0098709" lon="5.8500919"/>
<trkpt lat="52.0097449" lon="5.8499127"/>
<trkpt lat="52.0096222" lon="5.8497136"/>
<trkpt lat="52.0095491" lon="5.8495145"/>
<trkpt lat="52.0095162" lon="5.8484019"/>
<trkpt lat="52.0094817" lon="5.8474220"/>
<trkpt lat="52.0095245" lon="5.8469347"/>
<trkpt lat="52.0095400" lon="5.8468454"/>
<trkpt lat="52.0091196" lon="5.8466595"/>
<trkpt lat="52.0086618" lon="5.8464486"/>
<trkpt lat="52.0077727" lon="5.8460376"/>
<trkpt lat="52.0071243" lon="5.8457305"/>
<trkpt lat="52.0070892" lon="5.8457244"/>
<trkpt lat="52.0070540" lon="5.8457398"/>
<trkpt lat="52.0070127" lon="5.8457664"/>
<trkpt lat="52.0069681" lon="5.8458198"/>
<trkpt lat="52.0068967" lon="5.8458668"/>
<trkpt lat="52.0068252" lon="5.8458763"/>
<trkpt lat="52.0067699" lon="5.8458509"/>
<trkpt lat="52.0067213" lon="5.8459329"/>
<trkpt lat="52.0066691" lon="5.8460625"/>
<trkpt lat="52.0065846" lon="5.8459625"/>
<trkpt lat="52.0065099" lon="5.8459002"/>
<trkpt lat="52.0063833" lon="5.8457831"/>
<trkpt lat="52.0063118" lon="5.8456979"/>
<trkpt lat="52.0062336" lon="5.8456608"/>
<trkpt lat="52.0061476" lon="5.8456521"/>
<trkpt lat="52.0059662" lon="5.8455987"/>
<trkpt lat="52.0057985" lon="5.8455329"/>
<trkpt lat="52.0057968" lon="5.8454521"/>
<trkpt lat="52.0058098" lon="5.8448622"/>
<trkpt lat="52.0058262" lon="5.8442508"/>
<trkpt lat="52.0058374" lon="5.8430223"/>
<trkpt lat="52.0058619" lon="5.8424541"/>
<trkpt lat="52.0058549" lon="5.8419182"/>
<trkpt lat="52.0058161" lon="5.8411609"/>
<trkpt lat="52.0057970" lon="5.8405827"/>
<trkpt lat="52.0057307" lon="5.8395248"/>
<trkpt lat="52.0056840" lon="5.8390915"/>
<trkpt lat="52.0056274" lon="5.8387281"/>
<trkpt lat="52.0055610" lon="5.8382907"/>
<trkpt lat="52.0055311" lon="5.8380600"/>
<trkpt lat="52.0054897" lon="5.8378185"/>
<trkpt lat="52.0053957" lon="5.8373071"/>
<trkpt lat="52.0041654" lon="5.8290813"/>
<trkpt lat="52.0024892" lon="5.8299535"/>
<trkpt lat="52.0023708" lon="5.8279547"/>
<trkpt lat="52.0007860" lon="5.8262402"/>
<trkpt lat="51.9998876" lon="5.8313124"/>
<trkpt lat="51.9989363" lon="5.8318030"/>
<trkpt lat="51.9988900" lon="5.8317023"/>
<trkpt lat="51.9986456" lon="5.8316766"/>
<trkpt lat="51.9985069" lon="5.8316133"/>
<trkpt lat="51.9982294" lon="5.8316789"/>
<trkpt lat="51.9980089" lon="5.8320242"/>
<trkpt lat="51.9979505" lon="5.8320988"/>
<trkpt lat="51.9978987" lon="5.8322644"/>
<trkpt lat="51.9975533" lon="5.8334714"/>
<trkpt lat="51.9971847" lon="5.8346652"/>
<trkpt lat="51.9969047" lon="5.8354573"/>
<trkpt lat="51.9965350" lon="5.8365682"/>
<trkpt lat="51.9962309" lon="5.8374265"/>
<trkpt lat="51.9953256" lon="5.8399331"/>
<trkpt lat="51.9946662" lon="5.8417314"/>
<trkpt lat="51.9945779" lon="5.8419204"/>
<trkpt lat="51.9945227" lon="5.8419323"/>
</trkseg></trk>
<trk><name>Schaarsbergenpad - aanlooproute</name><type>approachRoute</type><trkseg>
<trkpt lat="52.0222506" lon="5.8726690"/>
<trkpt lat="52.0222534" lon="5.8727066"/>
<trkpt lat="52.0222397" lon="5.8727282"/>
<trkpt lat="52.0221256" lon="5.8727590"/>
<trkpt lat="52.0219810" lon="5.8728091"/>
<trkpt lat="52.0217435" lon="5.8728707"/>
<trkpt lat="52.0216507" lon="5.8718857"/>
<trkpt lat="52.0215851" lon="5.8709897"/>
<trkpt lat="52.0215060" lon="5.8700390"/>
<trkpt lat="52.0213369" lon="5.8699182"/>
<trkpt lat="52.0211711" lon="5.8697545"/>
<trkpt lat="52.0208262" lon="5.8694111"/>
<trkpt lat="52.0201727" lon="5.8686759"/>
<trkpt lat="52.0199798" lon="5.8683805"/>
<trkpt lat="52.0198034" lon="5.8680638"/>
<trkpt lat="52.0197146" lon="5.8678942"/>
<trkpt lat="52.0196424" lon="5.8676898"/>
</trkseg></trk>
</gpx>