<?xml version="1.0" encoding="UTF-8"?>
<gpx version="1.1" creator="klompenpaden.nl via Jimbo API" xmlns="http://www.topografix.com/GPX/1/1">
<metadata><name>Schaverensepad</name><desc>Ontdek het gevarieerde cultuurlandschap van Emst. De bedrijvigheid op de agrarische percelen van de Emsterenk en de rust van het uitgestrekte bosgebied. Natuur en cultuur vormen samen het prachtige decor van deze wandelroute ten westen van Emst. Klompen aan, rugzak op en gaan!</desc><link href="https://www.klompenpaden.nl/klompenpaden/Schaverensepad/943bbba5-e090-4a5b-b0f3-798fc77e60a6"><text>klompenpaden.nl</text></link></metadata>
<wpt lat="52.31756463202045" lon="5.974112708222155"><name>Start Emst</name></wpt>
<trk><name>Schaverensepad - mainRoute</name><type>mainRoute</type><trkseg>
<trkpt lat="52.3175600" lon="5.9741100"/>
<trkpt lat="52.3175700" lon="5.9742800"/>
<trkpt lat="52.3185700" lon="5.9743600"/>
<trkpt lat="52.3188900" lon="5.9743300"/>
<trkpt lat="52.3195500" lon="5.9737900"/>
<trkpt lat="52.3199200" lon="5.9736800"/>
<trkpt lat="52.3201800" lon="5.9735300"/>
<trkpt lat="52.3204000" lon="5.9732900"/>
<trkpt lat="52.3206700" lon="5.9732100"/>
<trkpt lat="52.3211600" lon="5.9731000"/>
<trkpt lat="52.3216900" lon="5.9730800"/>
<trkpt lat="52.3239200" lon="5.9732800"/>
<trkpt lat="52.3242000" lon="5.9732800"/>
<trkpt lat="52.3246200" lon="5.9731200"/>
<trkpt lat="52.3258300" lon="5.9727600"/>
<trkpt lat="52.3266000" lon="5.9724300"/>
<trkpt lat="52.3275400" lon="5.9719800"/>
<trkpt lat="52.3280200" lon="5.9717900"/>
<trkpt lat="52.3282800" lon="5.9717300"/>
<trkpt lat="52.3283500" lon="5.9721000"/>
<trkpt lat="52.3287800" lon="5.9719700"/>
<trkpt lat="52.3290400" lon="5.9719200"/>
<trkpt lat="52.3296200" lon="5.9718700"/>
<trkpt lat="52.3299600" lon="5.9717400"/>
<trkpt lat="52.3303500" lon="5.9715000"/>
<trkpt lat="52.3307000" lon="5.9715300"/>
<trkpt lat="52.3309400" lon="5.9716200"/>
<trkpt lat="52.3312600" lon="5.9715700"/>
<trkpt lat="52.3315100" lon="5.9714500"/>
<trkpt lat="52.3313100" lon="5.9700300"/>
<trkpt lat="52.3311500" lon="5.9698900"/>
<trkpt lat="52.3309000" lon="5.9697000"/>
<trkpt lat="52.3307600" lon="5.9695300"/>
<trkpt lat="52.3306100" lon="5.9692100"/>
<trkpt lat="52.3302800" lon="5.9684700"/>
<trkpt lat="52.3300100" lon="5.9679600"/>
<trkpt lat="52.3297800" lon="5.9675900"/>
<trkpt lat="52.3296500" lon="5.9677700"/>
<trkpt lat="52.3294500" lon="5.9681300"/>
<trkpt lat="52.3293600" lon="5.9684200"/>
<trkpt lat="52.3292100" lon="5.9690500"/>
<trkpt lat="52.3291000" lon="5.9691500"/>
<trkpt lat="52.3284800" lon="5.9688700"/>
<trkpt lat="52.3278400" lon="5.9686200"/>
<trkpt lat="52.3275900" lon="5.9686400"/>
<trkpt lat="52.3274100" lon="5.9687400"/>
<trkpt lat="52.3270800" lon="5.9679000"/>
<trkpt lat="52.3268500" lon="5.9674200"/>
<trkpt lat="52.3265300" lon="5.9663100"/>
<trkpt lat="52.3255300" lon="5.9620400"/>
<trkpt lat="52.3253500" lon="5.9620200"/>
<trkpt lat="52.3251300" lon="5.9620400"/>
<trkpt lat="52.3249300" lon="5.9620900"/>
<trkpt lat="52.3248600" lon="5.9621300"/>
<trkpt lat="52.3246500" lon="5.9621400"/>
<trkpt lat="52.3245000" lon="5.9621700"/>
<trkpt lat="52.3242700" lon="5.9621600"/>
<trkpt lat="52.3241300" lon="5.9623100"/>
<trkpt lat="52.3239300" lon="5.9623100"/>
<trkpt lat="52.3236700" lon="5.9621900"/>
<trkpt lat="52.3233200" lon="5.9618300"/>
<trkpt lat="52.3221900" lon="5.9607600"/>
<trkpt lat="52.3220600" lon="5.9615600"/>
<trkpt lat="52.3215500" lon="5.9609600"/>
<trkpt lat="52.3210400" lon="5.9604100"/>
<trkpt lat="52.3205900" lon="5.9600000"/>
<trkpt lat="52.3199000" lon="5.9594500"/>
<trkpt lat="52.3195600" lon="5.9588400"/>
<trkpt lat="52.3198300" lon="5.9586500"/>
<trkpt lat="52.3200300" lon="5.9584100"/>
<trkpt lat="52.3201100" lon="5.9582100"/>
<trkpt lat="52.3201900" lon="5.9570100"/>
<trkpt lat="52.3205800" lon="5.9522800"/>
<trkpt lat="52.3206000" lon="5.9515700"/>
<trkpt lat="52.3169900" lon="5.9406900"/>
<trkpt lat="52.3158100" lon="5.9407100"/>
<trkpt lat="52.3146500" lon="5.9406900"/>
<trkpt lat="52.3146900" lon="5.9420100"/>
<trkpt lat="52.3136000" lon="5.9419700"/>
<trkpt lat="52.3135400" lon="5.9421600"/>
<trkpt lat="52.3137700" lon="5.9491700"/>
<trkpt lat="52.3124800" lon="5.9491500"/>
<trkpt lat="52.3124600" lon="5.9478500"/>
<trkpt lat="52.3113300" lon="5.9478500"/>
<trkpt lat="52.3112800" lon="5.9459700"/>
<trkpt lat="52.3077300" lon="5.9460400"/>
<trkpt lat="52.3075900" lon="5.9551500"/>
<trkpt lat="52.3077000" lon="5.9559600"/>
<trkpt lat="52.3106300" lon="5.9680800"/>
<trkpt lat="52.3110200" lon="5.9697600"/>
<trkpt lat="52.3110600" lon="5.9699100"/>
<trkpt lat="52.3116300" lon="5.9695400"/>
<trkpt lat="52.3125400" lon="5.9690600"/>
<trkpt lat="52.3135900" lon="5.9689200"/>
<trkpt lat="52.3139400" lon="5.9706100"/>
<trkpt lat="52.3139500" lon="5.9707000"/>
<trkpt lat="52.3138200" lon="5.9708000"/>
<trkpt lat="52.3143800" lon="5.9736300"/>
<trkpt lat="52.3144700" lon="5.9739300"/>
<trkpt lat="52.3146000" lon="5.9739100"/>
<trkpt lat="52.3147800" lon="5.9738300"/>
<trkpt lat="52.3168800" lon="5.9742400"/>
<trkpt lat="52.3173400" lon="5.9742800"/>
<trkpt lat="52.3175500" lon="5.9741100"/>
</trkseg></trk>
<trk><name>Schaverensepad - shorteningRoute</name><type>shorteningRoute</type><trkseg>
<trkpt lat="52.3136200" lon="5.9689000"/>
<trkpt lat="52.3139800" lon="5.9685300"/>
<trkpt lat="52.3142600" lon="5.9682000"/>
<trkpt lat="52.3146800" lon="5.9674500"/>
<trkpt lat="52.3148200" lon="5.9671500"/>
<trkpt lat="52.3147500" lon="5.9666900"/>
<trkpt lat="52.3145700" lon="5.9662200"/>
<trkpt lat="52.3145000" lon="5.9658000"/>
<trkpt lat="52.3144800" lon="5.9654900"/>
<trkpt lat="52.3145800" lon="5.9652700"/>
<trkpt lat="52.3149800" lon="5.9647100"/>
<trkpt lat="52.3151200" lon="5.9643900"/>
<trkpt lat="52.3152300" lon="5.9640100"/>
<trkpt lat="52.3154600" lon="5.9636800"/>
<trkpt lat="52.3175700" lon="5.9609800"/>
<trkpt lat="52.3179000" lon="5.9606200"/>
<trkpt lat="52.3182500" lon="5.9601700"/>
<trkpt lat="52.3184800" lon="5.9598000"/>
<trkpt lat="52.3187800" lon="5.9591800"/>
<trkpt lat="52.3191100" lon="5.9590200"/>
<trkpt lat="52.3195600" lon="5.9588500"/>
</trkseg></trk>
<trk><name>Schaverensepad - Overstaproute</name><type>connectionRoute</type><trkseg>
<trkpt lat="52.3075965" lon="5.9551286"/>
<trkpt lat="52.3054123" lon="5.9587343"/>
<trkpt lat="52.3044150" lon="5.9603483"/>
<trkpt lat="52.3040054" lon="5.9608609"/>
<trkpt lat="52.3032953" lon="5.9616009"/>
<trkpt lat="52.3030995" lon="5.9617336"/>
</trkseg></trk>
<trk><name>Schaverensepad - approachRoute</name><type>approachRoute</type><trkseg>
<trkpt lat="52.3160000" lon="5.9754400"/>
<trkpt lat="52.3166400" lon="5.9755900"/>
<trkpt lat="52.3171100" lon="5.9756100"/>
<trkpt lat="52.3172000" lon="5.9742500"/>
<trkpt lat="52.3173600" lon="5.9742700"/>
<trkpt lat="52.3175400" lon="5.9741000"/>
</trkseg></trk>
</gpx>