<?xml version="1.0" encoding="UTF-8"?>
<gpx version="1.1" creator="klompenpaden.nl via Jimbo API" xmlns="http://www.topografix.com/GPX/1/1">
<metadata><name>Slagmaatpad</name><desc>Ontdek het mooie buitengebied van Bunnik en Houten. Een uniek stukje in Nederland waar twee UNESCO Werelderfgoederen, namelijk de Hollandse Waterlinies en de Neder-Germaanse Limes, samenkomen. Wandelen over Fort bij Vechten, door een nieuw natuurgebied en over boerenland. Geniet van een afwisselende route zo dicht bij het stedelijk gebied. Klompen aan, rugzak op en gaan.</desc><link href="https://www.klompenpaden.nl/klompenpaden/Slagmaatpad/b96de814-8276-455e-a4d3-447e32ffeaa4"><text>klompenpaden.nl</text></link></metadata>
<wpt lat="52.06115226259056" lon="5.171205111253486"><name>Start Bunnik</name></wpt>
<trk><name>Slagmaatpad - Geimporteerde shapefile</name><type>mainRoute</type><trkseg>
<trkpt lat="52.0611430" lon="5.1712081"/>
<trkpt lat="52.0611130" lon="5.1711073"/>
<trkpt lat="52.0609505" lon="5.1696167"/>
<trkpt lat="52.0597296" lon="5.1684657"/>
<trkpt lat="52.0596144" lon="5.1683660"/>
<trkpt lat="52.0595287" lon="5.1682796"/>
<trkpt lat="52.0592997" lon="5.1684806"/>
<trkpt lat="52.0591574" lon="5.1691006"/>
<trkpt lat="52.0590931" lon="5.1692184"/>
<trkpt lat="52.0589825" lon="5.1692146"/>
<trkpt lat="52.0589440" lon="5.1691985"/>
<trkpt lat="52.0587663" lon="5.1689019"/>
<trkpt lat="52.0588219" lon="5.1687383"/>
<trkpt lat="52.0582325" lon="5.1681105"/>
<trkpt lat="52.0581381" lon="5.1683199"/>
<trkpt lat="52.0580579" lon="5.1682515"/>
<trkpt lat="52.0579957" lon="5.1681668"/>
<trkpt lat="52.0579166" lon="5.1680751"/>
<trkpt lat="52.0578522" lon="5.1678027"/>
<trkpt lat="52.0582513" lon="5.1671605"/>
<trkpt lat="52.0582637" lon="5.1670706"/>
<trkpt lat="52.0582631" lon="5.1667639"/>
<trkpt lat="52.0583056" lon="5.1665959"/>
<trkpt lat="52.0583908" lon="5.1663698"/>
<trkpt lat="52.0585258" lon="5.1661029"/>
<trkpt lat="52.0586552" lon="5.1659784"/>
<trkpt lat="52.0587575" lon="5.1658947"/>
<trkpt lat="52.0587898" lon="5.1658064"/>
<trkpt lat="52.0588070" lon="5.1656300"/>
<trkpt lat="52.0588983" lon="5.1654407"/>
<trkpt lat="52.0589512" lon="5.1653138"/>
<trkpt lat="52.0589867" lon="5.1652287"/>
<trkpt lat="52.0591366" lon="5.1651306"/>
<trkpt lat="52.0592835" lon="5.1651086"/>
<trkpt lat="52.0593024" lon="5.1649558"/>
<trkpt lat="52.0590312" lon="5.1643614"/>
<trkpt lat="52.0588441" lon="5.1639116"/>
<trkpt lat="52.0587040" lon="5.1635652"/>
<trkpt lat="52.0584038" lon="5.1628086"/>
<trkpt lat="52.0579415" lon="5.1616702"/>
<trkpt lat="52.0573101" lon="5.1623138"/>
<trkpt lat="52.0569761" lon="5.1626496"/>
<trkpt lat="52.0566365" lon="5.1630085"/>
<trkpt lat="52.0563984" lon="5.1632459"/>
<trkpt lat="52.0561295" lon="5.1634292"/>
<trkpt lat="52.0556515" lon="5.1637610"/>
<trkpt lat="52.0555901" lon="5.1638231"/>
<trkpt lat="52.0554200" lon="5.1639185"/>
<trkpt lat="52.0554200" lon="5.1639172"/>
<trkpt lat="52.0550760" lon="5.1624919"/>
<trkpt lat="52.0550056" lon="5.1619907"/>
<trkpt lat="52.0542134" lon="5.1621523"/>
<trkpt lat="52.0515789" lon="5.1627247"/>
<trkpt lat="52.0517312" lon="5.1647125"/>
<trkpt lat="52.0515367" lon="5.1647673"/>
<trkpt lat="52.0513285" lon="5.1647954"/>
<trkpt lat="52.0513335" lon="5.1667001"/>
<trkpt lat="52.0513203" lon="5.1673293"/>
<trkpt lat="52.0512811" lon="5.1673855"/>
<trkpt lat="52.0509648" lon="5.1674094"/>
<trkpt lat="52.0507440" lon="5.1673532"/>
<trkpt lat="52.0504169" lon="5.1671648"/>
<trkpt lat="52.0501846" lon="5.1670328"/>
<trkpt lat="52.0499494" lon="5.1667595"/>
<trkpt lat="52.0499330" lon="5.1671347"/>
<trkpt lat="52.0498922" lon="5.1678908"/>
<trkpt lat="52.0497684" lon="5.1691861"/>
<trkpt lat="52.0497036" lon="5.1698370"/>
<trkpt lat="52.0495814" lon="5.1710778"/>
<trkpt lat="52.0494379" lon="5.1726663"/>
<trkpt lat="52.0496535" lon="5.1727240"/>
<trkpt lat="52.0496435" lon="5.1729206"/>
<trkpt lat="52.0495799" lon="5.1734736"/>
<trkpt lat="52.0495450" lon="5.1739412"/>
<trkpt lat="52.0494941" lon="5.1745427"/>
<trkpt lat="52.0494908" lon="5.1746790"/>
<trkpt lat="52.0493856" lon="5.1745925"/>
<trkpt lat="52.0492653" lon="5.1745759"/>
<trkpt lat="52.0490649" lon="5.1742756"/>
<trkpt lat="52.0487004" lon="5.1736995"/>
<trkpt lat="52.0485952" lon="5.1735000"/>
<trkpt lat="52.0485097" lon="5.1737420"/>
<trkpt lat="52.0484356" lon="5.1737987"/>
<trkpt lat="52.0483526" lon="5.1738372"/>
<trkpt lat="52.0482836" lon="5.1738377"/>
<trkpt lat="52.0481451" lon="5.1738233"/>
<trkpt lat="52.0480435" lon="5.1738082"/>
<trkpt lat="52.0479293" lon="5.1738096"/>
<trkpt lat="52.0478938" lon="5.1738167"/>
<trkpt lat="52.0475125" lon="5.1737072"/>
<trkpt lat="52.0474043" lon="5.1736624"/>
<trkpt lat="52.0473733" lon="5.1739462"/>
<trkpt lat="52.0473457" lon="5.1741077"/>
<trkpt lat="52.0473046" lon="5.1743943"/>
<trkpt lat="52.0473026" lon="5.1744950"/>
<trkpt lat="52.0472014" lon="5.1744924"/>
<trkpt lat="52.0471254" lon="5.1745369"/>
<trkpt lat="52.0470456" lon="5.1746791"/>
<trkpt lat="52.0468892" lon="5.1746455"/>
<trkpt lat="52.0467486" lon="5.1746291"/>
<trkpt lat="52.0466555" lon="5.1746149"/>
<trkpt lat="52.0465774" lon="5.1745675"/>
<trkpt lat="52.0464843" lon="5.1744586"/>
<trkpt lat="52.0463345" lon="5.1743439"/>
<trkpt lat="52.0462841" lon="5.1743155"/>
<trkpt lat="52.0460776" lon="5.1742983"/>
<trkpt lat="52.0459702" lon="5.1743074"/>
<trkpt lat="52.0459351" lon="5.1743517"/>
<trkpt lat="52.0458989" lon="5.1744103"/>
<trkpt lat="52.0457749" lon="5.1742398"/>
<trkpt lat="52.0457464" lon="5.1742070"/>
<trkpt lat="52.0457431" lon="5.1737704"/>
<trkpt lat="52.0457485" lon="5.1735373"/>
<trkpt lat="52.0457518" lon="5.1733440"/>
<trkpt lat="52.0457808" lon="5.1731922"/>
<trkpt lat="52.0461644" lon="5.1732974"/>
<trkpt lat="52.0465230" lon="5.1733946"/>
<trkpt lat="52.0466043" lon="5.1733907"/>
<trkpt lat="52.0466283" lon="5.1733850"/>
<trkpt lat="52.0467617" lon="5.1732750"/>
<trkpt lat="52.0468265" lon="5.1731950"/>
<trkpt lat="52.0468782" lon="5.1730839"/>
<trkpt lat="52.0469833" lon="5.1727357"/>
<trkpt lat="52.0470800" lon="5.1724341"/>
<trkpt lat="52.0471457" lon="5.1721062"/>
<trkpt lat="52.0471776" lon="5.1716752"/>
<trkpt lat="52.0472170" lon="5.1713004"/>
<trkpt lat="52.0472584" lon="5.1709855"/>
<trkpt lat="52.0473123" lon="5.1706929"/>
<trkpt lat="52.0482523" lon="5.1708613"/>
<trkpt lat="52.0483044" lon="5.1703576"/>
<trkpt lat="52.0482703" lon="5.1701916"/>
<trkpt lat="52.0482622" lon="5.1699974"/>
<trkpt lat="52.0482696" lon="5.1699346"/>
<trkpt lat="52.0482896" lon="5.1698526"/>
<trkpt lat="52.0483917" lon="5.1696377"/>
<trkpt lat="52.0484202" lon="5.1695325"/>
<trkpt lat="52.0484968" lon="5.1688313"/>
<trkpt lat="52.0490825" lon="5.1693225"/>
<trkpt lat="52.0494691" lon="5.1696448"/>
<trkpt lat="52.0497024" lon="5.1698418"/>
<trkpt lat="52.0498777" lon="5.1680803"/>
<trkpt lat="52.0499538" lon="5.1666213"/>
<trkpt lat="52.0500211" lon="5.1653051"/>
<trkpt lat="52.0500376" lon="5.1646226"/>
<trkpt lat="52.0500233" lon="5.1641277"/>
<trkpt lat="52.0499837" lon="5.1636624"/>
<trkpt lat="52.0498879" lon="5.1631707"/>
<trkpt lat="52.0497891" lon="5.1626312"/>
<trkpt lat="52.0498535" lon="5.1625030"/>
<trkpt lat="52.0498671" lon="5.1623824"/>
<trkpt lat="52.0499127" lon="5.1621814"/>
<trkpt lat="52.0500187" lon="5.1617006"/>
<trkpt lat="52.0500663" lon="5.1614302"/>
<trkpt lat="52.0500822" lon="5.1613380"/>
<trkpt lat="52.0502614" lon="5.1602040"/>
<trkpt lat="52.0502963" lon="5.1599041"/>
<trkpt lat="52.0502363" lon="5.1598894"/>
<trkpt lat="52.0501381" lon="5.1591649"/>
<trkpt lat="52.0502242" lon="5.1586008"/>
<trkpt lat="52.0503363" lon="5.1580720"/>
<trkpt lat="52.0504676" lon="5.1577420"/>
<trkpt lat="52.0505614" lon="5.1576135"/>
<trkpt lat="52.0506668" lon="5.1574827"/>
<trkpt lat="52.0507837" lon="5.1574012"/>
<trkpt lat="52.0508646" lon="5.1573292"/>
<trkpt lat="52.0510663" lon="5.1571999"/>
<trkpt lat="52.0511898" lon="5.1571389"/>
<trkpt lat="52.0513074" lon="5.1571049"/>
<trkpt lat="52.0514295" lon="5.1571106"/>
<trkpt lat="52.0515722" lon="5.1571114"/>
<trkpt lat="52.0515723" lon="5.1576668"/>
<trkpt lat="52.0515492" lon="5.1581577"/>
<trkpt lat="52.0515482" lon="5.1586313"/>
<trkpt lat="52.0542608" lon="5.1597041"/>
<trkpt lat="52.0543069" lon="5.1598265"/>
<trkpt lat="52.0543073" lon="5.1599683"/>
<trkpt lat="52.0542127" lon="5.1621598"/>
<trkpt lat="52.0550041" lon="5.1619955"/>
<trkpt lat="52.0550783" lon="5.1624946"/>
<trkpt lat="52.0552070" lon="5.1630342"/>
<trkpt lat="52.0554369" lon="5.1639742"/>
<trkpt lat="52.0556594" lon="5.1648868"/>
<trkpt lat="52.0558316" lon="5.1655317"/>
<trkpt lat="52.0558979" lon="5.1655090"/>
<trkpt lat="52.0559579" lon="5.1659138"/>
<trkpt lat="52.0559813" lon="5.1661015"/>
<trkpt lat="52.0560849" lon="5.1661223"/>
<trkpt lat="52.0560685" lon="5.1661719"/>
<trkpt lat="52.0561231" lon="5.1663034"/>
<trkpt lat="52.0562198" lon="5.1664583"/>
<trkpt lat="52.0562008" lon="5.1665133"/>
<trkpt lat="52.0561846" lon="5.1665905"/>
<trkpt lat="52.0561889" lon="5.1667071"/>
<trkpt lat="52.0561572" lon="5.1668318"/>
<trkpt lat="52.0561381" lon="5.1669914"/>
<trkpt lat="52.0561471" lon="5.1671515"/>
<trkpt lat="52.0561783" lon="5.1673528"/>
<trkpt lat="52.0562330" lon="5.1674262"/>
<trkpt lat="52.0563388" lon="5.1677397"/>
<trkpt lat="52.0563391" lon="5.1678644"/>
<trkpt lat="52.0564220" lon="5.1679912"/>
<trkpt lat="52.0565584" lon="5.1681971"/>
<trkpt lat="52.0566769" lon="5.1683048"/>
<trkpt lat="52.0567778" lon="5.1684360"/>
<trkpt lat="52.0568517" lon="5.1685467"/>
<trkpt lat="52.0569546" lon="5.1686700"/>
<trkpt lat="52.0570408" lon="5.1687018"/>
<trkpt lat="52.0571177" lon="5.1687070"/>
<trkpt lat="52.0571604" lon="5.1687492"/>
<trkpt lat="52.0571654" lon="5.1688099"/>
<trkpt lat="52.0571962" lon="5.1689147"/>
<trkpt lat="52.0572132" lon="5.1690402"/>
<trkpt lat="52.0572130" lon="5.1691604"/>
<trkpt lat="52.0572811" lon="5.1698519"/>
<trkpt lat="52.0573226" lon="5.1700682"/>
<trkpt lat="52.0572775" lon="5.1701359"/>
<trkpt lat="52.0572749" lon="5.1701746"/>
<trkpt lat="52.0572966" lon="5.1702712"/>
<trkpt lat="52.0573645" lon="5.1704211"/>
<trkpt lat="52.0574553" lon="5.1706104"/>
<trkpt lat="52.0574988" lon="5.1706669"/>
<trkpt lat="52.0575891" lon="5.1707446"/>
<trkpt lat="52.0577239" lon="5.1708303"/>
<trkpt lat="52.0577688" lon="5.1708904"/>
<trkpt lat="52.0579044" lon="5.1709417"/>
<trkpt lat="52.0579999" lon="5.1709202"/>
<trkpt lat="52.0581009" lon="5.1708718"/>
<trkpt lat="52.0582088" lon="5.1708308"/>
<trkpt lat="52.0583226" lon="5.1707876"/>
<trkpt lat="52.0584141" lon="5.1707418"/>
<trkpt lat="52.0585337" lon="5.1706966"/>
<trkpt lat="52.0586448" lon="5.1706575"/>
<trkpt lat="52.0586522" lon="5.1706589"/>
<trkpt lat="52.0586835" lon="5.1705982"/>
<trkpt lat="52.0587069" lon="5.1704933"/>
<trkpt lat="52.0587860" lon="5.1704789"/>
<trkpt lat="52.0588495" lon="5.1705410"/>
<trkpt lat="52.0588873" lon="5.1706467"/>
<trkpt lat="52.0589044" lon="5.1707400"/>
<trkpt lat="52.0589965" lon="5.1708415"/>
<trkpt lat="52.0591050" lon="5.1709812"/>
<trkpt lat="52.0591672" lon="5.1710401"/>
<trkpt lat="52.0592761" lon="5.1711398"/>
<trkpt lat="52.0593582" lon="5.1712614"/>
<trkpt lat="52.0594431" lon="5.1713741"/>
<trkpt lat="52.0595496" lon="5.1714822"/>
<trkpt lat="52.0596891" lon="5.1715259"/>
<trkpt lat="52.0597839" lon="5.1715500"/>
<trkpt lat="52.0599898" lon="5.1715556"/>
<trkpt lat="52.0600694" lon="5.1715573"/>
<trkpt lat="52.0602025" lon="5.1717219"/>
<trkpt lat="52.0604294" lon="5.1719796"/>
<trkpt lat="52.0610225" lon="5.1714590"/>
<trkpt lat="52.0610670" lon="5.1713257"/>
<trkpt lat="52.0611133" lon="5.1711043"/>
</trkseg></trk>
<trk><name>Slagmaatpad - Geimporteerde shapefile</name><type>alternativeRoute</type><trkseg>
<trkpt lat="52.0515720" lon="5.1571137"/>
<trkpt lat="52.0518269" lon="5.1570747"/>
<trkpt lat="52.0520705" lon="5.1570907"/>
<trkpt lat="52.0522424" lon="5.1571004"/>
<trkpt lat="52.0525190" lon="5.1571153"/>
<trkpt lat="52.0527664" lon="5.1570986"/>
<trkpt lat="52.0531430" lon="5.1570478"/>
<trkpt lat="52.0533041" lon="5.1570217"/>
<trkpt lat="52.0535539" lon="5.1569879"/>
<trkpt lat="52.0538717" lon="5.1569351"/>
<trkpt lat="52.0540468" lon="5.1569259"/>
<trkpt lat="52.0540986" lon="5.1569319"/>
<trkpt lat="52.0541337" lon="5.1569081"/>
<trkpt lat="52.0541503" lon="5.1569199"/>
<trkpt lat="52.0542113" lon="5.1569081"/>
<trkpt lat="52.0542448" lon="5.1568570"/>
<trkpt lat="52.0542778" lon="5.1568806"/>
<trkpt lat="52.0543020" lon="5.1569478"/>
<trkpt lat="52.0543500" lon="5.1569479"/>
<trkpt lat="52.0543705" lon="5.1568500"/>
<trkpt lat="52.0543959" lon="5.1567687"/>
<trkpt lat="52.0547208" lon="5.1566189"/>
<trkpt lat="52.0548217" lon="5.1565491"/>
<trkpt lat="52.0548364" lon="5.1566110"/>
<trkpt lat="52.0548854" lon="5.1569376"/>
<trkpt lat="52.0549442" lon="5.1571383"/>
<trkpt lat="52.0550443" lon="5.1574057"/>
<trkpt lat="52.0552139" lon="5.1578268"/>
<trkpt lat="52.0551761" lon="5.1579389"/>
<trkpt lat="52.0551801" lon="5.1580079"/>
<trkpt lat="52.0552059" lon="5.1586266"/>
<trkpt lat="52.0552088" lon="5.1591901"/>
<trkpt lat="52.0551977" lon="5.1593479"/>
<trkpt lat="52.0551704" lon="5.1597673"/>
<trkpt lat="52.0550915" lon="5.1606412"/>
<trkpt lat="52.0550442" lon="5.1612280"/>
<trkpt lat="52.0550041" lon="5.1618301"/>
<trkpt lat="52.0550059" lon="5.1619245"/>
<trkpt lat="52.0550032" lon="5.1619897"/>
</trkseg></trk>
<trk><name>Slagmaatpad - Aanlooproute Slagmaatpad</name><type>approachRoute</type><trkseg>
<trkpt lat="52.0431968" lon="5.1857936"/>
<trkpt lat="52.0432331" lon="5.1856595"/>
<trkpt lat="52.0431506" lon="5.1854289"/>
<trkpt lat="52.0431572" lon="5.1852411"/>
<trkpt lat="52.0434872" lon="5.1846671"/>
<trkpt lat="52.0435829" lon="5.1845062"/>
<trkpt lat="52.0437577" lon="5.1845169"/>
<trkpt lat="52.0439326" lon="5.1844579"/>
<trkpt lat="52.0440943" lon="5.1842594"/>
<trkpt lat="52.0445331" lon="5.1825428"/>
<trkpt lat="52.0448003" lon="5.1815933"/>
<trkpt lat="52.0448696" lon="5.1814377"/>
<trkpt lat="52.0452358" lon="5.1808423"/>
<trkpt lat="52.0452985" lon="5.1805955"/>
<trkpt lat="52.0453117" lon="5.1794690"/>
<trkpt lat="52.0453117" lon="5.1789862"/>
<trkpt lat="52.0453249" lon="5.1789218"/>
<trkpt lat="52.0455460" lon="5.1789486"/>
<trkpt lat="52.0455691" lon="5.1786751"/>
<trkpt lat="52.0453315" lon="5.1786214"/>
<trkpt lat="52.0452820" lon="5.1785946"/>
<trkpt lat="52.0452655" lon="5.1770818"/>
<trkpt lat="52.0451963" lon="5.1770389"/>
<trkpt lat="52.0451699" lon="5.1769745"/>
<trkpt lat="52.0451963" lon="5.1762825"/>
<trkpt lat="52.0452391" lon="5.1760572"/>
<trkpt lat="52.0452820" lon="5.1753223"/>
<trkpt lat="52.0452919" lon="5.1751238"/>
<trkpt lat="52.0453513" lon="5.1749951"/>
<trkpt lat="52.0453546" lon="5.1748610"/>
<trkpt lat="52.0454074" lon="5.1748073"/>
<trkpt lat="52.0455229" lon="5.1745874"/>
<trkpt lat="52.0457076" lon="5.1746035"/>
<trkpt lat="52.0458297" lon="5.1745176"/>
<trkpt lat="52.0458924" lon="5.1744264"/>
</trkseg></trk>
</gpx>