<?xml version="1.0" encoding="UTF-8"?>
<gpx version="1.1" creator="klompenpaden.nl via Jimbo API" xmlns="http://www.topografix.com/GPX/1/1">
<metadata><name>Sonnevanckpad</name><desc>Ontdek het afwisselende buitengebied van Harderwijk. Wandelen langs een voormalig sanatorium, een zandverstuiving en een oude agrarische enclave. Klompen aan, rugzak op en gaan!
</desc><link href="https://www.klompenpaden.nl/klompenpaden/Sonnevanckpad/20992f9e-b49a-487d-a33f-fa402e7d9d86"><text>klompenpaden.nl</text></link></metadata>
<wpt lat="52.32111732830445" lon="5.662011802196503"><name>Start Harderwijk.</name></wpt>
<trk><name>Sonnevanckpad - hoofdroute</name><type>mainRoute</type><trkseg>
<trkpt lat="52.3185136" lon="5.6673493"/>
<trkpt lat="52.3180217" lon="5.6691892"/>
<trkpt lat="52.3178263" lon="5.6696736"/>
<trkpt lat="52.3174421" lon="5.6700379"/>
<trkpt lat="52.3171313" lon="5.6703249"/>
<trkpt lat="52.3168520" lon="5.6703546"/>
<trkpt lat="52.3171661" lon="5.6712877"/>
<trkpt lat="52.3175379" lon="5.6729418"/>
<trkpt lat="52.3178391" lon="5.6729421"/>
<trkpt lat="52.3184357" lon="5.6740746"/>
<trkpt lat="52.3189380" lon="5.6752070"/>
<trkpt lat="52.3190007" lon="5.6756274"/>
<trkpt lat="52.3189535" lon="5.6768225"/>
<trkpt lat="52.3189717" lon="5.6772579"/>
<trkpt lat="52.3194014" lon="5.6771942"/>
<trkpt lat="52.3205550" lon="5.6768165"/>
<trkpt lat="52.3217610" lon="5.6767819"/>
<trkpt lat="52.3232345" lon="5.6769149"/>
<trkpt lat="52.3235018" lon="5.6769148"/>
<trkpt lat="52.3244931" lon="5.6776357"/>
<trkpt lat="52.3255524" lon="5.6784766"/>
<trkpt lat="52.3273737" lon="5.6798318"/>
<trkpt lat="52.3273766" lon="5.6798373"/>
<trkpt lat="52.3274378" lon="5.6797233"/>
<trkpt lat="52.3275306" lon="5.6792489"/>
<trkpt lat="52.3284084" lon="5.6764849"/>
<trkpt lat="52.3290087" lon="5.6747824"/>
<trkpt lat="52.3293218" lon="5.6737309"/>
<trkpt lat="52.3293512" lon="5.6747237"/>
<trkpt lat="52.3294223" lon="5.6751568"/>
<trkpt lat="52.3295354" lon="5.6755126"/>
<trkpt lat="52.3303213" lon="5.6745230"/>
<trkpt lat="52.3309544" lon="5.6739962"/>
<trkpt lat="52.3317251" lon="5.6738019"/>
<trkpt lat="52.3316450" lon="5.6734187"/>
<trkpt lat="52.3314967" lon="5.6730270"/>
<trkpt lat="52.3310559" lon="5.6722341"/>
<trkpt lat="52.3298542" lon="5.6701996"/>
<trkpt lat="52.3299058" lon="5.6700060"/>
<trkpt lat="52.3296089" lon="5.6696989"/>
<trkpt lat="52.3292926" lon="5.6688565"/>
<trkpt lat="52.3292170" lon="5.6685835"/>
<trkpt lat="52.3290890" lon="5.6683490"/>
<trkpt lat="52.3287310" lon="5.6679280"/>
<trkpt lat="52.3285958" lon="5.6675712"/>
<trkpt lat="52.3284843" lon="5.6668884"/>
<trkpt lat="52.3283399" lon="5.6665332"/>
<trkpt lat="52.3278703" lon="5.6659377"/>
<trkpt lat="52.3272796" lon="5.6656842"/>
<trkpt lat="52.3272978" lon="5.6648248"/>
<trkpt lat="52.3274100" lon="5.6630706"/>
<trkpt lat="52.3275922" lon="5.6628672"/>
<trkpt lat="52.3279528" lon="5.6625437"/>
<trkpt lat="52.3282019" lon="5.6612529"/>
<trkpt lat="52.3284595" lon="5.6615271"/>
<trkpt lat="52.3285729" lon="5.6619256"/>
<trkpt lat="52.3288575" lon="5.6622122"/>
<trkpt lat="52.3290790" lon="5.6626173"/>
<trkpt lat="52.3293550" lon="5.6636695"/>
<trkpt lat="52.3295156" lon="5.6639836"/>
<trkpt lat="52.3298211" lon="5.6648521"/>
<trkpt lat="52.3299745" lon="5.6652572"/>
<trkpt lat="52.3305540" lon="5.6664784"/>
<trkpt lat="52.3308661" lon="5.6667899"/>
<trkpt lat="52.3309604" lon="5.6665853"/>
<trkpt lat="52.3311576" lon="5.6661835"/>
<trkpt lat="52.3316394" lon="5.6651279"/>
<trkpt lat="52.3315864" lon="5.6648431"/>
<trkpt lat="52.3314580" lon="5.6643140"/>
<trkpt lat="52.3314809" lon="5.6639483"/>
<trkpt lat="52.3315407" lon="5.6636885"/>
<trkpt lat="52.3311091" lon="5.6631009"/>
<trkpt lat="52.3308939" lon="5.6625390"/>
<trkpt lat="52.3309696" lon="5.6620643"/>
<trkpt lat="52.3312697" lon="5.6614447"/>
<trkpt lat="52.3312666" lon="5.6611152"/>
<trkpt lat="52.3310956" lon="5.6606697"/>
<trkpt lat="52.3305425" lon="5.6601984"/>
<trkpt lat="52.3305575" lon="5.6598943"/>
<trkpt lat="52.3311279" lon="5.6569968"/>
<trkpt lat="52.3313500" lon="5.6560078"/>
<trkpt lat="52.3315885" lon="5.6561496"/>
<trkpt lat="52.3324422" lon="5.6563163"/>
<trkpt lat="52.3334099" lon="5.6564066"/>
<trkpt lat="52.3334347" lon="5.6541356"/>
<trkpt lat="52.3317640" lon="5.6527516"/>
<trkpt lat="52.3313440" lon="5.6538091"/>
<trkpt lat="52.3311234" lon="5.6542488"/>
<trkpt lat="52.3306660" lon="5.6539913"/>
<trkpt lat="52.3300071" lon="5.6528664"/>
<trkpt lat="52.3299446" lon="5.6528470"/>
<trkpt lat="52.3294128" lon="5.6536136"/>
<trkpt lat="52.3293043" lon="5.6538982"/>
<trkpt lat="52.3293636" lon="5.6541485"/>
<trkpt lat="52.3288656" lon="5.6557956"/>
<trkpt lat="52.3284096" lon="5.6573139"/>
<trkpt lat="52.3281469" lon="5.6576964"/>
<trkpt lat="52.3280887" lon="5.6579675"/>
<trkpt lat="52.3278818" lon="5.6582436"/>
<trkpt lat="52.3278295" lon="5.6583805"/>
<trkpt lat="52.3277615" lon="5.6587234"/>
<trkpt lat="52.3276555" lon="5.6590616"/>
<trkpt lat="52.3272857" lon="5.6598470"/>
<trkpt lat="52.3265540" lon="5.6608856"/>
<trkpt lat="52.3260340" lon="5.6618284"/>
<trkpt lat="52.3259049" lon="5.6628228"/>
<trkpt lat="52.3258156" lon="5.6630777"/>
<trkpt lat="52.3254381" lon="5.6630832"/>
<trkpt lat="52.3251839" lon="5.6635260"/>
<trkpt lat="52.3250191" lon="5.6642120"/>
<trkpt lat="52.3241638" lon="5.6661149"/>
<trkpt lat="52.3235787" lon="5.6661783"/>
<trkpt lat="52.3234274" lon="5.6662530"/>
<trkpt lat="52.3232222" lon="5.6665839"/>
<trkpt lat="52.3230284" lon="5.6667909"/>
<trkpt lat="52.3228614" lon="5.6669029"/>
<trkpt lat="52.3227524" lon="5.6671209"/>
<trkpt lat="52.3225834" lon="5.6670709"/>
<trkpt lat="52.3224294" lon="5.6669359"/>
<trkpt lat="52.3223504" lon="5.6667829"/>
<trkpt lat="52.3223014" lon="5.6663939"/>
<trkpt lat="52.3222384" lon="5.6662089"/>
<trkpt lat="52.3222624" lon="5.6661019"/>
<trkpt lat="52.3222204" lon="5.6660339"/>
<trkpt lat="52.3220694" lon="5.6660369"/>
<trkpt lat="52.3220094" lon="5.6659909"/>
<trkpt lat="52.3219834" lon="5.6659179"/>
<trkpt lat="52.3218564" lon="5.6653319"/>
<trkpt lat="52.3218040" lon="5.6652733"/>
<trkpt lat="52.3216596" lon="5.6654057"/>
<trkpt lat="52.3214782" lon="5.6654445"/>
<trkpt lat="52.3212600" lon="5.6653374"/>
<trkpt lat="52.3211887" lon="5.6653334"/>
<trkpt lat="52.3209169" lon="5.6654858"/>
<trkpt lat="52.3207837" lon="5.6653303"/>
<trkpt lat="52.3206153" lon="5.6649589"/>
<trkpt lat="52.3204967" lon="5.6645704"/>
<trkpt lat="52.3196359" lon="5.6639844"/>
<trkpt lat="52.3195399" lon="5.6637771"/>
<trkpt lat="52.3194923" lon="5.6634336"/>
<trkpt lat="52.3195076" lon="5.6629698"/>
<trkpt lat="52.3196305" lon="5.6626006"/>
<trkpt lat="52.3198452" lon="5.6622098"/>
<trkpt lat="52.3200311" lon="5.6620272"/>
<trkpt lat="52.3202642" lon="5.6618775"/>
<trkpt lat="52.3204384" lon="5.6618836"/>
<trkpt lat="52.3207489" lon="5.6620561"/>
<trkpt lat="52.3209878" lon="5.6620653"/>
<trkpt lat="52.3211043" lon="5.6619188"/>
<trkpt lat="52.3211000" lon="5.6617561"/>
<trkpt lat="52.3217749" lon="5.6615561"/>
<trkpt lat="52.3219896" lon="5.6614940"/>
<trkpt lat="52.3219716" lon="5.6613442"/>
<trkpt lat="52.3211634" lon="5.6600481"/>
<trkpt lat="52.3210445" lon="5.6602656"/>
<trkpt lat="52.3210350" lon="5.6604053"/>
<trkpt lat="52.3209905" lon="5.6605645"/>
<trkpt lat="52.3209012" lon="5.6606468"/>
<trkpt lat="52.3207215" lon="5.6606555"/>
<trkpt lat="52.3206214" lon="5.6607119"/>
<trkpt lat="52.3205125" lon="5.6610177"/>
<trkpt lat="52.3200710" lon="5.6608170"/>
<trkpt lat="52.3197835" lon="5.6612197"/>
<trkpt lat="52.3196428" lon="5.6614936"/>
<trkpt lat="52.3196526" lon="5.6618053"/>
<trkpt lat="52.3195894" lon="5.6620190"/>
<trkpt lat="52.3195494" lon="5.6620590"/>
<trkpt lat="52.3194494" lon="5.6621290"/>
<trkpt lat="52.3193794" lon="5.6621990"/>
<trkpt lat="52.3192894" lon="5.6624890"/>
<trkpt lat="52.3192794" lon="5.6627090"/>
<trkpt lat="52.3192194" lon="5.6630390"/>
<trkpt lat="52.3190294" lon="5.6633990"/>
<trkpt lat="52.3189294" lon="5.6637390"/>
<trkpt lat="52.3190494" lon="5.6642990"/>
<trkpt lat="52.3191194" lon="5.6645090"/>
<trkpt lat="52.3194294" lon="5.6650190"/>
<trkpt lat="52.3193219" lon="5.6656243"/>
<trkpt lat="52.3190674" lon="5.6659612"/>
<trkpt lat="52.3188010" lon="5.6664833"/>
<trkpt lat="52.3185136" lon="5.6673493"/>
</trkseg></trk>
<trk><name>Sonnevanckpad - routeverkorter</name><type>shorteningRoute</type><trkseg>
<trkpt lat="52.3282001" lon="5.6612417"/>
<trkpt lat="52.3277675" lon="5.6607268"/>
<trkpt lat="52.3272852" lon="5.6598479"/>
</trkseg></trk>
<trk><name>Sonnevanckpad - aanlooproute</name><type>approachRoute</type><trkseg>
<trkpt lat="52.3317640" lon="5.6527514"/>
<trkpt lat="52.3316099" lon="5.6525511"/>
<trkpt lat="52.3314093" lon="5.6523688"/>
<trkpt lat="52.3310395" lon="5.6517466"/>
</trkseg></trk>
</gpx>