<?xml version="1.0" encoding="UTF-8"?>
<gpx version="1.1" creator="klompenpaden.nl via Jimbo API" xmlns="http://www.topografix.com/GPX/1/1">
<metadata><name>Spanjaardspad XL</name><desc>Ontdek het prachtige buitengebied van de gemeente Neder-Betuwe en wandel langs Neder-Rijn en Waal, oude verdedigingswerken, door uiterwaarden en door het oeverwallenlandschap met eeuwenoude fruit- en bomenteelt. Klompen aan, rugzak op en gaan!</desc><link href="https://www.klompenpaden.nl/klompenpaden/Spanjaardspad_XL/4ca4f453-ecff-403e-974a-89de74f8a9d3"><text>klompenpaden.nl</text></link></metadata>
<wpt lat="51.93974098130352" lon="5.6155264377594"><name>Start Opheusden</name></wpt>
<trk><name>Spanjaardspad XL - Geimporteerde shapefile</name><type>mainRoute</type><trkseg>
<trkpt lat="51.9217132" lon="5.6851732"/>
<trkpt lat="51.9226001" lon="5.6844019"/>
<trkpt lat="51.9243349" lon="5.6912208"/>
<trkpt lat="51.9242947" lon="5.6912618"/>
<trkpt lat="51.9236695" lon="5.6919121"/>
<trkpt lat="51.9248975" lon="5.6948408"/>
<trkpt lat="51.9278373" lon="5.6920517"/>
<trkpt lat="51.9294157" lon="5.6914038"/>
<trkpt lat="51.9306236" lon="5.6914596"/>
<trkpt lat="51.9320339" lon="5.6919359"/>
<trkpt lat="51.9313379" lon="5.6945319"/>
<trkpt lat="51.9312652" lon="5.6954308"/>
<trkpt lat="51.9312770" lon="5.6963470"/>
<trkpt lat="51.9312942" lon="5.6969113"/>
<trkpt lat="51.9314331" lon="5.6972439"/>
<trkpt lat="51.9314543" lon="5.6976258"/>
<trkpt lat="51.9312982" lon="5.6982265"/>
<trkpt lat="51.9312480" lon="5.6983896"/>
<trkpt lat="51.9312850" lon="5.6986041"/>
<trkpt lat="51.9315767" lon="5.6988315"/>
<trkpt lat="51.9318125" lon="5.6987651"/>
<trkpt lat="51.9321104" lon="5.6989377"/>
<trkpt lat="51.9324868" lon="5.6987581"/>
<trkpt lat="51.9329970" lon="5.6983785"/>
<trkpt lat="51.9330535" lon="5.6988073"/>
<trkpt lat="51.9331908" lon="5.6989070"/>
<trkpt lat="51.9330511" lon="5.6996660"/>
<trkpt lat="51.9331485" lon="5.7008006"/>
<trkpt lat="51.9333157" lon="5.7011500"/>
<trkpt lat="51.9336563" lon="5.7010108"/>
<trkpt lat="51.9340649" lon="5.7008641"/>
<trkpt lat="51.9339817" lon="5.7003059"/>
<trkpt lat="51.9340718" lon="5.7001132"/>
<trkpt lat="51.9344025" lon="5.7001021"/>
<trkpt lat="51.9343883" lon="5.7006171"/>
<trkpt lat="51.9343896" lon="5.7009054"/>
<trkpt lat="51.9344097" lon="5.7037620"/>
<trkpt lat="51.9359163" lon="5.7041846"/>
<trkpt lat="51.9360466" lon="5.7040438"/>
<trkpt lat="51.9361329" lon="5.7042652"/>
<trkpt lat="51.9363357" lon="5.7043063"/>
<trkpt lat="51.9363707" lon="5.7030284"/>
<trkpt lat="51.9367110" lon="5.7014970"/>
<trkpt lat="51.9365425" lon="5.6997099"/>
<trkpt lat="51.9364742" lon="5.6993142"/>
<trkpt lat="51.9364188" lon="5.6978376"/>
<trkpt lat="51.9360843" lon="5.6965201"/>
<trkpt lat="51.9358191" lon="5.6965307"/>
<trkpt lat="51.9356468" lon="5.6967977"/>
<trkpt lat="51.9354469" lon="5.6968797"/>
<trkpt lat="51.9351399" lon="5.6972669"/>
<trkpt lat="51.9345636" lon="5.6973229"/>
<trkpt lat="51.9348038" lon="5.6967948"/>
<trkpt lat="51.9346417" lon="5.6963565"/>
<trkpt lat="51.9345640" lon="5.6960475"/>
<trkpt lat="51.9345803" lon="5.6958750"/>
<trkpt lat="51.9344454" lon="5.6952743"/>
<trkpt lat="51.9337963" lon="5.6958987"/>
<trkpt lat="51.9333234" lon="5.6972332"/>
<trkpt lat="51.9331256" lon="5.6967086"/>
<trkpt lat="51.9330683" lon="5.6964062"/>
<trkpt lat="51.9331781" lon="5.6951499"/>
<trkpt lat="51.9331305" lon="5.6945491"/>
<trkpt lat="51.9332032" lon="5.6943581"/>
<trkpt lat="51.9321344" lon="5.6921226"/>
<trkpt lat="51.9325941" lon="5.6903494"/>
<trkpt lat="51.9337922" lon="5.6899175"/>
<trkpt lat="51.9345448" lon="5.6898990"/>
<trkpt lat="51.9348423" lon="5.6903440"/>
<trkpt lat="51.9350195" lon="5.6891510"/>
<trkpt lat="51.9346399" lon="5.6876557"/>
<trkpt lat="51.9349177" lon="5.6875055"/>
<trkpt lat="51.9350261" lon="5.6873124"/>
<trkpt lat="51.9351284" lon="5.6859408"/>
<trkpt lat="51.9352755" lon="5.6852130"/>
<trkpt lat="51.9354588" lon="5.6845124"/>
<trkpt lat="51.9355712" lon="5.6842164"/>
<trkpt lat="51.9357081" lon="5.6840072"/>
<trkpt lat="51.9359429" lon="5.6838238"/>
<trkpt lat="51.9388013" lon="5.6823134"/>
<trkpt lat="51.9413264" lon="5.6809918"/>
<trkpt lat="51.9419513" lon="5.6802452"/>
<trkpt lat="51.9421054" lon="5.6798762"/>
<trkpt lat="51.9429413" lon="5.6786769"/>
<trkpt lat="51.9433672" lon="5.6781748"/>
<trkpt lat="51.9454700" lon="5.6762653"/>
<trkpt lat="51.9470960" lon="5.6748161"/>
<trkpt lat="51.9481217" lon="5.6741606"/>
<trkpt lat="51.9483465" lon="5.6739353"/>
<trkpt lat="51.9493799" lon="5.6720999"/>
<trkpt lat="51.9492708" lon="5.6717748"/>
<trkpt lat="51.9494758" lon="5.6718285"/>
<trkpt lat="51.9478492" lon="5.6685179"/>
<trkpt lat="51.9475292" lon="5.6681532"/>
<trkpt lat="51.9471933" lon="5.6677842"/>
<trkpt lat="51.9467157" lon="5.6671886"/>
<trkpt lat="51.9459154" lon="5.6654172"/>
<trkpt lat="51.9456478" lon="5.6641057"/>
<trkpt lat="51.9453878" lon="5.6630620"/>
<trkpt lat="51.9448465" lon="5.6623821"/>
<trkpt lat="51.9442295" lon="5.6618802"/>
<trkpt lat="51.9443922" lon="5.6568947"/>
<trkpt lat="51.9442521" lon="5.6560204"/>
<trkpt lat="51.9433580" lon="5.6533450"/>
<trkpt lat="51.9430049" lon="5.6530346"/>
<trkpt lat="51.9427126" lon="5.6526986"/>
<trkpt lat="51.9426729" lon="5.6522068"/>
<trkpt lat="51.9425115" lon="5.6514682"/>
<trkpt lat="51.9421915" lon="5.6506780"/>
<trkpt lat="51.9412736" lon="5.6487417"/>
<trkpt lat="51.9403716" lon="5.6467668"/>
<trkpt lat="51.9396931" lon="5.6462153"/>
<trkpt lat="51.9392685" lon="5.6452263"/>
<trkpt lat="51.9387923" lon="5.6439862"/>
<trkpt lat="51.9379243" lon="5.6418435"/>
<trkpt lat="51.9374373" lon="5.6396322"/>
<trkpt lat="51.9370215" lon="5.6372515"/>
<trkpt lat="51.9366545" lon="5.6356534"/>
<trkpt lat="51.9364252" lon="5.6356001"/>
<trkpt lat="51.9361357" lon="5.6327816"/>
<trkpt lat="51.9359156" lon="5.6302587"/>
<trkpt lat="51.9367592" lon="5.6303754"/>
<trkpt lat="51.9371710" lon="5.6282129"/>
<trkpt lat="51.9370496" lon="5.6275228"/>
<trkpt lat="51.9365257" lon="5.6263835"/>
<trkpt lat="51.9362983" lon="5.6254073"/>
<trkpt lat="51.9364070" lon="5.6253807"/>
<trkpt lat="51.9365102" lon="5.6249762"/>
<trkpt lat="51.9368600" lon="5.6245545"/>
<trkpt lat="51.9388917" lon="5.6240093"/>
<trkpt lat="51.9392479" lon="5.6238560"/>
<trkpt lat="51.9397542" lon="5.6228778"/>
<trkpt lat="51.9398635" lon="5.6220556"/>
<trkpt lat="51.9399406" lon="5.6203045"/>
<trkpt lat="51.9400429" lon="5.6196750"/>
<trkpt lat="51.9401392" lon="5.6194245"/>
<trkpt lat="51.9401778" lon="5.6192465"/>
<trkpt lat="51.9401885" lon="5.6190902"/>
<trkpt lat="51.9402743" lon="5.6189534"/>
<trkpt lat="51.9403526" lon="5.6185414"/>
<trkpt lat="51.9402844" lon="5.6181364"/>
<trkpt lat="51.9402431" lon="5.6161712"/>
<trkpt lat="51.9402793" lon="5.6159411"/>
<trkpt lat="51.9402905" lon="5.6156322"/>
<trkpt lat="51.9384903" lon="5.6162609"/>
<trkpt lat="51.9378954" lon="5.6164898"/>
<trkpt lat="51.9377006" lon="5.6165032"/>
<trkpt lat="51.9380243" lon="5.6156892"/>
<trkpt lat="51.9383456" lon="5.6149142"/>
<trkpt lat="51.9387528" lon="5.6138429"/>
<trkpt lat="51.9391298" lon="5.6129276"/>
<trkpt lat="51.9393530" lon="5.6124329"/>
<trkpt lat="51.9396710" lon="5.6113715"/>
<trkpt lat="51.9398230" lon="5.6107058"/>
<trkpt lat="51.9397640" lon="5.6103974"/>
<trkpt lat="51.9398177" lon="5.6095374"/>
<trkpt lat="51.9398879" lon="5.6088933"/>
<trkpt lat="51.9396707" lon="5.6068229"/>
<trkpt lat="51.9398030" lon="5.6055365"/>
<trkpt lat="51.9399442" lon="5.6045191"/>
<trkpt lat="51.9400125" lon="5.6040251"/>
<trkpt lat="51.9401430" lon="5.6036507"/>
<trkpt lat="51.9400762" lon="5.6034793"/>
<trkpt lat="51.9403384" lon="5.6030014"/>
<trkpt lat="51.9407661" lon="5.6021715"/>
<trkpt lat="51.9406294" lon="5.6019579"/>
<trkpt lat="51.9402376" lon="5.6028420"/>
<trkpt lat="51.9394886" lon="5.6019550"/>
<trkpt lat="51.9388850" lon="5.6021520"/>
<trkpt lat="51.9386991" lon="5.6007982"/>
<trkpt lat="51.9385442" lon="5.5995636"/>
<trkpt lat="51.9387630" lon="5.5993668"/>
<trkpt lat="51.9385268" lon="5.5994016"/>
<trkpt lat="51.9378136" lon="5.5996430"/>
<trkpt lat="51.9371983" lon="5.5998672"/>
<trkpt lat="51.9365698" lon="5.6000787"/>
<trkpt lat="51.9364821" lon="5.5994374"/>
<trkpt lat="51.9363045" lon="5.5984915"/>
<trkpt lat="51.9359866" lon="5.5972323"/>
<trkpt lat="51.9358831" lon="5.5970674"/>
<trkpt lat="51.9310372" lon="5.5987098"/>
<trkpt lat="51.9262887" lon="5.6001676"/>
<trkpt lat="51.9254729" lon="5.6002701"/>
<trkpt lat="51.9247898" lon="5.6001841"/>
<trkpt lat="51.9237496" lon="5.5991626"/>
<trkpt lat="51.9230919" lon="5.5986004"/>
<trkpt lat="51.9225294" lon="5.5985360"/>
<trkpt lat="51.9213166" lon="5.5989475"/>
<trkpt lat="51.9202338" lon="5.6014874"/>
<trkpt lat="51.9200863" lon="5.6016866"/>
<trkpt lat="51.9197538" lon="5.6019476"/>
<trkpt lat="51.9195019" lon="5.6020795"/>
<trkpt lat="51.9192959" lon="5.6020954"/>
<trkpt lat="51.9191846" lon="5.6017870"/>
<trkpt lat="51.9190753" lon="5.6018036"/>
<trkpt lat="51.9163940" lon="5.6017292"/>
<trkpt lat="51.9164052" lon="5.6032268"/>
<trkpt lat="51.9148551" lon="5.6031727"/>
<trkpt lat="51.9142252" lon="5.6031580"/>
<trkpt lat="51.9129487" lon="5.6030882"/>
<trkpt lat="51.9128055" lon="5.6030793"/>
<trkpt lat="51.9126583" lon="5.6028777"/>
<trkpt lat="51.9127348" lon="5.6024824"/>
<trkpt lat="51.9128446" lon="5.6020516"/>
<trkpt lat="51.9129097" lon="5.6016996"/>
<trkpt lat="51.9129512" lon="5.6012657"/>
<trkpt lat="51.9129557" lon="5.6007922"/>
<trkpt lat="51.9129117" lon="5.6005083"/>
<trkpt lat="51.9127507" lon="5.5999696"/>
<trkpt lat="51.9127151" lon="5.5996149"/>
<trkpt lat="51.9127929" lon="5.5981090"/>
<trkpt lat="51.9127170" lon="5.5977188"/>
<trkpt lat="51.9127945" lon="5.5970453"/>
<trkpt lat="51.9130508" lon="5.5965303"/>
<trkpt lat="51.9134936" lon="5.5962645"/>
<trkpt lat="51.9136066" lon="5.5957107"/>
<trkpt lat="51.9135961" lon="5.5951545"/>
<trkpt lat="51.9131115" lon="5.5925575"/>
<trkpt lat="51.9126766" lon="5.5933469"/>
<trkpt lat="51.9124413" lon="5.5936438"/>
<trkpt lat="51.9122732" lon="5.5935589"/>
<trkpt lat="51.9117965" lon="5.5926456"/>
<trkpt lat="51.9114179" lon="5.5925942"/>
<trkpt lat="51.9112697" lon="5.5931500"/>
<trkpt lat="51.9110835" lon="5.5955459"/>
<trkpt lat="51.9108488" lon="5.5965751"/>
<trkpt lat="51.9107805" lon="5.5973301"/>
<trkpt lat="51.9106355" lon="5.5996561"/>
<trkpt lat="51.9103589" lon="5.6036729"/>
<trkpt lat="51.9101955" lon="5.6050034"/>
<trkpt lat="51.9100948" lon="5.6059032"/>
<trkpt lat="51.9101477" lon="5.6062937"/>
<trkpt lat="51.9105825" lon="5.6077793"/>
<trkpt lat="51.9106192" lon="5.6080506"/>
<trkpt lat="51.9106301" lon="5.6083244"/>
<trkpt lat="51.9105977" lon="5.6086892"/>
<trkpt lat="51.9105039" lon="5.6092226"/>
<trkpt lat="51.9103806" lon="5.6095408"/>
<trkpt lat="51.9101742" lon="5.6099855"/>
<trkpt lat="51.9098854" lon="5.6103105"/>
<trkpt lat="51.9096508" lon="5.6107000"/>
<trkpt lat="51.9093219" lon="5.6116531"/>
<trkpt lat="51.9091981" lon="5.6118905"/>
<trkpt lat="51.9088205" lon="5.6124073"/>
<trkpt lat="51.9086409" lon="5.6129489"/>
<trkpt lat="51.9084962" lon="5.6132437"/>
<trkpt lat="51.9084029" lon="5.6133441"/>
<trkpt lat="51.9083189" lon="5.6135807"/>
<trkpt lat="51.9076847" lon="5.6142450"/>
<trkpt lat="51.9060619" lon="5.6168625"/>
<trkpt lat="51.9055991" lon="5.6185023"/>
<trkpt lat="51.9055246" lon="5.6191863"/>
<trkpt lat="51.9054844" lon="5.6195256"/>
<trkpt lat="51.9052595" lon="5.6200168"/>
<trkpt lat="51.9047937" lon="5.6205520"/>
<trkpt lat="51.9040344" lon="5.6207873"/>
<trkpt lat="51.9036126" lon="5.6211790"/>
<trkpt lat="51.9034192" lon="5.6218977"/>
<trkpt lat="51.9034228" lon="5.6234712"/>
<trkpt lat="51.9033331" lon="5.6240287"/>
<trkpt lat="51.9032507" lon="5.6246127"/>
<trkpt lat="51.9031602" lon="5.6251843"/>
<trkpt lat="51.9026462" lon="5.6268432"/>
<trkpt lat="51.9025335" lon="5.6278193"/>
<trkpt lat="51.9017358" lon="5.6294487"/>
<trkpt lat="51.9015647" lon="5.6298857"/>
<trkpt lat="51.9014943" lon="5.6299943"/>
<trkpt lat="51.9014534" lon="5.6301191"/>
<trkpt lat="51.9013482" lon="5.6306355"/>
<trkpt lat="51.9012969" lon="5.6309790"/>
<trkpt lat="51.9012867" lon="5.6314146"/>
<trkpt lat="51.9013373" lon="5.6322312"/>
<trkpt lat="51.9016550" lon="5.6327332"/>
<trkpt lat="51.9023879" lon="5.6340197"/>
<trkpt lat="51.9030860" lon="5.6349893"/>
<trkpt lat="51.9035939" lon="5.6364182"/>
<trkpt lat="51.9036257" lon="5.6375096"/>
<trkpt lat="51.9034771" lon="5.6379876"/>
<trkpt lat="51.9035087" lon="5.6384821"/>
<trkpt lat="51.9032423" lon="5.6387296"/>
<trkpt lat="51.9040242" lon="5.6410196"/>
<trkpt lat="51.9045688" lon="5.6425938"/>
<trkpt lat="51.9048274" lon="5.6442022"/>
<trkpt lat="51.9049245" lon="5.6454202"/>
<trkpt lat="51.9049388" lon="5.6460240"/>
<trkpt lat="51.9050538" lon="5.6474903"/>
<trkpt lat="51.9051064" lon="5.6493174"/>
<trkpt lat="51.9050826" lon="5.6495350"/>
<trkpt lat="51.9054454" lon="5.6512397"/>
<trkpt lat="51.9055800" lon="5.6519265"/>
<trkpt lat="51.9056946" lon="5.6519390"/>
<trkpt lat="51.9057703" lon="5.6520668"/>
<trkpt lat="51.9059733" lon="5.6519402"/>
<trkpt lat="51.9060592" lon="5.6513913"/>
<trkpt lat="51.9065510" lon="5.6516635"/>
<trkpt lat="51.9067027" lon="5.6518417"/>
<trkpt lat="51.9068515" lon="5.6520200"/>
<trkpt lat="51.9069312" lon="5.6522807"/>
<trkpt lat="51.9069525" lon="5.6525269"/>
<trkpt lat="51.9070161" lon="5.6527959"/>
<trkpt lat="51.9069910" lon="5.6529605"/>
<trkpt lat="51.9070161" lon="5.6530478"/>
<trkpt lat="51.9075937" lon="5.6537668"/>
<trkpt lat="51.9083387" lon="5.6542092"/>
<trkpt lat="51.9091261" lon="5.6551751"/>
<trkpt lat="51.9087419" lon="5.6561371"/>
<trkpt lat="51.9100065" lon="5.6564819"/>
<trkpt lat="51.9098515" lon="5.6569328"/>
<trkpt lat="51.9095376" lon="5.6572722"/>
<trkpt lat="51.9093387" lon="5.6577021"/>
<trkpt lat="51.9090366" lon="5.6590502"/>
<trkpt lat="51.9088007" lon="5.6597072"/>
<trkpt lat="51.9083546" lon="5.6603961"/>
<trkpt lat="51.9079836" lon="5.6609545"/>
<trkpt lat="51.9078058" lon="5.6614204"/>
<trkpt lat="51.9074957" lon="5.6614826"/>
<trkpt lat="51.9073017" lon="5.6615600"/>
<trkpt lat="51.9073162" lon="5.6619591"/>
<trkpt lat="51.9073372" lon="5.6626932"/>
<trkpt lat="51.9073582" lon="5.6635388"/>
<trkpt lat="51.9074613" lon="5.6643607"/>
<trkpt lat="51.9075817" lon="5.6649390"/>
<trkpt lat="51.9076333" lon="5.6655173"/>
<trkpt lat="51.9077219" lon="5.6674451"/>
<trkpt lat="51.9081230" lon="5.6689180"/>
<trkpt lat="51.9082526" lon="5.6698815"/>
<trkpt lat="51.9081565" lon="5.6705543"/>
<trkpt lat="51.9079947" lon="5.6714657"/>
<trkpt lat="51.9077375" lon="5.6719480"/>
<trkpt lat="51.9074156" lon="5.6726180"/>
<trkpt lat="51.9073753" lon="5.6727898"/>
<trkpt lat="51.9077527" lon="5.6724292"/>
<trkpt lat="51.9093105" lon="5.6725451"/>
<trkpt lat="51.9118839" lon="5.6723131"/>
<trkpt lat="51.9121701" lon="5.6718236"/>
<trkpt lat="51.9119709" lon="5.6713723"/>
<trkpt lat="51.9119878" lon="5.6695677"/>
<trkpt lat="51.9125469" lon="5.6659706"/>
<trkpt lat="51.9127670" lon="5.6660123"/>
<trkpt lat="51.9132340" lon="5.6660914"/>
<trkpt lat="51.9138697" lon="5.6659249"/>
<trkpt lat="51.9146640" lon="5.6663566"/>
<trkpt lat="51.9149130" lon="5.6667784"/>
<trkpt lat="51.9165778" lon="5.6674957"/>
<trkpt lat="51.9173534" lon="5.6685906"/>
<trkpt lat="51.9176450" lon="5.6708957"/>
<trkpt lat="51.9178731" lon="5.6713129"/>
<trkpt lat="51.9196678" lon="5.6716974"/>
<trkpt lat="51.9206180" lon="5.6705853"/>
<trkpt lat="51.9209225" lon="5.6704342"/>
<trkpt lat="51.9213698" lon="5.6704927"/>
<trkpt lat="51.9222141" lon="5.6708775"/>
<trkpt lat="51.9221665" lon="5.6714854"/>
<trkpt lat="51.9221930" lon="5.6720589"/>
<trkpt lat="51.9221005" lon="5.6733753"/>
<trkpt lat="51.9225291" lon="5.6734847"/>
<trkpt lat="51.9225417" lon="5.6736317"/>
<trkpt lat="51.9227794" lon="5.6736766"/>
<trkpt lat="51.9227928" lon="5.6741520"/>
<trkpt lat="51.9225164" lon="5.6741177"/>
<trkpt lat="51.9224032" lon="5.6743636"/>
<trkpt lat="51.9217301" lon="5.6851329"/>
</trkseg></trk>
<trk><name>Spanjaardspad XL - Geimporteerde shapefile</name><type>mainRoute</type><trkseg>
<trkpt lat="51.9297083" lon="5.6611037"/>
<trkpt lat="51.9302423" lon="5.6641714"/>
<trkpt lat="51.9303218" lon="5.6676900"/>
<trkpt lat="51.9304805" lon="5.6697497"/>
<trkpt lat="51.9306657" lon="5.6712516"/>
<trkpt lat="51.9303746" lon="5.6714232"/>
<trkpt lat="51.9308774" lon="5.6736975"/>
<trkpt lat="51.9314383" lon="5.6760918"/>
<trkpt lat="51.9328670" lon="5.6812840"/>
<trkpt lat="51.9313853" lon="5.6818847"/>
<trkpt lat="51.9310678" lon="5.6828716"/>
<trkpt lat="51.9301947" lon="5.6839873"/>
<trkpt lat="51.9271782" lon="5.6857036"/>
<trkpt lat="51.9267019" lon="5.6877976"/>
<trkpt lat="51.9256169" lon="5.6887416"/>
<trkpt lat="51.9258286" lon="5.6898573"/>
<trkpt lat="51.9244261" lon="5.6911445"/>
</trkseg></trk>
<trk><name>Spanjaardspad XL - Geimporteerde shapefile</name><type>mainRoute</type><trkseg>
<trkpt lat="51.9376905" lon="5.6164968"/>
<trkpt lat="51.9370829" lon="5.6178897"/>
<trkpt lat="51.9365841" lon="5.6190950"/>
<trkpt lat="51.9361125" lon="5.6201668"/>
<trkpt lat="51.9357649" lon="5.6201619"/>
<trkpt lat="51.9355945" lon="5.6199645"/>
<trkpt lat="51.9354692" lon="5.6199667"/>
<trkpt lat="51.9335990" lon="5.6211416"/>
<trkpt lat="51.9336709" lon="5.6218617"/>
<trkpt lat="51.9325005" lon="5.6224364"/>
<trkpt lat="51.9328382" lon="5.6238962"/>
<trkpt lat="51.9336887" lon="5.6286119"/>
<trkpt lat="51.9336748" lon="5.6310557"/>
<trkpt lat="51.9335974" lon="5.6333449"/>
<trkpt lat="51.9295493" lon="5.6358594"/>
<trkpt lat="51.9307717" lon="5.6425877"/>
<trkpt lat="51.9311950" lon="5.6433601"/>
<trkpt lat="51.9328883" lon="5.6539588"/>
<trkpt lat="51.9328837" lon="5.6539859"/>
</trkseg></trk>
<trk><name>Spanjaardspad XL - Geimporteerde shapefile</name><type>shorteningRoute</type><trkseg>
<trkpt lat="51.9071607" lon="5.6724712"/>
<trkpt lat="51.9068109" lon="5.6729266"/>
<trkpt lat="51.9058821" lon="5.6761770"/>
<trkpt lat="51.9044098" lon="5.6799112"/>
<trkpt lat="51.9028103" lon="5.6825200"/>
<trkpt lat="51.9022959" lon="5.6834852"/>
<trkpt lat="51.9016591" lon="5.6848666"/>
<trkpt lat="51.9009251" lon="5.6865210"/>
<trkpt lat="51.9003662" lon="5.6877270"/>
<trkpt lat="51.8999652" lon="5.6883682"/>
<trkpt lat="51.8997512" lon="5.6886385"/>
<trkpt lat="51.8986688" lon="5.6895344"/>
<trkpt lat="51.8985456" lon="5.6884940"/>
<trkpt lat="51.8987943" lon="5.6875530"/>
<trkpt lat="51.8996294" lon="5.6843549"/>
<trkpt lat="51.8995489" lon="5.6841183"/>
<trkpt lat="51.8989714" lon="5.6773988"/>
<trkpt lat="51.8990878" lon="5.6741635"/>
<trkpt lat="51.8999677" lon="5.6733821"/>
<trkpt lat="51.9008764" lon="5.6722031"/>
<trkpt lat="51.9022760" lon="5.6702290"/>
<trkpt lat="51.9023969" lon="5.6695607"/>
<trkpt lat="51.9027880" lon="5.6687673"/>
<trkpt lat="51.9031973" lon="5.6681974"/>
<trkpt lat="51.9035151" lon="5.6680962"/>
<trkpt lat="51.9037966" lon="5.6677889"/>
<trkpt lat="51.9038922" lon="5.6675390"/>
<trkpt lat="51.9043415" lon="5.6672437"/>
<trkpt lat="51.9047161" lon="5.6667033"/>
<trkpt lat="51.9050974" lon="5.6657262"/>
<trkpt lat="51.9052697" lon="5.6653312"/>
<trkpt lat="51.9054338" lon="5.6644726"/>
<trkpt lat="51.9053577" lon="5.6639585"/>
<trkpt lat="51.9049792" lon="5.6634767"/>
<trkpt lat="51.9049980" lon="5.6631095"/>
<trkpt lat="51.9055507" lon="5.6614486"/>
<trkpt lat="51.9054499" lon="5.6605028"/>
<trkpt lat="51.9045365" lon="5.6590916"/>
<trkpt lat="51.9043316" lon="5.6589635"/>
<trkpt lat="51.9042348" lon="5.6585869"/>
<trkpt lat="51.9047732" lon="5.6575495"/>
<trkpt lat="51.9053294" lon="5.6556510"/>
<trkpt lat="51.9055001" lon="5.6553791"/>
<trkpt lat="51.9061276" lon="5.6551521"/>
<trkpt lat="51.9061540" lon="5.6552801"/>
<trkpt lat="51.9064354" lon="5.6551389"/>
<trkpt lat="51.9065178" lon="5.6547381"/>
<trkpt lat="51.9060411" lon="5.6533760"/>
<trkpt lat="51.9055665" lon="5.6520199"/>
</trkseg></trk>
<trk><name>Spanjaardspad XL - Geimporteerde shapefile</name><type>extensionRoute</type><trkseg>
<trkpt lat="51.9039973" lon="5.6208250"/>
<trkpt lat="51.9039049" lon="5.6200871"/>
<trkpt lat="51.9036459" lon="5.6193091"/>
<trkpt lat="51.9021274" lon="5.6150487"/>
<trkpt lat="51.9020580" lon="5.6146325"/>
<trkpt lat="51.9019893" lon="5.6138762"/>
<trkpt lat="51.9022596" lon="5.6069978"/>
<trkpt lat="51.9021468" lon="5.6048048"/>
<trkpt lat="51.9021205" lon="5.6000418"/>
<trkpt lat="51.9020281" lon="5.5993798"/>
<trkpt lat="51.9021097" lon="5.5986521"/>
<trkpt lat="51.9029981" lon="5.5990764"/>
<trkpt lat="51.9045725" lon="5.5965704"/>
<trkpt lat="51.9049821" lon="5.5955211"/>
<trkpt lat="51.9053204" lon="5.5944663"/>
<trkpt lat="51.9063167" lon="5.5950832"/>
<trkpt lat="51.9058476" lon="5.5961392"/>
<trkpt lat="51.9074466" lon="5.5975095"/>
<trkpt lat="51.9075525" lon="5.5974300"/>
<trkpt lat="51.9077867" lon="5.5980515"/>
<trkpt lat="51.9080955" lon="5.5986484"/>
<trkpt lat="51.9084515" lon="5.5991293"/>
<trkpt lat="51.9085620" lon="5.5993880"/>
<trkpt lat="51.9085729" lon="5.5998363"/>
<trkpt lat="51.9086098" lon="5.5998885"/>
<trkpt lat="51.9085095" lon="5.6000502"/>
<trkpt lat="51.9083729" lon="5.6006370"/>
<trkpt lat="51.9080677" lon="5.6011067"/>
<trkpt lat="51.9080142" lon="5.6012492"/>
<trkpt lat="51.9079784" lon="5.6015313"/>
<trkpt lat="51.9078126" lon="5.6020065"/>
<trkpt lat="51.9076617" lon="5.6026357"/>
<trkpt lat="51.9076217" lon="5.6030708"/>
<trkpt lat="51.9077732" lon="5.6032852"/>
<trkpt lat="51.9079826" lon="5.6035302"/>
<trkpt lat="51.9085298" lon="5.6038539"/>
<trkpt lat="51.9088267" lon="5.6042947"/>
<trkpt lat="51.9091544" lon="5.6043663"/>
<trkpt lat="51.9093535" lon="5.6042182"/>
<trkpt lat="51.9095737" lon="5.6044409"/>
<trkpt lat="51.9099429" lon="5.6046667"/>
<trkpt lat="51.9101800" lon="5.6050186"/>
</trkseg></trk>
<trk><name>Spanjaardspad XL - Geimporteerde shapefile</name><type>connectionRoute</type><trkseg>
<trkpt lat="51.9402761" lon="5.6156420"/>
<trkpt lat="51.9405671" lon="5.6152129"/>
<trkpt lat="51.9408408" lon="5.6151628"/>
<trkpt lat="51.9411332" lon="5.6150187"/>
<trkpt lat="51.9417547" lon="5.6151125"/>
<trkpt lat="51.9422345" lon="5.6153770"/>
<trkpt lat="51.9426241" lon="5.6154983"/>
<trkpt lat="51.9428013" lon="5.6157236"/>
<trkpt lat="51.9430436" lon="5.6160745"/>
</trkseg></trk>
<trk><name>Spanjaardspad XL - Geimporteerde shapefile</name><type>approachRoute</type><trkseg>
<trkpt lat="51.9316436" lon="5.5831618"/>
<trkpt lat="51.9317362" lon="5.5828892"/>
<trkpt lat="51.9318394" lon="5.5822842"/>
<trkpt lat="51.9319532" lon="5.5820503"/>
<trkpt lat="51.9324955" lon="5.5811386"/>
<trkpt lat="51.9327588" lon="5.5805785"/>
<trkpt lat="51.9332384" lon="5.5794908"/>
<trkpt lat="51.9333555" lon="5.5793685"/>
<trkpt lat="51.9334533" lon="5.5794757"/>
<trkpt lat="51.9335330" lon="5.5795691"/>
<trkpt lat="51.9337847" lon="5.5798040"/>
<trkpt lat="51.9350338" lon="5.5794704"/>
<trkpt lat="51.9351781" lon="5.5798571"/>
<trkpt lat="51.9356217" lon="5.5796577"/>
<trkpt lat="51.9359281" lon="5.5794636"/>
<trkpt lat="51.9360493" lon="5.5793211"/>
<trkpt lat="51.9367730" lon="5.5804563"/>
<trkpt lat="51.9370904" lon="5.5809336"/>
<trkpt lat="51.9374264" lon="5.5813843"/>
<trkpt lat="51.9384316" lon="5.5838086"/>
<trkpt lat="51.9389409" lon="5.5847741"/>
<trkpt lat="51.9392782" lon="5.5852461"/>
<trkpt lat="51.9394766" lon="5.5857825"/>
<trkpt lat="51.9400242" lon="5.5885373"/>
<trkpt lat="51.9403019" lon="5.5896745"/>
<trkpt lat="51.9404408" lon="5.5899534"/>
<trkpt lat="51.9408178" lon="5.5903074"/>
<trkpt lat="51.9406987" lon="5.5913480"/>
<trkpt lat="51.9406260" lon="5.5920989"/>
<trkpt lat="51.9406458" lon="5.5924851"/>
<trkpt lat="51.9406723" lon="5.5928391"/>
<trkpt lat="51.9379422" lon="5.5938282"/>
<trkpt lat="51.9380745" lon="5.5950832"/>
<trkpt lat="51.9382266" lon="5.5963169"/>
<trkpt lat="51.9369303" lon="5.5966709"/>
<trkpt lat="51.9358853" lon="5.5970678"/>
</trkseg></trk>
<trk><name>Spanjaardspad XL - Geimporteerde shapefile</name><type>detourRoute</type><trkseg>
<trkpt lat="51.9328816" lon="5.6540324"/>
<trkpt lat="51.9334986" lon="5.6589680"/>
<trkpt lat="51.9338624" lon="5.6606251"/>
<trkpt lat="51.9337344" lon="5.6606502"/>
<trkpt lat="51.9335759" lon="5.6601062"/>
<trkpt lat="51.9315933" lon="5.6603527"/>
<trkpt lat="51.9316084" lon="5.6607407"/>
<trkpt lat="51.9297214" lon="5.6611170"/>
</trkseg></trk>
</gpx>