<?xml version="1.0" encoding="UTF-8"?>
<gpx version="1.1" creator="klompenpaden.nl via Jimbo API" xmlns="http://www.topografix.com/GPX/1/1">
<metadata><name>Speuldepad</name><desc>Ontdek de buurtschappen Staverden, Leuvenum en Speuld in het mooie buitengebied van de gemeente Ermelo. Wandelen over landgoederen, langs beek en heide. Ervaar de mystieke sfeer van roepende pauwen en dansende bomen. Klompen aan, rugzak op en gaan!</desc><link href="https://www.klompenpaden.nl/klompenpaden/Speuldepad/fca189a5-6289-49c4-8bc0-ac63420728a1"><text>klompenpaden.nl</text></link></metadata>
<wpt lat="52.283925356556495" lon="5.743044018745422"><name>Start Ermelo</name></wpt>
<trk><name>Speuldepad - Hoofdroute</name><type>mainRoute</type><trkseg>
<trkpt lat="52.2666566" lon="5.7193675"/>
<trkpt lat="52.2670302" lon="5.7358474"/>
<trkpt lat="52.2670003" lon="5.7358728"/>
<trkpt lat="52.2670039" lon="5.7360472"/>
<trkpt lat="52.2670363" lon="5.7362033"/>
<trkpt lat="52.2670166" lon="5.7365915"/>
<trkpt lat="52.2670749" lon="5.7368821"/>
<trkpt lat="52.2673249" lon="5.7379963"/>
<trkpt lat="52.2674491" lon="5.7384508"/>
<trkpt lat="52.2675739" lon="5.7387919"/>
<trkpt lat="52.2679679" lon="5.7393498"/>
<trkpt lat="52.2688477" lon="5.7407016"/>
<trkpt lat="52.2690405" lon="5.7411356"/>
<trkpt lat="52.2691019" lon="5.7420989"/>
<trkpt lat="52.2691810" lon="5.7423414"/>
<trkpt lat="52.2693466" lon="5.7424826"/>
<trkpt lat="52.2711888" lon="5.7436785"/>
<trkpt lat="52.2712875" lon="5.7445445"/>
<trkpt lat="52.2715235" lon="5.7457768"/>
<trkpt lat="52.2716485" lon="5.7463590"/>
<trkpt lat="52.2717419" lon="5.7463470"/>
<trkpt lat="52.2718827" lon="5.7462064"/>
<trkpt lat="52.2721444" lon="5.7461891"/>
<trkpt lat="52.2724299" lon="5.7461527"/>
<trkpt lat="52.2725539" lon="5.7464250"/>
<trkpt lat="52.2729167" lon="5.7463795"/>
<trkpt lat="52.2731427" lon="5.7463232"/>
<trkpt lat="52.2732857" lon="5.7462468"/>
<trkpt lat="52.2734881" lon="5.7461515"/>
<trkpt lat="52.2735886" lon="5.7460818"/>
<trkpt lat="52.2743245" lon="5.7457203"/>
<trkpt lat="52.2743602" lon="5.7457136"/>
<trkpt lat="52.2747745" lon="5.7455332"/>
<trkpt lat="52.2752358" lon="5.7453880"/>
<trkpt lat="52.2758824" lon="5.7452979"/>
<trkpt lat="52.2766176" lon="5.7451898"/>
<trkpt lat="52.2770373" lon="5.7451071"/>
<trkpt lat="52.2773127" lon="5.7450954"/>
<trkpt lat="52.2775791" lon="5.7452394"/>
<trkpt lat="52.2776381" lon="5.7442207"/>
<trkpt lat="52.2776221" lon="5.7437510"/>
<trkpt lat="52.2775717" lon="5.7434320"/>
<trkpt lat="52.2774696" lon="5.7432427"/>
<trkpt lat="52.2775725" lon="5.7428474"/>
<trkpt lat="52.2778829" lon="5.7424319"/>
<trkpt lat="52.2783398" lon="5.7418423"/>
<trkpt lat="52.2791071" lon="5.7419531"/>
<trkpt lat="52.2794451" lon="5.7420117"/>
<trkpt lat="52.2796776" lon="5.7420461"/>
<trkpt lat="52.2801254" lon="5.7421102"/>
<trkpt lat="52.2803764" lon="5.7421494"/>
<trkpt lat="52.2807232" lon="5.7421930"/>
<trkpt lat="52.2811606" lon="5.7422520"/>
<trkpt lat="52.2811573" lon="5.7423539"/>
<trkpt lat="52.2820216" lon="5.7424773"/>
<trkpt lat="52.2821737" lon="5.7426034"/>
<trkpt lat="52.2823092" lon="5.7426597"/>
<trkpt lat="52.2827443" lon="5.7425346"/>
<trkpt lat="52.2829262" lon="5.7426757"/>
<trkpt lat="52.2832868" lon="5.7422503"/>
<trkpt lat="52.2836140" lon="5.7424753"/>
<trkpt lat="52.2838713" lon="5.7426865"/>
<trkpt lat="52.2840086" lon="5.7427856"/>
<trkpt lat="52.2841864" lon="5.7428367"/>
<trkpt lat="52.2841820" lon="5.7425362"/>
<trkpt lat="52.2840420" lon="5.7425362"/>
<trkpt lat="52.2839724" lon="5.7424875"/>
<trkpt lat="52.2839304" lon="5.7423432"/>
<trkpt lat="52.2838582" lon="5.7419569"/>
<trkpt lat="52.2838602" lon="5.7416981"/>
<trkpt lat="52.2838209" lon="5.7415133"/>
<trkpt lat="52.2836779" lon="5.7413371"/>
<trkpt lat="52.2835870" lon="5.7411983"/>
<trkpt lat="52.2836959" lon="5.7410045"/>
<trkpt lat="52.2835991" lon="5.7406796"/>
<trkpt lat="52.2836251" lon="5.7401668"/>
<trkpt lat="52.2837856" lon="5.7401490"/>
<trkpt lat="52.2839481" lon="5.7402179"/>
<trkpt lat="52.2840117" lon="5.7401185"/>
<trkpt lat="52.2840288" lon="5.7395807"/>
<trkpt lat="52.2840473" lon="5.7393706"/>
<trkpt lat="52.2843222" lon="5.7390905"/>
<trkpt lat="52.2847216" lon="5.7389263"/>
<trkpt lat="52.2848627" lon="5.7388634"/>
<trkpt lat="52.2849613" lon="5.7388195"/>
<trkpt lat="52.2850627" lon="5.7388360"/>
<trkpt lat="52.2851324" lon="5.7386626"/>
<trkpt lat="52.2851480" lon="5.7384390"/>
<trkpt lat="52.2851399" lon="5.7383465"/>
<trkpt lat="52.2851338" lon="5.7382774"/>
<trkpt lat="52.2851769" lon="5.7381486"/>
<trkpt lat="52.2851634" lon="5.7380517"/>
<trkpt lat="52.2850875" lon="5.7379930"/>
<trkpt lat="52.2851133" lon="5.7378878"/>
<trkpt lat="52.2851713" lon="5.7375788"/>
<trkpt lat="52.2851408" lon="5.7372970"/>
<trkpt lat="52.2852110" lon="5.7372301"/>
<trkpt lat="52.2851594" lon="5.7369970"/>
<trkpt lat="52.2851349" lon="5.7368190"/>
<trkpt lat="52.2850430" lon="5.7365615"/>
<trkpt lat="52.2849854" lon="5.7362838"/>
<trkpt lat="52.2849166" lon="5.7359133"/>
<trkpt lat="52.2848437" lon="5.7354521"/>
<trkpt lat="52.2847331" lon="5.7347718"/>
<trkpt lat="52.2848549" lon="5.7345944"/>
<trkpt lat="52.2852858" lon="5.7342762"/>
<trkpt lat="52.2855984" lon="5.7340845"/>
<trkpt lat="52.2860202" lon="5.7337737"/>
<trkpt lat="52.2862132" lon="5.7335876"/>
<trkpt lat="52.2862966" lon="5.7334019"/>
<trkpt lat="52.2863368" lon="5.7332977"/>
<trkpt lat="52.2863998" lon="5.7332532"/>
<trkpt lat="52.2866017" lon="5.7333323"/>
<trkpt lat="52.2867524" lon="5.7331753"/>
<trkpt lat="52.2868619" lon="5.7329970"/>
<trkpt lat="52.2869813" lon="5.7328195"/>
<trkpt lat="52.2870861" lon="5.7327382"/>
<trkpt lat="52.2871647" lon="5.7326853"/>
<trkpt lat="52.2872858" lon="5.7327792"/>
<trkpt lat="52.2874872" lon="5.7330329"/>
<trkpt lat="52.2876769" lon="5.7331895"/>
<trkpt lat="52.2877898" lon="5.7331558"/>
<trkpt lat="52.2879268" lon="5.7331565"/>
<trkpt lat="52.2881233" lon="5.7330851"/>
<trkpt lat="52.2882173" lon="5.7330385"/>
<trkpt lat="52.2883954" lon="5.7324389"/>
<trkpt lat="52.2885064" lon="5.7322805"/>
<trkpt lat="52.2888477" lon="5.7322376"/>
<trkpt lat="52.2891541" lon="5.7320702"/>
<trkpt lat="52.2892470" lon="5.7320034"/>
<trkpt lat="52.2894051" lon="5.7317991"/>
<trkpt lat="52.2894102" lon="5.7308723"/>
<trkpt lat="52.2893467" lon="5.7306430"/>
<trkpt lat="52.2888313" lon="5.7295997"/>
<trkpt lat="52.2886071" lon="5.7290241"/>
<trkpt lat="52.2885765" lon="5.7289075"/>
<trkpt lat="52.2887033" lon="5.7287829"/>
<trkpt lat="52.2891233" lon="5.7283752"/>
<trkpt lat="52.2896084" lon="5.7279305"/>
<trkpt lat="52.2900048" lon="5.7275573"/>
<trkpt lat="52.2901480" lon="5.7273917"/>
<trkpt lat="52.2903987" lon="5.7270368"/>
<trkpt lat="52.2906116" lon="5.7265963"/>
<trkpt lat="52.2907581" lon="5.7260855"/>
<trkpt lat="52.2908776" lon="5.7260437"/>
<trkpt lat="52.2911530" lon="5.7260498"/>
<trkpt lat="52.2913975" lon="5.7261913"/>
<trkpt lat="52.2915171" lon="5.7262841"/>
<trkpt lat="52.2916100" lon="5.7265032"/>
<trkpt lat="52.2917831" lon="5.7269039"/>
<trkpt lat="52.2918827" lon="5.7269939"/>
<trkpt lat="52.2920436" lon="5.7270019"/>
<trkpt lat="52.2922590" lon="5.7271631"/>
<trkpt lat="52.2924308" lon="5.7272915"/>
<trkpt lat="52.2926801" lon="5.7275429"/>
<trkpt lat="52.2928940" lon="5.7275077"/>
<trkpt lat="52.2931657" lon="5.7273993"/>
<trkpt lat="52.2933136" lon="5.7272142"/>
<trkpt lat="52.2933948" lon="5.7271063"/>
<trkpt lat="52.2935546" lon="5.7269523"/>
<trkpt lat="52.2936719" lon="5.7266740"/>
<trkpt lat="52.2937300" lon="5.7263215"/>
<trkpt lat="52.2938305" lon="5.7260780"/>
<trkpt lat="52.2939523" lon="5.7259276"/>
<trkpt lat="52.2940964" lon="5.7257387"/>
<trkpt lat="52.2943302" lon="5.7256634"/>
<trkpt lat="52.2944206" lon="5.7256461"/>
<trkpt lat="52.2945037" lon="5.7254917"/>
<trkpt lat="52.2946434" lon="5.7252949"/>
<trkpt lat="52.2948175" lon="5.7252090"/>
<trkpt lat="52.2949914" lon="5.7250978"/>
<trkpt lat="52.2951684" lon="5.7249751"/>
<trkpt lat="52.2954634" lon="5.7247135"/>
<trkpt lat="52.2956495" lon="5.7244823"/>
<trkpt lat="52.2962588" lon="5.7237993"/>
<trkpt lat="52.2965282" lon="5.7235465"/>
<trkpt lat="52.2966247" lon="5.7234812"/>
<trkpt lat="52.2972594" lon="5.7236644"/>
<trkpt lat="52.2974218" lon="5.7236545"/>
<trkpt lat="52.2975104" lon="5.7229518"/>
<trkpt lat="52.2975957" lon="5.7224475"/>
<trkpt lat="52.2978713" lon="5.7221900"/>
<trkpt lat="52.2979041" lon="5.7206772"/>
<trkpt lat="52.2975563" lon="5.7204626"/>
<trkpt lat="52.2977472" lon="5.7193434"/>
<trkpt lat="52.2979641" lon="5.7190523"/>
<trkpt lat="52.2983923" lon="5.7191155"/>
<trkpt lat="52.2984769" lon="5.7189971"/>
<trkpt lat="52.2985336" lon="5.7187830"/>
<trkpt lat="52.2985961" lon="5.7185158"/>
<trkpt lat="52.2987369" lon="5.7183656"/>
<trkpt lat="52.2990081" lon="5.7182131"/>
<trkpt lat="52.2991945" lon="5.7182073"/>
<trkpt lat="52.2991901" lon="5.7186495"/>
<trkpt lat="52.2993738" lon="5.7187568"/>
<trkpt lat="52.2996007" lon="5.7189604"/>
<trkpt lat="52.2998087" lon="5.7191663"/>
<trkpt lat="52.3000339" lon="5.7192448"/>
<trkpt lat="52.3001973" lon="5.7194880"/>
<trkpt lat="52.3003448" lon="5.7195721"/>
<trkpt lat="52.3004451" lon="5.7196761"/>
<trkpt lat="52.3005621" lon="5.7196770"/>
<trkpt lat="52.3006539" lon="5.7194961"/>
<trkpt lat="52.3007536" lon="5.7195552"/>
<trkpt lat="52.3009887" lon="5.7196732"/>
<trkpt lat="52.3010053" lon="5.7193661"/>
<trkpt lat="52.3009803" lon="5.7191145"/>
<trkpt lat="52.3009538" lon="5.7188723"/>
<trkpt lat="52.3009486" lon="5.7186954"/>
<trkpt lat="52.3009552" lon="5.7183952"/>
<trkpt lat="52.3008927" lon="5.7182853"/>
<trkpt lat="52.3003372" lon="5.7178387"/>
<trkpt lat="52.2996141" lon="5.7173193"/>
<trkpt lat="52.2994405" lon="5.7171528"/>
<trkpt lat="52.2993494" lon="5.7168574"/>
<trkpt lat="52.2990075" lon="5.7158882"/>
<trkpt lat="52.2988671" lon="5.7155659"/>
<trkpt lat="52.2987392" lon="5.7153788"/>
<trkpt lat="52.2985186" lon="5.7151747"/>
<trkpt lat="52.2982425" lon="5.7149330"/>
<trkpt lat="52.2980965" lon="5.7146953"/>
<trkpt lat="52.2978991" lon="5.7142556"/>
<trkpt lat="52.2977830" lon="5.7139173"/>
<trkpt lat="52.2976867" lon="5.7136466"/>
<trkpt lat="52.2974436" lon="5.7130522"/>
<trkpt lat="52.2973160" lon="5.7127886"/>
<trkpt lat="52.2971695" lon="5.7125307"/>
<trkpt lat="52.2967638" lon="5.7122627"/>
<trkpt lat="52.2967099" lon="5.7122229"/>
<trkpt lat="52.2965566" lon="5.7121396"/>
<trkpt lat="52.2962343" lon="5.7120518"/>
<trkpt lat="52.2959996" lon="5.7119329"/>
<trkpt lat="52.2954501" lon="5.7113861"/>
<trkpt lat="52.2952539" lon="5.7111955"/>
<trkpt lat="52.2950459" lon="5.7111746"/>
<trkpt lat="52.2948561" lon="5.7110278"/>
<trkpt lat="52.2946070" lon="5.7107836"/>
<trkpt lat="52.2942444" lon="5.7107615"/>
<trkpt lat="52.2940248" lon="5.7106436"/>
<trkpt lat="52.2937484" lon="5.7104331"/>
<trkpt lat="52.2932716" lon="5.7100343"/>
<trkpt lat="52.2931203" lon="5.7099164"/>
<trkpt lat="52.2930036" lon="5.7096245"/>
<trkpt lat="52.2927483" lon="5.7090700"/>
<trkpt lat="52.2922532" lon="5.7086453"/>
<trkpt lat="52.2920260" lon="5.7084016"/>
<trkpt lat="52.2917743" lon="5.7081373"/>
<trkpt lat="52.2915674" lon="5.7078166"/>
<trkpt lat="52.2899559" lon="5.7035702"/>
<trkpt lat="52.2891291" lon="5.7012791"/>
<trkpt lat="52.2884216" lon="5.7014557"/>
<trkpt lat="52.2877740" lon="5.7004544"/>
<trkpt lat="52.2874011" lon="5.6999034"/>
<trkpt lat="52.2871657" lon="5.6995795"/>
<trkpt lat="52.2852575" lon="5.7051072"/>
<trkpt lat="52.2845376" lon="5.7048868"/>
<trkpt lat="52.2840493" lon="5.7047263"/>
<trkpt lat="52.2835825" lon="5.7045717"/>
<trkpt lat="52.2828663" lon="5.7042700"/>
<trkpt lat="52.2823280" lon="5.7041615"/>
<trkpt lat="52.2812689" lon="5.7038384"/>
<trkpt lat="52.2810094" lon="5.7036926"/>
<trkpt lat="52.2809446" lon="5.7039190"/>
<trkpt lat="52.2808021" lon="5.7038424"/>
<trkpt lat="52.2807500" lon="5.7036745"/>
<trkpt lat="52.2805622" lon="5.7037161"/>
<trkpt lat="52.2797548" lon="5.7034889"/>
<trkpt lat="52.2793708" lon="5.7033767"/>
<trkpt lat="52.2788688" lon="5.7032299"/>
<trkpt lat="52.2790726" lon="5.7029816"/>
<trkpt lat="52.2792062" lon="5.7026525"/>
<trkpt lat="52.2794430" lon="5.7025474"/>
<trkpt lat="52.2792768" lon="5.7019879"/>
<trkpt lat="52.2791034" lon="5.7014633"/>
<trkpt lat="52.2791553" lon="5.7010703"/>
<trkpt lat="52.2790897" lon="5.7007700"/>
<trkpt lat="52.2790110" lon="5.7005554"/>
<trkpt lat="52.2789584" lon="5.7002764"/>
<trkpt lat="52.2789324" lon="5.7000547"/>
<trkpt lat="52.2788048" lon="5.6997398"/>
<trkpt lat="52.2787451" lon="5.6995040"/>
<trkpt lat="52.2786696" lon="5.6991285"/>
<trkpt lat="52.2786434" lon="5.6989837"/>
<trkpt lat="52.2785455" lon="5.6983421"/>
<trkpt lat="52.2784891" lon="5.6980181"/>
<trkpt lat="52.2783538" lon="5.6975401"/>
<trkpt lat="52.2782040" lon="5.6968843"/>
<trkpt lat="52.2780545" lon="5.6960609"/>
<trkpt lat="52.2780428" lon="5.6958132"/>
<trkpt lat="52.2780285" lon="5.6953646"/>
<trkpt lat="52.2780272" lon="5.6953253"/>
<trkpt lat="52.2781039" lon="5.6947606"/>
<trkpt lat="52.2781523" lon="5.6942753"/>
<trkpt lat="52.2781253" lon="5.6938514"/>
<trkpt lat="52.2774531" lon="5.6946473"/>
<trkpt lat="52.2774237" lon="5.6946736"/>
<trkpt lat="52.2774041" lon="5.6946920"/>
<trkpt lat="52.2773876" lon="5.6947795"/>
<trkpt lat="52.2773765" lon="5.6948101"/>
<trkpt lat="52.2772883" lon="5.6948833"/>
<trkpt lat="52.2772169" lon="5.6949061"/>
<trkpt lat="52.2771313" lon="5.6948997"/>
<trkpt lat="52.2770016" lon="5.6949104"/>
<trkpt lat="52.2769096" lon="5.6949198"/>
<trkpt lat="52.2768346" lon="5.6949727"/>
<trkpt lat="52.2766831" lon="5.6950710"/>
<trkpt lat="52.2765928" lon="5.6951592"/>
<trkpt lat="52.2765301" lon="5.6951669"/>
<trkpt lat="52.2764550" lon="5.6952439"/>
<trkpt lat="52.2764097" lon="5.6952882"/>
<trkpt lat="52.2764057" lon="5.6954626"/>
<trkpt lat="52.2763718" lon="5.6956892"/>
<trkpt lat="52.2763197" lon="5.6960046"/>
<trkpt lat="52.2762843" lon="5.6961365"/>
<trkpt lat="52.2761653" lon="5.6961780"/>
<trkpt lat="52.2759815" lon="5.6960064"/>
<trkpt lat="52.2757477" lon="5.6958567"/>
<trkpt lat="52.2755824" lon="5.6958404"/>
<trkpt lat="52.2754769" lon="5.6960729"/>
<trkpt lat="52.2754283" lon="5.6963915"/>
<trkpt lat="52.2753846" lon="5.6967061"/>
<trkpt lat="52.2753124" lon="5.6969311"/>
<trkpt lat="52.2753119" lon="5.6971372"/>
<trkpt lat="52.2752757" lon="5.6972847"/>
<trkpt lat="52.2751488" lon="5.6974938"/>
<trkpt lat="52.2750676" lon="5.6975205"/>
<trkpt lat="52.2749890" lon="5.6974733"/>
<trkpt lat="52.2748889" lon="5.6974648"/>
<trkpt lat="52.2747791" lon="5.6974874"/>
<trkpt lat="52.2745638" lon="5.6977036"/>
<trkpt lat="52.2744373" lon="5.6977533"/>
<trkpt lat="52.2742904" lon="5.6973906"/>
<trkpt lat="52.2742083" lon="5.6968651"/>
<trkpt lat="52.2741969" lon="5.6965329"/>
<trkpt lat="52.2740806" lon="5.6962786"/>
<trkpt lat="52.2740142" lon="5.6964584"/>
<trkpt lat="52.2737561" lon="5.6966394"/>
<trkpt lat="52.2735120" lon="5.6969945"/>
<trkpt lat="52.2732661" lon="5.6971719"/>
<trkpt lat="52.2728764" lon="5.6973904"/>
<trkpt lat="52.2727345" lon="5.6974799"/>
<trkpt lat="52.2726138" lon="5.6977123"/>
<trkpt lat="52.2724431" lon="5.6983989"/>
<trkpt lat="52.2723190" lon="5.6986818"/>
<trkpt lat="52.2718129" lon="5.6992357"/>
<trkpt lat="52.2715371" lon="5.6994718"/>
<trkpt lat="52.2713242" lon="5.6993539"/>
<trkpt lat="52.2707258" lon="5.6984962"/>
<trkpt lat="52.2700824" lon="5.6976413"/>
<trkpt lat="52.2697362" lon="5.6971342"/>
<trkpt lat="52.2694911" lon="5.6967222"/>
<trkpt lat="52.2693755" lon="5.6963809"/>
<trkpt lat="52.2692831" lon="5.6960488"/>
<trkpt lat="52.2691780" lon="5.6956710"/>
<trkpt lat="52.2670849" lon="5.6956661"/>
<trkpt lat="52.2671603" lon="5.6963015"/>
<trkpt lat="52.2672427" lon="5.6969602"/>
<trkpt lat="52.2672691" lon="5.6971533"/>
<trkpt lat="52.2672795" lon="5.6976465"/>
<trkpt lat="52.2672255" lon="5.6980764"/>
<trkpt lat="52.2672307" lon="5.6982695"/>
<trkpt lat="52.2672708" lon="5.6987814"/>
<trkpt lat="52.2672959" lon="5.6990984"/>
<trkpt lat="52.2673150" lon="5.6990983"/>
<trkpt lat="52.2673209" lon="5.6992515"/>
<trkpt lat="52.2672893" lon="5.6992626"/>
<trkpt lat="52.2673111" lon="5.6997096"/>
<trkpt lat="52.2673645" lon="5.7005727"/>
<trkpt lat="52.2674018" lon="5.7012941"/>
<trkpt lat="52.2674970" lon="5.7017109"/>
<trkpt lat="52.2675100" lon="5.7023822"/>
<trkpt lat="52.2675331" lon="5.7031414"/>
<trkpt lat="52.2675438" lon="5.7034229"/>
<trkpt lat="52.2675652" lon="5.7039579"/>
<trkpt lat="52.2675580" lon="5.7039905"/>
<trkpt lat="52.2674936" lon="5.7040574"/>
<trkpt lat="52.2673566" lon="5.7040588"/>
<trkpt lat="52.2670755" lon="5.7040777"/>
<trkpt lat="52.2666103" lon="5.7040930"/>
<trkpt lat="52.2663605" lon="5.7041401"/>
<trkpt lat="52.2658176" lon="5.7043967"/>
<trkpt lat="52.2655761" lon="5.7045345"/>
<trkpt lat="52.2651494" lon="5.7047551"/>
<trkpt lat="52.2643926" lon="5.7051886"/>
<trkpt lat="52.2643203" lon="5.7052900"/>
<trkpt lat="52.2641954" lon="5.7054036"/>
<trkpt lat="52.2642180" lon="5.7055108"/>
<trkpt lat="52.2642075" lon="5.7056396"/>
<trkpt lat="52.2641930" lon="5.7057757"/>
<trkpt lat="52.2641069" lon="5.7059515"/>
<trkpt lat="52.2639418" lon="5.7063483"/>
<trkpt lat="52.2637631" lon="5.7075120"/>
<trkpt lat="52.2637268" lon="5.7077466"/>
<trkpt lat="52.2635984" lon="5.7079229"/>
<trkpt lat="52.2633070" lon="5.7084017"/>
<trkpt lat="52.2628600" lon="5.7090705"/>
<trkpt lat="52.2617971" lon="5.7105859"/>
<trkpt lat="52.2617079" lon="5.7108759"/>
<trkpt lat="52.2609036" lon="5.7144611"/>
<trkpt lat="52.2612544" lon="5.7146728"/>
<trkpt lat="52.2638845" lon="5.7160675"/>
<trkpt lat="52.2621668" lon="5.7208061"/>
<trkpt lat="52.2625546" lon="5.7208951"/>
<trkpt lat="52.2629377" lon="5.7209335"/>
<trkpt lat="52.2631081" lon="5.7209318"/>
<trkpt lat="52.2633562" lon="5.7209941"/>
<trkpt lat="52.2635549" lon="5.7210668"/>
<trkpt lat="52.2637339" lon="5.7211574"/>
<trkpt lat="52.2654837" lon="5.7200600"/>
<trkpt lat="52.2666566" lon="5.7193675"/>
</trkseg></trk>
<trk><name>Speuldepad - routeverkorter</name><type>shorteningRoute</type><trkseg>
<trkpt lat="52.2788688" lon="5.7032299"/>
<trkpt lat="52.2789439" lon="5.7034142"/>
<trkpt lat="52.2790482" lon="5.7038918"/>
<trkpt lat="52.2791097" lon="5.7043918"/>
<trkpt lat="52.2793681" lon="5.7049597"/>
<trkpt lat="52.2794923" lon="5.7053303"/>
<trkpt lat="52.2798226" lon="5.7061445"/>
<trkpt lat="52.2799669" lon="5.7065945"/>
<trkpt lat="52.2800776" lon="5.7068093"/>
<trkpt lat="52.2800941" lon="5.7070654"/>
<trkpt lat="52.2800855" lon="5.7075934"/>
<trkpt lat="52.2800698" lon="5.7081074"/>
<trkpt lat="52.2799495" lon="5.7088207"/>
<trkpt lat="52.2798838" lon="5.7093413"/>
<trkpt lat="52.2797113" lon="5.7101811"/>
<trkpt lat="52.2796085" lon="5.7103884"/>
<trkpt lat="52.2788801" lon="5.7111461"/>
<trkpt lat="52.2783767" lon="5.7116539"/>
<trkpt lat="52.2781750" lon="5.7122347"/>
<trkpt lat="52.2781519" lon="5.7123714"/>
<trkpt lat="52.2779764" lon="5.7129074"/>
<trkpt lat="52.2777290" lon="5.7136314"/>
<trkpt lat="52.2771935" lon="5.7151974"/>
<trkpt lat="52.2769536" lon="5.7159192"/>
<trkpt lat="52.2766175" lon="5.7172217"/>
<trkpt lat="52.2764199" lon="5.7179739"/>
<trkpt lat="52.2761633" lon="5.7189373"/>
<trkpt lat="52.2737166" lon="5.7167179"/>
<trkpt lat="52.2736214" lon="5.7166482"/>
<trkpt lat="52.2731831" lon="5.7182568"/>
<trkpt lat="52.2715355" lon="5.7167087"/>
<trkpt lat="52.2714398" lon="5.7166367"/>
<trkpt lat="52.2713429" lon="5.7165918"/>
<trkpt lat="52.2710800" lon="5.7165291"/>
<trkpt lat="52.2704388" lon="5.7164060"/>
<trkpt lat="52.2699711" lon="5.7163118"/>
<trkpt lat="52.2697916" lon="5.7162448"/>
<trkpt lat="52.2696120" lon="5.7162224"/>
<trkpt lat="52.2692562" lon="5.7161637"/>
<trkpt lat="52.2686266" lon="5.7160469"/>
<trkpt lat="52.2683478" lon="5.7184732"/>
<trkpt lat="52.2680085" lon="5.7185973"/>
<trkpt lat="52.2673539" lon="5.7189878"/>
<trkpt lat="52.2671939" lon="5.7190750"/>
<trkpt lat="52.2666566" lon="5.7193675"/>
</trkseg></trk>
<trk><name>Speuldepad - overstaproute</name><type>connectionRoute</type><trkseg>
<trkpt lat="52.2621641" lon="5.7208022"/>
<trkpt lat="52.2588509" lon="5.7201892"/>
<trkpt lat="52.2576143" lon="5.7202187"/>
<trkpt lat="52.2562821" lon="5.7203637"/>
<trkpt lat="52.2531183" lon="5.7207275"/>
<trkpt lat="52.2508509" lon="5.7300679"/>
<trkpt lat="52.2478820" lon="5.7423416"/>
<trkpt lat="52.2472216" lon="5.7451369"/>
<trkpt lat="52.2476617" lon="5.7482483"/>
<trkpt lat="52.2482792" lon="5.7517673"/>
<trkpt lat="52.2491750" lon="5.7557342"/>
<trkpt lat="52.2492528" lon="5.7560789"/>
<trkpt lat="52.2501135" lon="5.7600108"/>
<trkpt lat="52.2500082" lon="5.7603426"/>
</trkseg></trk>
<trk><name>Speuldepad - Aanlooproute</name><type>approachRoute</type><trkseg>
<trkpt lat="52.2656569" lon="5.6853610"/>
<trkpt lat="52.2669654" lon="5.6851275"/>
<trkpt lat="52.2669576" lon="5.6852366"/>
<trkpt lat="52.2668008" lon="5.6868557"/>
<trkpt lat="52.2666899" lon="5.6882458"/>
<trkpt lat="52.2677589" lon="5.6876598"/>
<trkpt lat="52.2683630" lon="5.6920372"/>
<trkpt lat="52.2685203" lon="5.6956695"/>
<trkpt lat="52.2685217" lon="5.6956695"/>
</trkseg></trk>
</gpx>