<?xml version="1.0" encoding="UTF-8"?>
<gpx version="1.1" creator="klompenpaden.nl via Jimbo API" xmlns="http://www.topografix.com/GPX/1/1">
<metadata><name>Sprabanenpad</name><desc>Ontdek het mooie buitengebied van tuindersdorp De Hoven. Dorp over rivier de IJssel met rijke 
historie, van stadsboerderijen, volkstuinen met hoogstamboomgaarden tot steenfabrieken in de uiterwaarden. Klompen aan, rugzak op en gaan!</desc><link href="https://www.klompenpaden.nl/klompenpaden/Sprabanenpad/8d3bad15-ff82-46c9-9dc1-a45808854ca5"><text>klompenpaden.nl</text></link></metadata>
<wpt lat="52.13854221427048" lon="6.178935170173646"><name>Start De Hoven</name></wpt>
<trk><name>Sprabanenpad - Hoofdroute</name><type>mainRoute</type><trkseg>
<trkpt lat="52.1381154" lon="6.1711209"/>
<trkpt lat="52.1379900" lon="6.1712601"/>
<trkpt lat="52.1378925" lon="6.1714051"/>
<trkpt lat="52.1377300" lon="6.1718301"/>
<trkpt lat="52.1372500" lon="6.1728501"/>
<trkpt lat="52.1371010" lon="6.1729343"/>
<trkpt lat="52.1369800" lon="6.1730801"/>
<trkpt lat="52.1365300" lon="6.1735801"/>
<trkpt lat="52.1364463" lon="6.1736681"/>
<trkpt lat="52.1362523" lon="6.1738692"/>
<trkpt lat="52.1355422" lon="6.1747770"/>
<trkpt lat="52.1354134" lon="6.1748526"/>
<trkpt lat="52.1349871" lon="6.1746561"/>
<trkpt lat="52.1349461" lon="6.1747057"/>
<trkpt lat="52.1360100" lon="6.1759301"/>
<trkpt lat="52.1361500" lon="6.1761401"/>
<trkpt lat="52.1365600" lon="6.1768751"/>
<trkpt lat="52.1367660" lon="6.1772871"/>
<trkpt lat="52.1360840" lon="6.1782954"/>
<trkpt lat="52.1355797" lon="6.1794113"/>
<trkpt lat="52.1360990" lon="6.1802060"/>
<trkpt lat="52.1368772" lon="6.1814925"/>
<trkpt lat="52.1365566" lon="6.1817341"/>
<trkpt lat="52.1362346" lon="6.1821672"/>
<trkpt lat="52.1358423" lon="6.1826113"/>
<trkpt lat="52.1355631" lon="6.1823778"/>
<trkpt lat="52.1354527" lon="6.1826999"/>
<trkpt lat="52.1354300" lon="6.1829101"/>
<trkpt lat="52.1354000" lon="6.1830101"/>
<trkpt lat="52.1352500" lon="6.1832701"/>
<trkpt lat="52.1351100" lon="6.1834801"/>
<trkpt lat="52.1357800" lon="6.1839301"/>
<trkpt lat="52.1361300" lon="6.1840201"/>
<trkpt lat="52.1362800" lon="6.1840101"/>
<trkpt lat="52.1362600" lon="6.1836401"/>
<trkpt lat="52.1361499" lon="6.1831321"/>
<trkpt lat="52.1368600" lon="6.1826551"/>
<trkpt lat="52.1375900" lon="6.1822001"/>
<trkpt lat="52.1383200" lon="6.1817451"/>
<trkpt lat="52.1390500" lon="6.1812901"/>
<trkpt lat="52.1390900" lon="6.1812201"/>
<trkpt lat="52.1394050" lon="6.1818251"/>
<trkpt lat="52.1397200" lon="6.1824301"/>
</trkseg></trk>
<trk><name>Sprabanenpad - Hoofdroute</name><type>mainRoute</type><trkseg>
<trkpt lat="52.1385807" lon="6.1789618"/>
<trkpt lat="52.1398518" lon="6.1811628"/>
<trkpt lat="52.1400034" lon="6.1814322"/>
<trkpt lat="52.1400834" lon="6.1817351"/>
<trkpt lat="52.1397200" lon="6.1824301"/>
<trkpt lat="52.1398500" lon="6.1828001"/>
<trkpt lat="52.1400299" lon="6.1829195"/>
<trkpt lat="52.1401896" lon="6.1830551"/>
<trkpt lat="52.1404218" lon="6.1832974"/>
<trkpt lat="52.1406004" lon="6.1834458"/>
<trkpt lat="52.1407985" lon="6.1836407"/>
<trkpt lat="52.1407406" lon="6.1839075"/>
<trkpt lat="52.1405400" lon="6.1845001"/>
<trkpt lat="52.1405600" lon="6.1846701"/>
<trkpt lat="52.1406100" lon="6.1847401"/>
<trkpt lat="52.1407400" lon="6.1848201"/>
<trkpt lat="52.1407700" lon="6.1849801"/>
<trkpt lat="52.1408400" lon="6.1850501"/>
<trkpt lat="52.1409900" lon="6.1851301"/>
<trkpt lat="52.1413700" lon="6.1851601"/>
<trkpt lat="52.1414500" lon="6.1854301"/>
<trkpt lat="52.1414800" lon="6.1858401"/>
<trkpt lat="52.1413700" lon="6.1862701"/>
<trkpt lat="52.1409850" lon="6.1873901"/>
<trkpt lat="52.1406000" lon="6.1885101"/>
<trkpt lat="52.1407200" lon="6.1888601"/>
<trkpt lat="52.1413250" lon="6.1884901"/>
<trkpt lat="52.1419300" lon="6.1881201"/>
<trkpt lat="52.1424125" lon="6.1878620"/>
<trkpt lat="52.1429285" lon="6.1876034"/>
<trkpt lat="52.1429092" lon="6.1875131"/>
<trkpt lat="52.1433115" lon="6.1872934"/>
<trkpt lat="52.1433344" lon="6.1874401"/>
<trkpt lat="52.1435300" lon="6.1873301"/>
<trkpt lat="52.1436600" lon="6.1871401"/>
<trkpt lat="52.1441100" lon="6.1869251"/>
<trkpt lat="52.1445522" lon="6.1866722"/>
<trkpt lat="52.1450600" lon="6.1863701"/>
<trkpt lat="52.1450388" lon="6.1862963"/>
<trkpt lat="52.1449715" lon="6.1861102"/>
<trkpt lat="52.1448446" lon="6.1858644"/>
<trkpt lat="52.1446123" lon="6.1856474"/>
<trkpt lat="52.1444519" lon="6.1840210"/>
<trkpt lat="52.1444248" lon="6.1839342"/>
<trkpt lat="52.1443901" lon="6.1837574"/>
<trkpt lat="52.1444502" lon="6.1837232"/>
<trkpt lat="52.1445469" lon="6.1836847"/>
<trkpt lat="52.1450132" lon="6.1833698"/>
<trkpt lat="52.1457043" lon="6.1831626"/>
<trkpt lat="52.1460158" lon="6.1831407"/>
<trkpt lat="52.1461958" lon="6.1829763"/>
<trkpt lat="52.1463255" lon="6.1828421"/>
<trkpt lat="52.1466863" lon="6.1826393"/>
<trkpt lat="52.1473114" lon="6.1822535"/>
<trkpt lat="52.1483852" lon="6.1818390"/>
<trkpt lat="52.1488984" lon="6.1816496"/>
<trkpt lat="52.1488300" lon="6.1811801"/>
<trkpt lat="52.1489200" lon="6.1801101"/>
<trkpt lat="52.1490100" lon="6.1790401"/>
<trkpt lat="52.1491600" lon="6.1781701"/>
<trkpt lat="52.1494500" lon="6.1769951"/>
<trkpt lat="52.1497400" lon="6.1758201"/>
<trkpt lat="52.1500300" lon="6.1746451"/>
<trkpt lat="52.1503200" lon="6.1734701"/>
<trkpt lat="52.1495950" lon="6.1729851"/>
<trkpt lat="52.1488700" lon="6.1725001"/>
<trkpt lat="52.1484400" lon="6.1721501"/>
<trkpt lat="52.1480500" lon="6.1718001"/>
<trkpt lat="52.1479837" lon="6.1717361"/>
<trkpt lat="52.1478470" lon="6.1716705"/>
<trkpt lat="52.1473583" lon="6.1716686"/>
<trkpt lat="52.1475091" lon="6.1707545"/>
<trkpt lat="52.1480723" lon="6.1669526"/>
<trkpt lat="52.1481391" lon="6.1663928"/>
<trkpt lat="52.1481380" lon="6.1659948"/>
<trkpt lat="52.1495492" lon="6.1653115"/>
<trkpt lat="52.1495971" lon="6.1649147"/>
<trkpt lat="52.1495711" lon="6.1645051"/>
<trkpt lat="52.1496536" lon="6.1644033"/>
<trkpt lat="52.1498908" lon="6.1643455"/>
<trkpt lat="52.1516486" lon="6.1642731"/>
<trkpt lat="52.1535400" lon="6.1642401"/>
<trkpt lat="52.1535700" lon="6.1642201"/>
<trkpt lat="52.1537800" lon="6.1633501"/>
<trkpt lat="52.1540834" lon="6.1619968"/>
<trkpt lat="52.1543867" lon="6.1606434"/>
<trkpt lat="52.1546900" lon="6.1592901"/>
<trkpt lat="52.1548675" lon="6.1581826"/>
<trkpt lat="52.1550450" lon="6.1570751"/>
<trkpt lat="52.1552225" lon="6.1559676"/>
<trkpt lat="52.1554000" lon="6.1548601"/>
<trkpt lat="52.1553700" lon="6.1545201"/>
<trkpt lat="52.1550575" lon="6.1534776"/>
<trkpt lat="52.1547450" lon="6.1524351"/>
<trkpt lat="52.1544325" lon="6.1513926"/>
<trkpt lat="52.1541200" lon="6.1503501"/>
<trkpt lat="52.1540715" lon="6.1501440"/>
<trkpt lat="52.1571217" lon="6.1447347"/>
<trkpt lat="52.1573763" lon="6.1443528"/>
<trkpt lat="52.1574687" lon="6.1443852"/>
<trkpt lat="52.1575371" lon="6.1442547"/>
<trkpt lat="52.1575942" lon="6.1443365"/>
<trkpt lat="52.1577486" lon="6.1439636"/>
<trkpt lat="52.1578568" lon="6.1436763"/>
<trkpt lat="52.1579903" lon="6.1434833"/>
<trkpt lat="52.1581485" lon="6.1435055"/>
<trkpt lat="52.1582234" lon="6.1433055"/>
<trkpt lat="52.1579756" lon="6.1430428"/>
<trkpt lat="52.1578426" lon="6.1429250"/>
<trkpt lat="52.1580780" lon="6.1423581"/>
<trkpt lat="52.1586392" lon="6.1408627"/>
<trkpt lat="52.1586310" lon="6.1407348"/>
<trkpt lat="52.1582897" lon="6.1378346"/>
<trkpt lat="52.1582142" lon="6.1377223"/>
<trkpt lat="52.1578340" lon="6.1382313"/>
<trkpt lat="52.1574817" lon="6.1385700"/>
<trkpt lat="52.1572330" lon="6.1387650"/>
<trkpt lat="52.1569502" lon="6.1389407"/>
<trkpt lat="52.1566030" lon="6.1390233"/>
<trkpt lat="52.1564198" lon="6.1391327"/>
<trkpt lat="52.1560385" lon="6.1395018"/>
<trkpt lat="52.1553432" lon="6.1402062"/>
<trkpt lat="52.1552433" lon="6.1402961"/>
<trkpt lat="52.1553046" lon="6.1406051"/>
<trkpt lat="52.1552634" lon="6.1408051"/>
<trkpt lat="52.1549437" lon="6.1411927"/>
<trkpt lat="52.1548791" lon="6.1413155"/>
<trkpt lat="52.1548363" lon="6.1414993"/>
<trkpt lat="52.1546541" lon="6.1422077"/>
<trkpt lat="52.1545073" lon="6.1426133"/>
<trkpt lat="52.1543517" lon="6.1432836"/>
<trkpt lat="52.1540454" lon="6.1429652"/>
<trkpt lat="52.1526100" lon="6.1422067"/>
<trkpt lat="52.1519300" lon="6.1418501"/>
<trkpt lat="52.1515000" lon="6.1417801"/>
<trkpt lat="52.1510000" lon="6.1417701"/>
<trkpt lat="52.1505450" lon="6.1418051"/>
<trkpt lat="52.1500900" lon="6.1418401"/>
<trkpt lat="52.1493900" lon="6.1418601"/>
<trkpt lat="52.1486900" lon="6.1418801"/>
<trkpt lat="52.1479900" lon="6.1419001"/>
<trkpt lat="52.1476400" lon="6.1421301"/>
<trkpt lat="52.1476500" lon="6.1421301"/>
<trkpt lat="52.1470967" lon="6.1427268"/>
<trkpt lat="52.1465433" lon="6.1433234"/>
<trkpt lat="52.1459900" lon="6.1439201"/>
<trkpt lat="52.1458000" lon="6.1442901"/>
<trkpt lat="52.1455600" lon="6.1449101"/>
<trkpt lat="52.1453100" lon="6.1458101"/>
<trkpt lat="52.1450600" lon="6.1467101"/>
<trkpt lat="52.1448100" lon="6.1476101"/>
<trkpt lat="52.1449250" lon="6.1477032"/>
<trkpt lat="52.1445058" lon="6.1492096"/>
<trkpt lat="52.1442556" lon="6.1500947"/>
<trkpt lat="52.1441762" lon="6.1505843"/>
<trkpt lat="52.1441988" lon="6.1511097"/>
<trkpt lat="52.1442798" lon="6.1517188"/>
<trkpt lat="52.1441973" lon="6.1518997"/>
<trkpt lat="52.1441425" lon="6.1519534"/>
<trkpt lat="52.1442447" lon="6.1526176"/>
<trkpt lat="52.1444084" lon="6.1532799"/>
<trkpt lat="52.1445995" lon="6.1540029"/>
<trkpt lat="52.1446600" lon="6.1544074"/>
<trkpt lat="52.1447245" lon="6.1553277"/>
<trkpt lat="52.1447716" lon="6.1557505"/>
<trkpt lat="52.1450493" lon="6.1574307"/>
<trkpt lat="52.1450365" lon="6.1576342"/>
<trkpt lat="52.1445510" lon="6.1575660"/>
<trkpt lat="52.1433690" lon="6.1577430"/>
<trkpt lat="52.1429758" lon="6.1577102"/>
<trkpt lat="52.1413560" lon="6.1580380"/>
<trkpt lat="52.1392931" lon="6.1585036"/>
<trkpt lat="52.1390939" lon="6.1585309"/>
<trkpt lat="52.1389832" lon="6.1584247"/>
<trkpt lat="52.1386743" lon="6.1574622"/>
<trkpt lat="52.1384723" lon="6.1566309"/>
<trkpt lat="52.1384152" lon="6.1563293"/>
<trkpt lat="52.1383878" lon="6.1559451"/>
<trkpt lat="52.1384050" lon="6.1558018"/>
<trkpt lat="52.1384460" lon="6.1556774"/>
<trkpt lat="52.1388195" lon="6.1551866"/>
<trkpt lat="52.1388994" lon="6.1549843"/>
<trkpt lat="52.1389354" lon="6.1548166"/>
<trkpt lat="52.1389186" lon="6.1545591"/>
<trkpt lat="52.1388325" lon="6.1539340"/>
<trkpt lat="52.1387687" lon="6.1539575"/>
<trkpt lat="52.1384132" lon="6.1541234"/>
<trkpt lat="52.1381868" lon="6.1542522"/>
<trkpt lat="52.1380968" lon="6.1543298"/>
<trkpt lat="52.1377334" lon="6.1548675"/>
<trkpt lat="52.1376491" lon="6.1550034"/>
<trkpt lat="52.1374690" lon="6.1554091"/>
<trkpt lat="52.1372372" lon="6.1559424"/>
<trkpt lat="52.1368608" lon="6.1568183"/>
<trkpt lat="52.1362734" lon="6.1578861"/>
<trkpt lat="52.1357546" lon="6.1588542"/>
<trkpt lat="52.1356040" lon="6.1591651"/>
<trkpt lat="52.1355183" lon="6.1594914"/>
<trkpt lat="52.1354926" lon="6.1597571"/>
<trkpt lat="52.1354459" lon="6.1603553"/>
<trkpt lat="52.1353983" lon="6.1607153"/>
<trkpt lat="52.1353168" lon="6.1609204"/>
<trkpt lat="52.1352345" lon="6.1610365"/>
<trkpt lat="52.1351987" lon="6.1610690"/>
<trkpt lat="52.1351627" lon="6.1610770"/>
<trkpt lat="52.1350999" lon="6.1610755"/>
<trkpt lat="52.1346101" lon="6.1610981"/>
<trkpt lat="52.1341180" lon="6.1611169"/>
<trkpt lat="52.1337479" lon="6.1611723"/>
<trkpt lat="52.1329574" lon="6.1613509"/>
<trkpt lat="52.1328887" lon="6.1625333"/>
<trkpt lat="52.1328323" lon="6.1639782"/>
<trkpt lat="52.1328541" lon="6.1646216"/>
<trkpt lat="52.1346614" lon="6.1643041"/>
<trkpt lat="52.1346292" lon="6.1639250"/>
<trkpt lat="52.1380755" lon="6.1634185"/>
<trkpt lat="52.1380469" lon="6.1641363"/>
<trkpt lat="52.1380305" lon="6.1643702"/>
<trkpt lat="52.1380088" lon="6.1644316"/>
<trkpt lat="52.1380570" lon="6.1650422"/>
<trkpt lat="52.1380588" lon="6.1658411"/>
<trkpt lat="52.1385123" lon="6.1658490"/>
<trkpt lat="52.1389489" lon="6.1708093"/>
<trkpt lat="52.1381194" lon="6.1711264"/>
</trkseg></trk>
<trk><name>Sprabanenpad - Alternatieve route</name><type>alternativeRoute</type><trkseg>
<trkpt lat="52.1407400" lon="6.1848201"/>
<trkpt lat="52.1407872" lon="6.1848171"/>
<trkpt lat="52.1408456" lon="6.1848427"/>
<trkpt lat="52.1409098" lon="6.1844742"/>
<trkpt lat="52.1409605" lon="6.1845084"/>
<trkpt lat="52.1413233" lon="6.1846036"/>
<trkpt lat="52.1416476" lon="6.1846305"/>
<trkpt lat="52.1418447" lon="6.1845579"/>
<trkpt lat="52.1425402" lon="6.1841938"/>
<trkpt lat="52.1429036" lon="6.1839965"/>
<trkpt lat="52.1431944" lon="6.1836245"/>
<trkpt lat="52.1433535" lon="6.1835307"/>
<trkpt lat="52.1434239" lon="6.1834759"/>
<trkpt lat="52.1437831" lon="6.1834668"/>
<trkpt lat="52.1443651" lon="6.1834349"/>
<trkpt lat="52.1443901" lon="6.1837574"/>
</trkseg></trk>
<trk><name>Sprabanenpad - Overstaproute</name><type>connectionRoute</type><trkseg>
<trkpt lat="52.1633068" lon="6.1536611"/>
<trkpt lat="52.1632433" lon="6.1534695"/>
<trkpt lat="52.1631521" lon="6.1531945"/>
<trkpt lat="52.1630235" lon="6.1527597"/>
<trkpt lat="52.1629239" lon="6.1523664"/>
<trkpt lat="52.1628156" lon="6.1519702"/>
<trkpt lat="52.1627566" lon="6.1514017"/>
<trkpt lat="52.1627621" lon="6.1510194"/>
<trkpt lat="52.1628730" lon="6.1505743"/>
<trkpt lat="52.1631424" lon="6.1502586"/>
<trkpt lat="52.1633853" lon="6.1501062"/>
<trkpt lat="52.1635859" lon="6.1499012"/>
<trkpt lat="52.1637831" lon="6.1497284"/>
<trkpt lat="52.1631751" lon="6.1479281"/>
<trkpt lat="52.1619730" lon="6.1443677"/>
<trkpt lat="52.1618654" lon="6.1440453"/>
<trkpt lat="52.1605048" lon="6.1440679"/>
<trkpt lat="52.1593095" lon="6.1440781"/>
<trkpt lat="52.1587934" lon="6.1440011"/>
<trkpt lat="52.1583135" lon="6.1436415"/>
<trkpt lat="52.1581485" lon="6.1435055"/>
<trkpt lat="52.1579937" lon="6.1434736"/>
</trkseg></trk>
<trk><name>Sprabanenpad - overstaproute</name><type>connectionRoute</type><trkseg>
<trkpt lat="52.1331030" lon="6.1525237"/>
<trkpt lat="52.1331013" lon="6.1526418"/>
<trkpt lat="52.1331305" lon="6.1527463"/>
<trkpt lat="52.1331238" lon="6.1545392"/>
<trkpt lat="52.1328104" lon="6.1559681"/>
<trkpt lat="52.1327792" lon="6.1566210"/>
<trkpt lat="52.1329352" lon="6.1590539"/>
<trkpt lat="52.1328493" lon="6.1612719"/>
<trkpt lat="52.1329574" lon="6.1613509"/>
</trkseg></trk>
<trk><name>Sprabanenpad - Aanlooproute</name><type>approachRoute</type><trkseg>
<trkpt lat="52.1407400" lon="6.1848201"/>
<trkpt lat="52.1410568" lon="6.1848880"/>
<trkpt lat="52.1414498" lon="6.1848704"/>
<trkpt lat="52.1416364" lon="6.1848190"/>
<trkpt lat="52.1422580" lon="6.1845522"/>
<trkpt lat="52.1423700" lon="6.1846311"/>
<trkpt lat="52.1424723" lon="6.1848185"/>
<trkpt lat="52.1435478" lon="6.1894541"/>
<trkpt lat="52.1435654" lon="6.1896593"/>
<trkpt lat="52.1435208" lon="6.1899213"/>
<trkpt lat="52.1432073" lon="6.1905612"/>
<trkpt lat="52.1432021" lon="6.1909824"/>
<trkpt lat="52.1432459" lon="6.1922240"/>
<trkpt lat="52.1433328" lon="6.1934354"/>
<trkpt lat="52.1433040" lon="6.1945172"/>
<trkpt lat="52.1432904" lon="6.1951123"/>
<trkpt lat="52.1436039" lon="6.1951682"/>
<trkpt lat="52.1440997" lon="6.1946515"/>
<trkpt lat="52.1444723" lon="6.1944185"/>
</trkseg></trk>
<trk><name>Sprabanenpad - Geimporteerde shapefile</name><type>detourRoute</type><trkseg>
<trkpt lat="52.1548791" lon="6.1413155"/>
<trkpt lat="52.1547968" lon="6.1411908"/>
<trkpt lat="52.1522659" lon="6.1404109"/>
<trkpt lat="52.1510089" lon="6.1400211"/>
<trkpt lat="52.1499163" lon="6.1401801"/>
<trkpt lat="52.1480280" lon="6.1400118"/>
<trkpt lat="52.1465754" lon="6.1413249"/>
<trkpt lat="52.1454179" lon="6.1424382"/>
<trkpt lat="52.1444771" lon="6.1424768"/>
<trkpt lat="52.1430877" lon="6.1427041"/>
<trkpt lat="52.1423210" lon="6.1431005"/>
<trkpt lat="52.1422092" lon="6.1459280"/>
<trkpt lat="52.1420811" lon="6.1484950"/>
<trkpt lat="52.1420010" lon="6.1493766"/>
<trkpt lat="52.1414027" lon="6.1505477"/>
<trkpt lat="52.1413318" lon="6.1511197"/>
<trkpt lat="52.1404900" lon="6.1528558"/>
<trkpt lat="52.1388325" lon="6.1539340"/>
</trkseg></trk>
</gpx>