<?xml version="1.0" encoding="UTF-8"?>
<gpx version="1.1" creator="klompenpaden.nl via Jimbo API" xmlns="http://www.topografix.com/GPX/1/1">
<metadata><name>Staickheimerpad</name><desc>Ontdek het heuvelachtige buitengebied van Stokkum, door het Bergherbos, over glooiende akkers en cultuurhistorisch erfgoed.  Klompen aan, rugzak op en gaan!</desc><link href="https://www.klompenpaden.nl/klompenpaden/Staickheimerpad/64f48158-e18e-495d-a93a-96cf9385db88"><text>klompenpaden.nl</text></link></metadata>
<wpt lat="51.87546762197858" lon="6.224071383476257"><name>Start Stokkum</name></wpt>
<trk><name>Staickheimerpad - Geimporteerde shapefile</name><type>mainRoute</type><trkseg>
<trkpt lat="51.8720531" lon="6.2438302"/>
<trkpt lat="51.8720529" lon="6.2438171"/>
<trkpt lat="51.8736956" lon="6.2401908"/>
<trkpt lat="51.8738559" lon="6.2399253"/>
<trkpt lat="51.8738509" lon="6.2398913"/>
<trkpt lat="51.8735899" lon="6.2379993"/>
<trkpt lat="51.8746889" lon="6.2376753"/>
<trkpt lat="51.8749159" lon="6.2377393"/>
<trkpt lat="51.8750529" lon="6.2378533"/>
<trkpt lat="51.8753169" lon="6.2380423"/>
</trkseg></trk>
<trk><name>Staickheimerpad - Geimporteerde shapefile</name><type>mainRoute</type><trkseg>
<trkpt lat="51.8720531" lon="6.2438302"/>
<trkpt lat="51.8720152" lon="6.2438232"/>
<trkpt lat="51.8717519" lon="6.2426579"/>
<trkpt lat="51.8718721" lon="6.2414822"/>
<trkpt lat="51.8712471" lon="6.2397924"/>
<trkpt lat="51.8710797" lon="6.2391663"/>
<trkpt lat="51.8712195" lon="6.2389712"/>
<trkpt lat="51.8718670" lon="6.2377656"/>
<trkpt lat="51.8716933" lon="6.2362595"/>
<trkpt lat="51.8717271" lon="6.2361114"/>
<trkpt lat="51.8717993" lon="6.2360321"/>
<trkpt lat="51.8718898" lon="6.2359971"/>
<trkpt lat="51.8723436" lon="6.2360906"/>
<trkpt lat="51.8724893" lon="6.2354520"/>
<trkpt lat="51.8720409" lon="6.2330444"/>
<trkpt lat="51.8719017" lon="6.2324388"/>
<trkpt lat="51.8719891" lon="6.2320125"/>
<trkpt lat="51.8722943" lon="6.2317237"/>
<trkpt lat="51.8726365" lon="6.2316091"/>
<trkpt lat="51.8728204" lon="6.2327848"/>
<trkpt lat="51.8753719" lon="6.2324713"/>
<trkpt lat="51.8767558" lon="6.2321226"/>
<trkpt lat="51.8765306" lon="6.2311571"/>
<trkpt lat="51.8767139" lon="6.2309842"/>
<trkpt lat="51.8767249" lon="6.2310222"/>
<trkpt lat="51.8769349" lon="6.2308512"/>
<trkpt lat="51.8769859" lon="6.2306612"/>
<trkpt lat="51.8770579" lon="6.2291672"/>
<trkpt lat="51.8771359" lon="6.2286332"/>
<trkpt lat="51.8771569" lon="6.2279372"/>
<trkpt lat="51.8771429" lon="6.2278092"/>
<trkpt lat="51.8770779" lon="6.2276702"/>
<trkpt lat="51.8759659" lon="6.2264803"/>
<trkpt lat="51.8756579" lon="6.2260743"/>
<trkpt lat="51.8755316" lon="6.2260287"/>
<trkpt lat="51.8755316" lon="6.2258678"/>
<trkpt lat="51.8755607" lon="6.2247720"/>
<trkpt lat="51.8755670" lon="6.2246043"/>
<trkpt lat="51.8755750" lon="6.2244315"/>
<trkpt lat="51.8756187" lon="6.2240533"/>
<trkpt lat="51.8756589" lon="6.2238181"/>
<trkpt lat="51.8757954" lon="6.2234109"/>
<trkpt lat="51.8758683" lon="6.2231855"/>
<trkpt lat="51.8760009" lon="6.2227822"/>
<trkpt lat="51.8761679" lon="6.2223202"/>
<trkpt lat="51.8761929" lon="6.2222722"/>
<trkpt lat="51.8763169" lon="6.2218752"/>
<trkpt lat="51.8763249" lon="6.2218692"/>
<trkpt lat="51.8764329" lon="6.2214122"/>
<trkpt lat="51.8765229" lon="6.2211512"/>
<trkpt lat="51.8765019" lon="6.2210562"/>
<trkpt lat="51.8764809" lon="6.2210442"/>
<trkpt lat="51.8764709" lon="6.2210502"/>
<trkpt lat="51.8758859" lon="6.2210362"/>
<trkpt lat="51.8757929" lon="6.2210642"/>
<trkpt lat="51.8753489" lon="6.2211103"/>
<trkpt lat="51.8752069" lon="6.2210903"/>
<trkpt lat="51.8749039" lon="6.2211293"/>
<trkpt lat="51.8748839" lon="6.2211223"/>
<trkpt lat="51.8748319" lon="6.2211603"/>
<trkpt lat="51.8747759" lon="6.2211533"/>
<trkpt lat="51.8745409" lon="6.2211673"/>
<trkpt lat="51.8744379" lon="6.2212013"/>
<trkpt lat="51.8742709" lon="6.2212123"/>
<trkpt lat="51.8741749" lon="6.2212503"/>
<trkpt lat="51.8741419" lon="6.2212793"/>
<trkpt lat="51.8741169" lon="6.2212813"/>
<trkpt lat="51.8740839" lon="6.2212633"/>
<trkpt lat="51.8739319" lon="6.2212543"/>
<trkpt lat="51.8738659" lon="6.2212683"/>
<trkpt lat="51.8738269" lon="6.2212293"/>
<trkpt lat="51.8737429" lon="6.2196983"/>
</trkseg></trk>
<trk><name>Staickheimerpad - Geimporteerde shapefile</name><type>mainRoute</type><trkseg>
<trkpt lat="51.8720563" lon="6.2439526"/>
<trkpt lat="51.8720549" lon="6.2439463"/>
<trkpt lat="51.8720533" lon="6.2438413"/>
<trkpt lat="51.8720531" lon="6.2438302"/>
</trkseg></trk>
<trk><name>Staickheimerpad - Geimporteerde shapefile</name><type>mainRoute</type><trkseg>
<trkpt lat="51.8720739" lon="6.2438340"/>
<trkpt lat="51.8720531" lon="6.2438302"/>
</trkseg></trk>
<trk><name>Staickheimerpad - Geimporteerde shapefile</name><type>mainRoute</type><trkseg>
<trkpt lat="51.8723900" lon="6.2041363"/>
<trkpt lat="51.8723930" lon="6.2041383"/>
<trkpt lat="51.8723950" lon="6.2041233"/>
<trkpt lat="51.8723680" lon="6.2040163"/>
<trkpt lat="51.8724090" lon="6.2038603"/>
<trkpt lat="51.8726340" lon="6.2035423"/>
<trkpt lat="51.8727120" lon="6.2034093"/>
<trkpt lat="51.8730110" lon="6.2029983"/>
<trkpt lat="51.8731970" lon="6.2028043"/>
<trkpt lat="51.8738450" lon="6.2011493"/>
<trkpt lat="51.8741440" lon="6.2006833"/>
<trkpt lat="51.8742460" lon="6.2004613"/>
<trkpt lat="51.8743460" lon="6.2003523"/>
<trkpt lat="51.8744740" lon="6.2003783"/>
<trkpt lat="51.8745850" lon="6.2004473"/>
<trkpt lat="51.8746842" lon="6.2004660"/>
<trkpt lat="51.8767583" lon="6.1999556"/>
<trkpt lat="51.8770271" lon="6.2002832"/>
<trkpt lat="51.8772048" lon="6.2014161"/>
<trkpt lat="51.8772528" lon="6.2027311"/>
</trkseg></trk>
<trk><name>Staickheimerpad - Geimporteerde shapefile</name><type>mainRoute</type><trkseg>
<trkpt lat="51.8723910" lon="6.2041363"/>
<trkpt lat="51.8723900" lon="6.2041363"/>
</trkseg></trk>
<trk><name>Staickheimerpad - Geimporteerde shapefile</name><type>mainRoute</type><trkseg>
<trkpt lat="51.8727827" lon="6.2063082"/>
<trkpt lat="51.8727830" lon="6.2063093"/>
<trkpt lat="51.8727810" lon="6.2063093"/>
<trkpt lat="51.8727827" lon="6.2063082"/>
</trkseg></trk>
<trk><name>Staickheimerpad - Geimporteerde shapefile</name><type>mainRoute</type><trkseg>
<trkpt lat="51.8727827" lon="6.2063082"/>
<trkpt lat="51.8728146" lon="6.2062872"/>
<trkpt lat="51.8728253" lon="6.2062798"/>
<trkpt lat="51.8728390" lon="6.2062713"/>
<trkpt lat="51.8728840" lon="6.2062033"/>
<trkpt lat="51.8728845" lon="6.2062038"/>
</trkseg></trk>
<trk><name>Staickheimerpad - Geimporteerde shapefile</name><type>mainRoute</type><trkseg>
<trkpt lat="51.8728845" lon="6.2062038"/>
<trkpt lat="51.8728850" lon="6.2062043"/>
<trkpt lat="51.8728840" lon="6.2062043"/>
<trkpt lat="51.8728845" lon="6.2062038"/>
</trkseg></trk>
<trk><name>Staickheimerpad - Geimporteerde shapefile</name><type>mainRoute</type><trkseg>
<trkpt lat="51.8728845" lon="6.2062038"/>
<trkpt lat="51.8729190" lon="6.2061733"/>
<trkpt lat="51.8729320" lon="6.2061733"/>
<trkpt lat="51.8730882" lon="6.2060075"/>
<trkpt lat="51.8730660" lon="6.2058203"/>
<trkpt lat="51.8730480" lon="6.2058193"/>
<trkpt lat="51.8730300" lon="6.2057963"/>
<trkpt lat="51.8726300" lon="6.2046163"/>
<trkpt lat="51.8724820" lon="6.2043263"/>
<trkpt lat="51.8724850" lon="6.2043363"/>
<trkpt lat="51.8723890" lon="6.2041363"/>
<trkpt lat="51.8723900" lon="6.2041363"/>
</trkseg></trk>
<trk><name>Staickheimerpad - Geimporteerde shapefile</name><type>mainRoute</type><trkseg>
<trkpt lat="51.8735351" lon="6.2176960"/>
<trkpt lat="51.8735349" lon="6.2176943"/>
<trkpt lat="51.8735349" lon="6.2176973"/>
<trkpt lat="51.8735351" lon="6.2176960"/>
</trkseg></trk>
<trk><name>Staickheimerpad - Geimporteerde shapefile</name><type>mainRoute</type><trkseg>
<trkpt lat="51.8735351" lon="6.2176960"/>
<trkpt lat="51.8735599" lon="6.2175283"/>
<trkpt lat="51.8733799" lon="6.2170443"/>
<trkpt lat="51.8733239" lon="6.2169623"/>
<trkpt lat="51.8710990" lon="6.2110543"/>
<trkpt lat="51.8716953" lon="6.2103646"/>
<trkpt lat="51.8714303" lon="6.2095921"/>
<trkpt lat="51.8716980" lon="6.2093233"/>
<trkpt lat="51.8718400" lon="6.2091813"/>
<trkpt lat="51.8718500" lon="6.2091813"/>
<trkpt lat="51.8727930" lon="6.2082343"/>
<trkpt lat="51.8727810" lon="6.2081473"/>
<trkpt lat="51.8724380" lon="6.2073453"/>
<trkpt lat="51.8721640" lon="6.2065303"/>
<trkpt lat="51.8721680" lon="6.2065353"/>
<trkpt lat="51.8721670" lon="6.2065253"/>
<trkpt lat="51.8721750" lon="6.2065133"/>
<trkpt lat="51.8723035" lon="6.2064185"/>
<trkpt lat="51.8724331" lon="6.2063709"/>
<trkpt lat="51.8725426" lon="6.2060689"/>
<trkpt lat="51.8726513" lon="6.2059683"/>
<trkpt lat="51.8727478" lon="6.2061804"/>
<trkpt lat="51.8727827" lon="6.2063082"/>
</trkseg></trk>
<trk><name>Staickheimerpad - Geimporteerde shapefile</name><type>mainRoute</type><trkseg>
<trkpt lat="51.8737429" lon="6.2196983"/>
<trkpt lat="51.8737379" lon="6.2196533"/>
<trkpt lat="51.8737439" lon="6.2196333"/>
<trkpt lat="51.8735351" lon="6.2176960"/>
</trkseg></trk>
<trk><name>Staickheimerpad - Geimporteerde shapefile</name><type>mainRoute</type><trkseg>
<trkpt lat="51.8737439" lon="6.2197073"/>
<trkpt lat="51.8737429" lon="6.2196983"/>
</trkseg></trk>
<trk><name>Staickheimerpad - Geimporteerde shapefile</name><type>mainRoute</type><trkseg>
<trkpt lat="51.8753169" lon="6.2380423"/>
<trkpt lat="51.8753159" lon="6.2380873"/>
</trkseg></trk>
<trk><name>Staickheimerpad - Geimporteerde shapefile</name><type>mainRoute</type><trkseg>
<trkpt lat="51.8753716" lon="6.2324684"/>
<trkpt lat="51.8753706" lon="6.2324584"/>
</trkseg></trk>
<trk><name>Staickheimerpad - Geimporteerde shapefile</name><type>mainRoute</type><trkseg>
<trkpt lat="51.8772370" lon="6.2027254"/>
<trkpt lat="51.8772662" lon="6.2042978"/>
</trkseg></trk>
<trk><name>Staickheimerpad - Geimporteerde shapefile</name><type>mainRoute</type><trkseg>
<trkpt lat="51.8772662" lon="6.2042978"/>
<trkpt lat="51.8772669" lon="6.2042982"/>
<trkpt lat="51.8772649" lon="6.2042982"/>
<trkpt lat="51.8772662" lon="6.2042978"/>
</trkseg></trk>
<trk><name>Staickheimerpad - Geimporteerde shapefile</name><type>mainRoute</type><trkseg>
<trkpt lat="51.8772662" lon="6.2042978"/>
<trkpt lat="51.8772919" lon="6.2042892"/>
<trkpt lat="51.8773509" lon="6.2041732"/>
<trkpt lat="51.8773559" lon="6.2041712"/>
<trkpt lat="51.8773889" lon="6.2040912"/>
<trkpt lat="51.8775459" lon="6.2037722"/>
<trkpt lat="51.8775529" lon="6.2034022"/>
<trkpt lat="51.8775829" lon="6.2033302"/>
<trkpt lat="51.8777399" lon="6.2030312"/>
<trkpt lat="51.8777559" lon="6.2029222"/>
<trkpt lat="51.8778399" lon="6.2028172"/>
<trkpt lat="51.8778619" lon="6.2028012"/>
<trkpt lat="51.8779769" lon="6.2026092"/>
<trkpt lat="51.8782299" lon="6.2018912"/>
<trkpt lat="51.8782559" lon="6.2018662"/>
<trkpt lat="51.8782789" lon="6.2018582"/>
<trkpt lat="51.8783389" lon="6.2018512"/>
<trkpt lat="51.8783859" lon="6.2016912"/>
<trkpt lat="51.8783809" lon="6.2016152"/>
<trkpt lat="51.8778880" lon="6.2000282"/>
<trkpt lat="51.8779000" lon="6.1999712"/>
<trkpt lat="51.8779320" lon="6.1999122"/>
<trkpt lat="51.8780110" lon="6.1997590"/>
<trkpt lat="51.8780872" lon="6.1997966"/>
<trkpt lat="51.8781501" lon="6.1997912"/>
<trkpt lat="51.8781766" lon="6.1995820"/>
<trkpt lat="51.8782590" lon="6.1985842"/>
<trkpt lat="51.8782694" lon="6.1983911"/>
<trkpt lat="51.8782919" lon="6.1982336"/>
</trkseg></trk>
<trk><name>Staickheimerpad - Geimporteerde shapefile</name><type>mainRoute</type><trkseg>
<trkpt lat="51.8782919" lon="6.1982336"/>
<trkpt lat="51.8782920" lon="6.1982332"/>
<trkpt lat="51.8782920" lon="6.1982342"/>
<trkpt lat="51.8782919" lon="6.1982336"/>
</trkseg></trk>
<trk><name>Staickheimerpad - Geimporteerde shapefile</name><type>mainRoute</type><trkseg>
<trkpt lat="51.8782919" lon="6.1982336"/>
<trkpt lat="51.8782840" lon="6.1981092"/>
<trkpt lat="51.8783800" lon="6.1967102"/>
<trkpt lat="51.8783770" lon="6.1964972"/>
<trkpt lat="51.8784184" lon="6.1958484"/>
<trkpt lat="51.8784530" lon="6.1955923"/>
<trkpt lat="51.8785250" lon="6.1953243"/>
<trkpt lat="51.8785640" lon="6.1952763"/>
<trkpt lat="51.8785720" lon="6.1952842"/>
<trkpt lat="51.8786350" lon="6.1952522"/>
<trkpt lat="51.8787810" lon="6.1951182"/>
<trkpt lat="51.8788460" lon="6.1949812"/>
<trkpt lat="51.8790100" lon="6.1944622"/>
<trkpt lat="51.8790476" lon="6.1943624"/>
<trkpt lat="51.8790873" lon="6.1942444"/>
<trkpt lat="51.8791170" lon="6.1941402"/>
<trkpt lat="51.8792360" lon="6.1938032"/>
<trkpt lat="51.8792330" lon="6.1936221"/>
<trkpt lat="51.8791602" lon="6.1934398"/>
<trkpt lat="51.8791105" lon="6.1932467"/>
<trkpt lat="51.8791050" lon="6.1931323"/>
<trkpt lat="51.8790690" lon="6.1930023"/>
<trkpt lat="51.8791050" lon="6.1928853"/>
<trkpt lat="51.8791130" lon="6.1928773"/>
<trkpt lat="51.8791220" lon="6.1928823"/>
<trkpt lat="51.8793230" lon="6.1928363"/>
<trkpt lat="51.8793790" lon="6.1927553"/>
<trkpt lat="51.8793900" lon="6.1925163"/>
<trkpt lat="51.8791271" lon="6.1920988"/>
<trkpt lat="51.8790774" lon="6.1920076"/>
<trkpt lat="51.8789970" lon="6.1918973"/>
<trkpt lat="51.8789482" lon="6.1917876"/>
<trkpt lat="51.8788721" lon="6.1915891"/>
<trkpt lat="51.8788754" lon="6.1915409"/>
<trkpt lat="51.8788721" lon="6.1915087"/>
<trkpt lat="51.8788886" lon="6.1914443"/>
<trkpt lat="51.8789019" lon="6.1913799"/>
<trkpt lat="51.8789449" lon="6.1913692"/>
<trkpt lat="51.8790100" lon="6.1914013"/>
<trkpt lat="51.8790939" lon="6.1914979"/>
<trkpt lat="51.8791060" lon="6.1915423"/>
<trkpt lat="51.8791105" lon="6.1915355"/>
<trkpt lat="51.8791690" lon="6.1915953"/>
<trkpt lat="51.8791700" lon="6.1915933"/>
<trkpt lat="51.8792300" lon="6.1917343"/>
<trkpt lat="51.8792310" lon="6.1917333"/>
<trkpt lat="51.8793688" lon="6.1921309"/>
<trkpt lat="51.8795211" lon="6.1923615"/>
<trkpt lat="51.8796834" lon="6.1925654"/>
<trkpt lat="51.8796702" lon="6.1926297"/>
<trkpt lat="51.8797410" lon="6.1927142"/>
<trkpt lat="51.8798225" lon="6.1927907"/>
<trkpt lat="51.8798490" lon="6.1928014"/>
<trkpt lat="51.8799920" lon="6.1928362"/>
<trkpt lat="51.8800620" lon="6.1928762"/>
<trkpt lat="51.8800900" lon="6.1929362"/>
<trkpt lat="51.8800850" lon="6.1929552"/>
<trkpt lat="51.8801550" lon="6.1933602"/>
<trkpt lat="51.8803000" lon="6.1935522"/>
<trkpt lat="51.8803200" lon="6.1935602"/>
<trkpt lat="51.8803390" lon="6.1935852"/>
<trkpt lat="51.8803470" lon="6.1935872"/>
<trkpt lat="51.8803526" lon="6.1935976"/>
</trkseg></trk>
<trk><name>Staickheimerpad - Geimporteerde shapefile</name><type>mainRoute</type><trkseg>
<trkpt lat="51.8803526" lon="6.1935976"/>
<trkpt lat="51.8803530" lon="6.1935982"/>
<trkpt lat="51.8803520" lon="6.1935982"/>
<trkpt lat="51.8803526" lon="6.1935976"/>
</trkseg></trk>
<trk><name>Staickheimerpad - Geimporteerde shapefile</name><type>mainRoute</type><trkseg>
<trkpt lat="51.8803526" lon="6.1935976"/>
<trkpt lat="51.8804390" lon="6.1935162"/>
<trkpt lat="51.8805378" lon="6.1934505"/>
<trkpt lat="51.8805841" lon="6.1934183"/>
<trkpt lat="51.8809650" lon="6.1932792"/>
<trkpt lat="51.8810047" lon="6.1932359"/>
<trkpt lat="51.8810709" lon="6.1932520"/>
<trkpt lat="51.8812729" lon="6.1930857"/>
<trkpt lat="51.8813623" lon="6.1930267"/>
<trkpt lat="51.8814180" lon="6.1930082"/>
<trkpt lat="51.8814200" lon="6.1929972"/>
<trkpt lat="51.8815440" lon="6.1929092"/>
<trkpt lat="51.8816170" lon="6.1928182"/>
<trkpt lat="51.8817360" lon="6.1927652"/>
<trkpt lat="51.8818723" lon="6.1925171"/>
<trkpt lat="51.8819253" lon="6.1924044"/>
<trkpt lat="51.8819683" lon="6.1919806"/>
<trkpt lat="51.8820147" lon="6.1918894"/>
<trkpt lat="51.8820743" lon="6.1918465"/>
<trkpt lat="51.8821420" lon="6.1917812"/>
<trkpt lat="51.8822930" lon="6.1916932"/>
<trkpt lat="51.8823520" lon="6.1916002"/>
<trkpt lat="51.8825040" lon="6.1914592"/>
<trkpt lat="51.8825270" lon="6.1914482"/>
<trkpt lat="51.8825860" lon="6.1913572"/>
<trkpt lat="51.8828100" lon="6.1911612"/>
<trkpt lat="51.8831140" lon="6.1910152"/>
<trkpt lat="51.8832299" lon="6.1909346"/>
<trkpt lat="51.8835081" lon="6.1907844"/>
<trkpt lat="51.8835809" lon="6.1907468"/>
<trkpt lat="51.8837570" lon="6.1907132"/>
<trkpt lat="51.8837560" lon="6.1907122"/>
<trkpt lat="51.8837720" lon="6.1907002"/>
<trkpt lat="51.8837710" lon="6.1907002"/>
<trkpt lat="51.8839040" lon="6.1906792"/>
<trkpt lat="51.8840730" lon="6.1907002"/>
<trkpt lat="51.8841240" lon="6.1907222"/>
<trkpt lat="51.8841960" lon="6.1907332"/>
<trkpt lat="51.8843930" lon="6.1907062"/>
<trkpt lat="51.8844980" lon="6.1907202"/>
<trkpt lat="51.8846270" lon="6.1907042"/>
<trkpt lat="51.8848520" lon="6.1907942"/>
<trkpt lat="51.8848620" lon="6.1908082"/>
<trkpt lat="51.8849270" lon="6.1908032"/>
<trkpt lat="51.8849719" lon="6.1908162"/>
<trkpt lat="51.8850169" lon="6.1908552"/>
<trkpt lat="51.8851499" lon="6.1908542"/>
<trkpt lat="51.8854909" lon="6.1911902"/>
<trkpt lat="51.8854649" lon="6.1912403"/>
<trkpt lat="51.8853659" lon="6.1914822"/>
<trkpt lat="51.8852695" lon="6.1919163"/>
<trkpt lat="51.8852149" lon="6.1922232"/>
<trkpt lat="51.8852139" lon="6.1922222"/>
</trkseg></trk>
<trk><name>Staickheimerpad - Geimporteerde shapefile</name><type>mainRoute</type><trkseg>
<trkpt lat="51.8813738" lon="6.2173660"/>
<trkpt lat="51.8813739" lon="6.2173662"/>
<trkpt lat="51.8813729" lon="6.2173652"/>
<trkpt lat="51.8813738" lon="6.2173660"/>
</trkseg></trk>
<trk><name>Staickheimerpad - Geimporteerde shapefile</name><type>mainRoute</type><trkseg>
<trkpt lat="51.8813738" lon="6.2173660"/>
<trkpt lat="51.8814379" lon="6.2174212"/>
<trkpt lat="51.8815709" lon="6.2177932"/>
<trkpt lat="51.8815179" lon="6.2179412"/>
<trkpt lat="51.8813459" lon="6.2181882"/>
<trkpt lat="51.8812659" lon="6.2182682"/>
<trkpt lat="51.8810959" lon="6.2185172"/>
<trkpt lat="51.8809152" lon="6.2187115"/>
<trkpt lat="51.8806834" lon="6.2193016"/>
<trkpt lat="51.8808092" lon="6.2202565"/>
<trkpt lat="51.8807761" lon="6.2209646"/>
<trkpt lat="51.8808799" lon="6.2212142"/>
<trkpt lat="51.8810239" lon="6.2214392"/>
<trkpt lat="51.8813279" lon="6.2222312"/>
<trkpt lat="51.8818079" lon="6.2231062"/>
<trkpt lat="51.8823159" lon="6.2239512"/>
<trkpt lat="51.8825209" lon="6.2242132"/>
<trkpt lat="51.8827819" lon="6.2244012"/>
<trkpt lat="51.8832599" lon="6.2246372"/>
<trkpt lat="51.8839719" lon="6.2247682"/>
<trkpt lat="51.8849869" lon="6.2251551"/>
</trkseg></trk>
<trk><name>Staickheimerpad - Geimporteerde shapefile</name><type>mainRoute</type><trkseg>
<trkpt lat="51.8836570" lon="6.1991640"/>
<trkpt lat="51.8836569" lon="6.1991652"/>
<trkpt lat="51.8836569" lon="6.1991642"/>
<trkpt lat="51.8836569" lon="6.1991632"/>
<trkpt lat="51.8836569" lon="6.1991622"/>
<trkpt lat="51.8836570" lon="6.1991640"/>
</trkseg></trk>
<trk><name>Staickheimerpad - Geimporteerde shapefile</name><type>mainRoute</type><trkseg>
<trkpt lat="51.8836570" lon="6.1991640"/>
<trkpt lat="51.8836768" lon="6.1997537"/>
<trkpt lat="51.8837331" lon="6.1999843"/>
<trkpt lat="51.8837679" lon="6.2000762"/>
<trkpt lat="51.8838779" lon="6.2003022"/>
<trkpt lat="51.8838869" lon="6.2003752"/>
<trkpt lat="51.8840477" lon="6.2010358"/>
<trkpt lat="51.8841609" lon="6.2015122"/>
<trkpt lat="51.8842279" lon="6.2017802"/>
<trkpt lat="51.8842249" lon="6.2017992"/>
<trkpt lat="51.8843325" lon="6.2021999"/>
<trkpt lat="51.8843358" lon="6.2022642"/>
<trkpt lat="51.8843457" lon="6.2023125"/>
<trkpt lat="51.8843689" lon="6.2023983"/>
<trkpt lat="51.8843609" lon="6.2024282"/>
<trkpt lat="51.8843639" lon="6.2024332"/>
<trkpt lat="51.8844129" lon="6.2024052"/>
<trkpt lat="51.8844129" lon="6.2024072"/>
<trkpt lat="51.8845329" lon="6.2023872"/>
<trkpt lat="51.8846159" lon="6.2024312"/>
<trkpt lat="51.8846979" lon="6.2024012"/>
<trkpt lat="51.8848559" lon="6.2024012"/>
<trkpt lat="51.8848969" lon="6.2024192"/>
<trkpt lat="51.8850999" lon="6.2023712"/>
<trkpt lat="51.8851489" lon="6.2023762"/>
<trkpt lat="51.8852449" lon="6.2023752"/>
<trkpt lat="51.8852749" lon="6.2023912"/>
<trkpt lat="51.8853722" lon="6.2024734"/>
<trkpt lat="51.8856072" lon="6.2024198"/>
<trkpt lat="51.8857629" lon="6.2024734"/>
<trkpt lat="51.8857662" lon="6.2026075"/>
<trkpt lat="51.8857430" lon="6.2027095"/>
<trkpt lat="51.8857066" lon="6.2032298"/>
<trkpt lat="51.8856602" lon="6.2038628"/>
<trkpt lat="51.8856404" lon="6.2042061"/>
<trkpt lat="51.8856205" lon="6.2045870"/>
<trkpt lat="51.8856039" lon="6.2047158"/>
<trkpt lat="51.8855973" lon="6.2049572"/>
<trkpt lat="51.8855741" lon="6.2051396"/>
<trkpt lat="51.8855708" lon="6.2052039"/>
<trkpt lat="51.8855576" lon="6.2052790"/>
<trkpt lat="51.8855543" lon="6.2056009"/>
<trkpt lat="51.8854979" lon="6.2061552"/>
<trkpt lat="51.8853739" lon="6.2071472"/>
<trkpt lat="51.8853319" lon="6.2072442"/>
<trkpt lat="51.8853319" lon="6.2072432"/>
<trkpt lat="51.8852929" lon="6.2073192"/>
<trkpt lat="51.8852339" lon="6.2073782"/>
<trkpt lat="51.8849899" lon="6.2078392"/>
<trkpt lat="51.8850742" lon="6.2079773"/>
<trkpt lat="51.8850973" lon="6.2080578"/>
<trkpt lat="51.8852019" lon="6.2082562"/>
<trkpt lat="51.8852089" lon="6.2082582"/>
<trkpt lat="51.8852149" lon="6.2082512"/>
<trkpt lat="51.8852187" lon="6.2082537"/>
</trkseg></trk>
<trk><name>Staickheimerpad - Geimporteerde shapefile</name><type>mainRoute</type><trkseg>
<trkpt lat="51.8838229" lon="6.1973382"/>
<trkpt lat="51.8838239" lon="6.1973382"/>
<trkpt lat="51.8838229" lon="6.1973392"/>
<trkpt lat="51.8838229" lon="6.1973382"/>
</trkseg></trk>
<trk><name>Staickheimerpad - Geimporteerde shapefile</name><type>mainRoute</type><trkseg>
<trkpt lat="51.8838229" lon="6.1973382"/>
<trkpt lat="51.8838229" lon="6.1973352"/>
<trkpt lat="51.8837869" lon="6.1974062"/>
<trkpt lat="51.8837209" lon="6.1974512"/>
<trkpt lat="51.8837839" lon="6.1977852"/>
<trkpt lat="51.8838225" lon="6.1979995"/>
<trkpt lat="51.8838579" lon="6.1981022"/>
<trkpt lat="51.8838821" lon="6.1982463"/>
<trkpt lat="51.8838921" lon="6.1983106"/>
<trkpt lat="51.8839252" lon="6.1983697"/>
<trkpt lat="51.8839285" lon="6.1984501"/>
<trkpt lat="51.8838689" lon="6.1985199"/>
<trkpt lat="51.8838060" lon="6.1986057"/>
<trkpt lat="51.8837679" lon="6.1987162"/>
<trkpt lat="51.8837219" lon="6.1987812"/>
<trkpt lat="51.8836689" lon="6.1989332"/>
<trkpt lat="51.8836570" lon="6.1991640"/>
</trkseg></trk>
<trk><name>Staickheimerpad - Geimporteerde shapefile</name><type>mainRoute</type><trkseg>
<trkpt lat="51.8852139" lon="6.1922222"/>
<trkpt lat="51.8852139" lon="6.1922202"/>
<trkpt lat="51.8851179" lon="6.1925112"/>
<trkpt lat="51.8850742" lon="6.1926941"/>
<trkpt lat="51.8850576" lon="6.1927960"/>
<trkpt lat="51.8850046" lon="6.1929891"/>
<trkpt lat="51.8848829" lon="6.1933412"/>
<trkpt lat="51.8848629" lon="6.1935682"/>
<trkpt lat="51.8848639" lon="6.1935672"/>
<trkpt lat="51.8847639" lon="6.1939362"/>
<trkpt lat="51.8847639" lon="6.1939352"/>
<trkpt lat="51.8846849" lon="6.1941872"/>
<trkpt lat="51.8846849" lon="6.1941862"/>
<trkpt lat="51.8846849" lon="6.1941852"/>
<trkpt lat="51.8846439" lon="6.1944222"/>
<trkpt lat="51.8846439" lon="6.1944212"/>
<trkpt lat="51.8845278" lon="6.1948935"/>
<trkpt lat="51.8844318" lon="6.1953119"/>
<trkpt lat="51.8844053" lon="6.1953763"/>
<trkpt lat="51.8843854" lon="6.1954300"/>
<trkpt lat="51.8842699" lon="6.1957922"/>
<trkpt lat="51.8842699" lon="6.1957912"/>
<trkpt lat="51.8842079" lon="6.1959482"/>
<trkpt lat="51.8840909" lon="6.1964982"/>
<trkpt lat="51.8840909" lon="6.1964972"/>
<trkpt lat="51.8839629" lon="6.1969792"/>
<trkpt lat="51.8839249" lon="6.1970232"/>
<trkpt lat="51.8838699" lon="6.1972752"/>
<trkpt lat="51.8838299" lon="6.1973322"/>
<trkpt lat="51.8838279" lon="6.1973402"/>
<trkpt lat="51.8838239" lon="6.1973362"/>
<trkpt lat="51.8838229" lon="6.1973382"/>
</trkseg></trk>
<trk><name>Staickheimerpad - Geimporteerde shapefile</name><type>mainRoute</type><trkseg>
<trkpt lat="51.8852139" lon="6.1922222"/>
<trkpt lat="51.8852139" lon="6.1922232"/>
</trkseg></trk>
<trk><name>Staickheimerpad - Geimporteerde shapefile</name><type>mainRoute</type><trkseg>
<trkpt lat="51.8849869" lon="6.2251551"/>
<trkpt lat="51.8850109" lon="6.2251642"/>
<trkpt lat="51.8849869" lon="6.2251582"/>
<trkpt lat="51.8849869" lon="6.2251551"/>
</trkseg></trk>
<trk><name>Staickheimerpad - Geimporteerde shapefile</name><type>mainRoute</type><trkseg>
<trkpt lat="51.8849869" lon="6.2251551"/>
<trkpt lat="51.8849979" lon="6.2225972"/>
<trkpt lat="51.8850742" lon="6.2219516"/>
<trkpt lat="51.8851801" lon="6.2214367"/>
<trkpt lat="51.8873389" lon="6.2203209"/>
<trkpt lat="51.8879349" lon="6.2215010"/>
<trkpt lat="51.8888829" lon="6.2236602"/>
<trkpt lat="51.8908828" lon="6.2277082"/>
<trkpt lat="51.8922138" lon="6.2296112"/>
<trkpt lat="51.8908308" lon="6.2312952"/>
<trkpt lat="51.8904768" lon="6.2315792"/>
<trkpt lat="51.8885688" lon="6.2325742"/>
<trkpt lat="51.8869548" lon="6.2335592"/>
<trkpt lat="51.8869698" lon="6.2336392"/>
<trkpt lat="51.8870188" lon="6.2338972"/>
<trkpt lat="51.8871098" lon="6.2341522"/>
<trkpt lat="51.8871618" lon="6.2342012"/>
<trkpt lat="51.8872588" lon="6.2342622"/>
<trkpt lat="51.8873218" lon="6.2344212"/>
<trkpt lat="51.8874538" lon="6.2347482"/>
<trkpt lat="51.8874828" lon="6.2349062"/>
<trkpt lat="51.8874768" lon="6.2352102"/>
<trkpt lat="51.8875058" lon="6.2357082"/>
<trkpt lat="51.8872868" lon="6.2364332"/>
<trkpt lat="51.8840543" lon="6.2384955"/>
<trkpt lat="51.8834759" lon="6.2387852"/>
<trkpt lat="51.8829269" lon="6.2389372"/>
<trkpt lat="51.8818459" lon="6.2395202"/>
<trkpt lat="51.8813909" lon="6.2399522"/>
<trkpt lat="51.8806879" lon="6.2406452"/>
<trkpt lat="51.8806719" lon="6.2406612"/>
<trkpt lat="51.8806939" lon="6.2402482"/>
<trkpt lat="51.8807469" lon="6.2399562"/>
<trkpt lat="51.8808949" lon="6.2391362"/>
<trkpt lat="51.8809739" lon="6.2386642"/>
<trkpt lat="51.8810009" lon="6.2384762"/>
<trkpt lat="51.8809679" lon="6.2380962"/>
<trkpt lat="51.8808639" lon="6.2376882"/>
<trkpt lat="51.8808159" lon="6.2375482"/>
<trkpt lat="51.8807179" lon="6.2374412"/>
<trkpt lat="51.8805309" lon="6.2372282"/>
<trkpt lat="51.8805049" lon="6.2371982"/>
<trkpt lat="51.8804819" lon="6.2368612"/>
<trkpt lat="51.8804559" lon="6.2368822"/>
<trkpt lat="51.8804659" lon="6.2368732"/>
<trkpt lat="51.8804516" lon="6.2366716"/>
<trkpt lat="51.8805178" lon="6.2365214"/>
<trkpt lat="51.8806768" lon="6.2358562"/>
<trkpt lat="51.8807099" lon="6.2356422"/>
<trkpt lat="51.8770239" lon="6.2341423"/>
<trkpt lat="51.8763849" lon="6.2339037"/>
<trkpt lat="51.8755371" lon="6.2335818"/>
<trkpt lat="51.8755059" lon="6.2338903"/>
<trkpt lat="51.8754599" lon="6.2348043"/>
<trkpt lat="51.8754169" lon="6.2356413"/>
<trkpt lat="51.8754249" lon="6.2355083"/>
<trkpt lat="51.8756539" lon="6.2367583"/>
<trkpt lat="51.8756889" lon="6.2369483"/>
<trkpt lat="51.8759909" lon="6.2378923"/>
<trkpt lat="51.8759599" lon="6.2378983"/>
<trkpt lat="51.8753169" lon="6.2380423"/>
</trkseg></trk>
<trk><name>Staickheimerpad - Geimporteerde shapefile</name><type>mainRoute</type><trkseg>
<trkpt lat="51.8852182" lon="6.2082515"/>
<trkpt lat="51.8852169" lon="6.2082502"/>
<trkpt lat="51.8852179" lon="6.2082502"/>
<trkpt lat="51.8852182" lon="6.2082515"/>
</trkseg></trk>
<trk><name>Staickheimerpad - Geimporteerde shapefile</name><type>mainRoute</type><trkseg>
<trkpt lat="51.8852182" lon="6.2082515"/>
<trkpt lat="51.8852187" lon="6.2082537"/>
</trkseg></trk>
<trk><name>Staickheimerpad - Geimporteerde shapefile</name><type>mainRoute</type><trkseg>
<trkpt lat="51.8852187" lon="6.2082537"/>
<trkpt lat="51.8852209" lon="6.2082552"/>
<trkpt lat="51.8852189" lon="6.2082512"/>
<trkpt lat="51.8852189" lon="6.2082522"/>
<trkpt lat="51.8852182" lon="6.2082515"/>
</trkseg></trk>
<trk><name>Staickheimerpad - Geimporteerde shapefile</name><type>mainRoute</type><trkseg>
<trkpt lat="51.8852187" lon="6.2082537"/>
<trkpt lat="51.8852639" lon="6.2084582"/>
<trkpt lat="51.8853429" lon="6.2086042"/>
<trkpt lat="51.8854759" lon="6.2087512"/>
<trkpt lat="51.8855219" lon="6.2087922"/>
<trkpt lat="51.8859185" lon="6.2094579"/>
<trkpt lat="51.8859759" lon="6.2095822"/>
<trkpt lat="51.8861819" lon="6.2100372"/>
<trkpt lat="51.8861969" lon="6.2101252"/>
<trkpt lat="51.8861969" lon="6.2101242"/>
<trkpt lat="51.8862039" lon="6.2103172"/>
<trkpt lat="51.8859979" lon="6.2111852"/>
<trkpt lat="51.8855269" lon="6.2118162"/>
<trkpt lat="51.8854979" lon="6.2118892"/>
<trkpt lat="51.8852409" lon="6.2123242"/>
<trkpt lat="51.8848139" lon="6.2127872"/>
<trkpt lat="51.8846349" lon="6.2128632"/>
<trkpt lat="51.8845619" lon="6.2128552"/>
<trkpt lat="51.8844229" lon="6.2128052"/>
<trkpt lat="51.8843669" lon="6.2127972"/>
<trkpt lat="51.8842829" lon="6.2127362"/>
<trkpt lat="51.8841609" lon="6.2127022"/>
<trkpt lat="51.8832959" lon="6.2126562"/>
<trkpt lat="51.8830089" lon="6.2128512"/>
<trkpt lat="51.8828249" lon="6.2129072"/>
<trkpt lat="51.8827609" lon="6.2129092"/>
<trkpt lat="51.8826729" lon="6.2129382"/>
<trkpt lat="51.8819199" lon="6.2129082"/>
<trkpt lat="51.8816049" lon="6.2130322"/>
<trkpt lat="51.8814659" lon="6.2130612"/>
<trkpt lat="51.8812639" lon="6.2131682"/>
<trkpt lat="51.8804879" lon="6.2139322"/>
<trkpt lat="51.8804889" lon="6.2139422"/>
<trkpt lat="51.8802459" lon="6.2143162"/>
<trkpt lat="51.8801329" lon="6.2146992"/>
<trkpt lat="51.8800849" lon="6.2150332"/>
<trkpt lat="51.8801369" lon="6.2154692"/>
<trkpt lat="51.8802069" lon="6.2155662"/>
<trkpt lat="51.8803819" lon="6.2156522"/>
<trkpt lat="51.8804639" lon="6.2157692"/>
<trkpt lat="51.8804659" lon="6.2158082"/>
<trkpt lat="51.8805489" lon="6.2158582"/>
<trkpt lat="51.8806609" lon="6.2160232"/>
<trkpt lat="51.8806749" lon="6.2160652"/>
<trkpt lat="51.8806789" lon="6.2160672"/>
<trkpt lat="51.8806839" lon="6.2160922"/>
<trkpt lat="51.8807709" lon="6.2161772"/>
<trkpt lat="51.8808309" lon="6.2162762"/>
<trkpt lat="51.8810009" lon="6.2166682"/>
<trkpt lat="51.8810559" lon="6.2167222"/>
<trkpt lat="51.8813738" lon="6.2173660"/>
</trkseg></trk>
<trk><name>Staickheimerpad - Geimporteerde shapefile</name><type>shorteningRoute</type><trkseg>
<trkpt lat="51.8758004" lon="6.2233625"/>
<trkpt lat="51.8760632" lon="6.2235643"/>
<trkpt lat="51.8764414" lon="6.2235644"/>
<trkpt lat="51.8768286" lon="6.2226840"/>
<trkpt lat="51.8770073" lon="6.2224430"/>
<trkpt lat="51.8771642" lon="6.2222476"/>
<trkpt lat="51.8773798" lon="6.2220303"/>
<trkpt lat="51.8774944" lon="6.2217719"/>
<trkpt lat="51.8776093" lon="6.2218616"/>
<trkpt lat="51.8779545" lon="6.2214761"/>
<trkpt lat="51.8784125" lon="6.2212909"/>
<trkpt lat="51.8789454" lon="6.2211901"/>
<trkpt lat="51.8789684" lon="6.2213704"/>
<trkpt lat="51.8795852" lon="6.2213288"/>
<trkpt lat="51.8804624" lon="6.2211790"/>
<trkpt lat="51.8808513" lon="6.2211454"/>
</trkseg></trk>
<trk><name>Staickheimerpad - overstaproute</name><type>connectionRoute</type><trkseg>
<trkpt lat="51.8882528" lon="6.1628581"/>
<trkpt lat="51.8880951" lon="6.1636950"/>
<trkpt lat="51.8882443" lon="6.1657996"/>
<trkpt lat="51.8892326" lon="6.1691798"/>
<trkpt lat="51.8892296" lon="6.1696217"/>
<trkpt lat="51.8888806" lon="6.1702498"/>
<trkpt lat="51.8872907" lon="6.1732776"/>
<trkpt lat="51.8871349" lon="6.1734670"/>
<trkpt lat="51.8865765" lon="6.1751676"/>
<trkpt lat="51.8859219" lon="6.1781038"/>
<trkpt lat="51.8847167" lon="6.1793591"/>
<trkpt lat="51.8858292" lon="6.1809898"/>
<trkpt lat="51.8863889" lon="6.1816105"/>
<trkpt lat="51.8861869" lon="6.1821545"/>
<trkpt lat="51.8860406" lon="6.1822009"/>
<trkpt lat="51.8860203" lon="6.1826773"/>
<trkpt lat="51.8863325" lon="6.1838437"/>
<trkpt lat="51.8867798" lon="6.1855434"/>
<trkpt lat="51.8869351" lon="6.1865152"/>
<trkpt lat="51.8867836" lon="6.1867396"/>
<trkpt lat="51.8854042" lon="6.1902316"/>
<trkpt lat="51.8851736" lon="6.1908604"/>
</trkseg></trk>
<trk><name>Staickheimerpad - overstaproute</name><type>connectionRoute</type><trkseg>
<trkpt lat="51.8922806" lon="6.2294913"/>
<trkpt lat="51.8939490" lon="6.2276544"/>
<trkpt lat="51.8952027" lon="6.2259480"/>
<trkpt lat="51.8961088" lon="6.2249500"/>
<trkpt lat="51.8971702" lon="6.2241856"/>
<trkpt lat="51.8981719" lon="6.2237891"/>
<trkpt lat="51.9008464" lon="6.2229392"/>
<trkpt lat="51.9018912" lon="6.2224973"/>
<trkpt lat="51.9024929" lon="6.2221625"/>
<trkpt lat="51.9047106" lon="6.2193200"/>
<trkpt lat="51.9054031" lon="6.2182486"/>
<trkpt lat="51.9077087" lon="6.2150613"/>
<trkpt lat="51.9085894" lon="6.2176615"/>
<trkpt lat="51.9088728" lon="6.2179436"/>
<trkpt lat="51.9093433" lon="6.2179985"/>
<trkpt lat="51.9112743" lon="6.2173420"/>
<trkpt lat="51.9116970" lon="6.2201185"/>
<trkpt lat="51.9129273" lon="6.2196799"/>
<trkpt lat="51.9136952" lon="6.2200633"/>
<trkpt lat="51.9144997" lon="6.2192937"/>
<trkpt lat="51.9152042" lon="6.2185453"/>
<trkpt lat="51.9161833" lon="6.2193249"/>
<trkpt lat="51.9167599" lon="6.2185048"/>
<trkpt lat="51.9178117" lon="6.2170705"/>
<trkpt lat="51.9191310" lon="6.2161487"/>
<trkpt lat="51.9200038" lon="6.2158187"/>
</trkseg></trk>
<trk><name>Staickheimerpad - aanlooproute</name><type>approachRoute</type><trkseg>
<trkpt lat="51.8922138" lon="6.2296112"/>
<trkpt lat="51.8924403" lon="6.2299166"/>
<trkpt lat="51.8957106" lon="6.2407568"/>
</trkseg></trk>
<trk><name>Staickheimerpad - Geimporteerde shapefile</name><type>approachRoute</type><trkseg>
<trkpt lat="51.8738559" lon="6.2399253"/>
<trkpt lat="51.8739083" lon="6.2399683"/>
<trkpt lat="51.8739796" lon="6.2399811"/>
<trkpt lat="51.8740509" lon="6.2399802"/>
<trkpt lat="51.8740766" lon="6.2399807"/>
<trkpt lat="51.8741092" lon="6.2400067"/>
<trkpt lat="51.8741433" lon="6.2400281"/>
<trkpt lat="51.8742432" lon="6.2400276"/>
<trkpt lat="51.8744061" lon="6.2400050"/>
<trkpt lat="51.8745369" lon="6.2400123"/>
<trkpt lat="51.8746705" lon="6.2400340"/>
<trkpt lat="51.8747563" lon="6.2400837"/>
<trkpt lat="51.8748298" lon="6.2402051"/>
<trkpt lat="51.8757049" lon="6.2416866"/>
<trkpt lat="51.8757605" lon="6.2418126"/>
<trkpt lat="51.8758009" lon="6.2419815"/>
<trkpt lat="51.8758141" lon="6.2422026"/>
<trkpt lat="51.8758246" lon="6.2423998"/>
<trkpt lat="51.8759159" lon="6.2433333"/>
<trkpt lat="51.8759261" lon="6.2435592"/>
<trkpt lat="51.8759190" lon="6.2437224"/>
<trkpt lat="51.8758524" lon="6.2438892"/>
<trkpt lat="51.8757103" lon="6.2442179"/>
<trkpt lat="51.8756048" lon="6.2444128"/>
<trkpt lat="51.8757744" lon="6.2447974"/>
<trkpt lat="51.8761148" lon="6.2462160"/>
<trkpt lat="51.8761893" lon="6.2466017"/>
<trkpt lat="51.8763221" lon="6.2471422"/>
</trkseg></trk>
</gpx>