<?xml version="1.0" encoding="UTF-8"?>
<gpx version="1.1" creator="klompenpaden.nl via Jimbo API" xmlns="http://www.topografix.com/GPX/1/1">
<metadata><name>Stoetwegenpad</name><desc>Ontdek het mooie buitengebied van Driebergen, Zeist en Bunnik. Wandelen door een oud agrarisch gebied, prachtig aangelegde parkbossen, over historische landgoederen en het jaagpad van de Kromme Rijn. Geniet van de Stichtse Lustwarande, een lint van landgoederen en buitenplaatsen, met grote diversiteit aan cultuur en natuur. Klompen aan, rugzak op en gaan!</desc><link href="https://www.klompenpaden.nl/klompenpaden/Stoetwegenpad/9de6fb16-0eb7-4c2e-98d6-ba6db364145f"><text>klompenpaden.nl</text></link></metadata>
<wpt lat="52.06655430868503" lon="5.259854793548583"><name>Start Driebergen</name></wpt>
<trk><name>Stoetwegenpad - Geimporteerde shapefile</name><type>mainRoute</type><trkseg>
<trkpt lat="52.0665555" lon="5.2598179"/>
<trkpt lat="52.0667504" lon="5.2601706"/>
<trkpt lat="52.0668664" lon="5.2603131"/>
<trkpt lat="52.0669819" lon="5.2600572"/>
<trkpt lat="52.0670973" lon="5.2599016"/>
<trkpt lat="52.0671578" lon="5.2598688"/>
<trkpt lat="52.0672142" lon="5.2597908"/>
<trkpt lat="52.0672917" lon="5.2598730"/>
<trkpt lat="52.0677769" lon="5.2599334"/>
<trkpt lat="52.0677202" lon="5.2602731"/>
<trkpt lat="52.0677347" lon="5.2605123"/>
<trkpt lat="52.0679062" lon="5.2607896"/>
<trkpt lat="52.0681347" lon="5.2609897"/>
<trkpt lat="52.0685011" lon="5.2611198"/>
<trkpt lat="52.0694810" lon="5.2612560"/>
<trkpt lat="52.0696333" lon="5.2613405"/>
<trkpt lat="52.0701719" lon="5.2624349"/>
<trkpt lat="52.0703954" lon="5.2624034"/>
<trkpt lat="52.0705332" lon="5.2622409"/>
<trkpt lat="52.0706090" lon="5.2619860"/>
<trkpt lat="52.0706373" lon="5.2617698"/>
<trkpt lat="52.0705561" lon="5.2614228"/>
<trkpt lat="52.0704417" lon="5.2612070"/>
<trkpt lat="52.0702180" lon="5.2610455"/>
<trkpt lat="52.0694566" lon="5.2606541"/>
<trkpt lat="52.0693185" lon="5.2605233"/>
<trkpt lat="52.0692279" lon="5.2603229"/>
<trkpt lat="52.0691847" lon="5.2599062"/>
<trkpt lat="52.0691843" lon="5.2595667"/>
<trkpt lat="52.0692984" lon="5.2594892"/>
<trkpt lat="52.0694408" lon="5.2592804"/>
<trkpt lat="52.0698111" lon="5.2586387"/>
<trkpt lat="52.0701385" lon="5.2579355"/>
<trkpt lat="52.0699716" lon="5.2575038"/>
<trkpt lat="52.0697559" lon="5.2560303"/>
<trkpt lat="52.0705586" lon="5.2549860"/>
<trkpt lat="52.0704488" lon="5.2546545"/>
<trkpt lat="52.0713037" lon="5.2536023"/>
<trkpt lat="52.0709226" lon="5.2530786"/>
<trkpt lat="52.0703939" lon="5.2523547"/>
<trkpt lat="52.0690219" lon="5.2504758"/>
<trkpt lat="52.0684694" lon="5.2497674"/>
<trkpt lat="52.0661638" lon="5.2467185"/>
<trkpt lat="52.0684987" lon="5.2424820"/>
<trkpt lat="52.0695944" lon="5.2438985"/>
<trkpt lat="52.0752567" lon="5.2381994"/>
<trkpt lat="52.0753518" lon="5.2381991"/>
<trkpt lat="52.0754662" lon="5.2383994"/>
<trkpt lat="52.0755706" lon="5.2382138"/>
<trkpt lat="52.0744365" lon="5.2365041"/>
<trkpt lat="52.0743886" lon="5.2363036"/>
<trkpt lat="52.0745877" lon="5.2357471"/>
<trkpt lat="52.0745779" lon="5.2355619"/>
<trkpt lat="52.0733390" lon="5.2337292"/>
<trkpt lat="52.0728359" lon="5.2330488"/>
<trkpt lat="52.0727794" lon="5.2330297"/>
<trkpt lat="52.0727378" lon="5.2330781"/>
<trkpt lat="52.0723998" lon="5.2336822"/>
<trkpt lat="52.0716582" lon="5.2349486"/>
<trkpt lat="52.0712979" lon="5.2344240"/>
<trkpt lat="52.0711613" lon="5.2345885"/>
<trkpt lat="52.0707444" lon="5.2340062"/>
<trkpt lat="52.0706787" lon="5.2337942"/>
<trkpt lat="52.0707139" lon="5.2334179"/>
<trkpt lat="52.0710740" lon="5.2314678"/>
<trkpt lat="52.0706868" lon="5.2308952"/>
<trkpt lat="52.0708469" lon="5.2305521"/>
<trkpt lat="52.0707814" lon="5.2304559"/>
<trkpt lat="52.0705111" lon="5.2306015"/>
<trkpt lat="52.0702597" lon="5.2310049"/>
<trkpt lat="52.0700993" lon="5.2310923"/>
<trkpt lat="52.0698347" lon="5.2311077"/>
<trkpt lat="52.0694479" lon="5.2308486"/>
<trkpt lat="52.0691741" lon="5.2305746"/>
<trkpt lat="52.0689809" lon="5.2306235"/>
<trkpt lat="52.0682483" lon="5.2296228"/>
<trkpt lat="52.0674591" lon="5.2283885"/>
<trkpt lat="52.0670686" lon="5.2280040"/>
<trkpt lat="52.0661728" lon="5.2267570"/>
<trkpt lat="52.0652483" lon="5.2254793"/>
<trkpt lat="52.0651899" lon="5.2244918"/>
<trkpt lat="52.0655692" lon="5.2236415"/>
<trkpt lat="52.0642539" lon="5.2217634"/>
<trkpt lat="52.0639872" lon="5.2215175"/>
<trkpt lat="52.0639203" lon="5.2213325"/>
<trkpt lat="52.0605936" lon="5.2164991"/>
<trkpt lat="52.0598152" lon="5.2176132"/>
<trkpt lat="52.0592457" lon="5.2185104"/>
<trkpt lat="52.0585531" lon="5.2197784"/>
<trkpt lat="52.0580126" lon="5.2209686"/>
<trkpt lat="52.0576524" lon="5.2218495"/>
<trkpt lat="52.0571780" lon="5.2227154"/>
<trkpt lat="52.0570932" lon="5.2233021"/>
<trkpt lat="52.0569344" lon="5.2254631"/>
<trkpt lat="52.0570496" lon="5.2261725"/>
<trkpt lat="52.0571832" lon="5.2264960"/>
<trkpt lat="52.0572504" lon="5.2269279"/>
<trkpt lat="52.0573177" lon="5.2274832"/>
<trkpt lat="52.0574516" lon="5.2280536"/>
<trkpt lat="52.0576141" lon="5.2285932"/>
<trkpt lat="52.0577103" lon="5.2294415"/>
<trkpt lat="52.0580076" lon="5.2312614"/>
<trkpt lat="52.0581036" lon="5.2318938"/>
<trkpt lat="52.0580473" lon="5.2324958"/>
<trkpt lat="52.0579441" lon="5.2335763"/>
<trkpt lat="52.0580021" lon="5.2343014"/>
<trkpt lat="52.0581358" lon="5.2347176"/>
<trkpt lat="52.0581745" lon="5.2351650"/>
<trkpt lat="52.0581286" lon="5.2364614"/>
<trkpt lat="52.0581385" lon="5.2367854"/>
<trkpt lat="52.0579497" lon="5.2379743"/>
<trkpt lat="52.0577136" lon="5.2393330"/>
<trkpt lat="52.0576571" lon="5.2397807"/>
<trkpt lat="52.0575720" lon="5.2401976"/>
<trkpt lat="52.0574012" lon="5.2405223"/>
<trkpt lat="52.0570689" lon="5.2410171"/>
<trkpt lat="52.0568602" lon="5.2414653"/>
<trkpt lat="52.0566514" lon="5.2418363"/>
<trkpt lat="52.0562238" lon="5.2422698"/>
<trkpt lat="52.0559959" lon="5.2425174"/>
<trkpt lat="52.0560626" lon="5.2426561"/>
<trkpt lat="52.0566328" lon="5.2422222"/>
<trkpt lat="52.0569654" lon="5.2419433"/>
<trkpt lat="52.0573545" lon="5.2412014"/>
<trkpt lat="52.0577056" lon="5.2405058"/>
<trkpt lat="52.0578193" lon="5.2401351"/>
<trkpt lat="52.0580956" lon="5.2404583"/>
<trkpt lat="52.0582386" lon="5.2407356"/>
<trkpt lat="52.0582675" lon="5.2410441"/>
<trkpt lat="52.0582677" lon="5.2411675"/>
<trkpt lat="52.0587439" lon="5.2416752"/>
<trkpt lat="52.0589151" lon="5.2416747"/>
<trkpt lat="52.0601630" lon="5.2431058"/>
<trkpt lat="52.0601730" lon="5.2434607"/>
<trkpt lat="52.0602018" lon="5.2437076"/>
<trkpt lat="52.0608115" lon="5.2444927"/>
<trkpt lat="52.0617643" lon="5.2457860"/>
<trkpt lat="52.0604851" lon="5.2499259"/>
<trkpt lat="52.0604377" lon="5.2501421"/>
<trkpt lat="52.0610474" lon="5.2508964"/>
<trkpt lat="52.0619047" lon="5.2519432"/>
<trkpt lat="52.0621049" lon="5.2522821"/>
<trkpt lat="52.0622387" lon="5.2528373"/>
<trkpt lat="52.0626879" lon="5.2546879"/>
<trkpt lat="52.0628415" lon="5.2559993"/>
<trkpt lat="52.0628514" lon="5.2563079"/>
<trkpt lat="52.0630514" lon="5.2565388"/>
<trkpt lat="52.0646215" lon="5.2570744"/>
<trkpt lat="52.0646812" lon="5.2573428"/>
<trkpt lat="52.0645158" lon="5.2585910"/>
<trkpt lat="52.0645580" lon="5.2590569"/>
<trkpt lat="52.0649063" lon="5.2597850"/>
<trkpt lat="52.0651558" lon="5.2601417"/>
<trkpt lat="52.0653225" lon="5.2602762"/>
<trkpt lat="52.0654996" lon="5.2600914"/>
<trkpt lat="52.0656566" lon="5.2596701"/>
<trkpt lat="52.0658597" lon="5.2590081"/>
<trkpt lat="52.0659845" lon="5.2587296"/>
<trkpt lat="52.0663177" lon="5.2584280"/>
<trkpt lat="52.0664940" lon="5.2586981"/>
<trkpt lat="52.0667334" lon="5.2591198"/>
<trkpt lat="52.0668373" lon="5.2591330"/>
<trkpt lat="52.0669997" lon="5.2593430"/>
<trkpt lat="52.0670602" lon="5.2595909"/>
<trkpt lat="52.0672142" lon="5.2597908"/>
</trkseg></trk>
<trk><name>Stoetwegenpad - Geimporteerde shapefile</name><type>connectionRoute</type><trkseg>
<trkpt lat="52.0648821" lon="5.2597345"/>
<trkpt lat="52.0647898" lon="5.2598301"/>
<trkpt lat="52.0647832" lon="5.2600820"/>
<trkpt lat="52.0647469" lon="5.2603875"/>
<trkpt lat="52.0647140" lon="5.2609288"/>
<trkpt lat="52.0647436" lon="5.2612879"/>
<trkpt lat="52.0647140" lon="5.2614701"/>
<trkpt lat="52.0648650" lon="5.2618588"/>
<trkpt lat="52.0649756" lon="5.2623226"/>
<trkpt lat="52.0649006" lon="5.2629542"/>
<trkpt lat="52.0647347" lon="5.2639496"/>
<trkpt lat="52.0647212" lon="5.2643295"/>
<trkpt lat="52.0647640" lon="5.2647050"/>
<trkpt lat="52.0648461" lon="5.2651876"/>
<trkpt lat="52.0648832" lon="5.2655303"/>
<trkpt lat="52.0649113" lon="5.2658471"/>
<trkpt lat="52.0649021" lon="5.2661466"/>
<trkpt lat="52.0648539" lon="5.2665079"/>
<trkpt lat="52.0648272" lon="5.2667227"/>
<trkpt lat="52.0648280" lon="5.2668987"/>
<trkpt lat="52.0648079" lon="5.2670907"/>
<trkpt lat="52.0647469" lon="5.2673520"/>
<trkpt lat="52.0646726" lon="5.2676674"/>
<trkpt lat="52.0646205" lon="5.2680159"/>
<trkpt lat="52.0645998" lon="5.2683122"/>
<trkpt lat="52.0645961" lon="5.2685883"/>
<trkpt lat="52.0646441" lon="5.2689059"/>
<trkpt lat="52.0647245" lon="5.2692736"/>
<trkpt lat="52.0647709" lon="5.2694963"/>
<trkpt lat="52.0648032" lon="5.2697739"/>
<trkpt lat="52.0648092" lon="5.2700569"/>
<trkpt lat="52.0648040" lon="5.2704303"/>
<trkpt lat="52.0647884" lon="5.2706896"/>
<trkpt lat="52.0647495" lon="5.2710159"/>
<trkpt lat="52.0647167" lon="5.2713737"/>
<trkpt lat="52.0646642" lon="5.2716147"/>
<trkpt lat="52.0646152" lon="5.2718722"/>
<trkpt lat="52.0646426" lon="5.2720555"/>
<trkpt lat="52.0646935" lon="5.2722865"/>
<trkpt lat="52.0647710" lon="5.2724501"/>
<trkpt lat="52.0648593" lon="5.2725184"/>
<trkpt lat="52.0649416" lon="5.2725802"/>
<trkpt lat="52.0649986" lon="5.2726185"/>
<trkpt lat="52.0650302" lon="5.2727106"/>
<trkpt lat="52.0650341" lon="5.2728901"/>
<trkpt lat="52.0650370" lon="5.2730256"/>
<trkpt lat="52.0645771" lon="5.2739323"/>
<trkpt lat="52.0642234" lon="5.2745495"/>
<trkpt lat="52.0642368" lon="5.2746483"/>
<trkpt lat="52.0637960" lon="5.2754756"/>
<trkpt lat="52.0637663" lon="5.2754870"/>
<trkpt lat="52.0636515" lon="5.2753473"/>
<trkpt lat="52.0635585" lon="5.2754135"/>
<trkpt lat="52.0634986" lon="5.2755120"/>
<trkpt lat="52.0634521" lon="5.2756658"/>
<trkpt lat="52.0632961" lon="5.2756816"/>
<trkpt lat="52.0629654" lon="5.2760312"/>
<trkpt lat="52.0624105" lon="5.2766715"/>
<trkpt lat="52.0617073" lon="5.2774788"/>
<trkpt lat="52.0605043" lon="5.2788491"/>
<trkpt lat="52.0604001" lon="5.2789396"/>
<trkpt lat="52.0602145" lon="5.2785157"/>
<trkpt lat="52.0601251" lon="5.2782892"/>
<trkpt lat="52.0598155" lon="5.2777884"/>
<trkpt lat="52.0596579" lon="5.2775769"/>
<trkpt lat="52.0595595" lon="5.2774515"/>
<trkpt lat="52.0594613" lon="5.2773119"/>
<trkpt lat="52.0592768" lon="5.2771291"/>
<trkpt lat="52.0591518" lon="5.2768979"/>
<trkpt lat="52.0590922" lon="5.2767341"/>
<trkpt lat="52.0590083" lon="5.2768006"/>
<trkpt lat="52.0588630" lon="5.2768895"/>
<trkpt lat="52.0587335" lon="5.2770786"/>
<trkpt lat="52.0586860" lon="5.2771480"/>
<trkpt lat="52.0585906" lon="5.2771630"/>
<trkpt lat="52.0584679" lon="5.2771486"/>
<trkpt lat="52.0583178" lon="5.2772468"/>
<trkpt lat="52.0581754" lon="5.2773314"/>
<trkpt lat="52.0580854" lon="5.2773036"/>
<trkpt lat="52.0580014" lon="5.2772367"/>
<trkpt lat="52.0579153" lon="5.2772423"/>
<trkpt lat="52.0577570" lon="5.2773013"/>
<trkpt lat="52.0576810" lon="5.2773296"/>
<trkpt lat="52.0576400" lon="5.2776999"/>
<trkpt lat="52.0576077" lon="5.2780317"/>
<trkpt lat="52.0575088" lon="5.2782517"/>
<trkpt lat="52.0572836" lon="5.2786757"/>
<trkpt lat="52.0567449" lon="5.2779502"/>
<trkpt lat="52.0560811" lon="5.2769971"/>
<trkpt lat="52.0557205" lon="5.2764378"/>
<trkpt lat="52.0555342" lon="5.2767091"/>
<trkpt lat="52.0555445" lon="5.2768171"/>
</trkseg></trk>
<trk><name>Stoetwegenpad - approachRoute</name><type>approachRoute</type><trkseg>
<trkpt lat="52.0682800" lon="5.2033800"/>
<trkpt lat="52.0686500" lon="5.2033500"/>
<trkpt lat="52.0688500" lon="5.2034700"/>
<trkpt lat="52.0688000" lon="5.2043000"/>
<trkpt lat="52.0684400" lon="5.2056900"/>
<trkpt lat="52.0675000" lon="5.2084400"/>
<trkpt lat="52.0673900" lon="5.2092700"/>
<trkpt lat="52.0671400" lon="5.2099300"/>
<trkpt lat="52.0667300" lon="5.2109600"/>
<trkpt lat="52.0663900" lon="5.2116200"/>
<trkpt lat="52.0648400" lon="5.2133800"/>
<trkpt lat="52.0643500" lon="5.2136700"/>
<trkpt lat="52.0641200" lon="5.2137900"/>
<trkpt lat="52.0638200" lon="5.2137000"/>
<trkpt lat="52.0634600" lon="5.2138400"/>
<trkpt lat="52.0630100" lon="5.2139800"/>
<trkpt lat="52.0623800" lon="5.2144600"/>
<trkpt lat="52.0617500" lon="5.2150800"/>
<trkpt lat="52.0612900" lon="5.2153400"/>
<trkpt lat="52.0602800" lon="5.2169300"/>
</trkseg></trk>
<trk><name>Stoetwegenpad - approachRoute</name><type>approachRoute</type><trkseg>
<trkpt lat="52.0779000" lon="5.2380300"/>
<trkpt lat="52.0768100" lon="5.2400000"/>
<trkpt lat="52.0755300" lon="5.2382100"/>
</trkseg></trk>
</gpx>