<?xml version="1.0" encoding="UTF-8"?>
<gpx version="1.1" creator="klompenpaden.nl via Jimbo API" xmlns="http://www.topografix.com/GPX/1/1">
<metadata><name>Stoutenburgerpad</name><desc>Ontdek het mooie buitengebied van Amersfoort en Leusden. Wandelen door nieuwe natuurgebieden, over weilanden, landgoed Stoutenburg en langs de Barneveldse Beek. Geniet van het afwisselende landschap, de rust en de combinatie van cultuur en natuur. Klompen aan, rugzak op en gaan!</desc><link href="https://www.klompenpaden.nl/klompenpaden/Stoutenburgerpad/ce174c0e-961d-42d3-8983-604bd95e1731"><text>klompenpaden.nl</text></link></metadata>
<wpt lat="52.15255590234335" lon="5.450162887573242"><name>Start Stoutenburg</name></wpt>
<trk><name>Stoutenburgerpad - Stoutenburgerpad hoofdroute</name><type>mainRoute</type><trkseg>
<trkpt lat="52.1589647" lon="5.4254095"/>
<trkpt lat="52.1589392" lon="5.4252993"/>
<trkpt lat="52.1588418" lon="5.4251677"/>
<trkpt lat="52.1586609" lon="5.4249698"/>
<trkpt lat="52.1586189" lon="5.4248840"/>
<trkpt lat="52.1585946" lon="5.4247963"/>
<trkpt lat="52.1585812" lon="5.4246429"/>
<trkpt lat="52.1585923" lon="5.4244870"/>
<trkpt lat="52.1585965" lon="5.4242986"/>
<trkpt lat="52.1585853" lon="5.4241506"/>
<trkpt lat="52.1585593" lon="5.4240373"/>
<trkpt lat="52.1585283" lon="5.4239224"/>
<trkpt lat="52.1584213" lon="5.4236826"/>
<trkpt lat="52.1575990" lon="5.4221702"/>
<trkpt lat="52.1574110" lon="5.4224677"/>
<trkpt lat="52.1572469" lon="5.4228001"/>
<trkpt lat="52.1571991" lon="5.4229178"/>
<trkpt lat="52.1571588" lon="5.4230514"/>
<trkpt lat="52.1571373" lon="5.4232369"/>
<trkpt lat="52.1570475" lon="5.4230705"/>
<trkpt lat="52.1569115" lon="5.4230009"/>
<trkpt lat="52.1564694" lon="5.4223471"/>
<trkpt lat="52.1563600" lon="5.4221962"/>
<trkpt lat="52.1562126" lon="5.4221111"/>
<trkpt lat="52.1560866" lon="5.4220568"/>
<trkpt lat="52.1559534" lon="5.4219755"/>
<trkpt lat="52.1558940" lon="5.4218982"/>
<trkpt lat="52.1558251" lon="5.4217241"/>
<trkpt lat="52.1557435" lon="5.4214935"/>
<trkpt lat="52.1556466" lon="5.4212473"/>
<trkpt lat="52.1556223" lon="5.4211796"/>
<trkpt lat="52.1555683" lon="5.4208216"/>
<trkpt lat="52.1555327" lon="5.4205171"/>
<trkpt lat="52.1554902" lon="5.4202470"/>
<trkpt lat="52.1554094" lon="5.4200342"/>
<trkpt lat="52.1553691" lon="5.4198061"/>
<trkpt lat="52.1553501" lon="5.4196360"/>
<trkpt lat="52.1553454" lon="5.4195045"/>
<trkpt lat="52.1553407" lon="5.4193151"/>
<trkpt lat="52.1549414" lon="5.4184024"/>
<trkpt lat="52.1548962" lon="5.4182399"/>
<trkpt lat="52.1548209" lon="5.4180668"/>
<trkpt lat="52.1547353" lon="5.4179449"/>
<trkpt lat="52.1546426" lon="5.4179217"/>
<trkpt lat="52.1545658" lon="5.4179575"/>
<trkpt lat="52.1544777" lon="5.4181082"/>
<trkpt lat="52.1544183" lon="5.4181700"/>
<trkpt lat="52.1543500" lon="5.4182172"/>
<trkpt lat="52.1542287" lon="5.4182867"/>
<trkpt lat="52.1541074" lon="5.4184084"/>
<trkpt lat="52.1540860" lon="5.4185360"/>
<trkpt lat="52.1541002" lon="5.4186578"/>
<trkpt lat="52.1541929" lon="5.4188376"/>
<trkpt lat="52.1542214" lon="5.4189130"/>
<trkpt lat="52.1522151" lon="5.4221956"/>
<trkpt lat="52.1510361" lon="5.4202617"/>
<trkpt lat="52.1502564" lon="5.4192096"/>
<trkpt lat="52.1501771" lon="5.4191225"/>
<trkpt lat="52.1500608" lon="5.4191421"/>
<trkpt lat="52.1498886" lon="5.4191528"/>
<trkpt lat="52.1496841" lon="5.4192532"/>
<trkpt lat="52.1495271" lon="5.4194000"/>
<trkpt lat="52.1492674" lon="5.4198975"/>
<trkpt lat="52.1490668" lon="5.4197096"/>
<trkpt lat="52.1489524" lon="5.4202893"/>
<trkpt lat="52.1487883" lon="5.4212075"/>
<trkpt lat="52.1486576" lon="5.4216825"/>
<trkpt lat="52.1486475" lon="5.4235689"/>
<trkpt lat="52.1487128" lon="5.4251200"/>
<trkpt lat="52.1486889" lon="5.4254084"/>
<trkpt lat="52.1486282" lon="5.4257099"/>
<trkpt lat="52.1484926" lon="5.4259258"/>
<trkpt lat="52.1483543" lon="5.4261509"/>
<trkpt lat="52.1486547" lon="5.4304035"/>
<trkpt lat="52.1490151" lon="5.4332490"/>
<trkpt lat="52.1490339" lon="5.4338675"/>
<trkpt lat="52.1489477" lon="5.4353209"/>
<trkpt lat="52.1489570" lon="5.4358158"/>
<trkpt lat="52.1493462" lon="5.4377645"/>
<trkpt lat="52.1494411" lon="5.4383368"/>
<trkpt lat="52.1495074" lon="5.4389863"/>
<trkpt lat="52.1496975" lon="5.4392803"/>
<trkpt lat="52.1501160" lon="5.4392653"/>
<trkpt lat="52.1506963" lon="5.4392969"/>
<trkpt lat="52.1500101" lon="5.4421723"/>
<trkpt lat="52.1521084" lon="5.4492994"/>
<trkpt lat="52.1523081" lon="5.4491037"/>
<trkpt lat="52.1525190" lon="5.4492826"/>
<trkpt lat="52.1524923" lon="5.4494132"/>
<trkpt lat="52.1524960" lon="5.4495424"/>
<trkpt lat="52.1525416" lon="5.4496878"/>
<trkpt lat="52.1526462" lon="5.4497374"/>
<trkpt lat="52.1526004" lon="5.4499322"/>
<trkpt lat="52.1525984" lon="5.4501302"/>
<trkpt lat="52.1526440" lon="5.4502075"/>
<trkpt lat="52.1527049" lon="5.4502293"/>
<trkpt lat="52.1527809" lon="5.4501793"/>
<trkpt lat="52.1528172" lon="5.4501150"/>
<trkpt lat="52.1528228" lon="5.4503247"/>
<trkpt lat="52.1537463" lon="5.4511680"/>
<trkpt lat="52.1529818" lon="5.4514525"/>
<trkpt lat="52.1523251" lon="5.4516685"/>
<trkpt lat="52.1519973" lon="5.4515516"/>
<trkpt lat="52.1517462" lon="5.4512981"/>
<trkpt lat="52.1516859" lon="5.4512380"/>
<trkpt lat="52.1513387" lon="5.4508789"/>
<trkpt lat="52.1512621" lon="5.4510433"/>
<trkpt lat="52.1507992" lon="5.4505834"/>
<trkpt lat="52.1508481" lon="5.4503612"/>
<trkpt lat="52.1503526" lon="5.4498154"/>
<trkpt lat="52.1502844" lon="5.4498779"/>
<trkpt lat="52.1499027" lon="5.4502042"/>
<trkpt lat="52.1495401" lon="5.4521520"/>
<trkpt lat="52.1495733" lon="5.4524381"/>
<trkpt lat="52.1494634" lon="5.4532498"/>
<trkpt lat="52.1477785" lon="5.4524482"/>
<trkpt lat="52.1478731" lon="5.4533452"/>
<trkpt lat="52.1481957" lon="5.4548146"/>
<trkpt lat="52.1484236" lon="5.4554953"/>
<trkpt lat="52.1487366" lon="5.4569648"/>
<trkpt lat="52.1490022" lon="5.4582486"/>
<trkpt lat="52.1495909" lon="5.4600587"/>
<trkpt lat="52.1500751" lon="5.4615440"/>
<trkpt lat="52.1505035" lon="5.4608798"/>
<trkpt lat="52.1506177" lon="5.4608336"/>
<trkpt lat="52.1510266" lon="5.4610971"/>
<trkpt lat="52.1514354" lon="5.4613761"/>
<trkpt lat="52.1515614" lon="5.4613995"/>
<trkpt lat="52.1516542" lon="5.4613224"/>
<trkpt lat="52.1518209" lon="5.4609825"/>
<trkpt lat="52.1520613" lon="5.4605808"/>
<trkpt lat="52.1521565" lon="5.4604843"/>
<trkpt lat="52.1523231" lon="5.4603686"/>
<trkpt lat="52.1524492" lon="5.4602567"/>
<trkpt lat="52.1525254" lon="5.4600828"/>
<trkpt lat="52.1525920" lon="5.4599747"/>
<trkpt lat="52.1526824" lon="5.4599748"/>
<trkpt lat="52.1528393" lon="5.4600795"/>
<trkpt lat="52.1529772" lon="5.4600952"/>
<trkpt lat="52.1530012" lon="5.4596699"/>
<trkpt lat="52.1530609" lon="5.4593105"/>
<trkpt lat="52.1533229" lon="5.4586150"/>
<trkpt lat="52.1535373" lon="5.4581050"/>
<trkpt lat="52.1539445" lon="5.4571740"/>
<trkpt lat="52.1542850" lon="5.4563626"/>
<trkpt lat="52.1545898" lon="5.4557251"/>
<trkpt lat="52.1546611" lon="5.4556750"/>
<trkpt lat="52.1547206" lon="5.4556673"/>
<trkpt lat="52.1546945" lon="5.4555011"/>
<trkpt lat="52.1548184" lon="5.4552306"/>
<trkpt lat="52.1549112" lon="5.4550413"/>
<trkpt lat="52.1551060" lon="5.4546336"/>
<trkpt lat="52.1552596" lon="5.4544019"/>
<trkpt lat="52.1554199" lon="5.4543205"/>
<trkpt lat="52.1556663" lon="5.4542459"/>
<trkpt lat="52.1559267" lon="5.4541535"/>
<trkpt lat="52.1561266" lon="5.4539508"/>
<trkpt lat="52.1563123" lon="5.4536843"/>
<trkpt lat="52.1563801" lon="5.4535858"/>
<trkpt lat="52.1563089" lon="5.4532436"/>
<trkpt lat="52.1567962" lon="5.4522526"/>
<trkpt lat="52.1571081" lon="5.4515919"/>
<trkpt lat="52.1574820" lon="5.4505872"/>
<trkpt lat="52.1576252" lon="5.4496595"/>
<trkpt lat="52.1577944" lon="5.4490333"/>
<trkpt lat="52.1580918" lon="5.4486200"/>
<trkpt lat="52.1585868" lon="5.4480253"/>
<trkpt lat="52.1589898" lon="5.4475212"/>
<trkpt lat="52.1594824" lon="5.4468491"/>
<trkpt lat="52.1596645" lon="5.4465825"/>
<trkpt lat="52.1597930" lon="5.4463159"/>
<trkpt lat="52.1598110" lon="5.4460317"/>
<trkpt lat="52.1598084" lon="5.4452272"/>
<trkpt lat="52.1600546" lon="5.4452159"/>
<trkpt lat="52.1600725" lon="5.4450477"/>
<trkpt lat="52.1601451" lon="5.4448110"/>
<trkpt lat="52.1602832" lon="5.4445792"/>
<trkpt lat="52.1604783" lon="5.4443629"/>
<trkpt lat="52.1606972" lon="5.4441002"/>
<trkpt lat="52.1609637" lon="5.4437216"/>
<trkpt lat="52.1615540" lon="5.4427093"/>
<trkpt lat="52.1616968" lon="5.4422918"/>
<trkpt lat="52.1616309" lon="5.4409461"/>
<trkpt lat="52.1618684" lon="5.4415341"/>
<trkpt lat="52.1623437" lon="5.4421689"/>
<trkpt lat="52.1625006" lon="5.4424166"/>
<trkpt lat="52.1626212" lon="5.4422443"/>
<trkpt lat="52.1626771" lon="5.4422231"/>
<trkpt lat="52.1627437" lon="5.4422329"/>
<trkpt lat="52.1628138" lon="5.4422426"/>
<trkpt lat="52.1628838" lon="5.4399961"/>
<trkpt lat="52.1629126" lon="5.4395089"/>
<trkpt lat="52.1630269" lon="5.4390566"/>
<trkpt lat="52.1631840" lon="5.4387319"/>
<trkpt lat="52.1634624" lon="5.4383726"/>
<trkpt lat="52.1640833" lon="5.4379209"/>
<trkpt lat="52.1643972" lon="5.4377704"/>
<trkpt lat="52.1655133" lon="5.4371026"/>
<trkpt lat="52.1653532" lon="5.4365038"/>
<trkpt lat="52.1651462" lon="5.4361503"/>
<trkpt lat="52.1649759" lon="5.4357873"/>
<trkpt lat="52.1648763" lon="5.4353231"/>
<trkpt lat="52.1648051" lon="5.4349054"/>
<trkpt lat="52.1645007" lon="5.4349022"/>
<trkpt lat="52.1642659" lon="5.4349164"/>
<trkpt lat="52.1640875" lon="5.4350226"/>
<trkpt lat="52.1639625" lon="5.4352013"/>
<trkpt lat="52.1638138" lon="5.4354283"/>
<trkpt lat="52.1636057" lon="5.4356069"/>
<trkpt lat="52.1634213" lon="5.4357227"/>
<trkpt lat="52.1632102" lon="5.4358143"/>
<trkpt lat="52.1630973" lon="5.4358142"/>
<trkpt lat="52.1630289" lon="5.4357465"/>
<trkpt lat="52.1629874" lon="5.4355676"/>
<trkpt lat="52.1629488" lon="5.4353500"/>
<trkpt lat="52.1628508" lon="5.4351324"/>
<trkpt lat="52.1627349" lon="5.4350163"/>
<trkpt lat="52.1625537" lon="5.4349242"/>
<trkpt lat="52.1623902" lon="5.4348467"/>
<trkpt lat="52.1621762" lon="5.4347063"/>
<trkpt lat="52.1620039" lon="5.4345998"/>
<trkpt lat="52.1618285" lon="5.4345658"/>
<trkpt lat="52.1616739" lon="5.4346381"/>
<trkpt lat="52.1614895" lon="5.4348844"/>
<trkpt lat="52.1613022" lon="5.4350292"/>
<trkpt lat="52.1611654" lon="5.4350339"/>
<trkpt lat="52.1610346" lon="5.4349903"/>
<trkpt lat="52.1609307" lon="5.4348597"/>
<trkpt lat="52.1607910" lon="5.4347097"/>
<trkpt lat="52.1604998" lon="5.4345015"/>
<trkpt lat="52.1601372" lon="5.4341821"/>
<trkpt lat="52.1599174" lon="5.4339257"/>
<trkpt lat="52.1595668" lon="5.4334034"/>
<trkpt lat="52.1593590" lon="5.4328473"/>
<trkpt lat="52.1591394" lon="5.4318660"/>
<trkpt lat="52.1588783" lon="5.4303481"/>
<trkpt lat="52.1587422" lon="5.4288400"/>
<trkpt lat="52.1586357" lon="5.4273077"/>
<trkpt lat="52.1585942" lon="5.4269791"/>
<trkpt lat="52.1585437" lon="5.4267905"/>
<trkpt lat="52.1584902" lon="5.4267083"/>
<trkpt lat="52.1584903" lon="5.4265633"/>
<trkpt lat="52.1585438" lon="5.4264474"/>
<trkpt lat="52.1587312" lon="5.4261285"/>
<trkpt lat="52.1590075" lon="5.4256541"/>
<trkpt lat="52.1589647" lon="5.4254095"/>
</trkseg></trk>
<trk><name>Stoutenburgerpad - Geimporteerde shapefile</name><type>connectionRoute</type><trkseg>
<trkpt lat="52.1486476" lon="5.4234713"/>
<trkpt lat="52.1484715" lon="5.4235101"/>
<trkpt lat="52.1479764" lon="5.4234990"/>
<trkpt lat="52.1472812" lon="5.4235587"/>
<trkpt lat="52.1472915" lon="5.4237284"/>
<trkpt lat="52.1471712" lon="5.4240117"/>
<trkpt lat="52.1471604" lon="5.4254317"/>
<trkpt lat="52.1470634" lon="5.4268037"/>
<trkpt lat="52.1468740" lon="5.4292343"/>
<trkpt lat="52.1466920" lon="5.4300948"/>
<trkpt lat="52.1463934" lon="5.4308534"/>
<trkpt lat="52.1460942" lon="5.4313188"/>
<trkpt lat="52.1451244" lon="5.4327493"/>
<trkpt lat="52.1443814" lon="5.4336959"/>
<trkpt lat="52.1435867" lon="5.4347201"/>
<trkpt lat="52.1430851" lon="5.4354109"/>
<trkpt lat="52.1428731" lon="5.4358443"/>
<trkpt lat="52.1427123" lon="5.4363105"/>
<trkpt lat="52.1425699" lon="5.4369115"/>
<trkpt lat="52.1425231" lon="5.4375528"/>
<trkpt lat="52.1424803" lon="5.4389799"/>
<trkpt lat="52.1424373" lon="5.4398653"/>
<trkpt lat="52.1423500" lon="5.4404585"/>
<trkpt lat="52.1421646" lon="5.4413359"/>
<trkpt lat="52.1419056" lon="5.4411868"/>
<trkpt lat="52.1416739" lon="5.4410995"/>
<trkpt lat="52.1415519" lon="5.4411020"/>
<trkpt lat="52.1415024" lon="5.4413074"/>
<trkpt lat="52.1413255" lon="5.4415808"/>
<trkpt lat="52.1411482" lon="5.4418270"/>
<trkpt lat="52.1408589" lon="5.4421408"/>
<trkpt lat="52.1408084" lon="5.4422685"/>
<trkpt lat="52.1407614" lon="5.4422936"/>
<trkpt lat="52.1406012" lon="5.4424973"/>
<trkpt lat="52.1405653" lon="5.4425882"/>
<trkpt lat="52.1402106" lon="5.4431155"/>
<trkpt lat="52.1401239" lon="5.4431552"/>
<trkpt lat="52.1399111" lon="5.4434507"/>
<trkpt lat="52.1397775" lon="5.4439248"/>
<trkpt lat="52.1397282" lon="5.4443280"/>
<trkpt lat="52.1395579" lon="5.4450212"/>
<trkpt lat="52.1393138" lon="5.4460312"/>
<trkpt lat="52.1391075" lon="5.4468835"/>
<trkpt lat="52.1391011" lon="5.4471554"/>
<trkpt lat="52.1390721" lon="5.4472157"/>
<trkpt lat="52.1389441" lon="5.4472777"/>
<trkpt lat="52.1388635" lon="5.4472448"/>
<trkpt lat="52.1386491" lon="5.4472081"/>
<trkpt lat="52.1385757" lon="5.4471773"/>
<trkpt lat="52.1382835" lon="5.4471499"/>
<trkpt lat="52.1381469" lon="5.4471369"/>
<trkpt lat="52.1379041" lon="5.4470952"/>
<trkpt lat="52.1377465" lon="5.4470671"/>
<trkpt lat="52.1374615" lon="5.4470457"/>
<trkpt lat="52.1373028" lon="5.4470481"/>
<trkpt lat="52.1371595" lon="5.4471098"/>
<trkpt lat="52.1368857" lon="5.4470459"/>
<trkpt lat="52.1367178" lon="5.4470592"/>
<trkpt lat="52.1366329" lon="5.4469870"/>
<trkpt lat="52.1364197" lon="5.4470244"/>
<trkpt lat="52.1362943" lon="5.4470292"/>
<trkpt lat="52.1360757" lon="5.4468755"/>
<trkpt lat="52.1359291" lon="5.4467537"/>
<trkpt lat="52.1358633" lon="5.4467409"/>
<trkpt lat="52.1358283" lon="5.4468196"/>
<trkpt lat="52.1357356" lon="5.4468314"/>
<trkpt lat="52.1356008" lon="5.4469446"/>
<trkpt lat="52.1354535" lon="5.4469941"/>
<trkpt lat="52.1352649" lon="5.4469704"/>
<trkpt lat="52.1349115" lon="5.4469297"/>
<trkpt lat="52.1347403" lon="5.4468681"/>
<trkpt lat="52.1345983" lon="5.4469018"/>
<trkpt lat="52.1344597" lon="5.4468759"/>
<trkpt lat="52.1343301" lon="5.4468217"/>
<trkpt lat="52.1342067" lon="5.4468224"/>
<trkpt lat="52.1340518" lon="5.4467995"/>
<trkpt lat="52.1337986" lon="5.4466710"/>
<trkpt lat="52.1336292" lon="5.4465817"/>
<trkpt lat="52.1335484" lon="5.4465608"/>
<trkpt lat="52.1333303" lon="5.4465221"/>
<trkpt lat="52.1330971" lon="5.4465064"/>
<trkpt lat="52.1329319" lon="5.4465125"/>
<trkpt lat="52.1327321" lon="5.4464832"/>
<trkpt lat="52.1325514" lon="5.4464483"/>
<trkpt lat="52.1322520" lon="5.4464330"/>
<trkpt lat="52.1320655" lon="5.4463592"/>
<trkpt lat="52.1319916" lon="5.4463088"/>
<trkpt lat="52.1318688" lon="5.4463880"/>
<trkpt lat="52.1317915" lon="5.4463828"/>
<trkpt lat="52.1315530" lon="5.4463785"/>
<trkpt lat="52.1314271" lon="5.4464374"/>
<trkpt lat="52.1313476" lon="5.4464402"/>
<trkpt lat="52.1311746" lon="5.4464667"/>
<trkpt lat="52.1307981" lon="5.4464597"/>
<trkpt lat="52.1307356" lon="5.4464820"/>
<trkpt lat="52.1306540" lon="5.4464810"/>
<trkpt lat="52.1305942" lon="5.4464776"/>
<trkpt lat="52.1305210" lon="5.4464725"/>
<trkpt lat="52.1304042" lon="5.4464362"/>
<trkpt lat="52.1303119" lon="5.4464193"/>
<trkpt lat="52.1302401" lon="5.4464076"/>
<trkpt lat="52.1302069" lon="5.4464022"/>
<trkpt lat="52.1301901" lon="5.4463995"/>
<trkpt lat="52.1301624" lon="5.4463960"/>
<trkpt lat="52.1301125" lon="5.4463901"/>
<trkpt lat="52.1300263" lon="5.4463801"/>
<trkpt lat="52.1299601" lon="5.4463716"/>
<trkpt lat="52.1299099" lon="5.4463735"/>
<trkpt lat="52.1298631" lon="5.4463759"/>
<trkpt lat="52.1298243" lon="5.4463622"/>
<trkpt lat="52.1297911" lon="5.4463517"/>
<trkpt lat="52.1297587" lon="5.4463402"/>
<trkpt lat="52.1297097" lon="5.4463219"/>
<trkpt lat="52.1296893" lon="5.4463253"/>
<trkpt lat="52.1296061" lon="5.4463325"/>
<trkpt lat="52.1295624" lon="5.4463364"/>
<trkpt lat="52.1295101" lon="5.4463408"/>
<trkpt lat="52.1294448" lon="5.4463470"/>
<trkpt lat="52.1294177" lon="5.4463531"/>
<trkpt lat="52.1293625" lon="5.4463679"/>
<trkpt lat="52.1293288" lon="5.4463636"/>
<trkpt lat="52.1292433" lon="5.4463539"/>
<trkpt lat="52.1291833" lon="5.4463477"/>
<trkpt lat="52.1291116" lon="5.4463385"/>
<trkpt lat="52.1290431" lon="5.4463285"/>
<trkpt lat="52.1289896" lon="5.4463152"/>
<trkpt lat="52.1289459" lon="5.4463045"/>
<trkpt lat="52.1289009" lon="5.4462954"/>
<trkpt lat="52.1288614" lon="5.4462885"/>
<trkpt lat="52.1288237" lon="5.4462816"/>
<trkpt lat="52.1288033" lon="5.4462777"/>
<trkpt lat="52.1287905" lon="5.4462790"/>
<trkpt lat="52.1287595" lon="5.4462826"/>
<trkpt lat="52.1287172" lon="5.4462891"/>
<trkpt lat="52.1286377" lon="5.4462837"/>
<trkpt lat="52.1285790" lon="5.4462837"/>
<trkpt lat="52.1285048" lon="5.4462854"/>
<trkpt lat="52.1284861" lon="5.4462843"/>
<trkpt lat="52.1284556" lon="5.4462837"/>
<trkpt lat="52.1284134" lon="5.4462832"/>
<trkpt lat="52.1283536" lon="5.4462779"/>
<trkpt lat="52.1282671" lon="5.4462701"/>
<trkpt lat="52.1281884" lon="5.4462344"/>
<trkpt lat="52.1281109" lon="5.4462002"/>
<trkpt lat="52.1280776" lon="5.4461938"/>
<trkpt lat="52.1280495" lon="5.4462610"/>
<trkpt lat="52.1280232" lon="5.4462758"/>
<trkpt lat="52.1279833" lon="5.4462379"/>
<trkpt lat="52.1279704" lon="5.4462316"/>
<trkpt lat="52.1279152" lon="5.4462078"/>
<trkpt lat="52.1278787" lon="5.4461991"/>
<trkpt lat="52.1278030" lon="5.4461558"/>
<trkpt lat="52.1277803" lon="5.4461675"/>
<trkpt lat="52.1277205" lon="5.4461695"/>
<trkpt lat="52.1276310" lon="5.4461785"/>
<trkpt lat="52.1275689" lon="5.4461849"/>
<trkpt lat="52.1275267" lon="5.4461812"/>
<trkpt lat="52.1275093" lon="5.4461738"/>
<trkpt lat="52.1274712" lon="5.4461529"/>
<trkpt lat="52.1274551" lon="5.4461432"/>
<trkpt lat="52.1274280" lon="5.4461395"/>
<trkpt lat="52.1273741" lon="5.4461400"/>
<trkpt lat="52.1272781" lon="5.4461380"/>
<trkpt lat="52.1272027" lon="5.4461370"/>
<trkpt lat="52.1271786" lon="5.4461345"/>
<trkpt lat="52.1271012" lon="5.4461315"/>
<trkpt lat="52.1270612" lon="5.4461105"/>
<trkpt lat="52.1270417" lon="5.4460998"/>
<trkpt lat="52.1270039" lon="5.4460941"/>
<trkpt lat="52.1269871" lon="5.4460929"/>
<trkpt lat="52.1269451" lon="5.4460884"/>
<trkpt lat="52.1268988" lon="5.4460894"/>
<trkpt lat="52.1268806" lon="5.4460925"/>
<trkpt lat="52.1268487" lon="5.4460932"/>
<trkpt lat="52.1268329" lon="5.4460841"/>
<trkpt lat="52.1268035" lon="5.4460831"/>
<trkpt lat="52.1267589" lon="5.4461008"/>
<trkpt lat="52.1267280" lon="5.4460999"/>
<trkpt lat="52.1266666" lon="5.4460668"/>
<trkpt lat="52.1266408" lon="5.4460556"/>
<trkpt lat="52.1265829" lon="5.4460562"/>
<trkpt lat="52.1264797" lon="5.4460558"/>
<trkpt lat="52.1263770" lon="5.4460470"/>
<trkpt lat="52.1263111" lon="5.4460356"/>
<trkpt lat="52.1262731" lon="5.4460212"/>
<trkpt lat="52.1262058" lon="5.4459989"/>
<trkpt lat="52.1261314" lon="5.4459886"/>
<trkpt lat="52.1260523" lon="5.4459856"/>
<trkpt lat="52.1260241" lon="5.4459746"/>
<trkpt lat="52.1260013" lon="5.4459673"/>
<trkpt lat="52.1259596" lon="5.4459694"/>
<trkpt lat="52.1259184" lon="5.4459706"/>
<trkpt lat="52.1258865" lon="5.4459672"/>
<trkpt lat="52.1258297" lon="5.4459478"/>
<trkpt lat="52.1258003" lon="5.4459459"/>
<trkpt lat="52.1256682" lon="5.4459476"/>
<trkpt lat="52.1256418" lon="5.4459455"/>
<trkpt lat="52.1256124" lon="5.4459307"/>
<trkpt lat="52.1254330" lon="5.4459144"/>
<trkpt lat="52.1254197" lon="5.4459071"/>
<trkpt lat="52.1253538" lon="5.4458969"/>
<trkpt lat="52.1252746" lon="5.4458931"/>
<trkpt lat="52.1252408" lon="5.4458762"/>
<trkpt lat="52.1251935" lon="5.4458825"/>
<trkpt lat="52.1251258" lon="5.4458781"/>
<trkpt lat="52.1250852" lon="5.4458839"/>
<trkpt lat="52.1250723" lon="5.4458733"/>
<trkpt lat="52.1250174" lon="5.4458677"/>
<trkpt lat="52.1249648" lon="5.4458343"/>
<trkpt lat="52.1249302" lon="5.4458618"/>
<trkpt lat="52.1248677" lon="5.4458677"/>
<trkpt lat="52.1247817" lon="5.4458603"/>
<trkpt lat="52.1247344" lon="5.4458379"/>
<trkpt lat="52.1245888" lon="5.4457963"/>
<trkpt lat="52.1245507" lon="5.4457697"/>
<trkpt lat="52.1245256" lon="5.4457649"/>
<trkpt lat="52.1244723" lon="5.4457960"/>
<trkpt lat="52.1242473" lon="5.4457759"/>
<trkpt lat="52.1242314" lon="5.4457661"/>
<trkpt lat="52.1240265" lon="5.4457444"/>
<trkpt lat="52.1238802" lon="5.4457572"/>
<trkpt lat="52.1234920" lon="5.4457127"/>
<trkpt lat="52.1232243" lon="5.4456682"/>
<trkpt lat="52.1231298" lon="5.4456385"/>
<trkpt lat="52.1229824" lon="5.4455718"/>
<trkpt lat="52.1222539" lon="5.4451402"/>
<trkpt lat="52.1218215" lon="5.4448527"/>
<trkpt lat="52.1215399" lon="5.4446568"/>
<trkpt lat="52.1213223" lon="5.4445557"/>
<trkpt lat="52.1211035" lon="5.4444186"/>
<trkpt lat="52.1209390" lon="5.4443031"/>
<trkpt lat="52.1204678" lon="5.4440169"/>
<trkpt lat="52.1202530" lon="5.4438955"/>
<trkpt lat="52.1202226" lon="5.4438692"/>
<trkpt lat="52.1201626" lon="5.4438188"/>
<trkpt lat="52.1200562" lon="5.4437531"/>
<trkpt lat="52.1199645" lon="5.4437148"/>
<trkpt lat="52.1197729" lon="5.4435988"/>
<trkpt lat="52.1195196" lon="5.4434392"/>
<trkpt lat="52.1193515" lon="5.4433561"/>
<trkpt lat="52.1192906" lon="5.4432967"/>
<trkpt lat="52.1191817" lon="5.4432197"/>
<trkpt lat="52.1190330" lon="5.4431084"/>
<trkpt lat="52.1189384" lon="5.4430240"/>
<trkpt lat="52.1187984" lon="5.4429713"/>
<trkpt lat="52.1186044" lon="5.4428528"/>
<trkpt lat="52.1184280" lon="5.4427433"/>
<trkpt lat="52.1176718" lon="5.4422765"/>
<trkpt lat="52.1172941" lon="5.4420404"/>
<trkpt lat="52.1168598" lon="5.4417755"/>
<trkpt lat="52.1165042" lon="5.4415489"/>
<trkpt lat="52.1161219" lon="5.4413173"/>
<trkpt lat="52.1157052" lon="5.4410681"/>
<trkpt lat="52.1149737" lon="5.4406047"/>
<trkpt lat="52.1148730" lon="5.4405621"/>
<trkpt lat="52.1149025" lon="5.4403625"/>
<trkpt lat="52.1147916" lon="5.4403090"/>
<trkpt lat="52.1146118" lon="5.4402000"/>
<trkpt lat="52.1145178" lon="5.4402998"/>
<trkpt lat="52.1144496" lon="5.4403335"/>
<trkpt lat="52.1143741" lon="5.4403043"/>
<trkpt lat="52.1142852" lon="5.4402191"/>
<trkpt lat="52.1135787" lon="5.4398147"/>
<trkpt lat="52.1133934" lon="5.4397084"/>
<trkpt lat="52.1122493" lon="5.4390054"/>
<trkpt lat="52.1120831" lon="5.4388742"/>
<trkpt lat="52.1119336" lon="5.4388209"/>
<trkpt lat="52.1116785" lon="5.4386838"/>
<trkpt lat="52.1111236" lon="5.4383089"/>
<trkpt lat="52.1106047" lon="5.4379252"/>
<trkpt lat="52.1102431" lon="5.4376436"/>
<trkpt lat="52.1097128" lon="5.4372116"/>
<trkpt lat="52.1094171" lon="5.4369791"/>
<trkpt lat="52.1092117" lon="5.4368180"/>
<trkpt lat="52.1088712" lon="5.4365602"/>
<trkpt lat="52.1085303" lon="5.4363140"/>
<trkpt lat="52.1083063" lon="5.4361483"/>
<trkpt lat="52.1074242" lon="5.4354991"/>
<trkpt lat="52.1071520" lon="5.4353077"/>
<trkpt lat="52.1069739" lon="5.4351816"/>
<trkpt lat="52.1065740" lon="5.4350338"/>
<trkpt lat="52.1063593" lon="5.4349598"/>
<trkpt lat="52.1059632" lon="5.4348190"/>
<trkpt lat="52.1056371" lon="5.4346964"/>
<trkpt lat="52.1055927" lon="5.4346359"/>
</trkseg></trk>
<trk><name>Stoutenburgerpad - Geimporteerde shapefile</name><type>connectionRoute</type><trkseg>
<trkpt lat="52.1056039" lon="5.4346515"/>
<trkpt lat="52.1069702" lon="5.4351877"/>
<trkpt lat="52.1072188" lon="5.4353555"/>
<trkpt lat="52.1080355" lon="5.4359439"/>
<trkpt lat="52.1087100" lon="5.4364476"/>
<trkpt lat="52.1093027" lon="5.4368804"/>
<trkpt lat="52.1097689" lon="5.4372563"/>
<trkpt lat="52.1105704" lon="5.4379022"/>
<trkpt lat="52.1110222" lon="5.4382380"/>
<trkpt lat="52.1118050" lon="5.4387609"/>
<trkpt lat="52.1120911" lon="5.4388851"/>
<trkpt lat="52.1122547" lon="5.4390079"/>
<trkpt lat="52.1130217" lon="5.4394791"/>
<trkpt lat="52.1134459" lon="5.4397418"/>
<trkpt lat="52.1142905" lon="5.4402233"/>
<trkpt lat="52.1143750" lon="5.4403049"/>
<trkpt lat="52.1144460" lon="5.4403400"/>
<trkpt lat="52.1145248" lon="5.4402940"/>
<trkpt lat="52.1146110" lon="5.4402028"/>
<trkpt lat="52.1149008" lon="5.4403637"/>
<trkpt lat="52.1148723" lon="5.4405557"/>
<trkpt lat="52.1153217" lon="5.4408202"/>
<trkpt lat="52.1160906" lon="5.4412987"/>
<trkpt lat="52.1165480" lon="5.4415785"/>
<trkpt lat="52.1168564" lon="5.4417756"/>
<trkpt lat="52.1171524" lon="5.4419561"/>
<trkpt lat="52.1178396" lon="5.4423857"/>
<trkpt lat="52.1184997" lon="5.4427849"/>
<trkpt lat="52.1187863" lon="5.4429699"/>
<trkpt lat="52.1189321" lon="5.4430219"/>
<trkpt lat="52.1190152" lon="5.4430908"/>
<trkpt lat="52.1192897" lon="5.4432971"/>
<trkpt lat="52.1193507" lon="5.4433575"/>
<trkpt lat="52.1195108" lon="5.4434279"/>
<trkpt lat="52.1199558" lon="5.4437136"/>
<trkpt lat="52.1200522" lon="5.4437559"/>
<trkpt lat="52.1202154" lon="5.4438560"/>
<trkpt lat="52.1202552" lon="5.4439024"/>
<trkpt lat="52.1204373" lon="5.4440010"/>
<trkpt lat="52.1210128" lon="5.4443519"/>
<trkpt lat="52.1211201" lon="5.4444312"/>
<trkpt lat="52.1213150" lon="5.4445488"/>
<trkpt lat="52.1215610" lon="5.4446644"/>
<trkpt lat="52.1216743" lon="5.4447493"/>
<trkpt lat="52.1218717" lon="5.4448848"/>
<trkpt lat="52.1221672" lon="5.4450807"/>
<trkpt lat="52.1225384" lon="5.4453098"/>
<trkpt lat="52.1228084" lon="5.4454738"/>
<trkpt lat="52.1229484" lon="5.4455568"/>
<trkpt lat="52.1231142" lon="5.4456331"/>
<trkpt lat="52.1232312" lon="5.4456707"/>
<trkpt lat="52.1234453" lon="5.4457104"/>
<trkpt lat="52.1238880" lon="5.4457554"/>
<trkpt lat="52.1240365" lon="5.4457432"/>
<trkpt lat="52.1244763" lon="5.4457953"/>
<trkpt lat="52.1245162" lon="5.4457685"/>
<trkpt lat="52.1245476" lon="5.4457661"/>
<trkpt lat="52.1245891" lon="5.4457965"/>
<trkpt lat="52.1247442" lon="5.4458424"/>
<trkpt lat="52.1247757" lon="5.4458641"/>
<trkpt lat="52.1248729" lon="5.4458720"/>
<trkpt lat="52.1249330" lon="5.4458600"/>
<trkpt lat="52.1249630" lon="5.4458326"/>
<trkpt lat="52.1250085" lon="5.4458581"/>
<trkpt lat="52.1250288" lon="5.4458679"/>
<trkpt lat="52.1250747" lon="5.4458728"/>
<trkpt lat="52.1250853" lon="5.4458851"/>
<trkpt lat="52.1251268" lon="5.4458768"/>
<trkpt lat="52.1251958" lon="5.4458844"/>
<trkpt lat="52.1252403" lon="5.4458771"/>
<trkpt lat="52.1252700" lon="5.4458927"/>
<trkpt lat="52.1254238" lon="5.4459097"/>
<trkpt lat="52.1254319" lon="5.4459165"/>
<trkpt lat="52.1256131" lon="5.4459306"/>
<trkpt lat="52.1256396" lon="5.4459459"/>
<trkpt lat="52.1258022" lon="5.4459461"/>
<trkpt lat="52.1258290" lon="5.4459489"/>
<trkpt lat="52.1258834" lon="5.4459655"/>
<trkpt lat="52.1259177" lon="5.4459722"/>
<trkpt lat="52.1260019" lon="5.4459676"/>
<trkpt lat="52.1260502" lon="5.4459842"/>
<trkpt lat="52.1261097" lon="5.4459865"/>
<trkpt lat="52.1262018" lon="5.4459970"/>
<trkpt lat="52.1263096" lon="5.4460353"/>
<trkpt lat="52.1263728" lon="5.4460463"/>
<trkpt lat="52.1264664" lon="5.4460560"/>
<trkpt lat="52.1266430" lon="5.4460563"/>
<trkpt lat="52.1267261" lon="5.4460996"/>
<trkpt lat="52.1267576" lon="5.4461008"/>
<trkpt lat="52.1268036" lon="5.4460838"/>
<trkpt lat="52.1268362" lon="5.4460846"/>
<trkpt lat="52.1268485" lon="5.4460941"/>
<trkpt lat="52.1268867" lon="5.4460927"/>
<trkpt lat="52.1268960" lon="5.4460898"/>
<trkpt lat="52.1269488" lon="5.4460885"/>
<trkpt lat="52.1270032" lon="5.4460934"/>
<trkpt lat="52.1270424" lon="5.4461014"/>
<trkpt lat="52.1271023" lon="5.4461319"/>
<trkpt lat="52.1272033" lon="5.4461355"/>
<trkpt lat="52.1273340" lon="5.4461391"/>
<trkpt lat="52.1274279" lon="5.4461388"/>
<trkpt lat="52.1274567" lon="5.4461430"/>
<trkpt lat="52.1275146" lon="5.4461778"/>
<trkpt lat="52.1275248" lon="5.4461813"/>
<trkpt lat="52.1275693" lon="5.4461854"/>
<trkpt lat="52.1276405" lon="5.4461766"/>
<trkpt lat="52.1277516" lon="5.4461676"/>
<trkpt lat="52.1277793" lon="5.4461683"/>
<trkpt lat="52.1278021" lon="5.4461571"/>
<trkpt lat="52.1278793" lon="5.4461968"/>
<trkpt lat="52.1279817" lon="5.4462354"/>
<trkpt lat="52.1280237" lon="5.4462770"/>
<trkpt lat="52.1280489" lon="5.4462616"/>
<trkpt lat="52.1280791" lon="5.4461944"/>
<trkpt lat="52.1281083" lon="5.4462004"/>
<trkpt lat="52.1282692" lon="5.4462704"/>
<trkpt lat="52.1284144" lon="5.4462831"/>
<trkpt lat="52.1285413" lon="5.4462851"/>
<trkpt lat="52.1286746" lon="5.4462856"/>
<trkpt lat="52.1287236" lon="5.4462890"/>
<trkpt lat="52.1288044" lon="5.4462776"/>
<trkpt lat="52.1289238" lon="5.4463013"/>
<trkpt lat="52.1290443" lon="5.4463275"/>
<trkpt lat="52.1291910" lon="5.4463491"/>
<trkpt lat="52.1293632" lon="5.4463667"/>
<trkpt lat="52.1294455" lon="5.4463463"/>
<trkpt lat="52.1297095" lon="5.4463214"/>
<trkpt lat="52.1298639" lon="5.4463770"/>
<trkpt lat="52.1299138" lon="5.4463723"/>
<trkpt lat="52.1299587" lon="5.4463705"/>
<trkpt lat="52.1300036" lon="5.4463774"/>
<trkpt lat="52.1301734" lon="5.4463952"/>
<trkpt lat="52.1303015" lon="5.4464190"/>
<trkpt lat="52.1304063" lon="5.4464362"/>
<trkpt lat="52.1305219" lon="5.4464729"/>
<trkpt lat="52.1306542" lon="5.4464815"/>
<trkpt lat="52.1307352" lon="5.4464825"/>
<trkpt lat="52.1307974" lon="5.4464592"/>
<trkpt lat="52.1311775" lon="5.4464675"/>
<trkpt lat="52.1312566" lon="5.4464544"/>
<trkpt lat="52.1313416" lon="5.4464402"/>
<trkpt lat="52.1314273" lon="5.4464366"/>
<trkpt lat="52.1315542" lon="5.4463787"/>
<trkpt lat="52.1317766" lon="5.4463820"/>
<trkpt lat="52.1318693" lon="5.4463890"/>
<trkpt lat="52.1319944" lon="5.4463085"/>
<trkpt lat="52.1320656" lon="5.4463603"/>
<trkpt lat="52.1322497" lon="5.4464322"/>
<trkpt lat="52.1323701" lon="5.4464409"/>
<trkpt lat="52.1324738" lon="5.4464447"/>
<trkpt lat="52.1325526" lon="5.4464487"/>
<trkpt lat="52.1326453" lon="5.4464653"/>
<trkpt lat="52.1327086" lon="5.4464771"/>
<trkpt lat="52.1327343" lon="5.4464844"/>
<trkpt lat="52.1327927" lon="5.4464907"/>
<trkpt lat="52.1329234" lon="5.4465108"/>
<trkpt lat="52.1330929" lon="5.4465065"/>
<trkpt lat="52.1332434" lon="5.4465148"/>
<trkpt lat="52.1333315" lon="5.4465223"/>
<trkpt lat="52.1335485" lon="5.4465608"/>
<trkpt lat="52.1336289" lon="5.4465823"/>
<trkpt lat="52.1339413" lon="5.4467427"/>
<trkpt lat="52.1340521" lon="5.4467996"/>
<trkpt lat="52.1342082" lon="5.4468254"/>
<trkpt lat="52.1343284" lon="5.4468220"/>
<trkpt lat="52.1343874" lon="5.4468450"/>
<trkpt lat="52.1344822" lon="5.4468806"/>
<trkpt lat="52.1346040" lon="5.4469014"/>
<trkpt lat="52.1347411" lon="5.4468665"/>
<trkpt lat="52.1349053" lon="5.4469281"/>
<trkpt lat="52.1352523" lon="5.4469699"/>
<trkpt lat="52.1354481" lon="5.4469951"/>
<trkpt lat="52.1355419" lon="5.4469666"/>
<trkpt lat="52.1356053" lon="5.4469444"/>
<trkpt lat="52.1357340" lon="5.4468306"/>
<trkpt lat="52.1358301" lon="5.4468180"/>
<trkpt lat="52.1358599" lon="5.4467427"/>
<trkpt lat="52.1359307" lon="5.4467546"/>
<trkpt lat="52.1359566" lon="5.4467772"/>
<trkpt lat="52.1360735" lon="5.4468717"/>
<trkpt lat="52.1362965" lon="5.4470293"/>
<trkpt lat="52.1364175" lon="5.4470241"/>
<trkpt lat="52.1364346" lon="5.4470847"/>
<trkpt lat="52.1364998" lon="5.4471557"/>
<trkpt lat="52.1365154" lon="5.4472192"/>
<trkpt lat="52.1365117" lon="5.4472848"/>
<trkpt lat="52.1364838" lon="5.4473336"/>
<trkpt lat="52.1364742" lon="5.4473614"/>
<trkpt lat="52.1364714" lon="5.4474079"/>
<trkpt lat="52.1364455" lon="5.4474594"/>
<trkpt lat="52.1363359" lon="5.4478542"/>
<trkpt lat="52.1362571" lon="5.4481210"/>
<trkpt lat="52.1362682" lon="5.4482345"/>
<trkpt lat="52.1361309" lon="5.4489230"/>
<trkpt lat="52.1355356" lon="5.4523000"/>
<trkpt lat="52.1355556" lon="5.4523867"/>
<trkpt lat="52.1355020" lon="5.4527014"/>
<trkpt lat="52.1354584" lon="5.4527513"/>
<trkpt lat="52.1352828" lon="5.4537922"/>
<trkpt lat="52.1349278" lon="5.4556138"/>
<trkpt lat="52.1347488" lon="5.4564795"/>
<trkpt lat="52.1346670" lon="5.4568811"/>
<trkpt lat="52.1346171" lon="5.4569647"/>
<trkpt lat="52.1345999" lon="5.4570939"/>
<trkpt lat="52.1339725" lon="5.4578543"/>
<trkpt lat="52.1334774" lon="5.4584093"/>
<trkpt lat="52.1334466" lon="5.4584886"/>
<trkpt lat="52.1331779" lon="5.4607036"/>
<trkpt lat="52.1326393" lon="5.4616099"/>
<trkpt lat="52.1322104" lon="5.4629308"/>
<trkpt lat="52.1314311" lon="5.4628941"/>
<trkpt lat="52.1302415" lon="5.4628353"/>
<trkpt lat="52.1300903" lon="5.4627456"/>
<trkpt lat="52.1300436" lon="5.4628258"/>
<trkpt lat="52.1289506" lon="5.4659031"/>
<trkpt lat="52.1284259" lon="5.4670544"/>
<trkpt lat="52.1276843" lon="5.4682783"/>
<trkpt lat="52.1269714" lon="5.4691309"/>
<trkpt lat="52.1265265" lon="5.4694455"/>
<trkpt lat="52.1262985" lon="5.4694376"/>
<trkpt lat="52.1262512" lon="5.4694990"/>
<trkpt lat="52.1262378" lon="5.4698073"/>
<trkpt lat="52.1261982" lon="5.4699059"/>
<trkpt lat="52.1257861" lon="5.4704580"/>
<trkpt lat="52.1255618" lon="5.4708745"/>
<trkpt lat="52.1254248" lon="5.4712504"/>
<trkpt lat="52.1253394" lon="5.4716226"/>
<trkpt lat="52.1252139" lon="5.4724995"/>
<trkpt lat="52.1248351" lon="5.4736625"/>
<trkpt lat="52.1247013" lon="5.4740312"/>
<trkpt lat="52.1252143" lon="5.4743391"/>
<trkpt lat="52.1253179" lon="5.4744015"/>
<trkpt lat="52.1258232" lon="5.4742920"/>
<trkpt lat="52.1259716" lon="5.4743547"/>
<trkpt lat="52.1260527" lon="5.4744307"/>
<trkpt lat="52.1261626" lon="5.4744588"/>
<trkpt lat="52.1260447" lon="5.4760823"/>
<trkpt lat="52.1260010" lon="5.4771109"/>
<trkpt lat="52.1259939" lon="5.4779687"/>
<trkpt lat="52.1260280" lon="5.4783275"/>
<trkpt lat="52.1260038" lon="5.4784622"/>
<trkpt lat="52.1257677" lon="5.4790712"/>
<trkpt lat="52.1257649" lon="5.4792222"/>
</trkseg></trk>
</gpx>