<?xml version="1.0" encoding="UTF-8"?>
<gpx version="1.1" creator="klompenpaden.nl via Jimbo API" xmlns="http://www.topografix.com/GPX/1/1">
<metadata><name>Teisterbantpad</name><desc>Ontdek het prachtige landschap rond Kerk-Avezaath en Zoelen: boomgaarden, stroomruggen, weilanden in de komklei, monumentale herenboerderijen en het mooie oude landgoed Soelen. Klompen aan, rugzak op en gaan!</desc><link href="https://www.klompenpaden.nl/klompenpaden/Teisterbantpad/aa6027f9-6a3a-4d70-9ab0-ffa4a2b3be1f"><text>klompenpaden.nl</text></link></metadata>
<wpt lat="51.89495824383078" lon="5.379316252037825"><name>Start Kerk-Avezaath</name></wpt>
<trk><name>Teisterbantpad - hoofdroute</name><type>mainRoute</type><trkseg>
<trkpt lat="51.8951689" lon="5.3791307"/>
<trkpt lat="51.8952617" lon="5.3794074"/>
<trkpt lat="51.8956279" lon="5.3792132"/>
<trkpt lat="51.8957141" lon="5.3791556"/>
<trkpt lat="51.8957706" lon="5.3792132"/>
<trkpt lat="51.8958509" lon="5.3794342"/>
<trkpt lat="51.8961065" lon="5.3792612"/>
<trkpt lat="51.8961184" lon="5.3791459"/>
<trkpt lat="51.8960470" lon="5.3789152"/>
<trkpt lat="51.8962373" lon="5.3785933"/>
<trkpt lat="51.8964573" lon="5.3791362"/>
<trkpt lat="51.8969360" lon="5.3813368"/>
<trkpt lat="51.8970163" lon="5.3814377"/>
<trkpt lat="51.8972511" lon="5.3814281"/>
<trkpt lat="51.8977327" lon="5.3810436"/>
<trkpt lat="51.8984015" lon="5.3804525"/>
<trkpt lat="51.8986274" lon="5.3804188"/>
<trkpt lat="51.8987820" lon="5.3805149"/>
<trkpt lat="51.8988920" lon="5.3810146"/>
<trkpt lat="51.8990080" lon="5.3817210"/>
<trkpt lat="51.8999533" lon="5.3817593"/>
<trkpt lat="51.9007381" lon="5.3815286"/>
<trkpt lat="51.9013742" lon="5.3812786"/>
<trkpt lat="51.9016120" lon="5.3806827"/>
<trkpt lat="51.9019330" lon="5.3800099"/>
<trkpt lat="51.9035798" lon="5.3784429"/>
<trkpt lat="51.9041802" lon="5.3779430"/>
<trkpt lat="51.9049830" lon="5.3802497"/>
<trkpt lat="51.9051019" lon="5.3803073"/>
<trkpt lat="51.9078487" lon="5.3802492"/>
<trkpt lat="51.9079022" lon="5.3803069"/>
<trkpt lat="51.9076763" lon="5.3815565"/>
<trkpt lat="51.9074088" lon="5.3822006"/>
<trkpt lat="51.9069867" lon="5.3828543"/>
<trkpt lat="51.9062971" lon="5.3834695"/>
<trkpt lat="51.9059701" lon="5.3837195"/>
<trkpt lat="51.9058512" lon="5.3840078"/>
<trkpt lat="51.9065885" lon="5.3861128"/>
<trkpt lat="51.9066241" lon="5.3866992"/>
<trkpt lat="51.9066479" lon="5.3900923"/>
<trkpt lat="51.9065289" lon="5.3916206"/>
<trkpt lat="51.9063268" lon="5.3923222"/>
<trkpt lat="51.9062450" lon="5.3928673"/>
<trkpt lat="51.9063001" lon="5.3928843"/>
<trkpt lat="51.9063950" lon="5.3928080"/>
<trkpt lat="51.9064456" lon="5.3929855"/>
<trkpt lat="51.9079377" lon="5.3963308"/>
<trkpt lat="51.9080626" lon="5.3963308"/>
<trkpt lat="51.9102295" lon="5.3947043"/>
<trkpt lat="51.9144356" lon="5.3916136"/>
<trkpt lat="51.9142157" lon="5.3904846"/>
<trkpt lat="51.9140690" lon="5.3894150"/>
<trkpt lat="51.9137229" lon="5.3883815"/>
<trkpt lat="51.9138715" lon="5.3881989"/>
<trkpt lat="51.9133365" lon="5.3856705"/>
<trkpt lat="51.9143828" lon="5.3844495"/>
<trkpt lat="51.9154589" lon="5.3843533"/>
<trkpt lat="51.9157800" lon="5.3853820"/>
<trkpt lat="51.9164083" lon="5.3873297"/>
<trkpt lat="51.9187865" lon="5.3843299"/>
<trkpt lat="51.9186081" lon="5.3839453"/>
<trkpt lat="51.9186794" lon="5.3837722"/>
<trkpt lat="51.9184851" lon="5.3833243"/>
<trkpt lat="51.9205243" lon="5.3807569"/>
<trkpt lat="51.9206551" lon="5.3811800"/>
<trkpt lat="51.9207502" lon="5.3810646"/>
<trkpt lat="51.9209345" lon="5.3816126"/>
<trkpt lat="51.9234733" lon="5.3877183"/>
<trkpt lat="51.9229799" lon="5.3879395"/>
<trkpt lat="51.9221772" lon="5.3889298"/>
<trkpt lat="51.9224447" lon="5.3895068"/>
<trkpt lat="51.9226290" lon="5.3903337"/>
<trkpt lat="51.9230748" lon="5.3926896"/>
<trkpt lat="51.9233899" lon="5.3944205"/>
<trkpt lat="51.9235026" lon="5.3948513"/>
<trkpt lat="51.9233242" lon="5.3949782"/>
<trkpt lat="51.9234383" lon="5.3953820"/>
<trkpt lat="51.9225633" lon="5.3964492"/>
<trkpt lat="51.9224266" lon="5.3958819"/>
<trkpt lat="51.9203158" lon="5.3984295"/>
<trkpt lat="51.9204466" lon="5.3986410"/>
<trkpt lat="51.9203395" lon="5.3988045"/>
<trkpt lat="51.9196856" lon="5.3976024"/>
<trkpt lat="51.9192101" lon="5.3965351"/>
<trkpt lat="51.9186275" lon="5.3958042"/>
<trkpt lat="51.9185443" lon="5.3959388"/>
<trkpt lat="51.9184075" lon="5.3959869"/>
<trkpt lat="51.9179140" lon="5.3968040"/>
<trkpt lat="51.9163561" lon="5.3994187"/>
<trkpt lat="51.9161837" lon="5.3988707"/>
<trkpt lat="51.9159519" lon="5.3984860"/>
<trkpt lat="51.9156843" lon="5.3987840"/>
<trkpt lat="51.9152740" lon="5.3991396"/>
<trkpt lat="51.9151849" lon="5.3990050"/>
<trkpt lat="51.9149411" lon="5.3990722"/>
<trkpt lat="51.9148281" lon="5.3991876"/>
<trkpt lat="51.9146795" lon="5.3991875"/>
<trkpt lat="51.9145963" lon="5.3992644"/>
<trkpt lat="51.9144536" lon="5.3992740"/>
<trkpt lat="51.9143941" lon="5.3993701"/>
<trkpt lat="51.9141741" lon="5.3993989"/>
<trkpt lat="51.9140730" lon="5.3995142"/>
<trkpt lat="51.9137520" lon="5.3996103"/>
<trkpt lat="51.9135201" lon="5.3996871"/>
<trkpt lat="51.9133833" lon="5.3998024"/>
<trkpt lat="51.9132288" lon="5.3997639"/>
<trkpt lat="51.9130980" lon="5.3998889"/>
<trkpt lat="51.9128364" lon="5.3999369"/>
<trkpt lat="51.9124142" lon="5.4001002"/>
<trkpt lat="51.9123131" lon="5.4001098"/>
<trkpt lat="51.9113382" lon="5.3991674"/>
<trkpt lat="51.9109161" lon="5.3989558"/>
<trkpt lat="51.9106545" lon="5.3989365"/>
<trkpt lat="51.9104226" lon="5.3991479"/>
<trkpt lat="51.9096674" lon="5.4001282"/>
<trkpt lat="51.9096317" lon="5.4004743"/>
<trkpt lat="51.9096436" lon="5.4009453"/>
<trkpt lat="51.9081273" lon="5.4024155"/>
<trkpt lat="51.9076437" lon="5.4027724"/>
<trkpt lat="51.9074763" lon="5.4026129"/>
<trkpt lat="51.9065608" lon="5.4025679"/>
<trkpt lat="51.9057496" lon="5.4025489"/>
<trkpt lat="51.9056200" lon="5.4020231"/>
<trkpt lat="51.9056053" lon="5.4016927"/>
<trkpt lat="51.9055078" lon="5.4019460"/>
<trkpt lat="51.9048302" lon="5.4028130"/>
<trkpt lat="51.9043877" lon="5.4024912"/>
<trkpt lat="51.9038170" lon="5.4021642"/>
<trkpt lat="51.9035017" lon="5.4034232"/>
<trkpt lat="51.9025030" lon="5.4026155"/>
<trkpt lat="51.9022177" lon="5.4021444"/>
<trkpt lat="51.9019324" lon="5.4013466"/>
<trkpt lat="51.9017540" lon="5.4011543"/>
<trkpt lat="51.9013914" lon="5.4010196"/>
<trkpt lat="51.9015876" lon="5.4005872"/>
<trkpt lat="51.9036689" lon="5.3967528"/>
<trkpt lat="51.9039661" lon="5.3970124"/>
<trkpt lat="51.9041534" lon="5.3968010"/>
<trkpt lat="51.9051998" lon="5.3955209"/>
<trkpt lat="51.9056493" lon="5.3950212"/>
<trkpt lat="51.9057849" lon="5.3949174"/>
<trkpt lat="51.9058753" lon="5.3948597"/>
<trkpt lat="51.9059205" lon="5.3948098"/>
<trkpt lat="51.9058800" lon="5.3947444"/>
<trkpt lat="51.9058272" lon="5.3948117"/>
<trkpt lat="51.9044539" lon="5.3929468"/>
<trkpt lat="51.9037881" lon="5.3920048"/>
<trkpt lat="51.9021116" lon="5.3887079"/>
<trkpt lat="51.9006907" lon="5.3860265"/>
<trkpt lat="51.8995075" lon="5.3835854"/>
<trkpt lat="51.8989129" lon="5.3838353"/>
<trkpt lat="51.8986453" lon="5.3819805"/>
<trkpt lat="51.8983659" lon="5.3821151"/>
<trkpt lat="51.8978071" lon="5.3827494"/>
<trkpt lat="51.8972601" lon="5.3830954"/>
<trkpt lat="51.8967488" lon="5.3832685"/>
<trkpt lat="51.8964753" lon="5.3833550"/>
<trkpt lat="51.8961186" lon="5.3823075"/>
<trkpt lat="51.8958451" lon="5.3818751"/>
<trkpt lat="51.8955656" lon="5.3810871"/>
<trkpt lat="51.8950482" lon="5.3793959"/>
<trkpt lat="51.8950185" lon="5.3792229"/>
<trkpt lat="51.8951671" lon="5.3791172"/>
</trkseg></trk>
<trk><name>Teisterbantpad - shorteningRoute</name><type>shorteningRoute</type><trkseg>
<trkpt lat="51.9144300" lon="5.3916100"/>
<trkpt lat="51.9148200" lon="5.3948200"/>
<trkpt lat="51.9151100" lon="5.3955500"/>
<trkpt lat="51.9143500" lon="5.3973700"/>
<trkpt lat="51.9143600" lon="5.3976600"/>
<trkpt lat="51.9144300" lon="5.3978700"/>
<trkpt lat="51.9148600" lon="5.3983300"/>
<trkpt lat="51.9151800" lon="5.3990000"/>
</trkseg></trk>
<trk><name>Teisterbantpad - overstaproute</name><type>connectionRoute</type><trkseg>
<trkpt lat="51.8950100" lon="5.3792200"/>
<trkpt lat="51.8949100" lon="5.3788500"/>
<trkpt lat="51.8949200" lon="5.3785600"/>
<trkpt lat="51.8946900" lon="5.3781300"/>
<trkpt lat="51.8947200" lon="5.3780400"/>
<trkpt lat="51.8950300" lon="5.3778100"/>
<trkpt lat="51.8956700" lon="5.3768400"/>
<trkpt lat="51.8956900" lon="5.3765800"/>
<trkpt lat="51.8952000" lon="5.3748900"/>
<trkpt lat="51.8951400" lon="5.3746100"/>
<trkpt lat="51.8952400" lon="5.3743900"/>
<trkpt lat="51.8956200" lon="5.3738400"/>
<trkpt lat="51.8961200" lon="5.3726400"/>
<trkpt lat="51.8968900" lon="5.3710300"/>
<trkpt lat="51.8971700" lon="5.3705700"/>
</trkseg></trk>
<trk><name>Teisterbantpad - aanlooproute</name><type>approachRoute</type><trkseg>
<trkpt lat="51.8894000" lon="5.4229500"/>
<trkpt lat="51.8895600" lon="5.4228800"/>
<trkpt lat="51.8900500" lon="5.4237900"/>
<trkpt lat="51.8903000" lon="5.4234000"/>
<trkpt lat="51.8904100" lon="5.4235800"/>
<trkpt lat="51.8908200" lon="5.4227100"/>
<trkpt lat="51.8914100" lon="5.4175700"/>
<trkpt lat="51.8914600" lon="5.4174200"/>
<trkpt lat="51.8919300" lon="5.4175500"/>
<trkpt lat="51.8919500" lon="5.4174100"/>
<trkpt lat="51.8921200" lon="5.4172200"/>
<trkpt lat="51.8923400" lon="5.4164800"/>
<trkpt lat="51.8925000" lon="5.4167200"/>
<trkpt lat="51.8926500" lon="5.4166600"/>
<trkpt lat="51.8926900" lon="5.4156500"/>
<trkpt lat="51.8928000" lon="5.4155700"/>
<trkpt lat="51.8928300" lon="5.4153500"/>
<trkpt lat="51.8927500" lon="5.4146700"/>
<trkpt lat="51.8929800" lon="5.4146000"/>
<trkpt lat="51.8928400" lon="5.4134900"/>
<trkpt lat="51.8926600" lon="5.4134900"/>
<trkpt lat="51.8935300" lon="5.4093400"/>
<trkpt lat="51.8949100" lon="5.4033000"/>
<trkpt lat="51.8954500" lon="5.4031500"/>
<trkpt lat="51.8957700" lon="5.3983500"/>
<trkpt lat="51.8959100" lon="5.3968900"/>
<trkpt lat="51.8959200" lon="5.3960100"/>
<trkpt lat="51.8957700" lon="5.3950500"/>
<trkpt lat="51.8957800" lon="5.3946000"/>
<trkpt lat="51.8958300" lon="5.3941500"/>
<trkpt lat="51.8959800" lon="5.3936800"/>
<trkpt lat="51.8966800" lon="5.3922300"/>
<trkpt lat="51.8968100" lon="5.3918700"/>
<trkpt lat="51.8968800" lon="5.3913400"/>
<trkpt lat="51.8968600" lon="5.3908200"/>
<trkpt lat="51.8967400" lon="5.3902600"/>
<trkpt lat="51.8964400" lon="5.3894100"/>
<trkpt lat="51.8963100" lon="5.3888400"/>
<trkpt lat="51.8962100" lon="5.3878700"/>
<trkpt lat="51.8961900" lon="5.3871200"/>
<trkpt lat="51.8962800" lon="5.3867700"/>
<trkpt lat="51.8967200" lon="5.3857200"/>
<trkpt lat="51.8967700" lon="5.3853300"/>
<trkpt lat="51.8966600" lon="5.3849900"/>
<trkpt lat="51.8965200" lon="5.3846200"/>
<trkpt lat="51.8964400" lon="5.3838600"/>
<trkpt lat="51.8964700" lon="5.3833500"/>
</trkseg></trk>
<trk><name>Teisterbantpad - aanlooproute</name><type>approachRoute</type><trkseg>
<trkpt lat="51.9063413" lon="5.4046754"/>
<trkpt lat="51.9065113" lon="5.4046217"/>
<trkpt lat="51.9069762" lon="5.4044093"/>
<trkpt lat="51.9071339" lon="5.4041632"/>
<trkpt lat="51.9075764" lon="5.4030187"/>
<trkpt lat="51.9076883" lon="5.4027417"/>
</trkseg></trk>
</gpx>