<?xml version="1.0" encoding="UTF-8"?>
<gpx version="1.1" creator="klompenpaden.nl via Jimbo API" xmlns="http://www.topografix.com/GPX/1/1">
<metadata><name>Terbroeksepad</name><desc>Ontdek het mooie buitengebied van Terschuur en Zwartebroek. Wandelen langs water, elzenbroekbos, oude veengaten, door weilanden en via oude stegen. Beleef het bijzondere slagenlandschap. Klompen aan, rugzak op en gaan!</desc><link href="https://www.klompenpaden.nl/klompenpaden/Terbroeksepad/890339eb-55ad-4341-901c-b58459ba6564"><text>klompenpaden.nl</text></link></metadata>
<wpt lat="52.17730033847491" lon="5.508077144622803"><name>Start Zwartebroek</name></wpt>
<trk><name>Terbroeksepad - Hoofdroute</name><type>mainRoute</type><trkseg>
<trkpt lat="52.1670168" lon="5.5186579"/>
<trkpt lat="52.1672427" lon="5.5193946"/>
<trkpt lat="52.1676450" lon="5.5194305"/>
<trkpt lat="52.1684604" lon="5.5186579"/>
<trkpt lat="52.1685871" lon="5.5187118"/>
<trkpt lat="52.1692318" lon="5.5211193"/>
<trkpt lat="52.1696009" lon="5.5221704"/>
<trkpt lat="52.1697607" lon="5.5223231"/>
<trkpt lat="52.1704604" lon="5.5216493"/>
<trkpt lat="52.1721408" lon="5.5199605"/>
<trkpt lat="52.1732096" lon="5.5190532"/>
<trkpt lat="52.1736558" lon="5.5185771"/>
<trkpt lat="52.1754297" lon="5.5237694"/>
<trkpt lat="52.1772104" lon="5.5287803"/>
<trkpt lat="52.1792031" lon="5.5270213"/>
<trkpt lat="52.1792637" lon="5.5272458"/>
<trkpt lat="52.1801120" lon="5.5264553"/>
<trkpt lat="52.1817975" lon="5.5311984"/>
<trkpt lat="52.1835766" lon="5.5363907"/>
<trkpt lat="52.1859835" lon="5.5347198"/>
<trkpt lat="52.1846947" lon="5.5309020"/>
<trkpt lat="52.1860000" lon="5.5297252"/>
<trkpt lat="52.1835610" lon="5.5229057"/>
<trkpt lat="52.1834770" lon="5.5226969"/>
<trkpt lat="52.1839025" lon="5.5222823"/>
<trkpt lat="52.1838277" lon="5.5201446"/>
<trkpt lat="52.1832060" lon="5.5204668"/>
<trkpt lat="52.1831409" lon="5.5202780"/>
<trkpt lat="52.1825451" lon="5.5186997"/>
<trkpt lat="52.1822032" lon="5.5187954"/>
<trkpt lat="52.1818662" lon="5.5188797"/>
<trkpt lat="52.1815580" lon="5.5189144"/>
<trkpt lat="52.1814649" lon="5.5188878"/>
<trkpt lat="52.1806959" lon="5.5187747"/>
<trkpt lat="52.1784595" lon="5.5183256"/>
<trkpt lat="52.1781977" lon="5.5174958"/>
<trkpt lat="52.1792233" lon="5.5166739"/>
<trkpt lat="52.1784127" lon="5.5142564"/>
<trkpt lat="52.1795076" lon="5.5132562"/>
<trkpt lat="52.1793852" lon="5.5103747"/>
<trkpt lat="52.1803954" lon="5.5092117"/>
<trkpt lat="52.1812686" lon="5.5081545"/>
<trkpt lat="52.1820394" lon="5.5072088"/>
<trkpt lat="52.1823869" lon="5.5068810"/>
<trkpt lat="52.1831415" lon="5.5073482"/>
<trkpt lat="52.1833122" lon="5.5072943"/>
<trkpt lat="52.1837859" lon="5.5067014"/>
<trkpt lat="52.1839842" lon="5.5064409"/>
<trkpt lat="52.1846837" lon="5.5056054"/>
<trkpt lat="52.1844744" lon="5.5051922"/>
<trkpt lat="52.1841384" lon="5.5045275"/>
<trkpt lat="52.1838490" lon="5.5038797"/>
<trkpt lat="52.1840062" lon="5.5036920"/>
<trkpt lat="52.1836041" lon="5.5026051"/>
<trkpt lat="52.1848929" lon="5.5010240"/>
<trkpt lat="52.1846671" lon="5.5004671"/>
<trkpt lat="52.1848379" lon="5.5002515"/>
<trkpt lat="52.1852124" lon="5.4998203"/>
<trkpt lat="52.1851628" lon="5.4996945"/>
<trkpt lat="52.1850362" lon="5.4986704"/>
<trkpt lat="52.1849850" lon="5.4982176"/>
<trkpt lat="52.1850779" lon="5.4981287"/>
<trkpt lat="52.1848968" lon="5.4977037"/>
<trkpt lat="52.1848469" lon="5.4977345"/>
<trkpt lat="52.1846124" lon="5.4973576"/>
<trkpt lat="52.1837308" lon="5.4985087"/>
<trkpt lat="52.1828881" lon="5.4965414"/>
<trkpt lat="52.1826347" lon="5.4959665"/>
<trkpt lat="52.1822382" lon="5.4954185"/>
<trkpt lat="52.1820288" lon="5.4952928"/>
<trkpt lat="52.1819791" lon="5.4959802"/>
<trkpt lat="52.1815386" lon="5.4958514"/>
<trkpt lat="52.1815320" lon="5.4959480"/>
<trkpt lat="52.1796107" lon="5.4954634"/>
<trkpt lat="52.1795446" lon="5.4955982"/>
<trkpt lat="52.1785375" lon="5.4962189"/>
<trkpt lat="52.1772972" lon="5.4971343"/>
<trkpt lat="52.1769832" lon="5.4974308"/>
<trkpt lat="52.1766527" lon="5.4976733"/>
<trkpt lat="52.1768895" lon="5.4995418"/>
<trkpt lat="52.1775590" lon="5.5013125"/>
<trkpt lat="52.1774714" lon="5.5014146"/>
<trkpt lat="52.1773300" lon="5.5014736"/>
<trkpt lat="52.1769779" lon="5.5018224"/>
<trkpt lat="52.1768563" lon="5.5018384"/>
<trkpt lat="52.1765766" lon="5.5020959"/>
<trkpt lat="52.1765533" lon="5.5022086"/>
<trkpt lat="52.1761062" lon="5.5026216"/>
<trkpt lat="52.1761735" lon="5.5027827"/>
<trkpt lat="52.1763193" lon="5.5032472"/>
<trkpt lat="52.1763332" lon="5.5033029"/>
<trkpt lat="52.1762741" lon="5.5033673"/>
<trkpt lat="52.1764401" lon="5.5037233"/>
<trkpt lat="52.1762610" lon="5.5045641"/>
<trkpt lat="52.1763210" lon="5.5050231"/>
<trkpt lat="52.1753701" lon="5.5058794"/>
<trkpt lat="52.1758076" lon="5.5066989"/>
<trkpt lat="52.1757555" lon="5.5068506"/>
<trkpt lat="52.1756673" lon="5.5069221"/>
<trkpt lat="52.1757836" lon="5.5073021"/>
<trkpt lat="52.1758040" lon="5.5076227"/>
<trkpt lat="52.1759775" lon="5.5079353"/>
<trkpt lat="52.1759582" lon="5.5081148"/>
<trkpt lat="52.1763825" lon="5.5094344"/>
<trkpt lat="52.1750203" lon="5.5105622"/>
<trkpt lat="52.1743243" lon="5.5088860"/>
<trkpt lat="52.1737283" lon="5.5073923"/>
<trkpt lat="52.1719314" lon="5.5092256"/>
<trkpt lat="52.1730167" lon="5.5126213"/>
<trkpt lat="52.1711160" lon="5.5143820"/>
<trkpt lat="52.1704273" lon="5.5150377"/>
<trkpt lat="52.1696285" lon="5.5158462"/>
<trkpt lat="52.1687910" lon="5.5166188"/>
<trkpt lat="52.1679149" lon="5.5173823"/>
<trkpt lat="52.1674576" lon="5.5178315"/>
<trkpt lat="52.1670168" lon="5.5186579"/>
</trkseg></trk>
<trk><name>Terbroeksepad - Routeverkorter</name><type>shorteningRoute</type><trkseg>
<trkpt lat="52.1793723" lon="5.5102848"/>
<trkpt lat="52.1790833" lon="5.5037532"/>
<trkpt lat="52.1788629" lon="5.5032771"/>
<trkpt lat="52.1785049" lon="5.5030615"/>
<trkpt lat="52.1775590" lon="5.5013125"/>
</trkseg></trk>
<trk><name>Terbroeksepad - Routeverkorter</name><type>shorteningRoute</type><trkseg>
<trkpt lat="52.1736186" lon="5.5185215"/>
<trkpt lat="52.1753043" lon="5.5169764"/>
<trkpt lat="52.1784030" lon="5.5142188"/>
</trkseg></trk>
<trk><name>Terbroeksepad - Routeverlenger</name><type>extensionRoute</type><trkseg>
<trkpt lat="52.1820288" lon="5.4952928"/>
<trkpt lat="52.1815950" lon="5.4951025"/>
<trkpt lat="52.1812756" lon="5.4950486"/>
<trkpt lat="52.1811544" lon="5.4949228"/>
<trkpt lat="52.1811323" lon="5.4945814"/>
<trkpt lat="52.1812976" lon="5.4938179"/>
<trkpt lat="52.1813747" lon="5.4935035"/>
<trkpt lat="52.1814243" lon="5.4927758"/>
<trkpt lat="52.1819420" lon="5.4929645"/>
<trkpt lat="52.1824433" lon="5.4931172"/>
<trkpt lat="52.1827903" lon="5.4932340"/>
<trkpt lat="52.1829500" lon="5.4932519"/>
<trkpt lat="52.1833245" lon="5.4928207"/>
<trkpt lat="52.1828564" lon="5.4919673"/>
<trkpt lat="52.1823882" lon="5.4919314"/>
<trkpt lat="52.1819200" lon="5.4919404"/>
<trkpt lat="52.1815069" lon="5.4919045"/>
<trkpt lat="52.1814904" lon="5.4922099"/>
<trkpt lat="52.1814739" lon="5.4927399"/>
<trkpt lat="52.1814794" lon="5.4927848"/>
</trkseg></trk>
<trk><name>Terbroeksepad - Overstaproute</name><type>connectionRoute</type><trkseg>
<trkpt lat="52.1670810" lon="5.5187308"/>
<trkpt lat="52.1668253" lon="5.5188360"/>
<trkpt lat="52.1653082" lon="5.5195042"/>
<trkpt lat="52.1645099" lon="5.5198181"/>
<trkpt lat="52.1641750" lon="5.5199499"/>
<trkpt lat="52.1638829" lon="5.5201205"/>
<trkpt lat="52.1636460" lon="5.5205068"/>
<trkpt lat="52.1635468" lon="5.5215489"/>
<trkpt lat="52.1635192" lon="5.5221687"/>
<trkpt lat="52.1634200" lon="5.5224741"/>
<trkpt lat="52.1632768" lon="5.5225999"/>
<trkpt lat="52.1619653" lon="5.5226538"/>
<trkpt lat="52.1617228" lon="5.5224292"/>
<trkpt lat="52.1613520" lon="5.5213768"/>
<trkpt lat="52.1605711" lon="5.5190156"/>
<trkpt lat="52.1605160" lon="5.5188360"/>
<trkpt lat="52.1604058" lon="5.5189976"/>
<trkpt lat="52.1604003" lon="5.5193210"/>
<trkpt lat="52.1605733" lon="5.5199536"/>
<trkpt lat="52.1608797" lon="5.5207314"/>
<trkpt lat="52.1613018" lon="5.5220904"/>
<trkpt lat="52.1614142" lon="5.5224831"/>
<trkpt lat="52.1615795" lon="5.5228874"/>
<trkpt lat="52.1617724" lon="5.5230940"/>
<trkpt lat="52.1622133" lon="5.5231389"/>
<trkpt lat="52.1623014" lon="5.5233455"/>
<trkpt lat="52.1624075" lon="5.5272198"/>
<trkpt lat="52.1624758" lon="5.5297019"/>
<trkpt lat="52.1624788" lon="5.5305052"/>
<trkpt lat="52.1624526" lon="5.5336295"/>
<trkpt lat="52.1624036" lon="5.5386352"/>
<trkpt lat="52.1624006" lon="5.5388774"/>
<trkpt lat="52.1623124" lon="5.5389223"/>
<trkpt lat="52.1611505" lon="5.5384016"/>
<trkpt lat="52.1599664" lon="5.5379038"/>
<trkpt lat="52.1594028" lon="5.5378713"/>
<trkpt lat="52.1591107" lon="5.5383653"/>
<trkpt lat="52.1587139" lon="5.5408357"/>
<trkpt lat="52.1584108" lon="5.5419137"/>
<trkpt lat="52.1580361" lon="5.5420844"/>
<trkpt lat="52.1570827" lon="5.5420754"/>
<trkpt lat="52.1567685" lon="5.5423359"/>
<trkpt lat="52.1566914" lon="5.5425964"/>
<trkpt lat="52.1558920" lon="5.5424197"/>
</trkseg></trk>
<trk><name>Terbroeksepad - Overstaproute</name><type>connectionRoute</type><trkseg>
<trkpt lat="52.1797790" lon="5.4617680"/>
<trkpt lat="52.1796656" lon="5.4619088"/>
<trkpt lat="52.1794485" lon="5.4626025"/>
<trkpt lat="52.1792680" lon="5.4634589"/>
<trkpt lat="52.1791912" lon="5.4636269"/>
<trkpt lat="52.1790206" lon="5.4644453"/>
<trkpt lat="52.1789331" lon="5.4657357"/>
<trkpt lat="52.1789546" lon="5.4684497"/>
<trkpt lat="52.1789602" lon="5.4699868"/>
<trkpt lat="52.1790623" lon="5.4716734"/>
<trkpt lat="52.1790003" lon="5.4745416"/>
<trkpt lat="52.1790057" lon="5.4761141"/>
<trkpt lat="52.1788612" lon="5.4776700"/>
<trkpt lat="52.1788577" lon="5.4779194"/>
<trkpt lat="52.1791000" lon="5.4792484"/>
<trkpt lat="52.1793859" lon="5.4802413"/>
<trkpt lat="52.1795357" lon="5.4805181"/>
<trkpt lat="52.1796289" lon="5.4805943"/>
<trkpt lat="52.1805589" lon="5.4806342"/>
<trkpt lat="52.1806622" lon="5.4807049"/>
<trkpt lat="52.1807587" lon="5.4809654"/>
<trkpt lat="52.1809044" lon="5.4821749"/>
<trkpt lat="52.1810100" lon="5.4834277"/>
<trkpt lat="52.1810829" lon="5.4839430"/>
<trkpt lat="52.1814617" lon="5.4854134"/>
<trkpt lat="52.1815583" lon="5.4855275"/>
<trkpt lat="52.1815061" lon="5.4880597"/>
<trkpt lat="52.1814253" lon="5.4927935"/>
</trkseg></trk>
<trk><name>Terbroeksepad - Aanlooproute </name><type>approachRoute</type><trkseg>
<trkpt lat="52.1773354" lon="5.5084567"/>
<trkpt lat="52.1773775" lon="5.5085347"/>
<trkpt lat="52.1768397" lon="5.5089861"/>
<trkpt lat="52.1763825" lon="5.5094344"/>
</trkseg></trk>
<trk><name>Terbroeksepad - Geimporteerde shapefile</name><type>detourRoute</type><trkseg>
<trkpt lat="52.1835212" lon="5.5228068"/>
<trkpt lat="52.1831157" lon="5.5231855"/>
<trkpt lat="52.1830065" lon="5.5231685"/>
<trkpt lat="52.1829279" lon="5.5232571"/>
<trkpt lat="52.1823648" lon="5.5216505"/>
<trkpt lat="52.1813895" lon="5.5188767"/>
</trkseg></trk>
</gpx>