<?xml version="1.0" encoding="UTF-8"?>
<gpx version="1.1" creator="klompenpaden.nl via Jimbo API" xmlns="http://www.topografix.com/GPX/1/1">
<metadata><name>Termatenpad</name><desc>Ontdek het mooie buitengebied van Leusden en Woudenberg. Wandelen langs de Grift en over landgoederen. Geniet van de lokale geschiedenis, bijzondere planten en buitenhuizen. Klompen aan en gaan!</desc><link href="https://www.klompenpaden.nl/klompenpaden/Termatenpad/624db612-68e4-42c8-812d-6c508339f273"><text>klompenpaden.nl</text></link></metadata>
<wpt lat="52.10576714900491" lon="5.4272836446762085"><name>Start Leusden</name></wpt>
<trk><name>Termatenpad - mainRoute</name><type>mainRoute</type><trkseg>
<trkpt lat="52.1056500" lon="5.4271900"/>
<trkpt lat="52.1015400" lon="5.4308100"/>
<trkpt lat="52.1016100" lon="5.4309800"/>
<trkpt lat="52.0980900" lon="5.4341800"/>
<trkpt lat="52.0982600" lon="5.4347900"/>
<trkpt lat="52.0984000" lon="5.4350300"/>
<trkpt lat="52.0985200" lon="5.4351700"/>
<trkpt lat="52.0986100" lon="5.4354600"/>
<trkpt lat="52.0985800" lon="5.4355900"/>
<trkpt lat="52.0986400" lon="5.4357200"/>
<trkpt lat="52.0981200" lon="5.4366600"/>
<trkpt lat="52.0955800" lon="5.4407000"/>
<trkpt lat="52.0945900" lon="5.4424100"/>
<trkpt lat="52.0940100" lon="5.4431900"/>
<trkpt lat="52.0924900" lon="5.4437100"/>
<trkpt lat="52.0920600" lon="5.4438300"/>
<trkpt lat="52.0920100" lon="5.4438300"/>
<trkpt lat="52.0918700" lon="5.4439000"/>
<trkpt lat="52.0917600" lon="5.4440000"/>
<trkpt lat="52.0916300" lon="5.4440000"/>
<trkpt lat="52.0915500" lon="5.4441500"/>
<trkpt lat="52.0913900" lon="5.4447300"/>
<trkpt lat="52.0911000" lon="5.4452300"/>
<trkpt lat="52.0908400" lon="5.4459000"/>
<trkpt lat="52.0899900" lon="5.4481900"/>
<trkpt lat="52.0897600" lon="5.4488700"/>
<trkpt lat="52.0893800" lon="5.4485600"/>
<trkpt lat="52.0894600" lon="5.4483200"/>
<trkpt lat="52.0897600" lon="5.4468700"/>
<trkpt lat="52.0896900" lon="5.4467800"/>
<trkpt lat="52.0894300" lon="5.4465700"/>
<trkpt lat="52.0884900" lon="5.4457300"/>
<trkpt lat="52.0883100" lon="5.4454900"/>
<trkpt lat="52.0876900" lon="5.4442800"/>
<trkpt lat="52.0874700" lon="5.4438300"/>
<trkpt lat="52.0871100" lon="5.4433500"/>
<trkpt lat="52.0864700" lon="5.4427500"/>
<trkpt lat="52.0858700" lon="5.4423400"/>
<trkpt lat="52.0857400" lon="5.4422200"/>
<trkpt lat="52.0856300" lon="5.4415200"/>
<trkpt lat="52.0854900" lon="5.4409000"/>
<trkpt lat="52.0850800" lon="5.4386500"/>
<trkpt lat="52.0855100" lon="5.4381700"/>
<trkpt lat="52.0855500" lon="5.4380700"/>
<trkpt lat="52.0857100" lon="5.4370700"/>
<trkpt lat="52.0864800" lon="5.4317700"/>
<trkpt lat="52.0869200" lon="5.4288300"/>
<trkpt lat="52.0871200" lon="5.4276700"/>
<trkpt lat="52.0872400" lon="5.4267700"/>
<trkpt lat="52.0873600" lon="5.4249900"/>
<trkpt lat="52.0851000" lon="5.4233200"/>
<trkpt lat="52.0861700" lon="5.4162400"/>
<trkpt lat="52.0874800" lon="5.4099400"/>
<trkpt lat="52.0876700" lon="5.4101700"/>
<trkpt lat="52.0878900" lon="5.4104200"/>
<trkpt lat="52.0881600" lon="5.4105500"/>
<trkpt lat="52.0882700" lon="5.4106600"/>
<trkpt lat="52.0884400" lon="5.4108600"/>
<trkpt lat="52.0885500" lon="5.4109100"/>
<trkpt lat="52.0893400" lon="5.4109300"/>
<trkpt lat="52.0895700" lon="5.4109100"/>
<trkpt lat="52.0896400" lon="5.4108600"/>
<trkpt lat="52.0896800" lon="5.4108000"/>
<trkpt lat="52.0897100" lon="5.4107100"/>
<trkpt lat="52.0897700" lon="5.4102300"/>
<trkpt lat="52.0921600" lon="5.4108300"/>
<trkpt lat="52.0926100" lon="5.4028600"/>
<trkpt lat="52.0926800" lon="5.4026100"/>
<trkpt lat="52.0928500" lon="5.4022700"/>
<trkpt lat="52.0929400" lon="5.4020600"/>
<trkpt lat="52.0928700" lon="5.4018600"/>
<trkpt lat="52.0928000" lon="5.4015700"/>
<trkpt lat="52.0927400" lon="5.4014100"/>
<trkpt lat="52.0927500" lon="5.4009600"/>
<trkpt lat="52.0940300" lon="5.4013700"/>
<trkpt lat="52.1039300" lon="5.4043800"/>
<trkpt lat="52.1040100" lon="5.4042800"/>
<trkpt lat="52.1043400" lon="5.4027600"/>
<trkpt lat="52.1044000" lon="5.4024100"/>
<trkpt lat="52.1043100" lon="5.4006900"/>
<trkpt lat="52.1043600" lon="5.4003000"/>
<trkpt lat="52.1045100" lon="5.3996600"/>
<trkpt lat="52.1045400" lon="5.3992700"/>
<trkpt lat="52.1045900" lon="5.3953900"/>
<trkpt lat="52.1056800" lon="5.3951500"/>
<trkpt lat="52.1057200" lon="5.3950800"/>
<trkpt lat="52.1057100" lon="5.3936300"/>
<trkpt lat="52.1058100" lon="5.3933600"/>
<trkpt lat="52.1058500" lon="5.3933100"/>
<trkpt lat="52.1059000" lon="5.3932800"/>
<trkpt lat="52.1059500" lon="5.3933100"/>
<trkpt lat="52.1061100" lon="5.3928200"/>
<trkpt lat="52.1064300" lon="5.3921200"/>
<trkpt lat="52.1065300" lon="5.3915700"/>
<trkpt lat="52.1066900" lon="5.3915800"/>
<trkpt lat="52.1067200" lon="5.3915200"/>
<trkpt lat="52.1072100" lon="5.3916900"/>
<trkpt lat="52.1098900" lon="5.3927200"/>
<trkpt lat="52.1105100" lon="5.3929300"/>
<trkpt lat="52.1108400" lon="5.3930100"/>
<trkpt lat="52.1138000" lon="5.3934300"/>
<trkpt lat="52.1135700" lon="5.3948800"/>
<trkpt lat="52.1135700" lon="5.3950500"/>
<trkpt lat="52.1136700" lon="5.3953000"/>
<trkpt lat="52.1139700" lon="5.3959000"/>
<trkpt lat="52.1139700" lon="5.4000600"/>
<trkpt lat="52.1140000" lon="5.4010800"/>
<trkpt lat="52.1140000" lon="5.4030100"/>
<trkpt lat="52.1139600" lon="5.4033300"/>
<trkpt lat="52.1142000" lon="5.4042700"/>
<trkpt lat="52.1141700" lon="5.4046000"/>
<trkpt lat="52.1141600" lon="5.4049800"/>
<trkpt lat="52.1141900" lon="5.4052900"/>
<trkpt lat="52.1143000" lon="5.4054600"/>
<trkpt lat="52.1148700" lon="5.4057900"/>
<trkpt lat="52.1146500" lon="5.4075500"/>
<trkpt lat="52.1146800" lon="5.4078100"/>
<trkpt lat="52.1144900" lon="5.4090000"/>
<trkpt lat="52.1147100" lon="5.4089900"/>
<trkpt lat="52.1153600" lon="5.4091400"/>
<trkpt lat="52.1138200" lon="5.4197200"/>
<trkpt lat="52.1137000" lon="5.4198300"/>
<trkpt lat="52.1136600" lon="5.4199000"/>
<trkpt lat="52.1136400" lon="5.4199700"/>
<trkpt lat="52.1136500" lon="5.4200900"/>
<trkpt lat="52.1116500" lon="5.4218600"/>
<trkpt lat="52.1068900" lon="5.4262000"/>
<trkpt lat="52.1058100" lon="5.4272800"/>
<trkpt lat="52.1057600" lon="5.4272700"/>
<trkpt lat="52.1057300" lon="5.4272000"/>
<trkpt lat="52.1056800" lon="5.4271800"/>
<trkpt lat="52.1056400" lon="5.4271900"/>
</trkseg></trk>
<trk><name>Termatenpad - Geimporteerde shapefile</name><type>connectionRoute</type><trkseg>
<trkpt lat="52.1486476" lon="5.4234713"/>
<trkpt lat="52.1484715" lon="5.4235101"/>
<trkpt lat="52.1479764" lon="5.4234990"/>
<trkpt lat="52.1472812" lon="5.4235587"/>
<trkpt lat="52.1472915" lon="5.4237284"/>
<trkpt lat="52.1471712" lon="5.4240117"/>
<trkpt lat="52.1471604" lon="5.4254317"/>
<trkpt lat="52.1470634" lon="5.4268037"/>
<trkpt lat="52.1468740" lon="5.4292343"/>
<trkpt lat="52.1466920" lon="5.4300948"/>
<trkpt lat="52.1463934" lon="5.4308534"/>
<trkpt lat="52.1460942" lon="5.4313188"/>
<trkpt lat="52.1451244" lon="5.4327493"/>
<trkpt lat="52.1443814" lon="5.4336959"/>
<trkpt lat="52.1435867" lon="5.4347201"/>
<trkpt lat="52.1430851" lon="5.4354109"/>
<trkpt lat="52.1428731" lon="5.4358443"/>
<trkpt lat="52.1427123" lon="5.4363105"/>
<trkpt lat="52.1425699" lon="5.4369115"/>
<trkpt lat="52.1425231" lon="5.4375528"/>
<trkpt lat="52.1424803" lon="5.4389799"/>
<trkpt lat="52.1424373" lon="5.4398653"/>
<trkpt lat="52.1423500" lon="5.4404585"/>
<trkpt lat="52.1421646" lon="5.4413359"/>
<trkpt lat="52.1419056" lon="5.4411868"/>
<trkpt lat="52.1416739" lon="5.4410995"/>
<trkpt lat="52.1415519" lon="5.4411020"/>
<trkpt lat="52.1415024" lon="5.4413074"/>
<trkpt lat="52.1413255" lon="5.4415808"/>
<trkpt lat="52.1411482" lon="5.4418270"/>
<trkpt lat="52.1408589" lon="5.4421408"/>
<trkpt lat="52.1408084" lon="5.4422685"/>
<trkpt lat="52.1407614" lon="5.4422936"/>
<trkpt lat="52.1406012" lon="5.4424973"/>
<trkpt lat="52.1405653" lon="5.4425882"/>
<trkpt lat="52.1402106" lon="5.4431155"/>
<trkpt lat="52.1401239" lon="5.4431552"/>
<trkpt lat="52.1399111" lon="5.4434507"/>
<trkpt lat="52.1397775" lon="5.4439248"/>
<trkpt lat="52.1397282" lon="5.4443280"/>
<trkpt lat="52.1395579" lon="5.4450212"/>
<trkpt lat="52.1393138" lon="5.4460312"/>
<trkpt lat="52.1391075" lon="5.4468835"/>
<trkpt lat="52.1391011" lon="5.4471554"/>
<trkpt lat="52.1390721" lon="5.4472157"/>
<trkpt lat="52.1389441" lon="5.4472777"/>
<trkpt lat="52.1388635" lon="5.4472448"/>
<trkpt lat="52.1386491" lon="5.4472081"/>
<trkpt lat="52.1385757" lon="5.4471773"/>
<trkpt lat="52.1382835" lon="5.4471499"/>
<trkpt lat="52.1381469" lon="5.4471369"/>
<trkpt lat="52.1379041" lon="5.4470952"/>
<trkpt lat="52.1377465" lon="5.4470671"/>
<trkpt lat="52.1374615" lon="5.4470457"/>
<trkpt lat="52.1373028" lon="5.4470481"/>
<trkpt lat="52.1371595" lon="5.4471098"/>
<trkpt lat="52.1368857" lon="5.4470459"/>
<trkpt lat="52.1367178" lon="5.4470592"/>
<trkpt lat="52.1366329" lon="5.4469870"/>
<trkpt lat="52.1364197" lon="5.4470244"/>
<trkpt lat="52.1362943" lon="5.4470292"/>
<trkpt lat="52.1360757" lon="5.4468755"/>
<trkpt lat="52.1359291" lon="5.4467537"/>
<trkpt lat="52.1358633" lon="5.4467409"/>
<trkpt lat="52.1358283" lon="5.4468196"/>
<trkpt lat="52.1357356" lon="5.4468314"/>
<trkpt lat="52.1356008" lon="5.4469446"/>
<trkpt lat="52.1354535" lon="5.4469941"/>
<trkpt lat="52.1352649" lon="5.4469704"/>
<trkpt lat="52.1349115" lon="5.4469297"/>
<trkpt lat="52.1347403" lon="5.4468681"/>
<trkpt lat="52.1345983" lon="5.4469018"/>
<trkpt lat="52.1344597" lon="5.4468759"/>
<trkpt lat="52.1343301" lon="5.4468217"/>
<trkpt lat="52.1342067" lon="5.4468224"/>
<trkpt lat="52.1340518" lon="5.4467995"/>
<trkpt lat="52.1337986" lon="5.4466710"/>
<trkpt lat="52.1336292" lon="5.4465817"/>
<trkpt lat="52.1335484" lon="5.4465608"/>
<trkpt lat="52.1333303" lon="5.4465221"/>
<trkpt lat="52.1330971" lon="5.4465064"/>
<trkpt lat="52.1329319" lon="5.4465125"/>
<trkpt lat="52.1327321" lon="5.4464832"/>
<trkpt lat="52.1325514" lon="5.4464483"/>
<trkpt lat="52.1322520" lon="5.4464330"/>
<trkpt lat="52.1320655" lon="5.4463592"/>
<trkpt lat="52.1319916" lon="5.4463088"/>
<trkpt lat="52.1318688" lon="5.4463880"/>
<trkpt lat="52.1317915" lon="5.4463828"/>
<trkpt lat="52.1315530" lon="5.4463785"/>
<trkpt lat="52.1314271" lon="5.4464374"/>
<trkpt lat="52.1313476" lon="5.4464402"/>
<trkpt lat="52.1311746" lon="5.4464667"/>
<trkpt lat="52.1307981" lon="5.4464597"/>
<trkpt lat="52.1307356" lon="5.4464820"/>
<trkpt lat="52.1306540" lon="5.4464810"/>
<trkpt lat="52.1305942" lon="5.4464776"/>
<trkpt lat="52.1305210" lon="5.4464725"/>
<trkpt lat="52.1304042" lon="5.4464362"/>
<trkpt lat="52.1303119" lon="5.4464193"/>
<trkpt lat="52.1302401" lon="5.4464076"/>
<trkpt lat="52.1302069" lon="5.4464022"/>
<trkpt lat="52.1301901" lon="5.4463995"/>
<trkpt lat="52.1301624" lon="5.4463960"/>
<trkpt lat="52.1301125" lon="5.4463901"/>
<trkpt lat="52.1300263" lon="5.4463801"/>
<trkpt lat="52.1299601" lon="5.4463716"/>
<trkpt lat="52.1299099" lon="5.4463735"/>
<trkpt lat="52.1298631" lon="5.4463759"/>
<trkpt lat="52.1298243" lon="5.4463622"/>
<trkpt lat="52.1297911" lon="5.4463517"/>
<trkpt lat="52.1297587" lon="5.4463402"/>
<trkpt lat="52.1297097" lon="5.4463219"/>
<trkpt lat="52.1296893" lon="5.4463253"/>
<trkpt lat="52.1296061" lon="5.4463325"/>
<trkpt lat="52.1295624" lon="5.4463364"/>
<trkpt lat="52.1295101" lon="5.4463408"/>
<trkpt lat="52.1294448" lon="5.4463470"/>
<trkpt lat="52.1294177" lon="5.4463531"/>
<trkpt lat="52.1293625" lon="5.4463679"/>
<trkpt lat="52.1293288" lon="5.4463636"/>
<trkpt lat="52.1292433" lon="5.4463539"/>
<trkpt lat="52.1291833" lon="5.4463477"/>
<trkpt lat="52.1291116" lon="5.4463385"/>
<trkpt lat="52.1290431" lon="5.4463285"/>
<trkpt lat="52.1289896" lon="5.4463152"/>
<trkpt lat="52.1289459" lon="5.4463045"/>
<trkpt lat="52.1289009" lon="5.4462954"/>
<trkpt lat="52.1288614" lon="5.4462885"/>
<trkpt lat="52.1288237" lon="5.4462816"/>
<trkpt lat="52.1288033" lon="5.4462777"/>
<trkpt lat="52.1287905" lon="5.4462790"/>
<trkpt lat="52.1287595" lon="5.4462826"/>
<trkpt lat="52.1287172" lon="5.4462891"/>
<trkpt lat="52.1286377" lon="5.4462837"/>
<trkpt lat="52.1285790" lon="5.4462837"/>
<trkpt lat="52.1285048" lon="5.4462854"/>
<trkpt lat="52.1284861" lon="5.4462843"/>
<trkpt lat="52.1284556" lon="5.4462837"/>
<trkpt lat="52.1284134" lon="5.4462832"/>
<trkpt lat="52.1283536" lon="5.4462779"/>
<trkpt lat="52.1282671" lon="5.4462701"/>
<trkpt lat="52.1281884" lon="5.4462344"/>
<trkpt lat="52.1281109" lon="5.4462002"/>
<trkpt lat="52.1280776" lon="5.4461938"/>
<trkpt lat="52.1280495" lon="5.4462610"/>
<trkpt lat="52.1280232" lon="5.4462758"/>
<trkpt lat="52.1279833" lon="5.4462379"/>
<trkpt lat="52.1279704" lon="5.4462316"/>
<trkpt lat="52.1279152" lon="5.4462078"/>
<trkpt lat="52.1278787" lon="5.4461991"/>
<trkpt lat="52.1278030" lon="5.4461558"/>
<trkpt lat="52.1277803" lon="5.4461675"/>
<trkpt lat="52.1277205" lon="5.4461695"/>
<trkpt lat="52.1276310" lon="5.4461785"/>
<trkpt lat="52.1275689" lon="5.4461849"/>
<trkpt lat="52.1275267" lon="5.4461812"/>
<trkpt lat="52.1275093" lon="5.4461738"/>
<trkpt lat="52.1274712" lon="5.4461529"/>
<trkpt lat="52.1274551" lon="5.4461432"/>
<trkpt lat="52.1274280" lon="5.4461395"/>
<trkpt lat="52.1273741" lon="5.4461400"/>
<trkpt lat="52.1272781" lon="5.4461380"/>
<trkpt lat="52.1272027" lon="5.4461370"/>
<trkpt lat="52.1271786" lon="5.4461345"/>
<trkpt lat="52.1271012" lon="5.4461315"/>
<trkpt lat="52.1270612" lon="5.4461105"/>
<trkpt lat="52.1270417" lon="5.4460998"/>
<trkpt lat="52.1270039" lon="5.4460941"/>
<trkpt lat="52.1269871" lon="5.4460929"/>
<trkpt lat="52.1269451" lon="5.4460884"/>
<trkpt lat="52.1268988" lon="5.4460894"/>
<trkpt lat="52.1268806" lon="5.4460925"/>
<trkpt lat="52.1268487" lon="5.4460932"/>
<trkpt lat="52.1268329" lon="5.4460841"/>
<trkpt lat="52.1268035" lon="5.4460831"/>
<trkpt lat="52.1267589" lon="5.4461008"/>
<trkpt lat="52.1267280" lon="5.4460999"/>
<trkpt lat="52.1266666" lon="5.4460668"/>
<trkpt lat="52.1266408" lon="5.4460556"/>
<trkpt lat="52.1265829" lon="5.4460562"/>
<trkpt lat="52.1264797" lon="5.4460558"/>
<trkpt lat="52.1263770" lon="5.4460470"/>
<trkpt lat="52.1263111" lon="5.4460356"/>
<trkpt lat="52.1262731" lon="5.4460212"/>
<trkpt lat="52.1262058" lon="5.4459989"/>
<trkpt lat="52.1261314" lon="5.4459886"/>
<trkpt lat="52.1260523" lon="5.4459856"/>
<trkpt lat="52.1260241" lon="5.4459746"/>
<trkpt lat="52.1260013" lon="5.4459673"/>
<trkpt lat="52.1259596" lon="5.4459694"/>
<trkpt lat="52.1259184" lon="5.4459706"/>
<trkpt lat="52.1258865" lon="5.4459672"/>
<trkpt lat="52.1258297" lon="5.4459478"/>
<trkpt lat="52.1258003" lon="5.4459459"/>
<trkpt lat="52.1256682" lon="5.4459476"/>
<trkpt lat="52.1256418" lon="5.4459455"/>
<trkpt lat="52.1256124" lon="5.4459307"/>
<trkpt lat="52.1254330" lon="5.4459144"/>
<trkpt lat="52.1254197" lon="5.4459071"/>
<trkpt lat="52.1253538" lon="5.4458969"/>
<trkpt lat="52.1252746" lon="5.4458931"/>
<trkpt lat="52.1252408" lon="5.4458762"/>
<trkpt lat="52.1251935" lon="5.4458825"/>
<trkpt lat="52.1251258" lon="5.4458781"/>
<trkpt lat="52.1250852" lon="5.4458839"/>
<trkpt lat="52.1250723" lon="5.4458733"/>
<trkpt lat="52.1250174" lon="5.4458677"/>
<trkpt lat="52.1249648" lon="5.4458343"/>
<trkpt lat="52.1249302" lon="5.4458618"/>
<trkpt lat="52.1248677" lon="5.4458677"/>
<trkpt lat="52.1247817" lon="5.4458603"/>
<trkpt lat="52.1247344" lon="5.4458379"/>
<trkpt lat="52.1245888" lon="5.4457963"/>
<trkpt lat="52.1245507" lon="5.4457697"/>
<trkpt lat="52.1245256" lon="5.4457649"/>
<trkpt lat="52.1244723" lon="5.4457960"/>
<trkpt lat="52.1242473" lon="5.4457759"/>
<trkpt lat="52.1242314" lon="5.4457661"/>
<trkpt lat="52.1240265" lon="5.4457444"/>
<trkpt lat="52.1238802" lon="5.4457572"/>
<trkpt lat="52.1234920" lon="5.4457127"/>
<trkpt lat="52.1232243" lon="5.4456682"/>
<trkpt lat="52.1231298" lon="5.4456385"/>
<trkpt lat="52.1229824" lon="5.4455718"/>
<trkpt lat="52.1222539" lon="5.4451402"/>
<trkpt lat="52.1218215" lon="5.4448527"/>
<trkpt lat="52.1215399" lon="5.4446568"/>
<trkpt lat="52.1213223" lon="5.4445557"/>
<trkpt lat="52.1211035" lon="5.4444186"/>
<trkpt lat="52.1209390" lon="5.4443031"/>
<trkpt lat="52.1204678" lon="5.4440169"/>
<trkpt lat="52.1202530" lon="5.4438955"/>
<trkpt lat="52.1202226" lon="5.4438692"/>
<trkpt lat="52.1201626" lon="5.4438188"/>
<trkpt lat="52.1200562" lon="5.4437531"/>
<trkpt lat="52.1199645" lon="5.4437148"/>
<trkpt lat="52.1197729" lon="5.4435988"/>
<trkpt lat="52.1195196" lon="5.4434392"/>
<trkpt lat="52.1193515" lon="5.4433561"/>
<trkpt lat="52.1192906" lon="5.4432967"/>
<trkpt lat="52.1191817" lon="5.4432197"/>
<trkpt lat="52.1190330" lon="5.4431084"/>
<trkpt lat="52.1189384" lon="5.4430240"/>
<trkpt lat="52.1187984" lon="5.4429713"/>
<trkpt lat="52.1186044" lon="5.4428528"/>
<trkpt lat="52.1184280" lon="5.4427433"/>
<trkpt lat="52.1176718" lon="5.4422765"/>
<trkpt lat="52.1172941" lon="5.4420404"/>
<trkpt lat="52.1168598" lon="5.4417755"/>
<trkpt lat="52.1165042" lon="5.4415489"/>
<trkpt lat="52.1161219" lon="5.4413173"/>
<trkpt lat="52.1157052" lon="5.4410681"/>
<trkpt lat="52.1149737" lon="5.4406047"/>
<trkpt lat="52.1148730" lon="5.4405621"/>
<trkpt lat="52.1149025" lon="5.4403625"/>
<trkpt lat="52.1147916" lon="5.4403090"/>
<trkpt lat="52.1146118" lon="5.4402000"/>
<trkpt lat="52.1145178" lon="5.4402998"/>
<trkpt lat="52.1144496" lon="5.4403335"/>
<trkpt lat="52.1143741" lon="5.4403043"/>
<trkpt lat="52.1142852" lon="5.4402191"/>
<trkpt lat="52.1135787" lon="5.4398147"/>
<trkpt lat="52.1133934" lon="5.4397084"/>
<trkpt lat="52.1122493" lon="5.4390054"/>
<trkpt lat="52.1120831" lon="5.4388742"/>
<trkpt lat="52.1119336" lon="5.4388209"/>
<trkpt lat="52.1116785" lon="5.4386838"/>
<trkpt lat="52.1111236" lon="5.4383089"/>
<trkpt lat="52.1106047" lon="5.4379252"/>
<trkpt lat="52.1102431" lon="5.4376436"/>
<trkpt lat="52.1097128" lon="5.4372116"/>
<trkpt lat="52.1094171" lon="5.4369791"/>
<trkpt lat="52.1092117" lon="5.4368180"/>
<trkpt lat="52.1088712" lon="5.4365602"/>
<trkpt lat="52.1085303" lon="5.4363140"/>
<trkpt lat="52.1083063" lon="5.4361483"/>
<trkpt lat="52.1074242" lon="5.4354991"/>
<trkpt lat="52.1071520" lon="5.4353077"/>
<trkpt lat="52.1069739" lon="5.4351816"/>
<trkpt lat="52.1065740" lon="5.4350338"/>
<trkpt lat="52.1063593" lon="5.4349598"/>
<trkpt lat="52.1059632" lon="5.4348190"/>
<trkpt lat="52.1056371" lon="5.4346964"/>
<trkpt lat="52.1055927" lon="5.4346359"/>
</trkseg></trk>
<trk><name>Termatenpad - Geimporteerde shapefile</name><type>connectionRoute</type><trkseg>
<trkpt lat="52.1056039" lon="5.4346515"/>
<trkpt lat="52.1069702" lon="5.4351877"/>
<trkpt lat="52.1072188" lon="5.4353555"/>
<trkpt lat="52.1080355" lon="5.4359439"/>
<trkpt lat="52.1087100" lon="5.4364476"/>
<trkpt lat="52.1093027" lon="5.4368804"/>
<trkpt lat="52.1097689" lon="5.4372563"/>
<trkpt lat="52.1105704" lon="5.4379022"/>
<trkpt lat="52.1110222" lon="5.4382380"/>
<trkpt lat="52.1118050" lon="5.4387609"/>
<trkpt lat="52.1120911" lon="5.4388851"/>
<trkpt lat="52.1122547" lon="5.4390079"/>
<trkpt lat="52.1130217" lon="5.4394791"/>
<trkpt lat="52.1134459" lon="5.4397418"/>
<trkpt lat="52.1142905" lon="5.4402233"/>
<trkpt lat="52.1143750" lon="5.4403049"/>
<trkpt lat="52.1144460" lon="5.4403400"/>
<trkpt lat="52.1145248" lon="5.4402940"/>
<trkpt lat="52.1146110" lon="5.4402028"/>
<trkpt lat="52.1149008" lon="5.4403637"/>
<trkpt lat="52.1148723" lon="5.4405557"/>
<trkpt lat="52.1153217" lon="5.4408202"/>
<trkpt lat="52.1160906" lon="5.4412987"/>
<trkpt lat="52.1165480" lon="5.4415785"/>
<trkpt lat="52.1168564" lon="5.4417756"/>
<trkpt lat="52.1171524" lon="5.4419561"/>
<trkpt lat="52.1178396" lon="5.4423857"/>
<trkpt lat="52.1184997" lon="5.4427849"/>
<trkpt lat="52.1187863" lon="5.4429699"/>
<trkpt lat="52.1189321" lon="5.4430219"/>
<trkpt lat="52.1190152" lon="5.4430908"/>
<trkpt lat="52.1192897" lon="5.4432971"/>
<trkpt lat="52.1193507" lon="5.4433575"/>
<trkpt lat="52.1195108" lon="5.4434279"/>
<trkpt lat="52.1199558" lon="5.4437136"/>
<trkpt lat="52.1200522" lon="5.4437559"/>
<trkpt lat="52.1202154" lon="5.4438560"/>
<trkpt lat="52.1202552" lon="5.4439024"/>
<trkpt lat="52.1204373" lon="5.4440010"/>
<trkpt lat="52.1210128" lon="5.4443519"/>
<trkpt lat="52.1211201" lon="5.4444312"/>
<trkpt lat="52.1213150" lon="5.4445488"/>
<trkpt lat="52.1215610" lon="5.4446644"/>
<trkpt lat="52.1216743" lon="5.4447493"/>
<trkpt lat="52.1218717" lon="5.4448848"/>
<trkpt lat="52.1221672" lon="5.4450807"/>
<trkpt lat="52.1225384" lon="5.4453098"/>
<trkpt lat="52.1228084" lon="5.4454738"/>
<trkpt lat="52.1229484" lon="5.4455568"/>
<trkpt lat="52.1231142" lon="5.4456331"/>
<trkpt lat="52.1232312" lon="5.4456707"/>
<trkpt lat="52.1234453" lon="5.4457104"/>
<trkpt lat="52.1238880" lon="5.4457554"/>
<trkpt lat="52.1240365" lon="5.4457432"/>
<trkpt lat="52.1244763" lon="5.4457953"/>
<trkpt lat="52.1245162" lon="5.4457685"/>
<trkpt lat="52.1245476" lon="5.4457661"/>
<trkpt lat="52.1245891" lon="5.4457965"/>
<trkpt lat="52.1247442" lon="5.4458424"/>
<trkpt lat="52.1247757" lon="5.4458641"/>
<trkpt lat="52.1248729" lon="5.4458720"/>
<trkpt lat="52.1249330" lon="5.4458600"/>
<trkpt lat="52.1249630" lon="5.4458326"/>
<trkpt lat="52.1250085" lon="5.4458581"/>
<trkpt lat="52.1250288" lon="5.4458679"/>
<trkpt lat="52.1250747" lon="5.4458728"/>
<trkpt lat="52.1250853" lon="5.4458851"/>
<trkpt lat="52.1251268" lon="5.4458768"/>
<trkpt lat="52.1251958" lon="5.4458844"/>
<trkpt lat="52.1252403" lon="5.4458771"/>
<trkpt lat="52.1252700" lon="5.4458927"/>
<trkpt lat="52.1254238" lon="5.4459097"/>
<trkpt lat="52.1254319" lon="5.4459165"/>
<trkpt lat="52.1256131" lon="5.4459306"/>
<trkpt lat="52.1256396" lon="5.4459459"/>
<trkpt lat="52.1258022" lon="5.4459461"/>
<trkpt lat="52.1258290" lon="5.4459489"/>
<trkpt lat="52.1258834" lon="5.4459655"/>
<trkpt lat="52.1259177" lon="5.4459722"/>
<trkpt lat="52.1260019" lon="5.4459676"/>
<trkpt lat="52.1260502" lon="5.4459842"/>
<trkpt lat="52.1261097" lon="5.4459865"/>
<trkpt lat="52.1262018" lon="5.4459970"/>
<trkpt lat="52.1263096" lon="5.4460353"/>
<trkpt lat="52.1263728" lon="5.4460463"/>
<trkpt lat="52.1264664" lon="5.4460560"/>
<trkpt lat="52.1266430" lon="5.4460563"/>
<trkpt lat="52.1267261" lon="5.4460996"/>
<trkpt lat="52.1267576" lon="5.4461008"/>
<trkpt lat="52.1268036" lon="5.4460838"/>
<trkpt lat="52.1268362" lon="5.4460846"/>
<trkpt lat="52.1268485" lon="5.4460941"/>
<trkpt lat="52.1268867" lon="5.4460927"/>
<trkpt lat="52.1268960" lon="5.4460898"/>
<trkpt lat="52.1269488" lon="5.4460885"/>
<trkpt lat="52.1270032" lon="5.4460934"/>
<trkpt lat="52.1270424" lon="5.4461014"/>
<trkpt lat="52.1271023" lon="5.4461319"/>
<trkpt lat="52.1272033" lon="5.4461355"/>
<trkpt lat="52.1273340" lon="5.4461391"/>
<trkpt lat="52.1274279" lon="5.4461388"/>
<trkpt lat="52.1274567" lon="5.4461430"/>
<trkpt lat="52.1275146" lon="5.4461778"/>
<trkpt lat="52.1275248" lon="5.4461813"/>
<trkpt lat="52.1275693" lon="5.4461854"/>
<trkpt lat="52.1276405" lon="5.4461766"/>
<trkpt lat="52.1277516" lon="5.4461676"/>
<trkpt lat="52.1277793" lon="5.4461683"/>
<trkpt lat="52.1278021" lon="5.4461571"/>
<trkpt lat="52.1278793" lon="5.4461968"/>
<trkpt lat="52.1279817" lon="5.4462354"/>
<trkpt lat="52.1280237" lon="5.4462770"/>
<trkpt lat="52.1280489" lon="5.4462616"/>
<trkpt lat="52.1280791" lon="5.4461944"/>
<trkpt lat="52.1281083" lon="5.4462004"/>
<trkpt lat="52.1282692" lon="5.4462704"/>
<trkpt lat="52.1284144" lon="5.4462831"/>
<trkpt lat="52.1285413" lon="5.4462851"/>
<trkpt lat="52.1286746" lon="5.4462856"/>
<trkpt lat="52.1287236" lon="5.4462890"/>
<trkpt lat="52.1288044" lon="5.4462776"/>
<trkpt lat="52.1289238" lon="5.4463013"/>
<trkpt lat="52.1290443" lon="5.4463275"/>
<trkpt lat="52.1291910" lon="5.4463491"/>
<trkpt lat="52.1293632" lon="5.4463667"/>
<trkpt lat="52.1294455" lon="5.4463463"/>
<trkpt lat="52.1297095" lon="5.4463214"/>
<trkpt lat="52.1298639" lon="5.4463770"/>
<trkpt lat="52.1299138" lon="5.4463723"/>
<trkpt lat="52.1299587" lon="5.4463705"/>
<trkpt lat="52.1300036" lon="5.4463774"/>
<trkpt lat="52.1301734" lon="5.4463952"/>
<trkpt lat="52.1303015" lon="5.4464190"/>
<trkpt lat="52.1304063" lon="5.4464362"/>
<trkpt lat="52.1305219" lon="5.4464729"/>
<trkpt lat="52.1306542" lon="5.4464815"/>
<trkpt lat="52.1307352" lon="5.4464825"/>
<trkpt lat="52.1307974" lon="5.4464592"/>
<trkpt lat="52.1311775" lon="5.4464675"/>
<trkpt lat="52.1312566" lon="5.4464544"/>
<trkpt lat="52.1313416" lon="5.4464402"/>
<trkpt lat="52.1314273" lon="5.4464366"/>
<trkpt lat="52.1315542" lon="5.4463787"/>
<trkpt lat="52.1317766" lon="5.4463820"/>
<trkpt lat="52.1318693" lon="5.4463890"/>
<trkpt lat="52.1319944" lon="5.4463085"/>
<trkpt lat="52.1320656" lon="5.4463603"/>
<trkpt lat="52.1322497" lon="5.4464322"/>
<trkpt lat="52.1323701" lon="5.4464409"/>
<trkpt lat="52.1324738" lon="5.4464447"/>
<trkpt lat="52.1325526" lon="5.4464487"/>
<trkpt lat="52.1326453" lon="5.4464653"/>
<trkpt lat="52.1327086" lon="5.4464771"/>
<trkpt lat="52.1327343" lon="5.4464844"/>
<trkpt lat="52.1327927" lon="5.4464907"/>
<trkpt lat="52.1329234" lon="5.4465108"/>
<trkpt lat="52.1330929" lon="5.4465065"/>
<trkpt lat="52.1332434" lon="5.4465148"/>
<trkpt lat="52.1333315" lon="5.4465223"/>
<trkpt lat="52.1335485" lon="5.4465608"/>
<trkpt lat="52.1336289" lon="5.4465823"/>
<trkpt lat="52.1339413" lon="5.4467427"/>
<trkpt lat="52.1340521" lon="5.4467996"/>
<trkpt lat="52.1342082" lon="5.4468254"/>
<trkpt lat="52.1343284" lon="5.4468220"/>
<trkpt lat="52.1343874" lon="5.4468450"/>
<trkpt lat="52.1344822" lon="5.4468806"/>
<trkpt lat="52.1346040" lon="5.4469014"/>
<trkpt lat="52.1347411" lon="5.4468665"/>
<trkpt lat="52.1349053" lon="5.4469281"/>
<trkpt lat="52.1352523" lon="5.4469699"/>
<trkpt lat="52.1354481" lon="5.4469951"/>
<trkpt lat="52.1355419" lon="5.4469666"/>
<trkpt lat="52.1356053" lon="5.4469444"/>
<trkpt lat="52.1357340" lon="5.4468306"/>
<trkpt lat="52.1358301" lon="5.4468180"/>
<trkpt lat="52.1358599" lon="5.4467427"/>
<trkpt lat="52.1359307" lon="5.4467546"/>
<trkpt lat="52.1359566" lon="5.4467772"/>
<trkpt lat="52.1360735" lon="5.4468717"/>
<trkpt lat="52.1362965" lon="5.4470293"/>
<trkpt lat="52.1364175" lon="5.4470241"/>
<trkpt lat="52.1364346" lon="5.4470847"/>
<trkpt lat="52.1364998" lon="5.4471557"/>
<trkpt lat="52.1365154" lon="5.4472192"/>
<trkpt lat="52.1365117" lon="5.4472848"/>
<trkpt lat="52.1364838" lon="5.4473336"/>
<trkpt lat="52.1364742" lon="5.4473614"/>
<trkpt lat="52.1364714" lon="5.4474079"/>
<trkpt lat="52.1364455" lon="5.4474594"/>
<trkpt lat="52.1363359" lon="5.4478542"/>
<trkpt lat="52.1362571" lon="5.4481210"/>
<trkpt lat="52.1362682" lon="5.4482345"/>
<trkpt lat="52.1361309" lon="5.4489230"/>
<trkpt lat="52.1355356" lon="5.4523000"/>
<trkpt lat="52.1355556" lon="5.4523867"/>
<trkpt lat="52.1355020" lon="5.4527014"/>
<trkpt lat="52.1354584" lon="5.4527513"/>
<trkpt lat="52.1352828" lon="5.4537922"/>
<trkpt lat="52.1349278" lon="5.4556138"/>
<trkpt lat="52.1347488" lon="5.4564795"/>
<trkpt lat="52.1346670" lon="5.4568811"/>
<trkpt lat="52.1346171" lon="5.4569647"/>
<trkpt lat="52.1345999" lon="5.4570939"/>
<trkpt lat="52.1339725" lon="5.4578543"/>
<trkpt lat="52.1334774" lon="5.4584093"/>
<trkpt lat="52.1334466" lon="5.4584886"/>
<trkpt lat="52.1331779" lon="5.4607036"/>
<trkpt lat="52.1326393" lon="5.4616099"/>
<trkpt lat="52.1322104" lon="5.4629308"/>
<trkpt lat="52.1314311" lon="5.4628941"/>
<trkpt lat="52.1302415" lon="5.4628353"/>
<trkpt lat="52.1300903" lon="5.4627456"/>
<trkpt lat="52.1300436" lon="5.4628258"/>
<trkpt lat="52.1289506" lon="5.4659031"/>
<trkpt lat="52.1284259" lon="5.4670544"/>
<trkpt lat="52.1276843" lon="5.4682783"/>
<trkpt lat="52.1269714" lon="5.4691309"/>
<trkpt lat="52.1265265" lon="5.4694455"/>
<trkpt lat="52.1262985" lon="5.4694376"/>
<trkpt lat="52.1262512" lon="5.4694990"/>
<trkpt lat="52.1262378" lon="5.4698073"/>
<trkpt lat="52.1261982" lon="5.4699059"/>
<trkpt lat="52.1257861" lon="5.4704580"/>
<trkpt lat="52.1255618" lon="5.4708745"/>
<trkpt lat="52.1254248" lon="5.4712504"/>
<trkpt lat="52.1253394" lon="5.4716226"/>
<trkpt lat="52.1252139" lon="5.4724995"/>
<trkpt lat="52.1248351" lon="5.4736625"/>
<trkpt lat="52.1247013" lon="5.4740312"/>
<trkpt lat="52.1252143" lon="5.4743391"/>
<trkpt lat="52.1253179" lon="5.4744015"/>
<trkpt lat="52.1258232" lon="5.4742920"/>
<trkpt lat="52.1259716" lon="5.4743547"/>
<trkpt lat="52.1260527" lon="5.4744307"/>
<trkpt lat="52.1261626" lon="5.4744588"/>
<trkpt lat="52.1260447" lon="5.4760823"/>
<trkpt lat="52.1260010" lon="5.4771109"/>
<trkpt lat="52.1259939" lon="5.4779687"/>
<trkpt lat="52.1260280" lon="5.4783275"/>
<trkpt lat="52.1260038" lon="5.4784622"/>
<trkpt lat="52.1257677" lon="5.4790712"/>
<trkpt lat="52.1257649" lon="5.4792222"/>
</trkseg></trk>
<trk><name>Termatenpad - Geimporteerde shapefile</name><type>approachRoute</type><trkseg>
<trkpt lat="52.1062242" lon="5.4355606"/>
<trkpt lat="52.1062547" lon="5.4353296"/>
<trkpt lat="52.1055850" lon="5.4351008"/>
<trkpt lat="52.1055852" lon="5.4346026"/>
<trkpt lat="52.1052485" lon="5.4345044"/>
<trkpt lat="52.1048889" lon="5.4344314"/>
<trkpt lat="52.1044221" lon="5.4344401"/>
<trkpt lat="52.1039330" lon="5.4345052"/>
<trkpt lat="52.1028266" lon="5.4346524"/>
<trkpt lat="52.1021873" lon="5.4347444"/>
<trkpt lat="52.1011885" lon="5.4348360"/>
<trkpt lat="52.1004313" lon="5.4348661"/>
<trkpt lat="52.0993827" lon="5.4349843"/>
<trkpt lat="52.0993373" lon="5.4349858"/>
<trkpt lat="52.0988089" lon="5.4353520"/>
<trkpt lat="52.0987105" lon="5.4354879"/>
<trkpt lat="52.0986223" lon="5.4356696"/>
</trkseg></trk>
</gpx>