<?xml version="1.0" encoding="UTF-8"?>
<gpx version="1.1" creator="klompenpaden.nl via Jimbo API" xmlns="http://www.topografix.com/GPX/1/1">
<metadata><name>Thornspiccerpad</name><desc>Ontdek het mooie afwisselende buitengebied van Elburg. Wandelen langs beken, over eeuwenoude kerkenpaden, door weilanden, heidevelden, zandverstuivingen en over fraaie landgoederen. "Klompen aan, rugzak op en gaan!"</desc><link href="https://www.klompenpaden.nl/klompenpaden/Thornspiccerpad/650f9960-bdd4-4523-a3c2-9ed48fe27f59"><text>klompenpaden.nl</text></link></metadata>
<wpt lat="52.449681618977344" lon="5.828460243537573"><name>Start Elburg</name></wpt>
<trk><name>Thornspiccerpad - Hoofdroute</name><type>mainRoute</type><trkseg>
<trkpt lat="52.4384408" lon="5.8577197"/>
<trkpt lat="52.4387180" lon="5.8587501"/>
<trkpt lat="52.4392547" lon="5.8597797"/>
<trkpt lat="52.4398236" lon="5.8606962"/>
<trkpt lat="52.4381324" lon="5.8612854"/>
<trkpt lat="52.4379687" lon="5.8613425"/>
<trkpt lat="52.4377057" lon="5.8613208"/>
<trkpt lat="52.4373857" lon="5.8612206"/>
<trkpt lat="52.4369742" lon="5.8613164"/>
<trkpt lat="52.4359362" lon="5.8616757"/>
<trkpt lat="52.4356911" lon="5.8617580"/>
<trkpt lat="52.4354641" lon="5.8618343"/>
<trkpt lat="52.4354138" lon="5.8615676"/>
<trkpt lat="52.4349920" lon="5.8619361"/>
<trkpt lat="52.4343525" lon="5.8627830"/>
<trkpt lat="52.4338515" lon="5.8633440"/>
<trkpt lat="52.4333685" lon="5.8637244"/>
<trkpt lat="52.4326841" lon="5.8641247"/>
<trkpt lat="52.4323440" lon="5.8641423"/>
<trkpt lat="52.4319352" lon="5.8640912"/>
<trkpt lat="52.4315506" lon="5.8639159"/>
<trkpt lat="52.4318413" lon="5.8649694"/>
<trkpt lat="52.4306495" lon="5.8660660"/>
<trkpt lat="52.4303215" lon="5.8665090"/>
<trkpt lat="52.4300169" lon="5.8668404"/>
<trkpt lat="52.4299859" lon="5.8662721"/>
<trkpt lat="52.4305373" lon="5.8651732"/>
<trkpt lat="52.4304584" lon="5.8647055"/>
<trkpt lat="52.4303261" lon="5.8644785"/>
<trkpt lat="52.4302236" lon="5.8646083"/>
<trkpt lat="52.4300587" lon="5.8647479"/>
<trkpt lat="52.4285219" lon="5.8660851"/>
<trkpt lat="52.4283647" lon="5.8661379"/>
<trkpt lat="52.4282126" lon="5.8661206"/>
<trkpt lat="52.4279943" lon="5.8660016"/>
<trkpt lat="52.4278996" lon="5.8658916"/>
<trkpt lat="52.4277330" lon="5.8659383"/>
<trkpt lat="52.4275929" lon="5.8660835"/>
<trkpt lat="52.4249928" lon="5.8684664"/>
<trkpt lat="52.4248846" lon="5.8681774"/>
<trkpt lat="52.4231570" lon="5.8637710"/>
<trkpt lat="52.4228366" lon="5.8640756"/>
<trkpt lat="52.4226417" lon="5.8641958"/>
<trkpt lat="52.4219510" lon="5.8649383"/>
<trkpt lat="52.4216105" lon="5.8653422"/>
<trkpt lat="52.4210750" lon="5.8658989"/>
<trkpt lat="52.4207952" lon="5.8660752"/>
<trkpt lat="52.4202702" lon="5.8666416"/>
<trkpt lat="52.4200241" lon="5.8669966"/>
<trkpt lat="52.4198004" lon="5.8670175"/>
<trkpt lat="52.4195870" lon="5.8668674"/>
<trkpt lat="52.4180322" lon="5.8655905"/>
<trkpt lat="52.4175297" lon="5.8651883"/>
<trkpt lat="52.4170361" lon="5.8649497"/>
<trkpt lat="52.4163342" lon="5.8596996"/>
<trkpt lat="52.4158775" lon="5.8597336"/>
<trkpt lat="52.4146832" lon="5.8598764"/>
<trkpt lat="52.4126518" lon="5.8600414"/>
<trkpt lat="52.4126999" lon="5.8599019"/>
<trkpt lat="52.4126776" lon="5.8595283"/>
<trkpt lat="52.4126213" lon="5.8593255"/>
<trkpt lat="52.4126046" lon="5.8587498"/>
<trkpt lat="52.4126575" lon="5.8586104"/>
<trkpt lat="52.4128194" lon="5.8585499"/>
<trkpt lat="52.4127937" lon="5.8578496"/>
<trkpt lat="52.4125606" lon="5.8578549"/>
<trkpt lat="52.4116321" lon="5.8581173"/>
<trkpt lat="52.4114013" lon="5.8585329"/>
<trkpt lat="52.4106692" lon="5.8584192"/>
<trkpt lat="52.4105685" lon="5.8584900"/>
<trkpt lat="52.4095795" lon="5.8590920"/>
<trkpt lat="52.4083510" lon="5.8598404"/>
<trkpt lat="52.4077103" lon="5.8601030"/>
<trkpt lat="52.4076585" lon="5.8599181"/>
<trkpt lat="52.4074243" lon="5.8590135"/>
<trkpt lat="52.4070874" lon="5.8588233"/>
<trkpt lat="52.4061288" lon="5.8559047"/>
<trkpt lat="52.4069025" lon="5.8550652"/>
<trkpt lat="52.4064451" lon="5.8540806"/>
<trkpt lat="52.4060499" lon="5.8529955"/>
<trkpt lat="52.4017625" lon="5.8573874"/>
<trkpt lat="52.4014985" lon="5.8573357"/>
<trkpt lat="52.4013325" lon="5.8574939"/>
<trkpt lat="52.4002832" lon="5.8584165"/>
<trkpt lat="52.3997648" lon="5.8584187"/>
<trkpt lat="52.3994765" lon="5.8579725"/>
<trkpt lat="52.3992876" lon="5.8576206"/>
<trkpt lat="52.3991360" lon="5.8574712"/>
<trkpt lat="52.3989180" lon="5.8572901"/>
<trkpt lat="52.3987585" lon="5.8567286"/>
<trkpt lat="52.3977084" lon="5.8576738"/>
<trkpt lat="52.3965935" lon="5.8545832"/>
<trkpt lat="52.3960437" lon="5.8540953"/>
<trkpt lat="52.3953688" lon="5.8527743"/>
<trkpt lat="52.3948873" lon="5.8506468"/>
<trkpt lat="52.3946731" lon="5.8494940"/>
<trkpt lat="52.3945456" lon="5.8480311"/>
<trkpt lat="52.3944793" lon="5.8474159"/>
<trkpt lat="52.3943418" lon="5.8468154"/>
<trkpt lat="52.3929128" lon="5.8426234"/>
<trkpt lat="52.3929275" lon="5.8421526"/>
<trkpt lat="52.3928318" lon="5.8410633"/>
<trkpt lat="52.3928102" lon="5.8405111"/>
<trkpt lat="52.3926558" lon="5.8398254"/>
<trkpt lat="52.3920903" lon="5.8384592"/>
<trkpt lat="52.3922164" lon="5.8380556"/>
<trkpt lat="52.3923344" lon="5.8376015"/>
<trkpt lat="52.3933158" lon="5.8361644"/>
<trkpt lat="52.3930436" lon="5.8359090"/>
<trkpt lat="52.3928818" lon="5.8351200"/>
<trkpt lat="52.3927548" lon="5.8349141"/>
<trkpt lat="52.3925383" lon="5.8345359"/>
<trkpt lat="52.3924241" lon="5.8342075"/>
<trkpt lat="52.3923663" lon="5.8334089"/>
<trkpt lat="52.3921869" lon="5.8330495"/>
<trkpt lat="52.3918780" lon="5.8330075"/>
<trkpt lat="52.3913662" lon="5.8325049"/>
<trkpt lat="52.3910445" lon="5.8320585"/>
<trkpt lat="52.3921179" lon="5.8305657"/>
<trkpt lat="52.3954754" lon="5.8296217"/>
<trkpt lat="52.3954559" lon="5.8295156"/>
<trkpt lat="52.3978859" lon="5.8287252"/>
<trkpt lat="52.3998619" lon="5.8280523"/>
<trkpt lat="52.3999005" lon="5.8281276"/>
<trkpt lat="52.4000188" lon="5.8287627"/>
<trkpt lat="52.4000428" lon="5.8303273"/>
<trkpt lat="52.4000770" lon="5.8305232"/>
<trkpt lat="52.4001406" lon="5.8306380"/>
<trkpt lat="52.4002443" lon="5.8305722"/>
<trkpt lat="52.4003300" lon="5.8305173"/>
<trkpt lat="52.4004158" lon="5.8304623"/>
<trkpt lat="52.4005153" lon="5.8303858"/>
<trkpt lat="52.4005948" lon="5.8303247"/>
<trkpt lat="52.4006853" lon="5.8303023"/>
<trkpt lat="52.4007558" lon="5.8302953"/>
<trkpt lat="52.4008898" lon="5.8303733"/>
<trkpt lat="52.4009496" lon="5.8303386"/>
<trkpt lat="52.4010378" lon="5.8302873"/>
<trkpt lat="52.4011601" lon="5.8305446"/>
<trkpt lat="52.4017486" lon="5.8299533"/>
<trkpt lat="52.4017608" lon="5.8293749"/>
<trkpt lat="52.4019415" lon="5.8290345"/>
<trkpt lat="52.4025161" lon="5.8286328"/>
<trkpt lat="52.4039996" lon="5.8277268"/>
<trkpt lat="52.4056136" lon="5.8265776"/>
<trkpt lat="52.4066711" lon="5.8249665"/>
<trkpt lat="52.4064399" lon="5.8241412"/>
<trkpt lat="52.4065205" lon="5.8239301"/>
<trkpt lat="52.4078804" lon="5.8227457"/>
<trkpt lat="52.4089387" lon="5.8215164"/>
<trkpt lat="52.4089508" lon="5.8216886"/>
<trkpt lat="52.4091757" lon="5.8223622"/>
<trkpt lat="52.4093569" lon="5.8223772"/>
<trkpt lat="52.4095386" lon="5.8231205"/>
<trkpt lat="52.4095041" lon="5.8243670"/>
<trkpt lat="52.4094890" lon="5.8249666"/>
<trkpt lat="52.4098659" lon="5.8246719"/>
<trkpt lat="52.4101787" lon="5.8244184"/>
<trkpt lat="52.4103715" lon="5.8242600"/>
<trkpt lat="52.4105354" lon="5.8239601"/>
<trkpt lat="52.4108617" lon="5.8237805"/>
<trkpt lat="52.4112334" lon="5.8235019"/>
<trkpt lat="52.4113977" lon="5.8230492"/>
<trkpt lat="52.4116786" lon="5.8225630"/>
<trkpt lat="52.4119763" lon="5.8224827"/>
<trkpt lat="52.4122886" lon="5.8220229"/>
<trkpt lat="52.4125787" lon="5.8219436"/>
<trkpt lat="52.4128179" lon="5.8217266"/>
<trkpt lat="52.4128586" lon="5.8215069"/>
<trkpt lat="52.4133078" lon="5.8213239"/>
<trkpt lat="52.4141913" lon="5.8205657"/>
<trkpt lat="52.4149032" lon="5.8197991"/>
<trkpt lat="52.4151267" lon="5.8200051"/>
<trkpt lat="52.4153661" lon="5.8199504"/>
<trkpt lat="52.4156059" lon="5.8197897"/>
<trkpt lat="52.4159558" lon="5.8195078"/>
<trkpt lat="52.4164570" lon="5.8189721"/>
<trkpt lat="52.4167415" lon="5.8188141"/>
<trkpt lat="52.4170420" lon="5.8185779"/>
<trkpt lat="52.4172935" lon="5.8183675"/>
<trkpt lat="52.4174652" lon="5.8182115"/>
<trkpt lat="52.4175360" lon="5.8181570"/>
<trkpt lat="52.4176118" lon="5.8180868"/>
<trkpt lat="52.4177056" lon="5.8180580"/>
<trkpt lat="52.4178163" lon="5.8178891"/>
<trkpt lat="52.4183716" lon="5.8186468"/>
<trkpt lat="52.4185908" lon="5.8192552"/>
<trkpt lat="52.4190193" lon="5.8201997"/>
<trkpt lat="52.4194880" lon="5.8210203"/>
<trkpt lat="52.4199983" lon="5.8216344"/>
<trkpt lat="52.4206393" lon="5.8222567"/>
<trkpt lat="52.4209178" lon="5.8221712"/>
<trkpt lat="52.4210068" lon="5.8219992"/>
<trkpt lat="52.4211258" lon="5.8221662"/>
<trkpt lat="52.4212544" lon="5.8219561"/>
<trkpt lat="52.4225575" lon="5.8213086"/>
<trkpt lat="52.4234311" lon="5.8209178"/>
<trkpt lat="52.4240862" lon="5.8203209"/>
<trkpt lat="52.4249744" lon="5.8199954"/>
<trkpt lat="52.4259536" lon="5.8193365"/>
<trkpt lat="52.4260383" lon="5.8193455"/>
<trkpt lat="52.4270716" lon="5.8188827"/>
<trkpt lat="52.4273757" lon="5.8188694"/>
<trkpt lat="52.4281429" lon="5.8189339"/>
<trkpt lat="52.4282577" lon="5.8188943"/>
<trkpt lat="52.4291114" lon="5.8184705"/>
<trkpt lat="52.4296866" lon="5.8179217"/>
<trkpt lat="52.4302778" lon="5.8170839"/>
<trkpt lat="52.4306553" lon="5.8162560"/>
<trkpt lat="52.4308252" lon="5.8158945"/>
<trkpt lat="52.4312109" lon="5.8153601"/>
<trkpt lat="52.4313758" lon="5.8152394"/>
<trkpt lat="52.4329337" lon="5.8143983"/>
<trkpt lat="52.4331635" lon="5.8142538"/>
<trkpt lat="52.4332685" lon="5.8141406"/>
<trkpt lat="52.4334360" lon="5.8139466"/>
<trkpt lat="52.4335856" lon="5.8137511"/>
<trkpt lat="52.4339260" lon="5.8130630"/>
<trkpt lat="52.4343181" lon="5.8125519"/>
<trkpt lat="52.4344818" lon="5.8125762"/>
<trkpt lat="52.4350034" lon="5.8133941"/>
<trkpt lat="52.4360708" lon="5.8151136"/>
<trkpt lat="52.4366568" lon="5.8156819"/>
<trkpt lat="52.4371083" lon="5.8162489"/>
<trkpt lat="52.4385565" lon="5.8181793"/>
<trkpt lat="52.4391746" lon="5.8189254"/>
<trkpt lat="52.4393319" lon="5.8191812"/>
<trkpt lat="52.4395550" lon="5.8196603"/>
<trkpt lat="52.4398949" lon="5.8203705"/>
<trkpt lat="52.4406725" lon="5.8215313"/>
<trkpt lat="52.4413863" lon="5.8225210"/>
<trkpt lat="52.4423827" lon="5.8239498"/>
<trkpt lat="52.4429134" lon="5.8246319"/>
<trkpt lat="52.4434942" lon="5.8252738"/>
<trkpt lat="52.4437425" lon="5.8254883"/>
<trkpt lat="52.4438421" lon="5.8260296"/>
<trkpt lat="52.4441623" lon="5.8258452"/>
<trkpt lat="52.4443033" lon="5.8259252"/>
<trkpt lat="52.4452378" lon="5.8268975"/>
<trkpt lat="52.4461221" lon="5.8279465"/>
<trkpt lat="52.4466169" lon="5.8284965"/>
<trkpt lat="52.4467887" lon="5.8285709"/>
<trkpt lat="52.4471041" lon="5.8288557"/>
<trkpt lat="52.4477299" lon="5.8294519"/>
<trkpt lat="52.4478074" lon="5.8295075"/>
<trkpt lat="52.4476713" lon="5.8302901"/>
<trkpt lat="52.4475250" lon="5.8308441"/>
<trkpt lat="52.4473130" lon="5.8314171"/>
<trkpt lat="52.4470740" lon="5.8320431"/>
<trkpt lat="52.4470020" lon="5.8322251"/>
<trkpt lat="52.4469060" lon="5.8322001"/>
<trkpt lat="52.4469060" lon="5.8322271"/>
<trkpt lat="52.4468970" lon="5.8323511"/>
<trkpt lat="52.4467660" lon="5.8327151"/>
<trkpt lat="52.4456520" lon="5.8346671"/>
<trkpt lat="52.4454745" lon="5.8349619"/>
<trkpt lat="52.4454091" lon="5.8353001"/>
<trkpt lat="52.4454087" lon="5.8354737"/>
<trkpt lat="52.4454366" lon="5.8356275"/>
<trkpt lat="52.4455598" lon="5.8358093"/>
<trkpt lat="52.4456980" lon="5.8359447"/>
<trkpt lat="52.4457744" lon="5.8360864"/>
<trkpt lat="52.4457669" lon="5.8361953"/>
<trkpt lat="52.4457375" lon="5.8365159"/>
<trkpt lat="52.4456876" lon="5.8367465"/>
<trkpt lat="52.4456442" lon="5.8383601"/>
<trkpt lat="52.4459371" lon="5.8396474"/>
<trkpt lat="52.4452751" lon="5.8405873"/>
<trkpt lat="52.4446492" lon="5.8412276"/>
<trkpt lat="52.4446115" lon="5.8410517"/>
<trkpt lat="52.4443285" lon="5.8389348"/>
<trkpt lat="52.4442348" lon="5.8387222"/>
<trkpt lat="52.4442032" lon="5.8385236"/>
<trkpt lat="52.4428080" lon="5.8380681"/>
<trkpt lat="52.4427480" lon="5.8381711"/>
<trkpt lat="52.4426330" lon="5.8382691"/>
<trkpt lat="52.4424200" lon="5.8383901"/>
<trkpt lat="52.4423413" lon="5.8384099"/>
<trkpt lat="52.4415923" lon="5.8381330"/>
<trkpt lat="52.4410042" lon="5.8391752"/>
<trkpt lat="52.4402663" lon="5.8396088"/>
<trkpt lat="52.4396327" lon="5.8394965"/>
<trkpt lat="52.4389087" lon="5.8393682"/>
<trkpt lat="52.4367777" lon="5.8360877"/>
<trkpt lat="52.4357392" lon="5.8364186"/>
<trkpt lat="52.4357016" lon="5.8365850"/>
<trkpt lat="52.4354273" lon="5.8365458"/>
<trkpt lat="52.4354633" lon="5.8368718"/>
<trkpt lat="52.4356133" lon="5.8378641"/>
<trkpt lat="52.4357348" lon="5.8388329"/>
<trkpt lat="52.4357165" lon="5.8389547"/>
<trkpt lat="52.4357876" lon="5.8389898"/>
<trkpt lat="52.4357824" lon="5.8391035"/>
<trkpt lat="52.4357056" lon="5.8391331"/>
<trkpt lat="52.4360866" lon="5.8408263"/>
<trkpt lat="52.4364386" lon="5.8425231"/>
<trkpt lat="52.4364607" lon="5.8426086"/>
<trkpt lat="52.4364846" lon="5.8426566"/>
<trkpt lat="52.4365004" lon="5.8427287"/>
<trkpt lat="52.4369068" lon="5.8467583"/>
<trkpt lat="52.4349208" lon="5.8474612"/>
<trkpt lat="52.4349653" lon="5.8476587"/>
<trkpt lat="52.4352543" lon="5.8476355"/>
<trkpt lat="52.4360937" lon="5.8518952"/>
<trkpt lat="52.4366141" lon="5.8517183"/>
<trkpt lat="52.4366591" lon="5.8519058"/>
<trkpt lat="52.4387515" lon="5.8511748"/>
<trkpt lat="52.4385890" lon="5.8546610"/>
<trkpt lat="52.4385282" lon="5.8562332"/>
<trkpt lat="52.4384511" lon="5.8572018"/>
<trkpt lat="52.4384563" lon="5.8573277"/>
<trkpt lat="52.4384576" lon="5.8573272"/>
<trkpt lat="52.4384602" lon="5.8574219"/>
<trkpt lat="52.4384408" lon="5.8577197"/>
</trkseg></trk>
<trk><name>Thornspiccerpad - Routeverkorter</name><type>shorteningRoute</type><trkseg>
<trkpt lat="52.4274242" lon="5.8189077"/>
<trkpt lat="52.4279137" lon="5.8214426"/>
<trkpt lat="52.4281682" lon="5.8228071"/>
<trkpt lat="52.4283219" lon="5.8236809"/>
<trkpt lat="52.4283313" lon="5.8237806"/>
<trkpt lat="52.4283321" lon="5.8239051"/>
<trkpt lat="52.4283318" lon="5.8239808"/>
<trkpt lat="52.4283459" lon="5.8240573"/>
<trkpt lat="52.4283925" lon="5.8242039"/>
<trkpt lat="52.4284338" lon="5.8243757"/>
<trkpt lat="52.4284749" lon="5.8246154"/>
<trkpt lat="52.4285356" lon="5.8248560"/>
<trkpt lat="52.4286994" lon="5.8255059"/>
<trkpt lat="52.4291461" lon="5.8275765"/>
<trkpt lat="52.4291941" lon="5.8278658"/>
<trkpt lat="52.4291866" lon="5.8279472"/>
<trkpt lat="52.4291892" lon="5.8279796"/>
<trkpt lat="52.4291949" lon="5.8280066"/>
<trkpt lat="52.4292080" lon="5.8280419"/>
<trkpt lat="52.4292248" lon="5.8280735"/>
<trkpt lat="52.4292592" lon="5.8281015"/>
<trkpt lat="52.4292937" lon="5.8281296"/>
<trkpt lat="52.4293244" lon="5.8282157"/>
<trkpt lat="52.4293348" lon="5.8282604"/>
<trkpt lat="52.4293349" lon="5.8283372"/>
<trkpt lat="52.4293187" lon="5.8285674"/>
<trkpt lat="52.4292940" lon="5.8289196"/>
<trkpt lat="52.4293035" lon="5.8291794"/>
<trkpt lat="52.4293118" lon="5.8293011"/>
<trkpt lat="52.4293976" lon="5.8300033"/>
<trkpt lat="52.4294449" lon="5.8302308"/>
<trkpt lat="52.4295324" lon="5.8305296"/>
<trkpt lat="52.4296504" lon="5.8309705"/>
<trkpt lat="52.4297120" lon="5.8313219"/>
<trkpt lat="52.4297171" lon="5.8314879"/>
<trkpt lat="52.4297076" lon="5.8317092"/>
<trkpt lat="52.4297173" lon="5.8319843"/>
<trkpt lat="52.4297378" lon="5.8321007"/>
<trkpt lat="52.4298151" lon="5.8325840"/>
<trkpt lat="52.4299040" lon="5.8330620"/>
<trkpt lat="52.4299538" lon="5.8334142"/>
<trkpt lat="52.4299716" lon="5.8336126"/>
<trkpt lat="52.4299686" lon="5.8338431"/>
<trkpt lat="52.4299549" lon="5.8341975"/>
<trkpt lat="52.4299429" lon="5.8346411"/>
<trkpt lat="52.4299572" lon="5.8351408"/>
<trkpt lat="52.4299746" lon="5.8353148"/>
<trkpt lat="52.4300485" lon="5.8358018"/>
<trkpt lat="52.4300775" lon="5.8360190"/>
<trkpt lat="52.4300963" lon="5.8362534"/>
<trkpt lat="52.4301292" lon="5.8368308"/>
<trkpt lat="52.4301219" lon="5.8370724"/>
<trkpt lat="52.4301024" lon="5.8372668"/>
<trkpt lat="52.4300488" lon="5.8374978"/>
<trkpt lat="52.4299208" lon="5.8379442"/>
<trkpt lat="52.4299030" lon="5.8380783"/>
<trkpt lat="52.4299079" lon="5.8382224"/>
<trkpt lat="52.4299320" lon="5.8384106"/>
<trkpt lat="52.4300465" lon="5.8389883"/>
<trkpt lat="52.4300516" lon="5.8391127"/>
<trkpt lat="52.4300561" lon="5.8392254"/>
<trkpt lat="52.4301335" lon="5.8395053"/>
<trkpt lat="52.4301897" lon="5.8396556"/>
<trkpt lat="52.4302343" lon="5.8396863"/>
<trkpt lat="52.4302978" lon="5.8397059"/>
<trkpt lat="52.4303573" lon="5.8397962"/>
<trkpt lat="52.4304763" lon="5.8404002"/>
<trkpt lat="52.4305704" lon="5.8408117"/>
<trkpt lat="52.4306839" lon="5.8411469"/>
<trkpt lat="52.4309913" lon="5.8419299"/>
<trkpt lat="52.4313246" lon="5.8428099"/>
<trkpt lat="52.4314206" lon="5.8431582"/>
<trkpt lat="52.4314674" lon="5.8434575"/>
<trkpt lat="52.4314866" lon="5.8438055"/>
<trkpt lat="52.4314801" lon="5.8440156"/>
<trkpt lat="52.4314749" lon="5.8443428"/>
<trkpt lat="52.4314719" lon="5.8448251"/>
<trkpt lat="52.4314621" lon="5.8453584"/>
<trkpt lat="52.4314493" lon="5.8454860"/>
<trkpt lat="52.4313250" lon="5.8462715"/>
<trkpt lat="52.4312840" lon="5.8466626"/>
<trkpt lat="52.4312576" lon="5.8475107"/>
<trkpt lat="52.4312532" lon="5.8479282"/>
<trkpt lat="52.4312245" lon="5.8483994"/>
<trkpt lat="52.4312239" lon="5.8485447"/>
<trkpt lat="52.4312490" lon="5.8486465"/>
<trkpt lat="52.4312752" lon="5.8486913"/>
<trkpt lat="52.4314266" lon="5.8487604"/>
<trkpt lat="52.4314557" lon="5.8487607"/>
<trkpt lat="52.4314778" lon="5.8487337"/>
<trkpt lat="52.4315693" lon="5.8486607"/>
<trkpt lat="52.4349208" lon="5.8474612"/>
<trkpt lat="52.4349653" lon="5.8476587"/>
</trkseg></trk>
<trk><name>Thornspiccerpad - Alternatieve route</name><type>alternativeRoute</type><trkseg>
<trkpt lat="52.4354138" lon="5.8615676"/>
<trkpt lat="52.4346084" lon="5.8588957"/>
<trkpt lat="52.4346024" lon="5.8587237"/>
<trkpt lat="52.4346597" lon="5.8586581"/>
<trkpt lat="52.4384602" lon="5.8574219"/>
</trkseg></trk>
<trk><name>Thornspiccerpad - Aanlooproute</name><type>approachRoute</type><trkseg>
<trkpt lat="52.4192104" lon="5.8157651"/>
<trkpt lat="52.4191315" lon="5.8156130"/>
<trkpt lat="52.4177610" lon="5.8175638"/>
<trkpt lat="52.4187011" lon="5.8187680"/>
<trkpt lat="52.4185271" lon="5.8190783"/>
</trkseg></trk>
<trk><name>Thornspiccerpad - Aanlooproute</name><type>approachRoute</type><trkseg>
<trkpt lat="52.4478074" lon="5.8295075"/>
<trkpt lat="52.4479630" lon="5.8286921"/>
<trkpt lat="52.4480540" lon="5.8285741"/>
<trkpt lat="52.4483090" lon="5.8285421"/>
<trkpt lat="52.4485150" lon="5.8286981"/>
<trkpt lat="52.4486590" lon="5.8289771"/>
<trkpt lat="52.4487450" lon="5.8289631"/>
<trkpt lat="52.4494130" lon="5.8299951"/>
<trkpt lat="52.4495060" lon="5.8300621"/>
<trkpt lat="52.4498136" lon="5.8295224"/>
<trkpt lat="52.4500786" lon="5.8292415"/>
<trkpt lat="52.4501697" lon="5.8293863"/>
<trkpt lat="52.4502262" lon="5.8294559"/>
<trkpt lat="52.4503421" lon="5.8293080"/>
<trkpt lat="52.4498298" lon="5.8284829"/>
<trkpt lat="52.4497640" lon="5.8284822"/>
</trkseg></trk>
</gpx>