<?xml version="1.0" encoding="UTF-8"?>
<gpx version="1.1" creator="klompenpaden.nl via Jimbo API" xmlns="http://www.topografix.com/GPX/1/1">
<metadata><name>Tremelepad</name><desc>Ontdek het mooie buitengebied van Dreumel. Wandel door boomgaarden en over schouwpaden. Ervaar de afwisseling van grienden met de openheid van de weilanden. 
Geniet van dit bijzondere landschap tussen Maas en Waal. Klompen aan, rugzak op en gaan!</desc><link href="https://www.klompenpaden.nl/klompenpaden/Tremelepad/00025ac6-c86f-44c6-80c4-03f4f9816eb3"><text>klompenpaden.nl</text></link></metadata>
<wpt lat="51.84142553102311" lon="5.432353019714355"><name>Start Dreumel</name></wpt>
<trk><name>Tremelepad - Hoofdroute</name><type>mainRoute</type><trkseg>
<trkpt lat="51.8508129" lon="5.4549332"/>
<trkpt lat="51.8512157" lon="5.4547589"/>
<trkpt lat="51.8513753" lon="5.4543905"/>
<trkpt lat="51.8515370" lon="5.4541329"/>
<trkpt lat="51.8517582" lon="5.4538877"/>
<trkpt lat="51.8518722" lon="5.4540777"/>
<trkpt lat="51.8519723" lon="5.4542144"/>
<trkpt lat="51.8520480" lon="5.4544995"/>
<trkpt lat="51.8521770" lon="5.4546324"/>
<trkpt lat="51.8522547" lon="5.4550436"/>
<trkpt lat="51.8522505" lon="5.4551972"/>
<trkpt lat="51.8522310" lon="5.4553477"/>
<trkpt lat="51.8523044" lon="5.4554315"/>
<trkpt lat="51.8525090" lon="5.4556190"/>
<trkpt lat="51.8526439" lon="5.4559423"/>
<trkpt lat="51.8527078" lon="5.4562178"/>
<trkpt lat="51.8527353" lon="5.4564028"/>
<trkpt lat="51.8529001" lon="5.4569605"/>
<trkpt lat="51.8533211" lon="5.4579647"/>
<trkpt lat="51.8536623" lon="5.4590700"/>
<trkpt lat="51.8539095" lon="5.4601340"/>
<trkpt lat="51.8546537" lon="5.4633281"/>
<trkpt lat="51.8551639" lon="5.4658383"/>
<trkpt lat="51.8551959" lon="5.4665598"/>
<trkpt lat="51.8551613" lon="5.4671311"/>
<trkpt lat="51.8550544" lon="5.4711548"/>
<trkpt lat="51.8549769" lon="5.4732971"/>
<trkpt lat="51.8550416" lon="5.4736104"/>
<trkpt lat="51.8550573" lon="5.4738227"/>
<trkpt lat="51.8548719" lon="5.4740288"/>
<trkpt lat="51.8545753" lon="5.4743165"/>
<trkpt lat="51.8543993" lon="5.4744025"/>
<trkpt lat="51.8542112" lon="5.4745018"/>
<trkpt lat="51.8539110" lon="5.4740409"/>
<trkpt lat="51.8536938" lon="5.4735759"/>
<trkpt lat="51.8534478" lon="5.4729700"/>
<trkpt lat="51.8531432" lon="5.4722952"/>
<trkpt lat="51.8503476" lon="5.4740791"/>
<trkpt lat="51.8500348" lon="5.4728368"/>
<trkpt lat="51.8492088" lon="5.4695731"/>
<trkpt lat="51.8485928" lon="5.4673123"/>
<trkpt lat="51.8513623" lon="5.4653204"/>
<trkpt lat="51.8518932" lon="5.4649409"/>
<trkpt lat="51.8515079" lon="5.4630926"/>
<trkpt lat="51.8513091" lon="5.4619300"/>
<trkpt lat="51.8510713" lon="5.4585864"/>
<trkpt lat="51.8509720" lon="5.4564205"/>
<trkpt lat="51.8508129" lon="5.4549332"/>
</trkseg></trk>
<trk><name>Tremelepad - Hoofdroute</name><type>mainRoute</type><trkseg>
<trkpt lat="51.8400129" lon="5.4353016"/>
<trkpt lat="51.8413688" lon="5.4324378"/>
</trkseg></trk>
<trk><name>Tremelepad - Hoofdroute</name><type>mainRoute</type><trkseg>
<trkpt lat="51.8508129" lon="5.4549332"/>
<trkpt lat="51.8496665" lon="5.4557159"/>
<trkpt lat="51.8471124" lon="5.4576004"/>
<trkpt lat="51.8435479" lon="5.4603247"/>
<trkpt lat="51.8425478" lon="5.4609913"/>
<trkpt lat="51.8417339" lon="5.4581980"/>
<trkpt lat="51.8398985" lon="5.4594879"/>
<trkpt lat="51.8391770" lon="5.4571756"/>
<trkpt lat="51.8380436" lon="5.4593621"/>
<trkpt lat="51.8375921" lon="5.4581173"/>
<trkpt lat="51.8369037" lon="5.4562406"/>
<trkpt lat="51.8362336" lon="5.4544928"/>
<trkpt lat="51.8365888" lon="5.4539814"/>
<trkpt lat="51.8382726" lon="5.4506220"/>
<trkpt lat="51.8361206" lon="5.4469006"/>
<trkpt lat="51.8351601" lon="5.4424260"/>
<trkpt lat="51.8300712" lon="5.4347976"/>
<trkpt lat="51.8290626" lon="5.4332629"/>
<trkpt lat="51.8284319" lon="5.4317325"/>
<trkpt lat="51.8283863" lon="5.4304080"/>
<trkpt lat="51.8286900" lon="5.4288419"/>
<trkpt lat="51.8288460" lon="5.4281649"/>
<trkpt lat="51.8290784" lon="5.4274599"/>
<trkpt lat="51.8300595" lon="5.4263131"/>
<trkpt lat="51.8306677" lon="5.4260480"/>
<trkpt lat="51.8323583" lon="5.4253687"/>
<trkpt lat="51.8324522" lon="5.4258761"/>
<trkpt lat="51.8324336" lon="5.4262893"/>
<trkpt lat="51.8323391" lon="5.4266895"/>
<trkpt lat="51.8320587" lon="5.4269804"/>
<trkpt lat="51.8321060" lon="5.4272803"/>
<trkpt lat="51.8323142" lon="5.4279624"/>
<trkpt lat="51.8324939" lon="5.4279310"/>
<trkpt lat="51.8337924" lon="5.4302334"/>
<trkpt lat="51.8339387" lon="5.4302780"/>
<trkpt lat="51.8340553" lon="5.4302336"/>
<trkpt lat="51.8341635" lon="5.4300249"/>
<trkpt lat="51.8342591" lon="5.4296520"/>
<trkpt lat="51.8343572" lon="5.4282543"/>
<trkpt lat="51.8345269" lon="5.4281977"/>
<trkpt lat="51.8346301" lon="5.4281112"/>
<trkpt lat="51.8347034" lon="5.4276844"/>
<trkpt lat="51.8348210" lon="5.4277095"/>
<trkpt lat="51.8346744" lon="5.4283526"/>
<trkpt lat="51.8346416" lon="5.4287961"/>
<trkpt lat="51.8346185" lon="5.4293765"/>
<trkpt lat="51.8346995" lon="5.4305367"/>
<trkpt lat="51.8345784" lon="5.4309328"/>
<trkpt lat="51.8346993" lon="5.4311776"/>
<trkpt lat="51.8351941" lon="5.4315429"/>
<trkpt lat="51.8353642" lon="5.4319236"/>
<trkpt lat="51.8355044" lon="5.4332425"/>
<trkpt lat="51.8356247" lon="5.4337952"/>
<trkpt lat="51.8361754" lon="5.4356005"/>
<trkpt lat="51.8369736" lon="5.4370900"/>
<trkpt lat="51.8377805" lon="5.4353634"/>
<trkpt lat="51.8385731" lon="5.4336482"/>
<trkpt lat="51.8400129" lon="5.4353016"/>
<trkpt lat="51.8409078" lon="5.4363286"/>
<trkpt lat="51.8412596" lon="5.4356266"/>
<trkpt lat="51.8413323" lon="5.4357332"/>
<trkpt lat="51.8425654" lon="5.4331813"/>
<trkpt lat="51.8430495" lon="5.4337076"/>
<trkpt lat="51.8442964" lon="5.4351555"/>
<trkpt lat="51.8443714" lon="5.4350206"/>
<trkpt lat="51.8454292" lon="5.4363132"/>
<trkpt lat="51.8454567" lon="5.4365871"/>
<trkpt lat="51.8456108" lon="5.4367263"/>
<trkpt lat="51.8457648" lon="5.4367858"/>
<trkpt lat="51.8463551" lon="5.4374427"/>
<trkpt lat="51.8479074" lon="5.4397210"/>
<trkpt lat="51.8476618" lon="5.4400859"/>
<trkpt lat="51.8475141" lon="5.4403571"/>
<trkpt lat="51.8474466" lon="5.4406559"/>
<trkpt lat="51.8474723" lon="5.4410239"/>
<trkpt lat="51.8476441" lon="5.4415950"/>
<trkpt lat="51.8482803" lon="5.4433740"/>
<trkpt lat="51.8486747" lon="5.4443277"/>
<trkpt lat="51.8491667" lon="5.4454437"/>
<trkpt lat="51.8494808" lon="5.4467278"/>
<trkpt lat="51.8496221" lon="5.4474320"/>
<trkpt lat="51.8496259" lon="5.4482873"/>
<trkpt lat="51.8495843" lon="5.4495348"/>
<trkpt lat="51.8497726" lon="5.4508541"/>
<trkpt lat="51.8499275" lon="5.4518285"/>
<trkpt lat="51.8500668" lon="5.4521978"/>
<trkpt lat="51.8505272" lon="5.4529288"/>
<trkpt lat="51.8506382" lon="5.4535212"/>
<trkpt lat="51.8507981" lon="5.4548125"/>
<trkpt lat="51.8508129" lon="5.4549332"/>
</trkseg></trk>
<trk><name>Tremelepad - Routeverkorter</name><type>shorteningRoute</type><trkseg>
<trkpt lat="51.8351601" lon="5.4424260"/>
<trkpt lat="51.8371596" lon="5.4388708"/>
<trkpt lat="51.8373259" lon="5.4385784"/>
<trkpt lat="51.8373944" lon="5.4382409"/>
<trkpt lat="51.8373822" lon="5.4378231"/>
<trkpt lat="51.8369736" lon="5.4370900"/>
</trkseg></trk>
<trk><name>Tremelepad - overstaproute</name><type>connectionRoute</type><trkseg>
<trkpt lat="51.8601500" lon="5.5056100"/>
<trkpt lat="51.8592900" lon="5.4904600"/>
<trkpt lat="51.8583100" lon="5.4794200"/>
<trkpt lat="51.8582100" lon="5.4789800"/>
<trkpt lat="51.8576300" lon="5.4779500"/>
<trkpt lat="51.8563000" lon="5.4757800"/>
<trkpt lat="51.8550700" lon="5.4769400"/>
<trkpt lat="51.8548900" lon="5.4764800"/>
<trkpt lat="51.8545000" lon="5.4752300"/>
<trkpt lat="51.8542100" lon="5.4745000"/>
</trkseg></trk>
<trk><name>Tremelepad - Overstaproute</name><type>connectionRoute</type><trkseg>
<trkpt lat="51.8283684" lon="5.4636433"/>
<trkpt lat="51.8291588" lon="5.4623745"/>
<trkpt lat="51.8304080" lon="5.4612827"/>
<trkpt lat="51.8318356" lon="5.4601335"/>
<trkpt lat="51.8324186" lon="5.4595586"/>
<trkpt lat="51.8333707" lon="5.4582167"/>
<trkpt lat="51.8350962" lon="5.4559929"/>
<trkpt lat="51.8362336" lon="5.4544928"/>
</trkseg></trk>
</gpx>