<?xml version="1.0" encoding="UTF-8"?>
<gpx version="1.1" creator="klompenpaden.nl via Jimbo API" xmlns="http://www.topografix.com/GPX/1/1">
<metadata><name>Turfvelderpad</name><desc>Ontdek het mooie buitengebied van Ederveen. Wandelen door weilanden, langs beken en over boerenerven. Rust, kleinschaligheid en de combinatie van natuur en cultuur bepalen hier de sfeer. Klompen aan, rugzak op en gaan!</desc><link href="https://www.klompenpaden.nl/klompenpaden/Turfvelderpad/c2e095e6-641d-4085-92db-066d5cc9db50"><text>klompenpaden.nl</text></link></metadata>
<wpt lat="52.0613567475398" lon="5.576055049896239"><name>Start Ederveen</name></wpt>
<trk><name>Turfvelderpad - Geimporteerde shapefile</name><type>mainRoute</type><trkseg>
<trkpt lat="52.0617078" lon="5.5764478"/>
<trkpt lat="52.0614229" lon="5.5764269"/>
<trkpt lat="52.0613749" lon="5.5768777"/>
<trkpt lat="52.0613261" lon="5.5773364"/>
<trkpt lat="52.0610237" lon="5.5773043"/>
<trkpt lat="52.0607566" lon="5.5772761"/>
<trkpt lat="52.0603979" lon="5.5772360"/>
<trkpt lat="52.0599532" lon="5.5771863"/>
<trkpt lat="52.0593238" lon="5.5771206"/>
<trkpt lat="52.0589957" lon="5.5770844"/>
<trkpt lat="52.0584837" lon="5.5838778"/>
<trkpt lat="52.0581809" lon="5.5838113"/>
<trkpt lat="52.0580567" lon="5.5838039"/>
<trkpt lat="52.0580008" lon="5.5840100"/>
<trkpt lat="52.0579477" lon="5.5847363"/>
<trkpt lat="52.0578137" lon="5.5847098"/>
<trkpt lat="52.0574081" lon="5.5896380"/>
<trkpt lat="52.0580827" lon="5.5897884"/>
<trkpt lat="52.0579441" lon="5.5915585"/>
<trkpt lat="52.0588429" lon="5.5916552"/>
<trkpt lat="52.0587985" lon="5.5925462"/>
<trkpt lat="52.0593121" lon="5.5925833"/>
<trkpt lat="52.0593416" lon="5.5920742"/>
<trkpt lat="52.0602476" lon="5.5921015"/>
<trkpt lat="52.0602612" lon="5.5924603"/>
<trkpt lat="52.0602605" lon="5.5928538"/>
<trkpt lat="52.0602304" lon="5.5937449"/>
<trkpt lat="52.0609296" lon="5.5937366"/>
<trkpt lat="52.0616076" lon="5.5936240"/>
<trkpt lat="52.0619786" lon="5.5935678"/>
<trkpt lat="52.0622926" lon="5.5935577"/>
<trkpt lat="52.0626706" lon="5.5936289"/>
<trkpt lat="52.0626809" lon="5.5958629"/>
<trkpt lat="52.0627107" lon="5.5991387"/>
<trkpt lat="52.0631602" lon="5.5991177"/>
<trkpt lat="52.0631803" lon="5.5998701"/>
<trkpt lat="52.0639508" lon="5.5998275"/>
<trkpt lat="52.0640194" lon="5.6013557"/>
<trkpt lat="52.0645901" lon="5.6013816"/>
<trkpt lat="52.0646402" lon="5.6013124"/>
<trkpt lat="52.0648972" lon="5.6012095"/>
<trkpt lat="52.0656609" lon="5.6010395"/>
<trkpt lat="52.0653598" lon="5.5938381"/>
<trkpt lat="52.0653050" lon="5.5925761"/>
<trkpt lat="52.0652435" lon="5.5909900"/>
<trkpt lat="52.0658778" lon="5.5913517"/>
<trkpt lat="52.0660061" lon="5.5914217"/>
<trkpt lat="52.0683110" lon="5.5911660"/>
<trkpt lat="52.0680592" lon="5.5882014"/>
<trkpt lat="52.0675549" lon="5.5826542"/>
<trkpt lat="52.0673244" lon="5.5796550"/>
<trkpt lat="52.0688072" lon="5.5803444"/>
<trkpt lat="52.0701903" lon="5.5809176"/>
<trkpt lat="52.0714022" lon="5.5814901"/>
<trkpt lat="52.0736834" lon="5.5825420"/>
<trkpt lat="52.0738260" lon="5.5826353"/>
<trkpt lat="52.0744312" lon="5.5833326"/>
<trkpt lat="52.0751442" lon="5.5836367"/>
<trkpt lat="52.0760494" lon="5.5841386"/>
<trkpt lat="52.0766410" lon="5.5844422"/>
<trkpt lat="52.0776825" lon="5.5845163"/>
<trkpt lat="52.0779447" lon="5.5845605"/>
<trkpt lat="52.0779588" lon="5.5844914"/>
<trkpt lat="52.0778214" lon="5.5841743"/>
<trkpt lat="52.0778607" lon="5.5839663"/>
<trkpt lat="52.0777989" lon="5.5836359"/>
<trkpt lat="52.0777842" lon="5.5834450"/>
<trkpt lat="52.0778295" lon="5.5834450"/>
<trkpt lat="52.0779761" lon="5.5831240"/>
<trkpt lat="52.0780172" lon="5.5828981"/>
<trkpt lat="52.0779886" lon="5.5826263"/>
<trkpt lat="52.0779907" lon="5.5823910"/>
<trkpt lat="52.0780185" lon="5.5821913"/>
<trkpt lat="52.0781114" lon="5.5819886"/>
<trkpt lat="52.0782640" lon="5.5819843"/>
<trkpt lat="52.0783367" lon="5.5815434"/>
<trkpt lat="52.0783493" lon="5.5814603"/>
<trkpt lat="52.0785152" lon="5.5814053"/>
<trkpt lat="52.0787432" lon="5.5767267"/>
<trkpt lat="52.0775948" lon="5.5760958"/>
<trkpt lat="52.0765542" lon="5.5755656"/>
<trkpt lat="52.0766476" lon="5.5750276"/>
<trkpt lat="52.0766789" lon="5.5747273"/>
<trkpt lat="52.0768029" lon="5.5744023"/>
<trkpt lat="52.0768650" lon="5.5741772"/>
<trkpt lat="52.0767960" lon="5.5739014"/>
<trkpt lat="52.0767502" lon="5.5736008"/>
<trkpt lat="52.0768741" lon="5.5732758"/>
<trkpt lat="52.0769515" lon="5.5731008"/>
<trkpt lat="52.0768435" lon="5.5730879"/>
<trkpt lat="52.0766807" lon="5.5732345"/>
<trkpt lat="52.0757176" lon="5.5731610"/>
<trkpt lat="52.0757311" lon="5.5736474"/>
<trkpt lat="52.0756859" lon="5.5751639"/>
<trkpt lat="52.0725352" lon="5.5735414"/>
<trkpt lat="52.0728360" lon="5.5727785"/>
<trkpt lat="52.0730938" lon="5.5721776"/>
<trkpt lat="52.0734012" lon="5.5717736"/>
<trkpt lat="52.0738444" lon="5.5712082"/>
<trkpt lat="52.0730397" lon="5.5702787"/>
<trkpt lat="52.0719430" lon="5.5689891"/>
<trkpt lat="52.0726234" lon="5.5672784"/>
<trkpt lat="52.0722815" lon="5.5669181"/>
<trkpt lat="52.0721314" lon="5.5670796"/>
<trkpt lat="52.0719814" lon="5.5671832"/>
<trkpt lat="52.0718813" lon="5.5673449"/>
<trkpt lat="52.0718024" lon="5.5676340"/>
<trkpt lat="52.0717663" lon="5.5679233"/>
<trkpt lat="52.0717375" lon="5.5680505"/>
<trkpt lat="52.0715876" lon="5.5681541"/>
<trkpt lat="52.0714093" lon="5.5680955"/>
<trkpt lat="52.0712596" lon="5.5680023"/>
<trkpt lat="52.0711526" lon="5.5680250"/>
<trkpt lat="52.0709957" lon="5.5679896"/>
<trkpt lat="52.0708462" lon="5.5677922"/>
<trkpt lat="52.0707752" lon="5.5675488"/>
<trkpt lat="52.0707687" lon="5.5670973"/>
<trkpt lat="52.0708549" lon="5.5667040"/>
<trkpt lat="52.0710266" lon="5.5664037"/>
<trkpt lat="52.0712341" lon="5.5660341"/>
<trkpt lat="52.0713487" lon="5.5657335"/>
<trkpt lat="52.0713994" lon="5.5652243"/>
<trkpt lat="52.0714429" lon="5.5647730"/>
<trkpt lat="52.0715434" lon="5.5643798"/>
<trkpt lat="52.0716293" lon="5.5641486"/>
<trkpt lat="52.0714655" lon="5.5639627"/>
<trkpt lat="52.0716236" lon="5.5632224"/>
<trkpt lat="52.0717885" lon="5.5626905"/>
<trkpt lat="52.0721301" lon="5.5632128"/>
<trkpt lat="52.0721801" lon="5.5631783"/>
<trkpt lat="52.0721949" lon="5.5628426"/>
<trkpt lat="52.0722095" lon="5.5626458"/>
<trkpt lat="52.0722810" lon="5.5624956"/>
<trkpt lat="52.0722741" lon="5.5623219"/>
<trkpt lat="52.0722817" lon="5.5620325"/>
<trkpt lat="52.0723389" lon="5.5619401"/>
<trkpt lat="52.0725172" lon="5.5619987"/>
<trkpt lat="52.0730988" lon="5.5611188"/>
<trkpt lat="52.0721489" lon="5.5601565"/>
<trkpt lat="52.0710328" lon="5.5590706"/>
<trkpt lat="52.0709048" lon="5.5590984"/>
<trkpt lat="52.0685247" lon="5.5606787"/>
<trkpt lat="52.0681958" lon="5.5606621"/>
<trkpt lat="52.0679318" lon="5.5606611"/>
<trkpt lat="52.0678177" lon="5.5606375"/>
<trkpt lat="52.0677835" lon="5.5607689"/>
<trkpt lat="52.0672322" lon="5.5607023"/>
<trkpt lat="52.0671264" lon="5.5605945"/>
<trkpt lat="52.0669986" lon="5.5605081"/>
<trkpt lat="52.0662446" lon="5.5602976"/>
<trkpt lat="52.0657241" lon="5.5602169"/>
<trkpt lat="52.0637593" lon="5.5599736"/>
<trkpt lat="52.0633619" lon="5.5598934"/>
<trkpt lat="52.0627980" lon="5.5597747"/>
<trkpt lat="52.0620016" lon="5.5597328"/>
<trkpt lat="52.0615189" lon="5.5645565"/>
<trkpt lat="52.0605731" lon="5.5644240"/>
<trkpt lat="52.0601565" lon="5.5685267"/>
<trkpt lat="52.0595680" lon="5.5744415"/>
<trkpt lat="52.0595002" lon="5.5752830"/>
<trkpt lat="52.0603822" lon="5.5754920"/>
<trkpt lat="52.0605253" lon="5.5756405"/>
<trkpt lat="52.0608352" lon="5.5757520"/>
<trkpt lat="52.0608345" lon="5.5758726"/>
<trkpt lat="52.0614668" lon="5.5760474"/>
<trkpt lat="52.0617368" lon="5.5761238"/>
<trkpt lat="52.0617078" lon="5.5764478"/>
</trkseg></trk>
<trk><name>Turfvelderpad - Geimporteerde shapefile</name><type>shorteningRoute</type><trkseg>
<trkpt lat="52.0613497" lon="5.5773028"/>
<trkpt lat="52.0626695" lon="5.5773200"/>
<trkpt lat="52.0639038" lon="5.5773021"/>
<trkpt lat="52.0650093" lon="5.5774688"/>
<trkpt lat="52.0654587" lon="5.5775170"/>
<trkpt lat="52.0660226" lon="5.5773342"/>
<trkpt lat="52.0661149" lon="5.5776124"/>
<trkpt lat="52.0664786" lon="5.5777297"/>
<trkpt lat="52.0668059" lon="5.5782289"/>
<trkpt lat="52.0669983" lon="5.5783802"/>
<trkpt lat="52.0672335" lon="5.5785201"/>
<trkpt lat="52.0673315" lon="5.5796781"/>
</trkseg></trk>
<trk><name>Turfvelderpad - Geimporteerde shapefile</name><type>shorteningRoute</type><trkseg>
<trkpt lat="52.0613497" lon="5.5773028"/>
<trkpt lat="52.0626695" lon="5.5773200"/>
<trkpt lat="52.0639038" lon="5.5773021"/>
<trkpt lat="52.0650093" lon="5.5774688"/>
<trkpt lat="52.0654587" lon="5.5775170"/>
<trkpt lat="52.0660226" lon="5.5773342"/>
<trkpt lat="52.0661149" lon="5.5776124"/>
<trkpt lat="52.0664786" lon="5.5777297"/>
<trkpt lat="52.0668059" lon="5.5782289"/>
<trkpt lat="52.0669983" lon="5.5783802"/>
<trkpt lat="52.0672335" lon="5.5785201"/>
<trkpt lat="52.0673315" lon="5.5796781"/>
</trkseg></trk>
<trk><name>Turfvelderpad - Geimporteerde shapefile</name><type>connectionRoute</type><trkseg>
<trkpt lat="52.0522076" lon="5.6531334"/>
<trkpt lat="52.0520566" lon="5.6521662"/>
<trkpt lat="52.0540456" lon="5.6509891"/>
<trkpt lat="52.0546475" lon="5.6506717"/>
<trkpt lat="52.0547008" lon="5.6506226"/>
<trkpt lat="52.0545814" lon="5.6495973"/>
<trkpt lat="52.0545366" lon="5.6492144"/>
<trkpt lat="52.0544228" lon="5.6490533"/>
<trkpt lat="52.0543699" lon="5.6488801"/>
<trkpt lat="52.0544009" lon="5.6486458"/>
<trkpt lat="52.0543683" lon="5.6478957"/>
<trkpt lat="52.0543208" lon="5.6478337"/>
<trkpt lat="52.0542162" lon="5.6478176"/>
<trkpt lat="52.0541594" lon="5.6476939"/>
<trkpt lat="52.0541219" lon="5.6474622"/>
<trkpt lat="52.0540270" lon="5.6473691"/>
<trkpt lat="52.0539511" lon="5.6472606"/>
<trkpt lat="52.0539517" lon="5.6469829"/>
<trkpt lat="52.0538951" lon="5.6467820"/>
<trkpt lat="52.0538099" lon="5.6466117"/>
<trkpt lat="52.0537912" lon="5.6464573"/>
<trkpt lat="52.0536964" lon="5.6463025"/>
<trkpt lat="52.0536317" lon="5.6454380"/>
<trkpt lat="52.0535483" lon="5.6444500"/>
<trkpt lat="52.0535209" lon="5.6438944"/>
<trkpt lat="52.0537492" lon="5.6439266"/>
<trkpt lat="52.0541387" lon="5.6441602"/>
<trkpt lat="52.0540186" lon="5.6425240"/>
<trkpt lat="52.0547134" lon="5.6423428"/>
<trkpt lat="52.0549036" lon="5.6423593"/>
<trkpt lat="52.0557891" lon="5.6419631"/>
<trkpt lat="52.0570069" lon="5.6418775"/>
<trkpt lat="52.0583206" lon="5.6413911"/>
<trkpt lat="52.0581707" lon="5.6403255"/>
<trkpt lat="52.0579365" lon="5.6386422"/>
<trkpt lat="52.0577962" lon="5.6375303"/>
<trkpt lat="52.0576738" lon="5.6369278"/>
<trkpt lat="52.0575604" lon="5.6365723"/>
<trkpt lat="52.0575230" lon="5.6363097"/>
<trkpt lat="52.0577809" lon="5.6357710"/>
<trkpt lat="52.0587074" lon="5.6339707"/>
<trkpt lat="52.0595384" lon="5.6323240"/>
<trkpt lat="52.0601783" lon="5.6310930"/>
<trkpt lat="52.0606457" lon="5.6304937"/>
<trkpt lat="52.0612938" lon="5.6298644"/>
<trkpt lat="52.0625226" lon="5.6290686"/>
<trkpt lat="52.0633894" lon="5.6284868"/>
<trkpt lat="52.0647898" lon="5.6274757"/>
<trkpt lat="52.0646106" lon="5.6267340"/>
<trkpt lat="52.0641763" lon="5.6250957"/>
<trkpt lat="52.0629299" lon="5.6204899"/>
<trkpt lat="52.0626655" lon="5.6194854"/>
<trkpt lat="52.0631133" lon="5.6191173"/>
<trkpt lat="52.0644373" lon="5.6182291"/>
<trkpt lat="52.0651707" lon="5.6177390"/>
<trkpt lat="52.0657994" lon="5.6173100"/>
<trkpt lat="52.0670472" lon="5.6164367"/>
<trkpt lat="52.0684569" lon="5.6154870"/>
<trkpt lat="52.0689237" lon="5.6151498"/>
<trkpt lat="52.0691807" lon="5.6150276"/>
<trkpt lat="52.0688982" lon="5.6135444"/>
<trkpt lat="52.0685029" lon="5.6113660"/>
<trkpt lat="52.0682952" lon="5.6105006"/>
<trkpt lat="52.0680966" lon="5.6099131"/>
<trkpt lat="52.0676510" lon="5.6091083"/>
<trkpt lat="52.0670434" lon="5.6084724"/>
<trkpt lat="52.0665115" lon="5.6080531"/>
<trkpt lat="52.0659132" lon="5.6075253"/>
<trkpt lat="52.0651722" lon="5.6070278"/>
<trkpt lat="52.0646779" lon="5.6068247"/>
<trkpt lat="52.0641075" lon="5.6066676"/>
<trkpt lat="52.0640648" lon="5.6040283"/>
<trkpt lat="52.0640125" lon="5.6014043"/>
</trkseg></trk>
<trk><name>Turfvelderpad - Geimporteerde shapefile</name><type>connectionRoute</type><trkseg>
<trkpt lat="52.0522076" lon="5.6531334"/>
<trkpt lat="52.0520566" lon="5.6521662"/>
<trkpt lat="52.0540456" lon="5.6509891"/>
<trkpt lat="52.0546475" lon="5.6506717"/>
<trkpt lat="52.0547008" lon="5.6506226"/>
<trkpt lat="52.0545814" lon="5.6495973"/>
<trkpt lat="52.0545366" lon="5.6492144"/>
<trkpt lat="52.0544228" lon="5.6490533"/>
<trkpt lat="52.0543699" lon="5.6488801"/>
<trkpt lat="52.0544009" lon="5.6486458"/>
<trkpt lat="52.0543683" lon="5.6478957"/>
<trkpt lat="52.0543208" lon="5.6478337"/>
<trkpt lat="52.0542162" lon="5.6478176"/>
<trkpt lat="52.0541594" lon="5.6476939"/>
<trkpt lat="52.0541219" lon="5.6474622"/>
<trkpt lat="52.0540270" lon="5.6473691"/>
<trkpt lat="52.0539511" lon="5.6472606"/>
<trkpt lat="52.0539517" lon="5.6469829"/>
<trkpt lat="52.0538951" lon="5.6467820"/>
<trkpt lat="52.0538099" lon="5.6466117"/>
<trkpt lat="52.0537912" lon="5.6464573"/>
<trkpt lat="52.0536964" lon="5.6463025"/>
<trkpt lat="52.0536317" lon="5.6454380"/>
<trkpt lat="52.0535483" lon="5.6444500"/>
<trkpt lat="52.0535209" lon="5.6438944"/>
<trkpt lat="52.0537492" lon="5.6439266"/>
<trkpt lat="52.0541387" lon="5.6441602"/>
<trkpt lat="52.0540186" lon="5.6425240"/>
<trkpt lat="52.0547134" lon="5.6423428"/>
<trkpt lat="52.0549036" lon="5.6423593"/>
<trkpt lat="52.0557891" lon="5.6419631"/>
<trkpt lat="52.0570069" lon="5.6418775"/>
<trkpt lat="52.0583206" lon="5.6413911"/>
<trkpt lat="52.0581707" lon="5.6403255"/>
<trkpt lat="52.0579365" lon="5.6386422"/>
<trkpt lat="52.0577962" lon="5.6375303"/>
<trkpt lat="52.0576738" lon="5.6369278"/>
<trkpt lat="52.0575604" lon="5.6365723"/>
<trkpt lat="52.0575230" lon="5.6363097"/>
<trkpt lat="52.0577809" lon="5.6357710"/>
<trkpt lat="52.0587074" lon="5.6339707"/>
<trkpt lat="52.0595384" lon="5.6323240"/>
<trkpt lat="52.0601783" lon="5.6310930"/>
<trkpt lat="52.0606457" lon="5.6304937"/>
<trkpt lat="52.0612938" lon="5.6298644"/>
<trkpt lat="52.0625226" lon="5.6290686"/>
<trkpt lat="52.0633894" lon="5.6284868"/>
<trkpt lat="52.0647898" lon="5.6274757"/>
<trkpt lat="52.0646106" lon="5.6267340"/>
<trkpt lat="52.0641763" lon="5.6250957"/>
<trkpt lat="52.0629299" lon="5.6204899"/>
<trkpt lat="52.0626655" lon="5.6194854"/>
<trkpt lat="52.0631133" lon="5.6191173"/>
<trkpt lat="52.0644373" lon="5.6182291"/>
<trkpt lat="52.0651707" lon="5.6177390"/>
<trkpt lat="52.0657994" lon="5.6173100"/>
<trkpt lat="52.0670472" lon="5.6164367"/>
<trkpt lat="52.0684569" lon="5.6154870"/>
<trkpt lat="52.0689237" lon="5.6151498"/>
<trkpt lat="52.0691807" lon="5.6150276"/>
<trkpt lat="52.0688982" lon="5.6135444"/>
<trkpt lat="52.0685029" lon="5.6113660"/>
<trkpt lat="52.0682952" lon="5.6105006"/>
<trkpt lat="52.0680966" lon="5.6099131"/>
<trkpt lat="52.0676510" lon="5.6091083"/>
<trkpt lat="52.0670434" lon="5.6084724"/>
<trkpt lat="52.0665115" lon="5.6080531"/>
<trkpt lat="52.0659132" lon="5.6075253"/>
<trkpt lat="52.0651722" lon="5.6070278"/>
<trkpt lat="52.0646779" lon="5.6068247"/>
<trkpt lat="52.0641075" lon="5.6066676"/>
<trkpt lat="52.0640648" lon="5.6040283"/>
<trkpt lat="52.0640125" lon="5.6014043"/>
</trkseg></trk>
<trk><name>Turfvelderpad - Geimporteerde shapefile</name><type>approachRoute</type><trkseg>
<trkpt lat="52.0589973" lon="5.5770858"/>
<trkpt lat="52.0585678" lon="5.5770248"/>
<trkpt lat="52.0581119" lon="5.5765946"/>
<trkpt lat="52.0576987" lon="5.5761878"/>
<trkpt lat="52.0573280" lon="5.5760126"/>
<trkpt lat="52.0568289" lon="5.5758600"/>
<trkpt lat="52.0563581" lon="5.5757655"/>
<trkpt lat="52.0559372" lon="5.5757984"/>
<trkpt lat="52.0553164" lon="5.5758537"/>
<trkpt lat="52.0548599" lon="5.5757939"/>
<trkpt lat="52.0544391" lon="5.5756995"/>
<trkpt lat="52.0539259" lon="5.5754312"/>
<trkpt lat="52.0532058" lon="5.5751041"/>
<trkpt lat="52.0528850" lon="5.5749871"/>
<trkpt lat="52.0524427" lon="5.5749389"/>
<trkpt lat="52.0519861" lon="5.5749601"/>
<trkpt lat="52.0515794" lon="5.5750047"/>
<trkpt lat="52.0511226" lon="5.5751185"/>
<trkpt lat="52.0506728" lon="5.5753249"/>
<trkpt lat="52.0505229" lon="5.5753474"/>
<trkpt lat="52.0495245" lon="5.5751118"/>
<trkpt lat="52.0488897" lon="5.5750050"/>
<trkpt lat="52.0485077" lon="5.5747443"/>
<trkpt lat="52.0483454" lon="5.5746492"/>
<trkpt lat="52.0481678" lon="5.5745739"/>
<trkpt lat="52.0479105" lon="5.5744535"/>
<trkpt lat="52.0476226" lon="5.5743380"/>
<trkpt lat="52.0473317" lon="5.5741628"/>
<trkpt lat="52.0468816" lon="5.5739174"/>
<trkpt lat="52.0465357" lon="5.5736326"/>
<trkpt lat="52.0463979" lon="5.5735923"/>
<trkpt lat="52.0462630" lon="5.5735768"/>
<trkpt lat="52.0461168" lon="5.5735470"/>
<trkpt lat="52.0460521" lon="5.5738707"/>
</trkseg></trk>
<trk><name>Turfvelderpad - Geimporteerde shapefile</name><type>approachRoute</type><trkseg>
<trkpt lat="52.0589973" lon="5.5770858"/>
<trkpt lat="52.0585678" lon="5.5770248"/>
<trkpt lat="52.0581119" lon="5.5765946"/>
<trkpt lat="52.0576987" lon="5.5761878"/>
<trkpt lat="52.0573280" lon="5.5760126"/>
<trkpt lat="52.0568289" lon="5.5758600"/>
<trkpt lat="52.0563581" lon="5.5757655"/>
<trkpt lat="52.0559372" lon="5.5757984"/>
<trkpt lat="52.0553164" lon="5.5758537"/>
<trkpt lat="52.0548599" lon="5.5757939"/>
<trkpt lat="52.0544391" lon="5.5756995"/>
<trkpt lat="52.0539259" lon="5.5754312"/>
<trkpt lat="52.0532058" lon="5.5751041"/>
<trkpt lat="52.0528850" lon="5.5749871"/>
<trkpt lat="52.0524427" lon="5.5749389"/>
<trkpt lat="52.0519861" lon="5.5749601"/>
<trkpt lat="52.0515794" lon="5.5750047"/>
<trkpt lat="52.0511226" lon="5.5751185"/>
<trkpt lat="52.0506728" lon="5.5753249"/>
<trkpt lat="52.0505229" lon="5.5753474"/>
<trkpt lat="52.0495245" lon="5.5751118"/>
<trkpt lat="52.0488897" lon="5.5750050"/>
<trkpt lat="52.0485077" lon="5.5747443"/>
<trkpt lat="52.0483454" lon="5.5746492"/>
<trkpt lat="52.0481678" lon="5.5745739"/>
<trkpt lat="52.0479105" lon="5.5744535"/>
<trkpt lat="52.0476226" lon="5.5743380"/>
<trkpt lat="52.0473317" lon="5.5741628"/>
<trkpt lat="52.0468816" lon="5.5739174"/>
<trkpt lat="52.0465357" lon="5.5736326"/>
<trkpt lat="52.0463979" lon="5.5735923"/>
<trkpt lat="52.0462630" lon="5.5735768"/>
<trkpt lat="52.0461168" lon="5.5735470"/>
<trkpt lat="52.0460521" lon="5.5738707"/>
</trkseg></trk>
</gpx>