<?xml version="1.0" encoding="UTF-8"?>
<gpx version="1.1" creator="klompenpaden.nl via Jimbo API" xmlns="http://www.topografix.com/GPX/1/1">
<metadata><name>Tuylermarkerpad</name><desc>Ontdek het mooie buitengebied van Terwolde. Wandelen langs boerenerven, over schouwpaden en historische wegen. Rust, ruimte en het IJssellandschap bepalen hier de sfeer. Klompen aan, rugzak op en gaan!</desc><link href="https://www.klompenpaden.nl/klompenpaden/Tuylermarkerpad/93cba80c-d1f2-4c7d-b3bc-1d27410ef8d7"><text>klompenpaden.nl</text></link></metadata>
<wpt lat="52.283400285068495" lon="6.09866201877594"><name>Start Terwolde</name></wpt>
<trk><name>Tuylermarkerpad - Hoofdroute</name><type>mainRoute</type><trkseg>
<trkpt lat="52.2834421" lon="6.0987877"/>
<trkpt lat="52.2833204" lon="6.0988980"/>
<trkpt lat="52.2831685" lon="6.0992874"/>
<trkpt lat="52.2829769" lon="6.0994076"/>
<trkpt lat="52.2823526" lon="6.0996686"/>
<trkpt lat="52.2820544" lon="6.0998189"/>
<trkpt lat="52.2819407" lon="6.0999334"/>
<trkpt lat="52.2817568" lon="6.0998723"/>
<trkpt lat="52.2815218" lon="6.1003920"/>
<trkpt lat="52.2811091" lon="6.1008119"/>
<trkpt lat="52.2804209" lon="6.1015569"/>
<trkpt lat="52.2790979" lon="6.1030574"/>
<trkpt lat="52.2787340" lon="6.1036009"/>
<trkpt lat="52.2785384" lon="6.1034699"/>
<trkpt lat="52.2783921" lon="6.1034034"/>
<trkpt lat="52.2782554" lon="6.1034243"/>
<trkpt lat="52.2775246" lon="6.1036718"/>
<trkpt lat="52.2762789" lon="6.1041945"/>
<trkpt lat="52.2760704" lon="6.1042687"/>
<trkpt lat="52.2746994" lon="6.1048475"/>
<trkpt lat="52.2744132" lon="6.1049493"/>
<trkpt lat="52.2742830" lon="6.1051061"/>
<trkpt lat="52.2745329" lon="6.1055596"/>
<trkpt lat="52.2747266" lon="6.1060435"/>
<trkpt lat="52.2741146" lon="6.1063870"/>
<trkpt lat="52.2738641" lon="6.1067770"/>
<trkpt lat="52.2732603" lon="6.1081742"/>
<trkpt lat="52.2729887" lon="6.1085571"/>
<trkpt lat="52.2740121" lon="6.1120081"/>
<trkpt lat="52.2743026" lon="6.1116119"/>
<trkpt lat="52.2745639" lon="6.1124742"/>
<trkpt lat="52.2744897" lon="6.1126299"/>
<trkpt lat="52.2735069" lon="6.1135954"/>
<trkpt lat="52.2737502" lon="6.1128339"/>
<trkpt lat="52.2726771" lon="6.1086938"/>
<trkpt lat="52.2726481" lon="6.1087879"/>
<trkpt lat="52.2725151" lon="6.1091540"/>
<trkpt lat="52.2723391" lon="6.1097423"/>
<trkpt lat="52.2717157" lon="6.1105656"/>
<trkpt lat="52.2707679" lon="6.1090384"/>
<trkpt lat="52.2707190" lon="6.1092508"/>
<trkpt lat="52.2706527" lon="6.1094048"/>
<trkpt lat="52.2705206" lon="6.1096158"/>
<trkpt lat="52.2703833" lon="6.1097105"/>
<trkpt lat="52.2696096" lon="6.1098433"/>
<trkpt lat="52.2686394" lon="6.1100213"/>
<trkpt lat="52.2682700" lon="6.1101510"/>
<trkpt lat="52.2679243" lon="6.1103004"/>
<trkpt lat="52.2673938" lon="6.1105244"/>
<trkpt lat="52.2670717" lon="6.1106936"/>
<trkpt lat="52.2668332" lon="6.1108060"/>
<trkpt lat="52.2665653" lon="6.1108694"/>
<trkpt lat="52.2662082" lon="6.1109315"/>
<trkpt lat="52.2658210" lon="6.1110608"/>
<trkpt lat="52.2655885" lon="6.1111636"/>
<trkpt lat="52.2654824" lon="6.1110165"/>
<trkpt lat="52.2654312" lon="6.1106281"/>
<trkpt lat="52.2632074" lon="6.1116578"/>
<trkpt lat="52.2634025" lon="6.1127946"/>
<trkpt lat="52.2634880" lon="6.1133968"/>
<trkpt lat="52.2635747" lon="6.1138051"/>
<trkpt lat="52.2637382" lon="6.1142826"/>
<trkpt lat="52.2641262" lon="6.1149963"/>
<trkpt lat="52.2645027" lon="6.1156420"/>
<trkpt lat="52.2647146" lon="6.1159846"/>
<trkpt lat="52.2648732" lon="6.1163069"/>
<trkpt lat="52.2649951" lon="6.1167741"/>
<trkpt lat="52.2651517" lon="6.1174065"/>
<trkpt lat="52.2652622" lon="6.1178153"/>
<trkpt lat="52.2649446" lon="6.1182073"/>
<trkpt lat="52.2647102" lon="6.1186201"/>
<trkpt lat="52.2645465" lon="6.1194362"/>
<trkpt lat="52.2650996" lon="6.1214253"/>
<trkpt lat="52.2649190" lon="6.1219757"/>
<trkpt lat="52.2649030" lon="6.1222927"/>
<trkpt lat="52.2650070" lon="6.1225187"/>
<trkpt lat="52.2649232" lon="6.1226589"/>
<trkpt lat="52.2644570" lon="6.1227847"/>
<trkpt lat="52.2642670" lon="6.1228717"/>
<trkpt lat="52.2640360" lon="6.1231407"/>
<trkpt lat="52.2638510" lon="6.1232237"/>
<trkpt lat="52.2635760" lon="6.1234667"/>
<trkpt lat="52.2633166" lon="6.1237236"/>
<trkpt lat="52.2628814" lon="6.1240360"/>
<trkpt lat="52.2627410" lon="6.1241687"/>
<trkpt lat="52.2621554" lon="6.1248327"/>
<trkpt lat="52.2620443" lon="6.1249645"/>
<trkpt lat="52.2619804" lon="6.1250752"/>
<trkpt lat="52.2617104" lon="6.1256820"/>
<trkpt lat="52.2614734" lon="6.1261575"/>
<trkpt lat="52.2611189" lon="6.1264091"/>
<trkpt lat="52.2606713" lon="6.1269064"/>
<trkpt lat="52.2602629" lon="6.1273665"/>
<trkpt lat="52.2598865" lon="6.1277447"/>
<trkpt lat="52.2596394" lon="6.1280222"/>
<trkpt lat="52.2594846" lon="6.1281741"/>
<trkpt lat="52.2592090" lon="6.1284611"/>
<trkpt lat="52.2590423" lon="6.1281282"/>
<trkpt lat="52.2589564" lon="6.1280718"/>
<trkpt lat="52.2588015" lon="6.1282465"/>
<trkpt lat="52.2587593" lon="6.1282236"/>
<trkpt lat="52.2587326" lon="6.1273628"/>
<trkpt lat="52.2586851" lon="6.1272695"/>
<trkpt lat="52.2584854" lon="6.1272373"/>
<trkpt lat="52.2584403" lon="6.1268394"/>
<trkpt lat="52.2583775" lon="6.1264314"/>
<trkpt lat="52.2582183" lon="6.1262156"/>
<trkpt lat="52.2580707" lon="6.1260485"/>
<trkpt lat="52.2576639" lon="6.1254992"/>
<trkpt lat="52.2574285" lon="6.1251174"/>
<trkpt lat="52.2571730" lon="6.1247554"/>
<trkpt lat="52.2571550" lon="6.1246767"/>
<trkpt lat="52.2571560" lon="6.1245857"/>
<trkpt lat="52.2571870" lon="6.1244407"/>
<trkpt lat="52.2572810" lon="6.1244267"/>
<trkpt lat="52.2573270" lon="6.1242938"/>
<trkpt lat="52.2574310" lon="6.1242767"/>
<trkpt lat="52.2575240" lon="6.1242767"/>
<trkpt lat="52.2576110" lon="6.1243267"/>
<trkpt lat="52.2577060" lon="6.1243768"/>
<trkpt lat="52.2577990" lon="6.1243847"/>
<trkpt lat="52.2578290" lon="6.1242407"/>
<trkpt lat="52.2578600" lon="6.1240987"/>
<trkpt lat="52.2579510" lon="6.1236677"/>
<trkpt lat="52.2580810" lon="6.1230747"/>
<trkpt lat="52.2581100" lon="6.1229248"/>
<trkpt lat="52.2582770" lon="6.1217037"/>
<trkpt lat="52.2583186" lon="6.1213958"/>
<trkpt lat="52.2583886" lon="6.1209331"/>
<trkpt lat="52.2584280" lon="6.1206377"/>
<trkpt lat="52.2584613" lon="6.1202916"/>
<trkpt lat="52.2584970" lon="6.1201787"/>
<trkpt lat="52.2585290" lon="6.1198757"/>
<trkpt lat="52.2586820" lon="6.1185197"/>
<trkpt lat="52.2587140" lon="6.1184156"/>
<trkpt lat="52.2598360" lon="6.1197041"/>
<trkpt lat="52.2599503" lon="6.1195405"/>
<trkpt lat="52.2600523" lon="6.1194212"/>
<trkpt lat="52.2601480" lon="6.1193541"/>
<trkpt lat="52.2602453" lon="6.1192600"/>
<trkpt lat="52.2604018" lon="6.1190903"/>
<trkpt lat="52.2605444" lon="6.1189355"/>
<trkpt lat="52.2606930" lon="6.1187131"/>
<trkpt lat="52.2607800" lon="6.1186371"/>
<trkpt lat="52.2608580" lon="6.1185641"/>
<trkpt lat="52.2610940" lon="6.1182561"/>
<trkpt lat="52.2612620" lon="6.1180821"/>
<trkpt lat="52.2617690" lon="6.1174751"/>
<trkpt lat="52.2618883" lon="6.1173238"/>
<trkpt lat="52.2622125" lon="6.1177749"/>
<trkpt lat="52.2624264" lon="6.1177881"/>
<trkpt lat="52.2631294" lon="6.1175574"/>
<trkpt lat="52.2630604" lon="6.1171783"/>
<trkpt lat="52.2630513" lon="6.1167325"/>
<trkpt lat="52.2631279" lon="6.1158714"/>
<trkpt lat="52.2632099" lon="6.1151169"/>
<trkpt lat="52.2632880" lon="6.1149826"/>
<trkpt lat="52.2637675" lon="6.1143509"/>
<trkpt lat="52.2636391" lon="6.1139612"/>
<trkpt lat="52.2635286" lon="6.1135622"/>
<trkpt lat="52.2634307" lon="6.1130470"/>
<trkpt lat="52.2633052" lon="6.1121826"/>
<trkpt lat="52.2631207" lon="6.1112397"/>
<trkpt lat="52.2626705" lon="6.1090426"/>
<trkpt lat="52.2623301" lon="6.1073415"/>
<trkpt lat="52.2623019" lon="6.1070891"/>
<trkpt lat="52.2623852" lon="6.1070711"/>
<trkpt lat="52.2622594" lon="6.1062551"/>
<trkpt lat="52.2621911" lon="6.1057599"/>
<trkpt lat="52.2626334" lon="6.1053698"/>
<trkpt lat="52.2627711" lon="6.1052170"/>
<trkpt lat="52.2629164" lon="6.1047833"/>
<trkpt lat="52.2629912" lon="6.1042128"/>
<trkpt lat="52.2629031" lon="6.1030584"/>
<trkpt lat="52.2628951" lon="6.1024090"/>
<trkpt lat="52.2628998" lon="6.1016340"/>
<trkpt lat="52.2629446" lon="6.1011018"/>
<trkpt lat="52.2630237" lon="6.1008124"/>
<trkpt lat="52.2633870" lon="6.1007019"/>
<trkpt lat="52.2638690" lon="6.1006321"/>
<trkpt lat="52.2640119" lon="6.1005860"/>
<trkpt lat="52.2640734" lon="6.1002575"/>
<trkpt lat="52.2640804" lon="6.1000735"/>
<trkpt lat="52.2650756" lon="6.0996922"/>
<trkpt lat="52.2659575" lon="6.0993575"/>
<trkpt lat="52.2662214" lon="6.0989741"/>
<trkpt lat="52.2670380" lon="6.0976305"/>
<trkpt lat="52.2675267" lon="6.0964561"/>
<trkpt lat="52.2681664" lon="6.0948577"/>
<trkpt lat="52.2682387" lon="6.0947135"/>
<trkpt lat="52.2684177" lon="6.0945904"/>
<trkpt lat="52.2690021" lon="6.0942993"/>
<trkpt lat="52.2699445" lon="6.0937909"/>
<trkpt lat="52.2708751" lon="6.0932630"/>
<trkpt lat="52.2726529" lon="6.0922446"/>
<trkpt lat="52.2737035" lon="6.0915344"/>
<trkpt lat="52.2740966" lon="6.0914146"/>
<trkpt lat="52.2754377" lon="6.0906416"/>
<trkpt lat="52.2758505" lon="6.0904053"/>
<trkpt lat="52.2758758" lon="6.0905575"/>
<trkpt lat="52.2759272" lon="6.0905662"/>
<trkpt lat="52.2759503" lon="6.0906474"/>
<trkpt lat="52.2762216" lon="6.0922793"/>
<trkpt lat="52.2763139" lon="6.0927575"/>
<trkpt lat="52.2763369" lon="6.0928561"/>
<trkpt lat="52.2766524" lon="6.0935099"/>
<trkpt lat="52.2769104" lon="6.0941052"/>
<trkpt lat="52.2770395" lon="6.0943980"/>
<trkpt lat="52.2771839" lon="6.0950982"/>
<trkpt lat="52.2772755" lon="6.0956909"/>
<trkpt lat="52.2773725" lon="6.0963612"/>
<trkpt lat="52.2774341" lon="6.0970019"/>
<trkpt lat="52.2774540" lon="6.0976419"/>
<trkpt lat="52.2773963" lon="6.0983485"/>
<trkpt lat="52.2773708" lon="6.0986292"/>
<trkpt lat="52.2791149" lon="6.0992581"/>
<trkpt lat="52.2790119" lon="6.1005553"/>
<trkpt lat="52.2784227" lon="6.1006718"/>
<trkpt lat="52.2780774" lon="6.1007438"/>
<trkpt lat="52.2780267" lon="6.1007936"/>
<trkpt lat="52.2779995" lon="6.1009271"/>
<trkpt lat="52.2780539" lon="6.1012830"/>
<trkpt lat="52.2781203" lon="6.1019481"/>
<trkpt lat="52.2781424" lon="6.1023841"/>
<trkpt lat="52.2781764" lon="6.1028123"/>
<trkpt lat="52.2782036" lon="6.1030181"/>
<trkpt lat="52.2782547" lon="6.1034296"/>
<trkpt lat="52.2780191" lon="6.1034956"/>
<trkpt lat="52.2782535" lon="6.1034262"/>
</trkseg></trk>
<trk><name>Tuylermarkerpad - Alternatieve route</name><type>alternativeRoute</type><trkseg>
<trkpt lat="52.2646629" lon="6.1188290"/>
<trkpt lat="52.2634784" lon="6.1217255"/>
<trkpt lat="52.2627664" lon="6.1234193"/>
<trkpt lat="52.2625545" lon="6.1237153"/>
<trkpt lat="52.2621809" lon="6.1240820"/>
<trkpt lat="52.2618145" lon="6.1244978"/>
<trkpt lat="52.2615237" lon="6.1248047"/>
<trkpt lat="52.2609042" lon="6.1255096"/>
<trkpt lat="52.2605567" lon="6.1258890"/>
<trkpt lat="52.2602772" lon="6.1261961"/>
<trkpt lat="52.2600304" lon="6.1264138"/>
<trkpt lat="52.2597757" lon="6.1266278"/>
<trkpt lat="52.2594893" lon="6.1268370"/>
<trkpt lat="52.2592482" lon="6.1269530"/>
<trkpt lat="52.2588394" lon="6.1271723"/>
<trkpt lat="52.2586764" lon="6.1272636"/>
</trkseg></trk>
<trk><name>Tuylermarkerpad - overstaproute</name><type>connectionRoute</type><trkseg>
<trkpt lat="52.2571700" lon="6.1247500"/>
<trkpt lat="52.2568300" lon="6.1244400"/>
<trkpt lat="52.2566100" lon="6.1236000"/>
<trkpt lat="52.2565000" lon="6.1229200"/>
<trkpt lat="52.2563300" lon="6.1226400"/>
<trkpt lat="52.2559500" lon="6.1224400"/>
<trkpt lat="52.2555700" lon="6.1224400"/>
<trkpt lat="52.2552600" lon="6.1221800"/>
<trkpt lat="52.2550900" lon="6.1218400"/>
<trkpt lat="52.2550800" lon="6.1212800"/>
<trkpt lat="52.2549900" lon="6.1202600"/>
<trkpt lat="52.2527700" lon="6.1201000"/>
<trkpt lat="52.2521400" lon="6.1197800"/>
<trkpt lat="52.2510800" lon="6.1186800"/>
<trkpt lat="52.2508400" lon="6.1187000"/>
</trkseg></trk>
</gpx>