<?xml version="1.0" encoding="UTF-8"?>
<gpx version="1.1" creator="klompenpaden.nl via Jimbo API" xmlns="http://www.topografix.com/GPX/1/1">
<metadata><name>Uchtapad</name><desc>Ontdek het Uchtapad. Wandelen door de uiterwaarden van de Waal, over dijken en langs kolken in het prachtige buitengebied van Ochten in de gemeente Neder-Betuwe. Deze wandeling is een uitgelezen kans om de prachtige omgeving van Ochten en Eldik te verkennen. Klompen aan, rugzak op en gaan!</desc><link href="https://www.klompenpaden.nl/klompenpaden/Uchtapad/95780fa7-4c1b-4bd9-8ee2-1e04123771c0"><text>klompenpaden.nl</text></link></metadata>
<wpt lat="51.90771673790411" lon="5.565927028656007"><name>Start Ochten</name></wpt>
<trk><name>Uchtapad - Geimporteerde shapefile</name><type>mainRoute</type><trkseg>
<trkpt lat="51.9045881" lon="5.5642849"/>
<trkpt lat="51.9043552" lon="5.5651367"/>
<trkpt lat="51.9043290" lon="5.5653903"/>
<trkpt lat="51.9043346" lon="5.5655625"/>
<trkpt lat="51.9043912" lon="5.5660201"/>
<trkpt lat="51.9045140" lon="5.5667351"/>
<trkpt lat="51.9048515" lon="5.5679151"/>
<trkpt lat="51.9051659" lon="5.5688377"/>
<trkpt lat="51.9053658" lon="5.5694374"/>
<trkpt lat="51.9057000" lon="5.5703622"/>
<trkpt lat="51.9060191" lon="5.5710958"/>
<trkpt lat="51.9063754" lon="5.5718066"/>
<trkpt lat="51.9067556" lon="5.5725001"/>
<trkpt lat="51.9067576" lon="5.5728337"/>
<trkpt lat="51.9065094" lon="5.5736544"/>
<trkpt lat="51.9063473" lon="5.5742390"/>
<trkpt lat="51.9063142" lon="5.5745394"/>
<trkpt lat="51.9063473" lon="5.5749524"/>
<trkpt lat="51.9066649" lon="5.5762182"/>
<trkpt lat="51.9067841" lon="5.5766903"/>
<trkpt lat="51.9068105" lon="5.5768512"/>
<trkpt lat="51.9067841" lon="5.5772159"/>
<trkpt lat="51.9066451" lon="5.5776128"/>
<trkpt lat="51.9065458" lon="5.5779722"/>
<trkpt lat="51.9065590" lon="5.5784978"/>
<trkpt lat="51.9066120" lon="5.5789430"/>
<trkpt lat="51.9066153" lon="5.5793775"/>
<trkpt lat="51.9065755" lon="5.5798656"/>
<trkpt lat="51.9065193" lon="5.5803483"/>
<trkpt lat="51.9065094" lon="5.5806809"/>
<trkpt lat="51.9064995" lon="5.5808257"/>
<trkpt lat="51.9062976" lon="5.5817053"/>
<trkpt lat="51.9060807" lon="5.5825421"/>
<trkpt lat="51.9057420" lon="5.5835162"/>
<trkpt lat="51.9051281" lon="5.5852926"/>
<trkpt lat="51.9041201" lon="5.5890215"/>
<trkpt lat="51.9040108" lon="5.5891663"/>
<trkpt lat="51.9038090" lon="5.5892682"/>
<trkpt lat="51.9037110" lon="5.5893519"/>
<trkpt lat="51.9035171" lon="5.5898903"/>
<trkpt lat="51.9033324" lon="5.5904847"/>
<trkpt lat="51.9030505" lon="5.5917613"/>
<trkpt lat="51.9029419" lon="5.5923512"/>
<trkpt lat="51.9028033" lon="5.5926568"/>
<trkpt lat="51.9027851" lon="5.5930893"/>
<trkpt lat="51.9026043" lon="5.5938273"/>
<trkpt lat="51.9023542" lon="5.5949430"/>
<trkpt lat="51.9022184" lon="5.5955631"/>
<trkpt lat="51.9021516" lon="5.5959772"/>
<trkpt lat="51.9021158" lon="5.5986440"/>
<trkpt lat="51.9028836" lon="5.5990033"/>
<trkpt lat="51.9030584" lon="5.5990366"/>
<trkpt lat="51.9045688" lon="5.5965521"/>
<trkpt lat="51.9049672" lon="5.5955331"/>
<trkpt lat="51.9053339" lon="5.5944968"/>
<trkpt lat="51.9063194" lon="5.5950605"/>
<trkpt lat="51.9058329" lon="5.5961543"/>
<trkpt lat="51.9071777" lon="5.5972495"/>
<trkpt lat="51.9074557" lon="5.5974882"/>
<trkpt lat="51.9075382" lon="5.5974353"/>
<trkpt lat="51.9076258" lon="5.5976100"/>
<trkpt lat="51.9077800" lon="5.5980218"/>
<trkpt lat="51.9079282" lon="5.5983400"/>
<trkpt lat="51.9081109" lon="5.5986602"/>
<trkpt lat="51.9084471" lon="5.5991209"/>
<trkpt lat="51.9085226" lon="5.5992569"/>
<trkpt lat="51.9085530" lon="5.5993842"/>
<trkpt lat="51.9085762" lon="5.5998416"/>
<trkpt lat="51.9086143" lon="5.5999072"/>
<trkpt lat="51.9085169" lon="5.6000558"/>
<trkpt lat="51.9084126" lon="5.6004499"/>
<trkpt lat="51.9083551" lon="5.6006618"/>
<trkpt lat="51.9080590" lon="5.6011112"/>
<trkpt lat="51.9080091" lon="5.6012429"/>
<trkpt lat="51.9079707" lon="5.6015329"/>
<trkpt lat="51.9078185" lon="5.6019773"/>
<trkpt lat="51.9076585" lon="5.6026429"/>
<trkpt lat="51.9076224" lon="5.6030524"/>
<trkpt lat="51.9077533" lon="5.6032516"/>
<trkpt lat="51.9079903" lon="5.6035497"/>
<trkpt lat="51.9082916" lon="5.6037215"/>
<trkpt lat="51.9085212" lon="5.6038697"/>
<trkpt lat="51.9088317" lon="5.6043048"/>
<trkpt lat="51.9091476" lon="5.6043760"/>
<trkpt lat="51.9093682" lon="5.6042145"/>
<trkpt lat="51.9095622" lon="5.6044185"/>
<trkpt lat="51.9099421" lon="5.6046586"/>
<trkpt lat="51.9101836" lon="5.6050007"/>
<trkpt lat="51.9103568" lon="5.6036379"/>
<trkpt lat="51.9106197" lon="5.5997796"/>
<trkpt lat="51.9108527" lon="5.5964545"/>
<trkpt lat="51.9110961" lon="5.5955941"/>
<trkpt lat="51.9112471" lon="5.5932451"/>
<trkpt lat="51.9112928" lon="5.5931514"/>
<trkpt lat="51.9114166" lon="5.5925989"/>
<trkpt lat="51.9117981" lon="5.5926489"/>
<trkpt lat="51.9122460" lon="5.5935556"/>
<trkpt lat="51.9124375" lon="5.5935939"/>
<trkpt lat="51.9126991" lon="5.5932963"/>
<trkpt lat="51.9131107" lon="5.5926032"/>
<trkpt lat="51.9135796" lon="5.5951246"/>
<trkpt lat="51.9135968" lon="5.5956720"/>
<trkpt lat="51.9135056" lon="5.5962768"/>
<trkpt lat="51.9130220" lon="5.5965515"/>
<trkpt lat="51.9127875" lon="5.5970925"/>
<trkpt lat="51.9127089" lon="5.5976980"/>
<trkpt lat="51.9127842" lon="5.5980962"/>
<trkpt lat="51.9127081" lon="5.5995483"/>
<trkpt lat="51.9127345" lon="5.5999470"/>
<trkpt lat="51.9129276" lon="5.6005032"/>
<trkpt lat="51.9129679" lon="5.6008333"/>
<trkpt lat="51.9128706" lon="5.6020027"/>
<trkpt lat="51.9127307" lon="5.6024610"/>
<trkpt lat="51.9126518" lon="5.6028476"/>
<trkpt lat="51.9127953" lon="5.6031306"/>
<trkpt lat="51.9164133" lon="5.6032018"/>
<trkpt lat="51.9164121" lon="5.6017296"/>
<trkpt lat="51.9191714" lon="5.6017922"/>
<trkpt lat="51.9192542" lon="5.6020740"/>
<trkpt lat="51.9194270" lon="5.6020664"/>
<trkpt lat="51.9196710" lon="5.6020253"/>
<trkpt lat="51.9199453" lon="5.6018594"/>
<trkpt lat="51.9202063" lon="5.6016076"/>
<trkpt lat="51.9201309" lon="5.6014821"/>
<trkpt lat="51.9201217" lon="5.6013351"/>
<trkpt lat="51.9203820" lon="5.6008502"/>
<trkpt lat="51.9208739" lon="5.5995285"/>
<trkpt lat="51.9209653" lon="5.5992844"/>
<trkpt lat="51.9210751" lon="5.5990961"/>
<trkpt lat="51.9209719" lon="5.5989184"/>
<trkpt lat="51.9195184" lon="5.5993565"/>
<trkpt lat="51.9195489" lon="5.5991807"/>
<trkpt lat="51.9195935" lon="5.5988990"/>
<trkpt lat="51.9196812" lon="5.5981696"/>
<trkpt lat="51.9196746" lon="5.5970620"/>
<trkpt lat="51.9195670" lon="5.5958417"/>
<trkpt lat="51.9195505" lon="5.5945356"/>
<trkpt lat="51.9194860" lon="5.5937847"/>
<trkpt lat="51.9192379" lon="5.5922962"/>
<trkpt lat="51.9188641" lon="5.5905423"/>
<trkpt lat="51.9186986" lon="5.5899518"/>
<trkpt lat="51.9185266" lon="5.5893082"/>
<trkpt lat="51.9183943" lon="5.5886377"/>
<trkpt lat="51.9182785" lon="5.5876132"/>
<trkpt lat="51.9181760" lon="5.5868784"/>
<trkpt lat="51.9180568" lon="5.5861650"/>
<trkpt lat="51.9179675" lon="5.5855590"/>
<trkpt lat="51.9178088" lon="5.5842341"/>
<trkpt lat="51.9176533" lon="5.5826947"/>
<trkpt lat="51.9175507" lon="5.5820725"/>
<trkpt lat="51.9174349" lon="5.5813752"/>
<trkpt lat="51.9174051" lon="5.5808119"/>
<trkpt lat="51.9174316" lon="5.5801576"/>
<trkpt lat="51.9174581" lon="5.5793745"/>
<trkpt lat="51.9174680" lon="5.5789990"/>
<trkpt lat="51.9173390" lon="5.5777599"/>
<trkpt lat="51.9172811" lon="5.5772451"/>
<trkpt lat="51.9172525" lon="5.5767433"/>
<trkpt lat="51.9173512" lon="5.5766774"/>
<trkpt lat="51.9178812" lon="5.5766415"/>
<trkpt lat="51.9185259" lon="5.5765826"/>
<trkpt lat="51.9185947" lon="5.5766671"/>
<trkpt lat="51.9187032" lon="5.5768760"/>
<trkpt lat="51.9187668" lon="5.5769249"/>
<trkpt lat="51.9188357" lon="5.5768574"/>
<trkpt lat="51.9186435" lon="5.5764718"/>
<trkpt lat="51.9184063" lon="5.5759212"/>
<trkpt lat="51.9182839" lon="5.5753304"/>
<trkpt lat="51.9181952" lon="5.5741146"/>
<trkpt lat="51.9181131" lon="5.5733607"/>
<trkpt lat="51.9179073" lon="5.5725460"/>
<trkpt lat="51.9178970" lon="5.5722395"/>
<trkpt lat="51.9180085" lon="5.5716628"/>
<trkpt lat="51.9180922" lon="5.5703951"/>
<trkpt lat="51.9180361" lon="5.5694395"/>
<trkpt lat="51.9180594" lon="5.5691361"/>
<trkpt lat="51.9179984" lon="5.5689779"/>
<trkpt lat="51.9174689" lon="5.5686908"/>
<trkpt lat="51.9171444" lon="5.5685539"/>
<trkpt lat="51.9168068" lon="5.5684514"/>
<trkpt lat="51.9161085" lon="5.5683163"/>
<trkpt lat="51.9160110" lon="5.5681648"/>
<trkpt lat="51.9158635" lon="5.5680624"/>
<trkpt lat="51.9157113" lon="5.5681584"/>
<trkpt lat="51.9155435" lon="5.5680326"/>
<trkpt lat="51.9154012" lon="5.5680760"/>
<trkpt lat="51.9152902" lon="5.5679957"/>
<trkpt lat="51.9151972" lon="5.5677542"/>
<trkpt lat="51.9151165" lon="5.5676188"/>
<trkpt lat="51.9150012" lon="5.5675726"/>
<trkpt lat="51.9148260" lon="5.5676206"/>
<trkpt lat="51.9147706" lon="5.5677849"/>
<trkpt lat="51.9147628" lon="5.5680279"/>
<trkpt lat="51.9145126" lon="5.5678500"/>
<trkpt lat="51.9143451" lon="5.5680701"/>
<trkpt lat="51.9141132" lon="5.5680943"/>
<trkpt lat="51.9134551" lon="5.5680885"/>
<trkpt lat="51.9133647" lon="5.5680786"/>
<trkpt lat="51.9110190" lon="5.5679186"/>
<trkpt lat="51.9101186" lon="5.5678509"/>
<trkpt lat="51.9100226" lon="5.5678424"/>
<trkpt lat="51.9098789" lon="5.5678039"/>
<trkpt lat="51.9096459" lon="5.5676539"/>
<trkpt lat="51.9096240" lon="5.5675563"/>
<trkpt lat="51.9095373" lon="5.5674974"/>
<trkpt lat="51.9094397" lon="5.5675291"/>
<trkpt lat="51.9093498" lon="5.5674570"/>
<trkpt lat="51.9088338" lon="5.5667369"/>
<trkpt lat="51.9085495" lon="5.5662880"/>
<trkpt lat="51.9081969" lon="5.5659884"/>
<trkpt lat="51.9081302" lon="5.5659034"/>
<trkpt lat="51.9082086" lon="5.5646637"/>
<trkpt lat="51.9081321" lon="5.5640272"/>
<trkpt lat="51.9079784" lon="5.5632870"/>
<trkpt lat="51.9081727" lon="5.5627937"/>
<trkpt lat="51.9081905" lon="5.5625634"/>
<trkpt lat="51.9073728" lon="5.5620417"/>
<trkpt lat="51.9070291" lon="5.5619248"/>
<trkpt lat="51.9065516" lon="5.5618391"/>
<trkpt lat="51.9061177" lon="5.5618491"/>
<trkpt lat="51.9055335" lon="5.5620078"/>
<trkpt lat="51.9055545" lon="5.5625166"/>
<trkpt lat="51.9054709" lon="5.5628407"/>
<trkpt lat="51.9052575" lon="5.5632621"/>
<trkpt lat="51.9050276" lon="5.5635156"/>
<trkpt lat="51.9048922" lon="5.5634587"/>
<trkpt lat="51.9048197" lon="5.5636817"/>
<trkpt lat="51.9045913" lon="5.5642781"/>
</trkseg></trk>
<trk><name>Uchtapad - Geimporteerde shapefile</name><type>shorteningRoute</type><trkseg>
<trkpt lat="51.9067195" lon="5.5725499"/>
<trkpt lat="51.9068819" lon="5.5727261"/>
<trkpt lat="51.9074024" lon="5.5733185"/>
<trkpt lat="51.9078768" lon="5.5742202"/>
<trkpt lat="51.9082115" lon="5.5750023"/>
<trkpt lat="51.9085473" lon="5.5757257"/>
<trkpt lat="51.9097894" lon="5.5765897"/>
<trkpt lat="51.9099079" lon="5.5768218"/>
<trkpt lat="51.9099618" lon="5.5769937"/>
<trkpt lat="51.9100475" lon="5.5776033"/>
<trkpt lat="51.9121160" lon="5.5836460"/>
<trkpt lat="51.9117321" lon="5.5851455"/>
<trkpt lat="51.9116658" lon="5.5867308"/>
<trkpt lat="51.9115996" lon="5.5879237"/>
<trkpt lat="51.9113058" lon="5.5905027"/>
<trkpt lat="51.9112315" lon="5.5916205"/>
<trkpt lat="51.9111125" lon="5.5931949"/>
<trkpt lat="51.9112430" lon="5.5932384"/>
</trkseg></trk>
<trk><name>Uchtapad - Geimporteerde shapefile</name><type>extensionRoute</type><trkseg>
<trkpt lat="51.9102330" lon="5.6049141"/>
<trkpt lat="51.9100313" lon="5.6059285"/>
<trkpt lat="51.9105851" lon="5.6077925"/>
<trkpt lat="51.9106289" lon="5.6083904"/>
<trkpt lat="51.9104807" lon="5.6092442"/>
<trkpt lat="51.9101886" lon="5.6099870"/>
<trkpt lat="51.9098764" lon="5.6103645"/>
<trkpt lat="51.9096432" lon="5.6106977"/>
<trkpt lat="51.9094819" lon="5.6111893"/>
<trkpt lat="51.9092781" lon="5.6117860"/>
<trkpt lat="51.9089061" lon="5.6122917"/>
<trkpt lat="51.9088109" lon="5.6124078"/>
<trkpt lat="51.9084995" lon="5.6132660"/>
<trkpt lat="51.9083809" lon="5.6133583"/>
<trkpt lat="51.9083327" lon="5.6135811"/>
<trkpt lat="51.9077179" lon="5.6142250"/>
<trkpt lat="51.9060527" lon="5.6169061"/>
<trkpt lat="51.9055783" lon="5.6185547"/>
<trkpt lat="51.9054911" lon="5.6194997"/>
<trkpt lat="51.9052536" lon="5.6200484"/>
<trkpt lat="51.9047354" lon="5.6206000"/>
<trkpt lat="51.9039951" lon="5.6207861"/>
<trkpt lat="51.9039062" lon="5.6201043"/>
<trkpt lat="51.9036712" lon="5.6193976"/>
<trkpt lat="51.9021274" lon="5.6150487"/>
<trkpt lat="51.9020580" lon="5.6146325"/>
<trkpt lat="51.9019893" lon="5.6138762"/>
<trkpt lat="51.9022596" lon="5.6069978"/>
<trkpt lat="51.9021468" lon="5.6048048"/>
<trkpt lat="51.9021205" lon="5.6000418"/>
<trkpt lat="51.9020281" lon="5.5993798"/>
<trkpt lat="51.9021113" lon="5.5986242"/>
</trkseg></trk>
<trk><name>Uchtapad - Geimporteerde shapefile</name><type>connectionRoute</type><trkseg>
<trkpt lat="51.9210751" lon="5.5990961"/>
<trkpt lat="51.9221973" lon="5.5986432"/>
<trkpt lat="51.9221955" lon="5.5986310"/>
<trkpt lat="51.9225814" lon="5.5984752"/>
<trkpt lat="51.9232461" lon="5.5987268"/>
<trkpt lat="51.9237042" lon="5.5992189"/>
<trkpt lat="51.9243664" lon="5.5999302"/>
<trkpt lat="51.9252710" lon="5.6003413"/>
<trkpt lat="51.9258247" lon="5.6003365"/>
<trkpt lat="51.9265522" lon="5.6002277"/>
</trkseg></trk>
<trk><name>Uchtapad - Geimporteerde shapefile</name><type>connectionRoute</type><trkseg>
<trkpt lat="51.9039745" lon="5.6208394"/>
<trkpt lat="51.9036166" lon="5.6211579"/>
<trkpt lat="51.9034195" lon="5.6218869"/>
<trkpt lat="51.9034174" lon="5.6234848"/>
<trkpt lat="51.9032672" lon="5.6245285"/>
<trkpt lat="51.9031564" lon="5.6251780"/>
<trkpt lat="51.9029054" lon="5.6260398"/>
<trkpt lat="51.9026345" lon="5.6269208"/>
<trkpt lat="51.9025053" lon="5.6279021"/>
<trkpt lat="51.9021552" lon="5.6286231"/>
<trkpt lat="51.9018056" lon="5.6292109"/>
<trkpt lat="51.9015785" lon="5.6298768"/>
<trkpt lat="51.9016906" lon="5.6305295"/>
<trkpt lat="51.9014979" lon="5.6309963"/>
<trkpt lat="51.9014400" lon="5.6322482"/>
<trkpt lat="51.9020022" lon="5.6334693"/>
<trkpt lat="51.9023411" lon="5.6341386"/>
<trkpt lat="51.9030845" lon="5.6350044"/>
<trkpt lat="51.9035858" lon="5.6364116"/>
<trkpt lat="51.9036490" lon="5.6375006"/>
<trkpt lat="51.9034741" lon="5.6379761"/>
<trkpt lat="51.9034993" lon="5.6385036"/>
<trkpt lat="51.9032489" lon="5.6387187"/>
<trkpt lat="51.9037230" lon="5.6401373"/>
<trkpt lat="51.9041427" lon="5.6413883"/>
<trkpt lat="51.9045607" lon="5.6427137"/>
<trkpt lat="51.9047573" lon="5.6445216"/>
<trkpt lat="51.9051100" lon="5.6481227"/>
<trkpt lat="51.9050834" lon="5.6495780"/>
<trkpt lat="51.9055607" lon="5.6519130"/>
</trkseg></trk>
</gpx>