<?xml version="1.0" encoding="UTF-8"?>
<gpx version="1.1" creator="klompenpaden.nl via Jimbo API" xmlns="http://www.topografix.com/GPX/1/1">
<metadata><name>Uddelermeerpad</name><desc>Ontdek het mooie buitengebied van Uddel. Wandel door het prachtige bos en de heide van het Kroondomein, langs het Uddelermeer en een middeleeuws verdedigingswerk. Laat je verrassen
door dit bijzondere afwisselende landschap. Klompen aan, rugzak op en gaan.</desc><link href="https://www.klompenpaden.nl/klompenpaden/Uddelermeerpad/e3838f7d-3eac-47f4-91aa-77a2594a43e0"><text>klompenpaden.nl</text></link></metadata>
<wpt lat="52.24841651587633" lon="5.760966539382934"><name>Start Uddel</name></wpt>
<trk><name>Uddelermeerpad - hoofroute</name><type>mainRoute</type><trkseg>
<trkpt lat="52.2485800" lon="5.7610200"/>
<trkpt lat="52.2480800" lon="5.7614700"/>
<trkpt lat="52.2478500" lon="5.7620500"/>
<trkpt lat="52.2478400" lon="5.7627700"/>
<trkpt lat="52.2479400" lon="5.7633200"/>
<trkpt lat="52.2478900" lon="5.7637600"/>
<trkpt lat="52.2477400" lon="5.7645800"/>
<trkpt lat="52.2475400" lon="5.7649000"/>
<trkpt lat="52.2472300" lon="5.7652400"/>
<trkpt lat="52.2469600" lon="5.7652100"/>
<trkpt lat="52.2468100" lon="5.7631800"/>
<trkpt lat="52.2462000" lon="5.7633500"/>
<trkpt lat="52.2459200" lon="5.7635900"/>
<trkpt lat="52.2455200" lon="5.7632100"/>
<trkpt lat="52.2450000" lon="5.7631700"/>
<trkpt lat="52.2444500" lon="5.7629300"/>
<trkpt lat="52.2434800" lon="5.7642100"/>
<trkpt lat="52.2422000" lon="5.7657200"/>
<trkpt lat="52.2414200" lon="5.7661600"/>
<trkpt lat="52.2408000" lon="5.7664800"/>
<trkpt lat="52.2401400" lon="5.7633700"/>
<trkpt lat="52.2399100" lon="5.7573400"/>
<trkpt lat="52.2366600" lon="5.7576400"/>
<trkpt lat="52.2364200" lon="5.7548000"/>
<trkpt lat="52.2335800" lon="5.7531600"/>
<trkpt lat="52.2333200" lon="5.7523400"/>
<trkpt lat="52.2331600" lon="5.7516600"/>
<trkpt lat="52.2317700" lon="5.7523700"/>
<trkpt lat="52.2311500" lon="5.7529700"/>
<trkpt lat="52.2308100" lon="5.7536400"/>
<trkpt lat="52.2308800" lon="5.7544700"/>
<trkpt lat="52.2314700" lon="5.7561800"/>
<trkpt lat="52.2307000" lon="5.7567300"/>
<trkpt lat="52.2308600" lon="5.7586100"/>
<trkpt lat="52.2310100" lon="5.7589400"/>
<trkpt lat="52.2318600" lon="5.7588400"/>
<trkpt lat="52.2318800" lon="5.7605900"/>
<trkpt lat="52.2335500" lon="5.7602700"/>
<trkpt lat="52.2336200" lon="5.7603000"/>
<trkpt lat="52.2337000" lon="5.7630300"/>
<trkpt lat="52.2335500" lon="5.7631800"/>
<trkpt lat="52.2338200" lon="5.7666500"/>
<trkpt lat="52.2339600" lon="5.7682300"/>
<trkpt lat="52.2342800" lon="5.7682000"/>
<trkpt lat="52.2343600" lon="5.7686800"/>
<trkpt lat="52.2344100" lon="5.7696200"/>
<trkpt lat="52.2338400" lon="5.7700100"/>
<trkpt lat="52.2343100" lon="5.7721700"/>
<trkpt lat="52.2346000" lon="5.7744700"/>
<trkpt lat="52.2361400" lon="5.7870100"/>
<trkpt lat="52.2367500" lon="5.7865100"/>
<trkpt lat="52.2382000" lon="5.7854300"/>
<trkpt lat="52.2386400" lon="5.7874900"/>
<trkpt lat="52.2387000" lon="5.7878700"/>
<trkpt lat="52.2390500" lon="5.7885400"/>
<trkpt lat="52.2392900" lon="5.7890700"/>
<trkpt lat="52.2394000" lon="5.7891700"/>
<trkpt lat="52.2451400" lon="5.7836800"/>
<trkpt lat="52.2473200" lon="5.7769400"/>
<trkpt lat="52.2482200" lon="5.7811500"/>
<trkpt lat="52.2496500" lon="5.7806100"/>
<trkpt lat="52.2497200" lon="5.7810900"/>
<trkpt lat="52.2513800" lon="5.7803400"/>
<trkpt lat="52.2518900" lon="5.7816700"/>
<trkpt lat="52.2522200" lon="5.7822000"/>
<trkpt lat="52.2529500" lon="5.7839800"/>
<trkpt lat="52.2533700" lon="5.7846400"/>
<trkpt lat="52.2534200" lon="5.7848600"/>
<trkpt lat="52.2534500" lon="5.7851800"/>
<trkpt lat="52.2535600" lon="5.7856300"/>
<trkpt lat="52.2542600" lon="5.7872900"/>
<trkpt lat="52.2545700" lon="5.7899500"/>
<trkpt lat="52.2552600" lon="5.7938700"/>
<trkpt lat="52.2560400" lon="5.7953600"/>
<trkpt lat="52.2574700" lon="5.7961600"/>
<trkpt lat="52.2592900" lon="5.7971100"/>
<trkpt lat="52.2596800" lon="5.7976600"/>
<trkpt lat="52.2604800" lon="5.7982200"/>
<trkpt lat="52.2624600" lon="5.7982200"/>
<trkpt lat="52.2638800" lon="5.7972700"/>
<trkpt lat="52.2639400" lon="5.7969600"/>
<trkpt lat="52.2639300" lon="5.7966700"/>
<trkpt lat="52.2637200" lon="5.7952700"/>
<trkpt lat="52.2636000" lon="5.7949400"/>
<trkpt lat="52.2623800" lon="5.7921700"/>
<trkpt lat="52.2621400" lon="5.7914700"/>
<trkpt lat="52.2618400" lon="5.7908400"/>
<trkpt lat="52.2615900" lon="5.7904600"/>
<trkpt lat="52.2612000" lon="5.7891600"/>
<trkpt lat="52.2611500" lon="5.7887800"/>
<trkpt lat="52.2594600" lon="5.7847500"/>
<trkpt lat="52.2594900" lon="5.7838400"/>
<trkpt lat="52.2588700" lon="5.7836100"/>
<trkpt lat="52.2584500" lon="5.7833200"/>
<trkpt lat="52.2576800" lon="5.7824400"/>
<trkpt lat="52.2582500" lon="5.7813200"/>
<trkpt lat="52.2592400" lon="5.7789700"/>
<trkpt lat="52.2593600" lon="5.7786300"/>
<trkpt lat="52.2595800" lon="5.7767300"/>
<trkpt lat="52.2594400" lon="5.7767800"/>
<trkpt lat="52.2588400" lon="5.7694000"/>
<trkpt lat="52.2573200" lon="5.7699400"/>
<trkpt lat="52.2568700" lon="5.7632000"/>
<trkpt lat="52.2561300" lon="5.7634000"/>
<trkpt lat="52.2552200" lon="5.7635600"/>
<trkpt lat="52.2545900" lon="5.7636400"/>
<trkpt lat="52.2544600" lon="5.7618100"/>
<trkpt lat="52.2543400" lon="5.7618800"/>
<trkpt lat="52.2542800" lon="5.7619400"/>
<trkpt lat="52.2541100" lon="5.7614600"/>
<trkpt lat="52.2538100" lon="5.7609500"/>
<trkpt lat="52.2537000" lon="5.7604800"/>
<trkpt lat="52.2533200" lon="5.7606200"/>
<trkpt lat="52.2529900" lon="5.7608900"/>
<trkpt lat="52.2527500" lon="5.7613900"/>
<trkpt lat="52.2511100" lon="5.7616400"/>
<trkpt lat="52.2508600" lon="5.7617000"/>
<trkpt lat="52.2508700" lon="5.7615800"/>
<trkpt lat="52.2508400" lon="5.7613600"/>
<trkpt lat="52.2509400" lon="5.7599300"/>
<trkpt lat="52.2509400" lon="5.7597900"/>
<trkpt lat="52.2508200" lon="5.7598000"/>
<trkpt lat="52.2500000" lon="5.7603400"/>
<trkpt lat="52.2498200" lon="5.7602400"/>
<trkpt lat="52.2490700" lon="5.7607400"/>
<trkpt lat="52.2485800" lon="5.7610200"/>
</trkseg></trk>
<trk><name>Uddelermeerpad - routeverkorter</name><type>shorteningRoute</type><trkseg>
<trkpt lat="52.2469600" lon="5.7652100"/>
<trkpt lat="52.2470300" lon="5.7667300"/>
<trkpt lat="52.2470300" lon="5.7675000"/>
<trkpt lat="52.2470000" lon="5.7678400"/>
<trkpt lat="52.2466100" lon="5.7690900"/>
<trkpt lat="52.2465100" lon="5.7697100"/>
<trkpt lat="52.2465200" lon="5.7702100"/>
<trkpt lat="52.2466400" lon="5.7707100"/>
<trkpt lat="52.2474300" lon="5.7734500"/>
<trkpt lat="52.2480300" lon="5.7737100"/>
<trkpt lat="52.2482700" lon="5.7738500"/>
<trkpt lat="52.2486700" lon="5.7745100"/>
<trkpt lat="52.2507000" lon="5.7784800"/>
<trkpt lat="52.2513800" lon="5.7803400"/>
</trkseg></trk>
<trk><name>Uddelermeerpad - routeverlenger</name><type>extensionRoute</type><trkseg>
<trkpt lat="52.2595800" lon="5.7767300"/>
<trkpt lat="52.2613000" lon="5.7735700"/>
<trkpt lat="52.2622700" lon="5.7743500"/>
<trkpt lat="52.2635800" lon="5.7746300"/>
<trkpt lat="52.2626500" lon="5.7798900"/>
<trkpt lat="52.2672100" lon="5.7798800"/>
<trkpt lat="52.2677000" lon="5.7881200"/>
<trkpt lat="52.2626100" lon="5.7926900"/>
</trkseg></trk>
<trk><name>Uddelermeerpad - overstaproute</name><type>connectionRoute</type><trkseg>
<trkpt lat="52.2621900" lon="5.7209600"/>
<trkpt lat="52.2588500" lon="5.7201800"/>
<trkpt lat="52.2576100" lon="5.7202100"/>
<trkpt lat="52.2531100" lon="5.7207200"/>
<trkpt lat="52.2478800" lon="5.7423400"/>
<trkpt lat="52.2472200" lon="5.7451300"/>
<trkpt lat="52.2476600" lon="5.7482400"/>
<trkpt lat="52.2482700" lon="5.7517600"/>
<trkpt lat="52.2492500" lon="5.7560700"/>
<trkpt lat="52.2501100" lon="5.7600100"/>
<trkpt lat="52.2500000" lon="5.7603400"/>
</trkseg></trk>
</gpx>