<?xml version="1.0" encoding="UTF-8"?>
<gpx version="1.1" creator="klompenpaden.nl via Jimbo API" xmlns="http://www.topografix.com/GPX/1/1">
<metadata><name>Ugcheler Markepad</name><desc>Ontdek het prachtige buitengebied van Ugchelen. Wandelen over heide en enk, langs sprengen en door bossen. Klompen aan, rugzak op en gaan!
</desc><link href="https://www.klompenpaden.nl/klompenpaden/Ugcheler_Markepad/665848fb-64a1-4dd6-9f0c-d539ba2332e6"><text>klompenpaden.nl</text></link></metadata>
<wpt lat="52.17865562155439" lon="5.912125110455478"><name>Start Ugchelen</name></wpt>
<trk><name>Ugcheler Markepad - Geimporteerde shapefile</name><type>mainRoute</type><trkseg>
<trkpt lat="52.1788379" lon="5.9121951"/>
<trkpt lat="52.1788819" lon="5.9120347"/>
<trkpt lat="52.1787891" lon="5.9116603"/>
<trkpt lat="52.1785820" lon="5.9112111"/>
<trkpt lat="52.1783672" lon="5.9108697"/>
<trkpt lat="52.1781744" lon="5.9102679"/>
<trkpt lat="52.1780642" lon="5.9092887"/>
<trkpt lat="52.1779761" lon="5.9082826"/>
<trkpt lat="52.1773455" lon="5.9086836"/>
<trkpt lat="52.1771632" lon="5.9088268"/>
<trkpt lat="52.1768984" lon="5.9094041"/>
<trkpt lat="52.1767872" lon="5.9100878"/>
<trkpt lat="52.1766019" lon="5.9107084"/>
<trkpt lat="52.1765534" lon="5.9110351"/>
<trkpt lat="52.1765643" lon="5.9113719"/>
<trkpt lat="52.1766187" lon="5.9117477"/>
<trkpt lat="52.1763989" lon="5.9117062"/>
<trkpt lat="52.1762394" lon="5.9115414"/>
<trkpt lat="52.1760412" lon="5.9113300"/>
<trkpt lat="52.1759295" lon="5.9110903"/>
<trkpt lat="52.1758685" lon="5.9106030"/>
<trkpt lat="52.1756939" lon="5.9099507"/>
<trkpt lat="52.1757067" lon="5.9095370"/>
<trkpt lat="52.1758506" lon="5.9090413"/>
<trkpt lat="52.1751243" lon="5.9059469"/>
<trkpt lat="52.1753078" lon="5.9055955"/>
<trkpt lat="52.1753331" lon="5.9053151"/>
<trkpt lat="52.1754709" lon="5.9047978"/>
<trkpt lat="52.1754878" lon="5.9044834"/>
<trkpt lat="52.1757779" lon="5.9038299"/>
<trkpt lat="52.1771260" lon="5.9028522"/>
<trkpt lat="52.1772994" lon="5.9020274"/>
<trkpt lat="52.1768563" lon="5.9009875"/>
<trkpt lat="52.1766715" lon="5.8979407"/>
<trkpt lat="52.1778664" lon="5.8963463"/>
<trkpt lat="52.1763474" lon="5.8950645"/>
<trkpt lat="52.1755638" lon="5.8987432"/>
<trkpt lat="52.1751457" lon="5.8984713"/>
<trkpt lat="52.1738986" lon="5.8971495"/>
<trkpt lat="52.1736098" lon="5.8969590"/>
<trkpt lat="52.1735450" lon="5.8989893"/>
<trkpt lat="52.1734757" lon="5.8993749"/>
<trkpt lat="52.1731865" lon="5.9000160"/>
<trkpt lat="52.1732766" lon="5.9003820"/>
<trkpt lat="52.1736411" lon="5.9026688"/>
<trkpt lat="52.1734945" lon="5.9028600"/>
<trkpt lat="52.1733063" lon="5.9032721"/>
<trkpt lat="52.1731821" lon="5.9036537"/>
<trkpt lat="52.1731208" lon="5.9040903"/>
<trkpt lat="52.1730797" lon="5.9047408"/>
<trkpt lat="52.1730803" lon="5.9052013"/>
<trkpt lat="52.1730154" lon="5.9060159"/>
<trkpt lat="52.1729959" lon="5.9066603"/>
<trkpt lat="52.1729264" lon="5.9071215"/>
<trkpt lat="52.1728450" lon="5.9074870"/>
<trkpt lat="52.1727705" lon="5.9079837"/>
<trkpt lat="52.1726961" lon="5.9081788"/>
<trkpt lat="52.1722743" lon="5.9080311"/>
<trkpt lat="52.1719548" lon="5.9079412"/>
<trkpt lat="52.1718611" lon="5.9079592"/>
<trkpt lat="52.1717730" lon="5.9079861"/>
<trkpt lat="52.1716903" lon="5.9080850"/>
<trkpt lat="52.1715361" lon="5.9083005"/>
<trkpt lat="52.1707648" lon="5.9074382"/>
<trkpt lat="52.1704177" lon="5.9084622"/>
<trkpt lat="52.1699604" lon="5.9094953"/>
<trkpt lat="52.1698898" lon="5.9096582"/>
<trkpt lat="52.1696310" lon="5.9092952"/>
<trkpt lat="52.1693979" lon="5.9090067"/>
<trkpt lat="52.1691585" lon="5.9086863"/>
<trkpt lat="52.1690033" lon="5.9084409"/>
<trkpt lat="52.1689134" lon="5.9081541"/>
<trkpt lat="52.1687482" lon="5.9081209"/>
<trkpt lat="52.1686491" lon="5.9078244"/>
<trkpt lat="52.1684721" lon="5.9076226"/>
<trkpt lat="52.1681366" lon="5.9073283"/>
<trkpt lat="52.1678748" lon="5.9071501"/>
<trkpt lat="52.1678867" lon="5.9073608"/>
<trkpt lat="52.1678492" lon="5.9074755"/>
<trkpt lat="52.1677627" lon="5.9075879"/>
<trkpt lat="52.1675564" lon="5.9076580"/>
<trkpt lat="52.1673430" lon="5.9078993"/>
<trkpt lat="52.1672313" lon="5.9080615"/>
<trkpt lat="52.1669045" lon="5.9083533"/>
<trkpt lat="52.1670682" lon="5.9089060"/>
<trkpt lat="52.1670237" lon="5.9089620"/>
<trkpt lat="52.1668611" lon="5.9089374"/>
<trkpt lat="52.1665821" lon="5.9088679"/>
<trkpt lat="52.1664269" lon="5.9089083"/>
<trkpt lat="52.1663493" lon="5.9088884"/>
<trkpt lat="52.1662234" lon="5.9088894"/>
<trkpt lat="52.1661369" lon="5.9088200"/>
<trkpt lat="52.1661165" lon="5.9086596"/>
<trkpt lat="52.1661075" lon="5.9084645"/>
<trkpt lat="52.1660897" lon="5.9082271"/>
<trkpt lat="52.1660644" lon="5.9081106"/>
<trkpt lat="52.1660163" lon="5.9080733"/>
<trkpt lat="52.1658681" lon="5.9080774"/>
<trkpt lat="52.1657892" lon="5.9080549"/>
<trkpt lat="52.1657040" lon="5.9080296"/>
<trkpt lat="52.1654766" lon="5.9078416"/>
<trkpt lat="52.1652893" lon="5.9076099"/>
<trkpt lat="52.1649535" lon="5.9078788"/>
<trkpt lat="52.1651944" lon="5.9073292"/>
<trkpt lat="52.1653769" lon="5.9069457"/>
<trkpt lat="52.1654287" lon="5.9068088"/>
<trkpt lat="52.1654889" lon="5.9067343"/>
<trkpt lat="52.1655806" lon="5.9067176"/>
<trkpt lat="52.1656567" lon="5.9066384"/>
<trkpt lat="52.1657411" lon="5.9064109"/>
<trkpt lat="52.1658050" lon="5.9063674"/>
<trkpt lat="52.1659806" lon="5.9063624"/>
<trkpt lat="52.1661408" lon="5.9062487"/>
<trkpt lat="52.1662666" lon="5.9061036"/>
<trkpt lat="52.1664787" lon="5.9057441"/>
<trkpt lat="52.1661531" lon="5.9053541"/>
<trkpt lat="52.1659768" lon="5.9052732"/>
<trkpt lat="52.1657949" lon="5.9052103"/>
<trkpt lat="52.1654423" lon="5.9050936"/>
<trkpt lat="52.1646929" lon="5.9047702"/>
<trkpt lat="52.1644009" lon="5.9046983"/>
<trkpt lat="52.1638884" lon="5.9045905"/>
<trkpt lat="52.1636019" lon="5.9045815"/>
<trkpt lat="52.1633098" lon="5.9044108"/>
<trkpt lat="52.1626210" lon="5.9040515"/>
<trkpt lat="52.1619432" lon="5.9037371"/>
<trkpt lat="52.1616181" lon="5.9036113"/>
<trkpt lat="52.1614914" lon="5.9035215"/>
<trkpt lat="52.1609403" lon="5.9030813"/>
<trkpt lat="52.1602460" lon="5.9043300"/>
<trkpt lat="52.1601798" lon="5.9046534"/>
<trkpt lat="52.1602404" lon="5.9049588"/>
<trkpt lat="52.1604443" lon="5.9075639"/>
<trkpt lat="52.1623786" lon="5.9087677"/>
<trkpt lat="52.1629241" lon="5.9090821"/>
<trkpt lat="52.1634807" lon="5.9094145"/>
<trkpt lat="52.1648197" lon="5.9114536"/>
<trkpt lat="52.1655084" lon="5.9124687"/>
<trkpt lat="52.1650511" lon="5.9132233"/>
<trkpt lat="52.1649243" lon="5.9133850"/>
<trkpt lat="52.1647976" lon="5.9135108"/>
<trkpt lat="52.1647646" lon="5.9136186"/>
<trkpt lat="52.1646709" lon="5.9137713"/>
<trkpt lat="52.1646984" lon="5.9141037"/>
<trkpt lat="52.1647370" lon="5.9142564"/>
<trkpt lat="52.1646874" lon="5.9146337"/>
<trkpt lat="52.1646819" lon="5.9148852"/>
<trkpt lat="52.1647094" lon="5.9154961"/>
<trkpt lat="52.1652109" lon="5.9162417"/>
<trkpt lat="52.1652494" lon="5.9168256"/>
<trkpt lat="52.1653101" lon="5.9169423"/>
<trkpt lat="52.1653872" lon="5.9169783"/>
<trkpt lat="52.1657123" lon="5.9172388"/>
<trkpt lat="52.1658060" lon="5.9173466"/>
<trkpt lat="52.1658666" lon="5.9176969"/>
<trkpt lat="52.1662137" lon="5.9181820"/>
<trkpt lat="52.1665829" lon="5.9186312"/>
<trkpt lat="52.1672110" lon="5.9192241"/>
<trkpt lat="52.1674920" lon="5.9196283"/>
<trkpt lat="52.1690898" lon="5.9226197"/>
<trkpt lat="52.1672716" lon="5.9255572"/>
<trkpt lat="52.1689025" lon="5.9275784"/>
<trkpt lat="52.1698281" lon="5.9255033"/>
<trkpt lat="52.1705499" lon="5.9262130"/>
<trkpt lat="52.1712441" lon="5.9268957"/>
<trkpt lat="52.1720540" lon="5.9239851"/>
<trkpt lat="52.1727591" lon="5.9210027"/>
<trkpt lat="52.1721090" lon="5.9180922"/>
<trkpt lat="52.1721641" lon="5.9181551"/>
<trkpt lat="52.1723955" lon="5.9186491"/>
<trkpt lat="52.1753098" lon="5.9245780"/>
<trkpt lat="52.1754751" lon="5.9248206"/>
<trkpt lat="52.1755632" lon="5.9249104"/>
<trkpt lat="52.1756459" lon="5.9249733"/>
<trkpt lat="52.1756734" lon="5.9249014"/>
<trkpt lat="52.1762078" lon="5.9235360"/>
<trkpt lat="52.1764667" lon="5.9228443"/>
<trkpt lat="52.1766760" lon="5.9222065"/>
<trkpt lat="52.1768743" lon="5.9214160"/>
<trkpt lat="52.1769568" lon="5.9209240"/>
<trkpt lat="52.1769593" lon="5.9208973"/>
<trkpt lat="52.1767150" lon="5.9209138"/>
<trkpt lat="52.1762782" lon="5.9203515"/>
<trkpt lat="52.1760936" lon="5.9201487"/>
<trkpt lat="52.1759881" lon="5.9199218"/>
<trkpt lat="52.1759140" lon="5.9195750"/>
<trkpt lat="52.1758513" lon="5.9195157"/>
<trkpt lat="52.1757668" lon="5.9195283"/>
<trkpt lat="52.1757285" lon="5.9197990"/>
<trkpt lat="52.1757065" lon="5.9200505"/>
<trkpt lat="52.1755908" lon="5.9201763"/>
<trkpt lat="52.1755192" lon="5.9201853"/>
<trkpt lat="52.1753704" lon="5.9200415"/>
<trkpt lat="52.1752878" lon="5.9198170"/>
<trkpt lat="52.1751886" lon="5.9196014"/>
<trkpt lat="52.1751611" lon="5.9195205"/>
<trkpt lat="52.1751170" lon="5.9194936"/>
<trkpt lat="52.1750344" lon="5.9194307"/>
<trkpt lat="52.1748691" lon="5.9193588"/>
<trkpt lat="52.1746102" lon="5.9193139"/>
<trkpt lat="52.1745055" lon="5.9192420"/>
<trkpt lat="52.1744725" lon="5.9190983"/>
<trkpt lat="52.1744449" lon="5.9190444"/>
<trkpt lat="52.1743843" lon="5.9189905"/>
<trkpt lat="52.1742686" lon="5.9189905"/>
<trkpt lat="52.1742025" lon="5.9189186"/>
<trkpt lat="52.1741309" lon="5.9189097"/>
<trkpt lat="52.1740758" lon="5.9188647"/>
<trkpt lat="52.1740042" lon="5.9186851"/>
<trkpt lat="52.1739546" lon="5.9186312"/>
<trkpt lat="52.1737343" lon="5.9184785"/>
<trkpt lat="52.1736847" lon="5.9183886"/>
<trkpt lat="52.1736241" lon="5.9183168"/>
<trkpt lat="52.1735029" lon="5.9182090"/>
<trkpt lat="52.1732605" lon="5.9179125"/>
<trkpt lat="52.1731448" lon="5.9174184"/>
<trkpt lat="52.1730842" lon="5.9171939"/>
<trkpt lat="52.1730621" lon="5.9169244"/>
<trkpt lat="52.1730181" lon="5.9166908"/>
<trkpt lat="52.1729740" lon="5.9163674"/>
<trkpt lat="52.1729134" lon="5.9162147"/>
<trkpt lat="52.1728528" lon="5.9161249"/>
<trkpt lat="52.1727591" lon="5.9160440"/>
<trkpt lat="52.1726710" lon="5.9159542"/>
<trkpt lat="52.1727536" lon="5.9157566"/>
<trkpt lat="52.1727591" lon="5.9155679"/>
<trkpt lat="52.1727481" lon="5.9153793"/>
<trkpt lat="52.1729024" lon="5.9152266"/>
<trkpt lat="52.1736428" lon="5.9141924"/>
<trkpt lat="52.1741554" lon="5.9148422"/>
<trkpt lat="52.1744365" lon="5.9139442"/>
<trkpt lat="52.1744339" lon="5.9137982"/>
<trkpt lat="52.1750729" lon="5.9137264"/>
<trkpt lat="52.1753685" lon="5.9136772"/>
<trkpt lat="52.1755557" lon="5.9136345"/>
<trkpt lat="52.1756193" lon="5.9144877"/>
<trkpt lat="52.1758550" lon="5.9147591"/>
<trkpt lat="52.1762260" lon="5.9145149"/>
<trkpt lat="52.1763179" lon="5.9143013"/>
<trkpt lat="52.1767382" lon="5.9144349"/>
<trkpt lat="52.1766357" lon="5.9137059"/>
<trkpt lat="52.1765609" lon="5.9131370"/>
<trkpt lat="52.1763729" lon="5.9128036"/>
<trkpt lat="52.1765417" lon="5.9118969"/>
<trkpt lat="52.1767781" lon="5.9120743"/>
<trkpt lat="52.1769735" lon="5.9122442"/>
<trkpt lat="52.1771222" lon="5.9124418"/>
<trkpt lat="52.1771938" lon="5.9125406"/>
<trkpt lat="52.1773040" lon="5.9126035"/>
<trkpt lat="52.1779789" lon="5.9129586"/>
<trkpt lat="52.1780575" lon="5.9128141"/>
<trkpt lat="52.1786616" lon="5.9121713"/>
<trkpt lat="52.1787925" lon="5.9121474"/>
<trkpt lat="52.1788375" lon="5.9121943"/>
</trkseg></trk>
<trk><name>Ugcheler Markepad - Geimporteerde shapefile</name><type>shorteningRoute</type><trkseg>
<trkpt lat="52.1698959" lon="5.9096357"/>
<trkpt lat="52.1702598" lon="5.9100212"/>
<trkpt lat="52.1715581" lon="5.9157476"/>
<trkpt lat="52.1706766" lon="5.9160440"/>
<trkpt lat="52.1704783" lon="5.9161878"/>
<trkpt lat="52.1702469" lon="5.9164303"/>
<trkpt lat="52.1698281" lon="5.9166010"/>
<trkpt lat="52.1694370" lon="5.9165740"/>
<trkpt lat="52.1684562" lon="5.9169513"/>
<trkpt lat="52.1684177" lon="5.9170142"/>
<trkpt lat="52.1705609" lon="5.9203290"/>
<trkpt lat="52.1690898" lon="5.9225927"/>
</trkseg></trk>
<trk><name>Ugcheler Markepad - overstaproute</name><type>connectionRoute</type><trkseg>
<trkpt lat="52.1613331" lon="5.9404584"/>
<trkpt lat="52.1604427" lon="5.9355752"/>
<trkpt lat="52.1610391" lon="5.9358543"/>
<trkpt lat="52.1637207" lon="5.9314247"/>
<trkpt lat="52.1650815" lon="5.9292370"/>
<trkpt lat="52.1662651" lon="5.9273139"/>
<trkpt lat="52.1673019" lon="5.9255590"/>
</trkseg></trk>
</gpx>