<?xml version="1.0" encoding="UTF-8"?>
<gpx version="1.1" creator="klompenpaden.nl via Jimbo API" xmlns="http://www.topografix.com/GPX/1/1">
<metadata><name>Valkschepad</name><desc>Ontdek het fraaie boerenland van De Valk en omgeving, een gebied met een rijke en lange
bewoningsgeschiedenis. “Een heerlijk stukje gronds”, schreef dominee Heldring in 1840.
Klompen aan, rugzak op en gaan!</desc><link href="https://www.klompenpaden.nl/klompenpaden/Valkschepad/a7df34f5-b94e-40f7-9d35-b2f9b21d3164"><text>klompenpaden.nl</text></link></metadata>
<wpt lat="52.11931354095067" lon="5.685081481933594"><name>Start Lunteren</name></wpt>
<trk><name>Valkschepad - Geimporteerde shapefile</name><type>mainRoute</type><trkseg>
<trkpt lat="52.1190264" lon="5.6852277"/>
<trkpt lat="52.1172975" lon="5.6856801"/>
<trkpt lat="52.1150225" lon="5.6863559"/>
<trkpt lat="52.1147069" lon="5.6869155"/>
<trkpt lat="52.1143895" lon="5.6871713"/>
<trkpt lat="52.1136058" lon="5.6871568"/>
<trkpt lat="52.1113558" lon="5.6866998"/>
<trkpt lat="52.1119933" lon="5.6811454"/>
<trkpt lat="52.1116334" lon="5.6798099"/>
<trkpt lat="52.1113848" lon="5.6791785"/>
<trkpt lat="52.1112317" lon="5.6790848"/>
<trkpt lat="52.1104440" lon="5.6788131"/>
<trkpt lat="52.1102237" lon="5.6788893"/>
<trkpt lat="52.1099343" lon="5.6786057"/>
<trkpt lat="52.1099480" lon="5.6774368"/>
<trkpt lat="52.1099343" lon="5.6786057"/>
<trkpt lat="52.1096699" lon="5.6782233"/>
<trkpt lat="52.1093034" lon="5.6781054"/>
<trkpt lat="52.1088984" lon="5.6780901"/>
<trkpt lat="52.1075676" lon="5.6776278"/>
<trkpt lat="52.1072399" lon="5.6777089"/>
<trkpt lat="52.1069948" lon="5.6772902"/>
<trkpt lat="52.1066994" lon="5.6768919"/>
<trkpt lat="52.1064590" lon="5.6766631"/>
<trkpt lat="52.1062343" lon="5.6766997"/>
<trkpt lat="52.1055546" lon="5.6768985"/>
<trkpt lat="52.1052703" lon="5.6772676"/>
<trkpt lat="52.1049784" lon="5.6776536"/>
<trkpt lat="52.1046245" lon="5.6779699"/>
<trkpt lat="52.1043993" lon="5.6781886"/>
<trkpt lat="52.1041809" lon="5.6785116"/>
<trkpt lat="52.1039164" lon="5.6787068"/>
<trkpt lat="52.1037605" lon="5.6788967"/>
<trkpt lat="52.1034777" lon="5.6788226"/>
<trkpt lat="52.1031361" lon="5.6787637"/>
<trkpt lat="52.1028788" lon="5.6782334"/>
<trkpt lat="52.1026954" lon="5.6776909"/>
<trkpt lat="52.1026022" lon="5.6773753"/>
<trkpt lat="52.1024326" lon="5.6764326"/>
<trkpt lat="52.1021666" lon="5.6758211"/>
<trkpt lat="52.1020112" lon="5.6752553"/>
<trkpt lat="52.1016940" lon="5.6746297"/>
<trkpt lat="52.1013367" lon="5.6742264"/>
<trkpt lat="52.1008562" lon="5.6744878"/>
<trkpt lat="52.1004783" lon="5.6753818"/>
<trkpt lat="52.1003388" lon="5.6759827"/>
<trkpt lat="52.0999469" lon="5.6767679"/>
<trkpt lat="52.0996494" lon="5.6773278"/>
<trkpt lat="52.0994134" lon="5.6778616"/>
<trkpt lat="52.0992054" lon="5.6784456"/>
<trkpt lat="52.0990747" lon="5.6783098"/>
<trkpt lat="52.0987651" lon="5.6778787"/>
<trkpt lat="52.0985382" lon="5.6775411"/>
<trkpt lat="52.0984677" lon="5.6771792"/>
<trkpt lat="52.0983084" lon="5.6758239"/>
<trkpt lat="52.0981612" lon="5.6753670"/>
<trkpt lat="52.0981624" lon="5.6748826"/>
<trkpt lat="52.0978428" lon="5.6723176"/>
<trkpt lat="52.0978187" lon="5.6721466"/>
<trkpt lat="52.0973323" lon="5.6721882"/>
<trkpt lat="52.0959831" lon="5.6734511"/>
<trkpt lat="52.0957757" lon="5.6736346"/>
<trkpt lat="52.0955091" lon="5.6738561"/>
<trkpt lat="52.0950421" lon="5.6742571"/>
<trkpt lat="52.0939836" lon="5.6752048"/>
<trkpt lat="52.0936568" lon="5.6732068"/>
<trkpt lat="52.0932252" lon="5.6698061"/>
<trkpt lat="52.0933657" lon="5.6685033"/>
<trkpt lat="52.0934270" lon="5.6681847"/>
<trkpt lat="52.0934466" lon="5.6679692"/>
<trkpt lat="52.0933673" lon="5.6679313"/>
<trkpt lat="52.0931388" lon="5.6681557"/>
<trkpt lat="52.0931307" lon="5.6683064"/>
<trkpt lat="52.0928123" lon="5.6686652"/>
<trkpt lat="52.0922065" lon="5.6687365"/>
<trkpt lat="52.0920020" lon="5.6688502"/>
<trkpt lat="52.0918113" lon="5.6685887"/>
<trkpt lat="52.0917430" lon="5.6682791"/>
<trkpt lat="52.0919313" lon="5.6680303"/>
<trkpt lat="52.0926192" lon="5.6671617"/>
<trkpt lat="52.0927276" lon="5.6669266"/>
<trkpt lat="52.0928032" lon="5.6666966"/>
<trkpt lat="52.0932870" lon="5.6662366"/>
<trkpt lat="52.0938543" lon="5.6656841"/>
<trkpt lat="52.0948177" lon="5.6647642"/>
<trkpt lat="52.0948629" lon="5.6646179"/>
<trkpt lat="52.0948321" lon="5.6645010"/>
<trkpt lat="52.0946153" lon="5.6636657"/>
<trkpt lat="52.0948978" lon="5.6634563"/>
<trkpt lat="52.0964595" lon="5.6622192"/>
<trkpt lat="52.0966372" lon="5.6620094"/>
<trkpt lat="52.0965515" lon="5.6614304"/>
<trkpt lat="52.0966566" lon="5.6613145"/>
<trkpt lat="52.0975465" lon="5.6610195"/>
<trkpt lat="52.0978796" lon="5.6609598"/>
<trkpt lat="52.0980317" lon="5.6610148"/>
<trkpt lat="52.0982991" lon="5.6608290"/>
<trkpt lat="52.0985593" lon="5.6606543"/>
<trkpt lat="52.0987219" lon="5.6607293"/>
<trkpt lat="52.0990112" lon="5.6605458"/>
<trkpt lat="52.0992839" lon="5.6604355"/>
<trkpt lat="52.0995505" lon="5.6603213"/>
<trkpt lat="52.0997505" lon="5.6601990"/>
<trkpt lat="52.0999370" lon="5.6599871"/>
<trkpt lat="52.0999766" lon="5.6597115"/>
<trkpt lat="52.1001508" lon="5.6597517"/>
<trkpt lat="52.1002534" lon="5.6596980"/>
<trkpt lat="52.1002702" lon="5.6595941"/>
<trkpt lat="52.1002935" lon="5.6593957"/>
<trkpt lat="52.1003886" lon="5.6594549"/>
<trkpt lat="52.1011345" lon="5.6638928"/>
<trkpt lat="52.1011853" lon="5.6638631"/>
<trkpt lat="52.1013657" lon="5.6637579"/>
<trkpt lat="52.1014216" lon="5.6638264"/>
<trkpt lat="52.1016212" lon="5.6652482"/>
<trkpt lat="52.1017109" lon="5.6651890"/>
<trkpt lat="52.1028042" lon="5.6644407"/>
<trkpt lat="52.1039850" lon="5.6634951"/>
<trkpt lat="52.1041619" lon="5.6634499"/>
<trkpt lat="52.1042253" lon="5.6642091"/>
<trkpt lat="52.1043436" lon="5.6651754"/>
<trkpt lat="52.1065550" lon="5.6630181"/>
<trkpt lat="52.1066480" lon="5.6629891"/>
<trkpt lat="52.1067009" lon="5.6632987"/>
<trkpt lat="52.1069431" lon="5.6650200"/>
<trkpt lat="52.1069510" lon="5.6652503"/>
<trkpt lat="52.1071762" lon="5.6653474"/>
<trkpt lat="52.1073512" lon="5.6653296"/>
<trkpt lat="52.1074507" lon="5.6653671"/>
<trkpt lat="52.1074497" lon="5.6657784"/>
<trkpt lat="52.1074886" lon="5.6659467"/>
<trkpt lat="52.1077982" lon="5.6662325"/>
<trkpt lat="52.1077270" lon="5.6667149"/>
<trkpt lat="52.1077104" lon="5.6668955"/>
<trkpt lat="52.1077526" lon="5.6669809"/>
<trkpt lat="52.1080093" lon="5.6670134"/>
<trkpt lat="52.1082421" lon="5.6671230"/>
<trkpt lat="52.1084748" lon="5.6672789"/>
<trkpt lat="52.1086099" lon="5.6675582"/>
<trkpt lat="52.1088496" lon="5.6676598"/>
<trkpt lat="52.1091079" lon="5.6679406"/>
<trkpt lat="52.1106265" lon="5.6719088"/>
<trkpt lat="52.1154283" lon="5.6727447"/>
<trkpt lat="52.1152188" lon="5.6761087"/>
<trkpt lat="52.1165256" lon="5.6763642"/>
<trkpt lat="52.1165490" lon="5.6765189"/>
<trkpt lat="52.1172791" lon="5.6766480"/>
<trkpt lat="52.1175074" lon="5.6766884"/>
<trkpt lat="52.1175417" lon="5.6787887"/>
<trkpt lat="52.1175601" lon="5.6805225"/>
<trkpt lat="52.1176262" lon="5.6805993"/>
<trkpt lat="52.1167692" lon="5.6827132"/>
<trkpt lat="52.1167970" lon="5.6828420"/>
<trkpt lat="52.1172975" lon="5.6856801"/>
</trkseg></trk>
<trk><name>Valkschepad - Geimporteerde shapefile</name><type>shorteningRoute</type><trkseg>
<trkpt lat="52.1106265" lon="5.6719088"/>
<trkpt lat="52.1105358" lon="5.6719805"/>
<trkpt lat="52.1117851" lon="5.6754031"/>
<trkpt lat="52.1120533" lon="5.6786879"/>
<trkpt lat="52.1121642" lon="5.6800096"/>
<trkpt lat="52.1121130" lon="5.6805006"/>
<trkpt lat="52.1120434" lon="5.6810079"/>
<trkpt lat="52.1119933" lon="5.6811454"/>
</trkseg></trk>
<trk><name>Valkschepad - Geimporteerde shapefile</name><type>connectionRoute</type><trkseg>
<trkpt lat="52.0990124" lon="5.6782231"/>
<trkpt lat="52.0989421" lon="5.6788773"/>
<trkpt lat="52.0988183" lon="5.6794450"/>
<trkpt lat="52.0985647" lon="5.6800611"/>
<trkpt lat="52.0982158" lon="5.6807539"/>
<trkpt lat="52.0977042" lon="5.6818162"/>
<trkpt lat="52.0975065" lon="5.6820794"/>
<trkpt lat="52.0970364" lon="5.6825995"/>
<trkpt lat="52.0968258" lon="5.6831233"/>
<trkpt lat="52.0966206" lon="5.6834153"/>
<trkpt lat="52.0965108" lon="5.6835459"/>
<trkpt lat="52.0963875" lon="5.6835617"/>
<trkpt lat="52.0962683" lon="5.6835443"/>
<trkpt lat="52.0960840" lon="5.6830643"/>
<trkpt lat="52.0959131" lon="5.6829242"/>
<trkpt lat="52.0955441" lon="5.6826798"/>
<trkpt lat="52.0954278" lon="5.6824600"/>
<trkpt lat="52.0954011" lon="5.6822644"/>
<trkpt lat="52.0953114" lon="5.6822402"/>
<trkpt lat="52.0949384" lon="5.6828173"/>
<trkpt lat="52.0947524" lon="5.6830014"/>
<trkpt lat="52.0943759" lon="5.6830980"/>
<trkpt lat="52.0940288" lon="5.6832514"/>
<trkpt lat="52.0932558" lon="5.6841251"/>
<trkpt lat="52.0929131" lon="5.6843560"/>
<trkpt lat="52.0926620" lon="5.6839837"/>
<trkpt lat="52.0925723" lon="5.6840913"/>
<trkpt lat="52.0924797" lon="5.6851421"/>
<trkpt lat="52.0926303" lon="5.6876599"/>
<trkpt lat="52.0926443" lon="5.6878884"/>
<trkpt lat="52.0925664" lon="5.6884023"/>
<trkpt lat="52.0925521" lon="5.6886662"/>
<trkpt lat="52.0926161" lon="5.6891790"/>
<trkpt lat="52.0926685" lon="5.6897008"/>
<trkpt lat="52.0928965" lon="5.6930029"/>
<trkpt lat="52.0934499" lon="5.6932112"/>
<trkpt lat="52.0940622" lon="5.6935168"/>
<trkpt lat="52.0950424" lon="5.6938411"/>
<trkpt lat="52.0961254" lon="5.6941965"/>
<trkpt lat="52.0963488" lon="5.6943328"/>
<trkpt lat="52.0968023" lon="5.6946384"/>
<trkpt lat="52.0975794" lon="5.6946515"/>
<trkpt lat="52.0979580" lon="5.6947050"/>
<trkpt lat="52.0981468" lon="5.6949165"/>
<trkpt lat="52.0986447" lon="5.6955799"/>
<trkpt lat="52.0990297" lon="5.6960628"/>
<trkpt lat="52.0991932" lon="5.6963147"/>
<trkpt lat="52.0992040" lon="5.6964948"/>
</trkseg></trk>
<trk><name>Valkschepad - Geimporteerde shapefile</name><type>approachRoute</type><trkseg>
<trkpt lat="52.1210601" lon="5.6703451"/>
<trkpt lat="52.1208457" lon="5.6701910"/>
<trkpt lat="52.1209723" lon="5.6696211"/>
<trkpt lat="52.1206564" lon="5.6693577"/>
<trkpt lat="52.1199759" lon="5.6681060"/>
<trkpt lat="52.1199339" lon="5.6680744"/>
<trkpt lat="52.1184879" lon="5.6767396"/>
<trkpt lat="52.1175071" lon="5.6765503"/>
<trkpt lat="52.1175074" lon="5.6766884"/>
</trkseg></trk>
</gpx>