<?xml version="1.0" encoding="UTF-8"?>
<gpx version="1.1" creator="klompenpaden.nl via Jimbo API" xmlns="http://www.topografix.com/GPX/1/1">
<metadata><name>Veendijkpad</name><desc>Ontdek het mooie buitengebied van Bunschoten-Spakenburg. Wandelen door het open polderlandschap van Eemland. Over boerenland en door de historische Dorpsstraat. Geniet van het weidse uitzicht, de rust en de combinatie van cultuur en natuur. Klompen aan, rugzak op en gaan!</desc><link href="https://www.klompenpaden.nl/klompenpaden/Veendijkpad/deaff1dd-eaf4-450e-bc7c-f6eb690b7704"><text>klompenpaden.nl</text></link></metadata>
<wpt lat="52.22989244494575" lon="5.391583442687988"><name>Start Bunschoten-Spakenburg</name></wpt>
<trk><name>Veendijkpad - Hoofdroute</name><type>mainRoute</type><trkseg>
<trkpt lat="52.2301037" lon="5.3913718"/>
<trkpt lat="52.2304411" lon="5.3913904"/>
<trkpt lat="52.2305450" lon="5.3910668"/>
<trkpt lat="52.2308362" lon="5.3906671"/>
<trkpt lat="52.2310027" lon="5.3903689"/>
<trkpt lat="52.2311692" lon="5.3887965"/>
<trkpt lat="52.2313856" lon="5.3884170"/>
<trkpt lat="52.2317850" lon="5.3845131"/>
<trkpt lat="52.2318849" lon="5.3845944"/>
<trkpt lat="52.2319848" lon="5.3838082"/>
<trkpt lat="52.2320248" lon="5.3838320"/>
<trkpt lat="52.2320149" lon="5.3839607"/>
<trkpt lat="52.2322252" lon="5.3840251"/>
<trkpt lat="52.2322219" lon="5.3839661"/>
<trkpt lat="52.2325800" lon="5.3840465"/>
<trkpt lat="52.2326096" lon="5.3836388"/>
<trkpt lat="52.2331550" lon="5.3837998"/>
<trkpt lat="52.2332601" lon="5.3838695"/>
<trkpt lat="52.2333521" lon="5.3839768"/>
<trkpt lat="52.2334244" lon="5.3839553"/>
<trkpt lat="52.2334803" lon="5.3838373"/>
<trkpt lat="52.2336708" lon="5.3838588"/>
<trkpt lat="52.2338154" lon="5.3839553"/>
<trkpt lat="52.2340453" lon="5.3839446"/>
<trkpt lat="52.2341932" lon="5.3839822"/>
<trkpt lat="52.2344593" lon="5.3841216"/>
<trkpt lat="52.2350549" lon="5.3841902"/>
<trkpt lat="52.2352398" lon="5.3841377"/>
<trkpt lat="52.2353428" lon="5.3842234"/>
<trkpt lat="52.2357285" lon="5.3842679"/>
<trkpt lat="52.2360210" lon="5.3843814"/>
<trkpt lat="52.2360522" lon="5.3843354"/>
<trkpt lat="52.2362641" lon="5.3843386"/>
<trkpt lat="52.2364595" lon="5.3835605"/>
<trkpt lat="52.2364189" lon="5.3825971"/>
<trkpt lat="52.2364702" lon="5.3824633"/>
<trkpt lat="52.2366471" lon="5.3824561"/>
<trkpt lat="52.2366983" lon="5.3822047"/>
<trkpt lat="52.2369082" lon="5.3808842"/>
<trkpt lat="52.2367778" lon="5.3799883"/>
<trkpt lat="52.2368068" lon="5.3795756"/>
<trkpt lat="52.2368357" lon="5.3785499"/>
<trkpt lat="52.2367031" lon="5.3780652"/>
<trkpt lat="52.2366703" lon="5.3779472"/>
<trkpt lat="52.2366834" lon="5.3777487"/>
<trkpt lat="52.2367557" lon="5.3776039"/>
<trkpt lat="52.2368050" lon="5.3772284"/>
<trkpt lat="52.2368477" lon="5.3771533"/>
<trkpt lat="52.2368664" lon="5.3769716"/>
<trkpt lat="52.2368956" lon="5.3766866"/>
<trkpt lat="52.2369298" lon="5.3763540"/>
<trkpt lat="52.2367951" lon="5.3759999"/>
<trkpt lat="52.2367118" lon="5.3755112"/>
<trkpt lat="52.2364951" lon="5.3728542"/>
<trkpt lat="52.2379101" lon="5.3732604"/>
<trkpt lat="52.2391253" lon="5.3735583"/>
<trkpt lat="52.2392250" lon="5.3725279"/>
<trkpt lat="52.2393582" lon="5.3725550"/>
<trkpt lat="52.2399980" lon="5.3691013"/>
<trkpt lat="52.2402062" lon="5.3691751"/>
<trkpt lat="52.2407830" lon="5.3694585"/>
<trkpt lat="52.2411168" lon="5.3696626"/>
<trkpt lat="52.2413800" lon="5.3699484"/>
<trkpt lat="52.2417936" lon="5.3704523"/>
<trkpt lat="52.2422484" lon="5.3712552"/>
<trkpt lat="52.2424949" lon="5.3717559"/>
<trkpt lat="52.2428458" lon="5.3724842"/>
<trkpt lat="52.2429905" lon="5.3728027"/>
<trkpt lat="52.2430725" lon="5.3735816"/>
<trkpt lat="52.2431252" lon="5.3741814"/>
<trkpt lat="52.2431252" lon="5.3743584"/>
<trkpt lat="52.2432172" lon="5.3745676"/>
<trkpt lat="52.2432434" lon="5.3746910"/>
<trkpt lat="52.2432434" lon="5.3747554"/>
<trkpt lat="52.2429028" lon="5.3747276"/>
<trkpt lat="52.2427053" lon="5.3746613"/>
<trkpt lat="52.2419197" lon="5.3744120"/>
<trkpt lat="52.2418385" lon="5.3752393"/>
<trkpt lat="52.2418244" lon="5.3753830"/>
<trkpt lat="52.2418540" lon="5.3753884"/>
<trkpt lat="52.2419558" lon="5.3753240"/>
<trkpt lat="52.2422528" lon="5.3753813"/>
<trkpt lat="52.2423730" lon="5.3754045"/>
<trkpt lat="52.2426588" lon="5.3752006"/>
<trkpt lat="52.2427244" lon="5.3753294"/>
<trkpt lat="52.2428460" lon="5.3754527"/>
<trkpt lat="52.2428296" lon="5.3755171"/>
<trkpt lat="52.2427376" lon="5.3755815"/>
<trkpt lat="52.2425213" lon="5.3760520"/>
<trkpt lat="52.2420675" lon="5.3769870"/>
<trkpt lat="52.2417719" lon="5.3773410"/>
<trkpt lat="52.2416733" lon="5.3773893"/>
<trkpt lat="52.2415726" lon="5.3774081"/>
<trkpt lat="52.2413711" lon="5.3774537"/>
<trkpt lat="52.2413448" lon="5.3776521"/>
<trkpt lat="52.2417180" lon="5.3777114"/>
<trkpt lat="52.2431989" lon="5.3779471"/>
<trkpt lat="52.2434339" lon="5.3780116"/>
<trkpt lat="52.2432277" lon="5.3790009"/>
<trkpt lat="52.2430210" lon="5.3794687"/>
<trkpt lat="52.2429173" lon="5.3796165"/>
<trkpt lat="52.2428755" lon="5.3798247"/>
<trkpt lat="52.2427179" lon="5.3800018"/>
<trkpt lat="52.2426325" lon="5.3800071"/>
<trkpt lat="52.2426049" lon="5.3800382"/>
<trkpt lat="52.2425405" lon="5.3800769"/>
<trkpt lat="52.2424255" lon="5.3800608"/>
<trkpt lat="52.2423566" lon="5.3801251"/>
<trkpt lat="52.2424218" lon="5.3802552"/>
<trkpt lat="52.2425306" lon="5.3804846"/>
<trkpt lat="52.2426049" lon="5.3807704"/>
<trkpt lat="52.2426833" lon="5.3811793"/>
<trkpt lat="52.2429018" lon="5.3822119"/>
<trkpt lat="52.2430711" lon="5.3827498"/>
<trkpt lat="52.2425551" lon="5.3856785"/>
<trkpt lat="52.2441664" lon="5.3863801"/>
<trkpt lat="52.2441631" lon="5.3866536"/>
<trkpt lat="52.2460747" lon="5.3870613"/>
<trkpt lat="52.2460649" lon="5.3871686"/>
<trkpt lat="52.2459696" lon="5.3873081"/>
<trkpt lat="52.2455015" lon="5.3905598"/>
<trkpt lat="52.2451185" lon="5.3935157"/>
<trkpt lat="52.2428546" lon="5.3931357"/>
<trkpt lat="52.2426949" lon="5.3931124"/>
<trkpt lat="52.2426715" lon="5.3934068"/>
<trkpt lat="52.2417386" lon="5.4014331"/>
<trkpt lat="52.2412559" lon="5.4012432"/>
<trkpt lat="52.2404403" lon="5.4008633"/>
<trkpt lat="52.2390753" lon="5.4003477"/>
<trkpt lat="52.2375273" lon="5.3997236"/>
<trkpt lat="52.2359959" lon="5.3990725"/>
<trkpt lat="52.2330663" lon="5.3978788"/>
<trkpt lat="52.2307859" lon="5.3969294"/>
<trkpt lat="52.2300202" lon="5.3965768"/>
<trkpt lat="52.2299869" lon="5.3963599"/>
<trkpt lat="52.2297019" lon="5.3962667"/>
<trkpt lat="52.2298004" lon="5.3958965"/>
<trkpt lat="52.2300361" lon="5.3936793"/>
<trkpt lat="52.2300502" lon="5.3935576"/>
<trkpt lat="52.2301619" lon="5.3927208"/>
<trkpt lat="52.2301914" lon="5.3925009"/>
<trkpt lat="52.2303452" lon="5.3921298"/>
<trkpt lat="52.2304411" lon="5.3913904"/>
<trkpt lat="52.2301037" lon="5.3913989"/>
</trkseg></trk>
<trk><name>Veendijkpad - Alternatieve route</name><type>extensionRoute</type><trkseg>
<trkpt lat="52.2460788" lon="5.3870802"/>
<trkpt lat="52.2479485" lon="5.3874954"/>
<trkpt lat="52.2481316" lon="5.3877666"/>
<trkpt lat="52.2482612" lon="5.3877810"/>
<trkpt lat="52.2484362" lon="5.3875710"/>
<trkpt lat="52.2517771" lon="5.3882006"/>
<trkpt lat="52.2520767" lon="5.3884447"/>
<trkpt lat="52.2520268" lon="5.3888787"/>
<trkpt lat="52.2522130" lon="5.3892017"/>
<trkpt lat="52.2519240" lon="5.3906501"/>
<trkpt lat="52.2480196" lon="5.3993925"/>
<trkpt lat="52.2478767" lon="5.3997223"/>
<trkpt lat="52.2474420" lon="5.4007263"/>
<trkpt lat="52.2473350" lon="5.4009732"/>
<trkpt lat="52.2472421" lon="5.4011386"/>
<trkpt lat="52.2466167" lon="5.4017759"/>
<trkpt lat="52.2465539" lon="5.4019810"/>
<trkpt lat="52.2463462" lon="5.4029855"/>
<trkpt lat="52.2463333" lon="5.4030671"/>
<trkpt lat="52.2462828" lon="5.4033058"/>
<trkpt lat="52.2451010" lon="5.4027630"/>
<trkpt lat="52.2438193" lon="5.4022202"/>
<trkpt lat="52.2417220" lon="5.4014331"/>
</trkseg></trk>
</gpx>