<?xml version="1.0" encoding="UTF-8"?>
<gpx version="1.1" creator="klompenpaden.nl via Jimbo API" xmlns="http://www.topografix.com/GPX/1/1">
<metadata><name>Vosbergenpad</name><desc>Ontdek het mooie buitengebied van Heerde, Hoorn en Wapenveld. Wandelen over landgoed Vosbergen, langs sprengen en vroegere molens. Een afwisselend landschap op de flank van de Veluwe met haar rijke cultuurhistorie. Klompen aan, rugzak op en gaan!</desc><link href="https://www.klompenpaden.nl/klompenpaden/Vosbergenpad/f6a1a98f-ae4e-43e2-aecc-0e5cd8de88eb"><text>klompenpaden.nl</text></link></metadata>
<wpt lat="52.418335359894165" lon="6.054840087890625"><name>Start Wapenveld</name></wpt>
<trk><name>Vosbergenpad - Hoofdroute1</name><type>mainRoute</type><trkseg>
<trkpt lat="52.4192311" lon="6.0557091"/>
<trkpt lat="52.4191746" lon="6.0555993"/>
<trkpt lat="52.4191280" lon="6.0554275"/>
<trkpt lat="52.4190234" lon="6.0554259"/>
<trkpt lat="52.4188990" lon="6.0555485"/>
<trkpt lat="52.4188322" lon="6.0555942"/>
<trkpt lat="52.4186414" lon="6.0557002"/>
<trkpt lat="52.4183571" lon="6.0555092"/>
<trkpt lat="52.4181211" lon="6.0551945"/>
<trkpt lat="52.4179602" lon="6.0550520"/>
<trkpt lat="52.4177190" lon="6.0547641"/>
<trkpt lat="52.4180801" lon="6.0540271"/>
<trkpt lat="52.4190513" lon="6.0504635"/>
<trkpt lat="52.4194125" lon="6.0488042"/>
<trkpt lat="52.4199911" lon="6.0490929"/>
<trkpt lat="52.4211867" lon="6.0496242"/>
<trkpt lat="52.4217567" lon="6.0497572"/>
<trkpt lat="52.4232012" lon="6.0499811"/>
<trkpt lat="52.4232418" lon="6.0495305"/>
<trkpt lat="52.4233864" lon="6.0491903"/>
<trkpt lat="52.4236114" lon="6.0497694"/>
<trkpt lat="52.4237530" lon="6.0499738"/>
<trkpt lat="52.4242240" lon="6.0503141"/>
<trkpt lat="52.4246855" lon="6.0503220"/>
<trkpt lat="52.4251480" lon="6.0495166"/>
<trkpt lat="52.4250130" lon="6.0492121"/>
<trkpt lat="52.4249450" lon="6.0491161"/>
<trkpt lat="52.4248240" lon="6.0489031"/>
<trkpt lat="52.4243270" lon="6.0480641"/>
<trkpt lat="52.4236550" lon="6.0469401"/>
<trkpt lat="52.4230520" lon="6.0459581"/>
<trkpt lat="52.4219616" lon="6.0440448"/>
<trkpt lat="52.4209650" lon="6.0422941"/>
<trkpt lat="52.4204420" lon="6.0414682"/>
<trkpt lat="52.4201270" lon="6.0413201"/>
<trkpt lat="52.4199490" lon="6.0412211"/>
<trkpt lat="52.4195180" lon="6.0410611"/>
<trkpt lat="52.4194207" lon="6.0410070"/>
<trkpt lat="52.4183177" lon="6.0406292"/>
<trkpt lat="52.4180747" lon="6.0404098"/>
<trkpt lat="52.4178834" lon="6.0404178"/>
<trkpt lat="52.4180069" lon="6.0398378"/>
<trkpt lat="52.4180653" lon="6.0396053"/>
<trkpt lat="52.4184575" lon="6.0392066"/>
<trkpt lat="52.4186985" lon="6.0386190"/>
<trkpt lat="52.4187772" lon="6.0381534"/>
<trkpt lat="52.4181377" lon="6.0385485"/>
<trkpt lat="52.4177380" lon="6.0385737"/>
<trkpt lat="52.4173877" lon="6.0382886"/>
<trkpt lat="52.4162813" lon="6.0371056"/>
<trkpt lat="52.4160747" lon="6.0366047"/>
<trkpt lat="52.4158791" lon="6.0361890"/>
<trkpt lat="52.4158205" lon="6.0362998"/>
<trkpt lat="52.4155937" lon="6.0368960"/>
<trkpt lat="52.4153226" lon="6.0361785"/>
<trkpt lat="52.4149994" lon="6.0358157"/>
<trkpt lat="52.4146198" lon="6.0356506"/>
<trkpt lat="52.4144127" lon="6.0353811"/>
<trkpt lat="52.4140193" lon="6.0350860"/>
<trkpt lat="52.4137747" lon="6.0348260"/>
<trkpt lat="52.4136008" lon="6.0351902"/>
<trkpt lat="52.4134732" lon="6.0349654"/>
<trkpt lat="52.4132956" lon="6.0343995"/>
<trkpt lat="52.4133064" lon="6.0342030"/>
<trkpt lat="52.4134544" lon="6.0336922"/>
<trkpt lat="52.4134624" lon="6.0334839"/>
<trkpt lat="52.4133811" lon="6.0328254"/>
<trkpt lat="52.4132860" lon="6.0327539"/>
<trkpt lat="52.4131376" lon="6.0328701"/>
<trkpt lat="52.4130765" lon="6.0325406"/>
<trkpt lat="52.4130231" lon="6.0324256"/>
<trkpt lat="52.4128294" lon="6.0323624"/>
<trkpt lat="52.4126081" lon="6.0322002"/>
<trkpt lat="52.4124225" lon="6.0319776"/>
<trkpt lat="52.4121392" lon="6.0316123"/>
<trkpt lat="52.4119384" lon="6.0314564"/>
<trkpt lat="52.4119066" lon="6.0313757"/>
<trkpt lat="52.4116912" lon="6.0312214"/>
<trkpt lat="52.4115395" lon="6.0310445"/>
<trkpt lat="52.4112899" lon="6.0308133"/>
<trkpt lat="52.4111270" lon="6.0304874"/>
<trkpt lat="52.4109326" lon="6.0300656"/>
<trkpt lat="52.4109469" lon="6.0297943"/>
<trkpt lat="52.4109326" lon="6.0296548"/>
<trkpt lat="52.4108171" lon="6.0291703"/>
<trkpt lat="52.4105331" lon="6.0289173"/>
<trkpt lat="52.4105128" lon="6.0291503"/>
<trkpt lat="52.4106148" lon="6.0296340"/>
<trkpt lat="52.4106041" lon="6.0298516"/>
<trkpt lat="52.4099704" lon="6.0309467"/>
<trkpt lat="52.4099332" lon="6.0307907"/>
<trkpt lat="52.4099924" lon="6.0303871"/>
<trkpt lat="52.4099838" lon="6.0302159"/>
<trkpt lat="52.4099184" lon="6.0299972"/>
<trkpt lat="52.4098142" lon="6.0299334"/>
<trkpt lat="52.4096188" lon="6.0291218"/>
<trkpt lat="52.4096109" lon="6.0288261"/>
<trkpt lat="52.4092309" lon="6.0287429"/>
<trkpt lat="52.4089643" lon="6.0287857"/>
<trkpt lat="52.4087262" lon="6.0288444"/>
<trkpt lat="52.4083030" lon="6.0297093"/>
<trkpt lat="52.4077553" lon="6.0309389"/>
<trkpt lat="52.4076481" lon="6.0303427"/>
<trkpt lat="52.4076123" lon="6.0299440"/>
<trkpt lat="52.4075532" lon="6.0296134"/>
<trkpt lat="52.4074988" lon="6.0292810"/>
<trkpt lat="52.4073213" lon="6.0290508"/>
<trkpt lat="52.4072600" lon="6.0288921"/>
<trkpt lat="52.4072370" lon="6.0286071"/>
<trkpt lat="52.4071260" lon="6.0282271"/>
<trkpt lat="52.4068800" lon="6.0278651"/>
<trkpt lat="52.4067708" lon="6.0277568"/>
<trkpt lat="52.4066418" lon="6.0277536"/>
<trkpt lat="52.4065662" lon="6.0277280"/>
<trkpt lat="52.4064687" lon="6.0275071"/>
<trkpt lat="52.4063474" lon="6.0271956"/>
<trkpt lat="52.4062606" lon="6.0271214"/>
<trkpt lat="52.4061913" lon="6.0271402"/>
<trkpt lat="52.4061025" lon="6.0272858"/>
<trkpt lat="52.4060098" lon="6.0273277"/>
<trkpt lat="52.4057853" lon="6.0271518"/>
<trkpt lat="52.4056502" lon="6.0269836"/>
<trkpt lat="52.4055225" lon="6.0269334"/>
<trkpt lat="52.4052586" lon="6.0269226"/>
<trkpt lat="52.4050654" lon="6.0269724"/>
<trkpt lat="52.4048363" lon="6.0270909"/>
<trkpt lat="52.4047220" lon="6.0270681"/>
<trkpt lat="52.4046622" lon="6.0269505"/>
<trkpt lat="52.4045824" lon="6.0269426"/>
<trkpt lat="52.4044302" lon="6.0264493"/>
<trkpt lat="52.4043466" lon="6.0260749"/>
<trkpt lat="52.4041973" lon="6.0255439"/>
<trkpt lat="52.4040009" lon="6.0249190"/>
<trkpt lat="52.4035558" lon="6.0263123"/>
<trkpt lat="52.4033336" lon="6.0269467"/>
<trkpt lat="52.4025695" lon="6.0292840"/>
<trkpt lat="52.4021729" lon="6.0305068"/>
<trkpt lat="52.4019215" lon="6.0312496"/>
<trkpt lat="52.4013245" lon="6.0307978"/>
<trkpt lat="52.4013564" lon="6.0304702"/>
<trkpt lat="52.4011946" lon="6.0302282"/>
<trkpt lat="52.4001063" lon="6.0295024"/>
<trkpt lat="52.3999503" lon="6.0306408"/>
<trkpt lat="52.3997956" lon="6.0318079"/>
<trkpt lat="52.3996485" lon="6.0329272"/>
<trkpt lat="52.3995525" lon="6.0330813"/>
<trkpt lat="52.3993233" lon="6.0332645"/>
<trkpt lat="52.3991988" lon="6.0334182"/>
<trkpt lat="52.3986886" lon="6.0345149"/>
<trkpt lat="52.3987161" lon="6.0347174"/>
<trkpt lat="52.3980321" lon="6.0361161"/>
<trkpt lat="52.3979905" lon="6.0360239"/>
<trkpt lat="52.3979402" lon="6.0358232"/>
<trkpt lat="52.3979369" lon="6.0357882"/>
<trkpt lat="52.3976633" lon="6.0358994"/>
<trkpt lat="52.3977280" lon="6.0362424"/>
<trkpt lat="52.3976607" lon="6.0363658"/>
<trkpt lat="52.3971014" lon="6.0377571"/>
<trkpt lat="52.3967933" lon="6.0384212"/>
<trkpt lat="52.3961957" lon="6.0398586"/>
<trkpt lat="52.3957424" lon="6.0409870"/>
<trkpt lat="52.3959850" lon="6.0414111"/>
<trkpt lat="52.3959470" lon="6.0415691"/>
<trkpt lat="52.3958900" lon="6.0416861"/>
<trkpt lat="52.3957375" lon="6.0419015"/>
<trkpt lat="52.3956100" lon="6.0420661"/>
<trkpt lat="52.3955420" lon="6.0423601"/>
<trkpt lat="52.3954430" lon="6.0423351"/>
<trkpt lat="52.3953740" lon="6.0422161"/>
<trkpt lat="52.3952980" lon="6.0421191"/>
<trkpt lat="52.3952400" lon="6.0422441"/>
<trkpt lat="52.3951450" lon="6.0422921"/>
<trkpt lat="52.3950700" lon="6.0423781"/>
<trkpt lat="52.3949740" lon="6.0424251"/>
<trkpt lat="52.3948900" lon="6.0425151"/>
<trkpt lat="52.3947750" lon="6.0427701"/>
<trkpt lat="52.3947530" lon="6.0429401"/>
<trkpt lat="52.3947700" lon="6.0430891"/>
<trkpt lat="52.3948440" lon="6.0432081"/>
<trkpt lat="52.3950438" lon="6.0434645"/>
<trkpt lat="52.3946199" lon="6.0444378"/>
<trkpt lat="52.3944751" lon="6.0448089"/>
<trkpt lat="52.3943174" lon="6.0458017"/>
<trkpt lat="52.3940760" lon="6.0464511"/>
<trkpt lat="52.3943875" lon="6.0468756"/>
<trkpt lat="52.3945852" lon="6.0472517"/>
<trkpt lat="52.3952473" lon="6.0479146"/>
<trkpt lat="52.3956171" lon="6.0481223"/>
<trkpt lat="52.3957857" lon="6.0485913"/>
<trkpt lat="52.3958896" lon="6.0487328"/>
<trkpt lat="52.3947864" lon="6.0537853"/>
<trkpt lat="52.3945140" lon="6.0548541"/>
<trkpt lat="52.3943478" lon="6.0556445"/>
<trkpt lat="52.3919870" lon="6.0542873"/>
<trkpt lat="52.3918529" lon="6.0544408"/>
<trkpt lat="52.3909815" lon="6.0554849"/>
<trkpt lat="52.3914797" lon="6.0565341"/>
<trkpt lat="52.3919891" lon="6.0572881"/>
<trkpt lat="52.3931615" lon="6.0585342"/>
<trkpt lat="52.3941183" lon="6.0592173"/>
<trkpt lat="52.3948121" lon="6.0559625"/>
<trkpt lat="52.3960633" lon="6.0567433"/>
<trkpt lat="52.3954189" lon="6.0596724"/>
<trkpt lat="52.3954075" lon="6.0600143"/>
<trkpt lat="52.3954063" lon="6.0602164"/>
<trkpt lat="52.3955946" lon="6.0605614"/>
<trkpt lat="52.3968917" lon="6.0616229"/>
<trkpt lat="52.3991722" lon="6.0637103"/>
<trkpt lat="52.4005180" lon="6.0645706"/>
<trkpt lat="52.4013146" lon="6.0649872"/>
<trkpt lat="52.4018075" lon="6.0653057"/>
<trkpt lat="52.4022206" lon="6.0654520"/>
<trkpt lat="52.4023100" lon="6.0654441"/>
<trkpt lat="52.4023255" lon="6.0654070"/>
<trkpt lat="52.4021251" lon="6.0646574"/>
<trkpt lat="52.4018805" lon="6.0625076"/>
<trkpt lat="52.4017979" lon="6.0619776"/>
<trkpt lat="52.4017263" lon="6.0611989"/>
<trkpt lat="52.4018321" lon="6.0609828"/>
<trkpt lat="52.4018041" lon="6.0608891"/>
<trkpt lat="52.4020156" lon="6.0605035"/>
<trkpt lat="52.4020356" lon="6.0603327"/>
<trkpt lat="52.4026384" lon="6.0597043"/>
<trkpt lat="52.4027926" lon="6.0593489"/>
<trkpt lat="52.4029889" lon="6.0582944"/>
<trkpt lat="52.4030670" lon="6.0579378"/>
<trkpt lat="52.4038439" lon="6.0567987"/>
<trkpt lat="52.4040171" lon="6.0564437"/>
<trkpt lat="52.4044250" lon="6.0549568"/>
<trkpt lat="52.4044278" lon="6.0544592"/>
<trkpt lat="52.4045234" lon="6.0543828"/>
<trkpt lat="52.4058869" lon="6.0554921"/>
<trkpt lat="52.4060378" lon="6.0557121"/>
<trkpt lat="52.4062651" lon="6.0558866"/>
<trkpt lat="52.4071454" lon="6.0566620"/>
<trkpt lat="52.4080164" lon="6.0573751"/>
<trkpt lat="52.4084898" lon="6.0577711"/>
<trkpt lat="52.4092095" lon="6.0583420"/>
<trkpt lat="52.4092779" lon="6.0580164"/>
<trkpt lat="52.4095943" lon="6.0575701"/>
<trkpt lat="52.4114864" lon="6.0560432"/>
<trkpt lat="52.4116860" lon="6.0560618"/>
<trkpt lat="52.4120831" lon="6.0564878"/>
<trkpt lat="52.4126080" lon="6.0572991"/>
<trkpt lat="52.4129605" lon="6.0576583"/>
<trkpt lat="52.4133393" lon="6.0579530"/>
<trkpt lat="52.4136363" lon="6.0583759"/>
<trkpt lat="52.4138032" lon="6.0581729"/>
<trkpt lat="52.4139302" lon="6.0578535"/>
<trkpt lat="52.4139796" lon="6.0575431"/>
<trkpt lat="52.4142011" lon="6.0570487"/>
<trkpt lat="52.4144235" lon="6.0567476"/>
<trkpt lat="52.4155400" lon="6.0574579"/>
<trkpt lat="52.4159953" lon="6.0576826"/>
<trkpt lat="52.4162680" lon="6.0577632"/>
<trkpt lat="52.4172912" lon="6.0557289"/>
<trkpt lat="52.4173780" lon="6.0557331"/>
<trkpt lat="52.4175417" lon="6.0554515"/>
<trkpt lat="52.4175790" lon="6.0554581"/>
<trkpt lat="52.4178083" lon="6.0549875"/>
<trkpt lat="52.4180356" lon="6.0551621"/>
<trkpt lat="52.4182532" lon="6.0553676"/>
<trkpt lat="52.4184894" lon="6.0556668"/>
<trkpt lat="52.4187463" lon="6.0556551"/>
<trkpt lat="52.4189181" lon="6.0555488"/>
<trkpt lat="52.4190233" lon="6.0554415"/>
<trkpt lat="52.4191459" lon="6.0556300"/>
<trkpt lat="52.4192215" lon="6.0557089"/>
</trkseg></trk>
<trk><name>Vosbergenpad - overstaproute</name><type>connectionRoute</type><trkseg>
<trkpt lat="52.3901951" lon="5.9965620"/>
<trkpt lat="52.3905119" lon="5.9966661"/>
<trkpt lat="52.3904033" lon="5.9975713"/>
<trkpt lat="52.3906728" lon="5.9976002"/>
<trkpt lat="52.3928905" lon="5.9978323"/>
<trkpt lat="52.3928934" lon="5.9980149"/>
<trkpt lat="52.3929119" lon="5.9981663"/>
<trkpt lat="52.3918874" lon="6.0007910"/>
<trkpt lat="52.3932842" lon="6.0019147"/>
<trkpt lat="52.3934361" lon="6.0020369"/>
<trkpt lat="52.3941319" lon="6.0026880"/>
<trkpt lat="52.3951170" lon="6.0039378"/>
<trkpt lat="52.3946934" lon="6.0060179"/>
<trkpt lat="52.3939967" lon="6.0094381"/>
<trkpt lat="52.3961931" lon="6.0105356"/>
<trkpt lat="52.3969497" lon="6.0108907"/>
<trkpt lat="52.3975430" lon="6.0106658"/>
<trkpt lat="52.3977319" lon="6.0113682"/>
<trkpt lat="52.3977932" lon="6.0119289"/>
<trkpt lat="52.3982518" lon="6.0128917"/>
<trkpt lat="52.3982605" lon="6.0152827"/>
<trkpt lat="52.3982003" lon="6.0158766"/>
<trkpt lat="52.3980118" lon="6.0164570"/>
<trkpt lat="52.3977095" lon="6.0183464"/>
<trkpt lat="52.3972580" lon="6.0213445"/>
<trkpt lat="52.3965989" lon="6.0235611"/>
<trkpt lat="52.3961391" lon="6.0251070"/>
<trkpt lat="52.3959623" lon="6.0261541"/>
<trkpt lat="52.3950140" lon="6.0273766"/>
<trkpt lat="52.3954012" lon="6.0297487"/>
<trkpt lat="52.3958499" lon="6.0324974"/>
<trkpt lat="52.3961224" lon="6.0341566"/>
<trkpt lat="52.3964897" lon="6.0348150"/>
<trkpt lat="52.3970247" lon="6.0352220"/>
<trkpt lat="52.3975124" lon="6.0356697"/>
<trkpt lat="52.3976607" lon="6.0363658"/>
</trkseg></trk>
<trk><name>Vosbergenpad - overstaproute</name><type>connectionRoute</type><trkseg>
<trkpt lat="52.3849861" lon="6.0611847"/>
<trkpt lat="52.3853568" lon="6.0600859"/>
<trkpt lat="52.3856793" lon="6.0585673"/>
<trkpt lat="52.3860372" lon="6.0575311"/>
<trkpt lat="52.3864258" lon="6.0560912"/>
<trkpt lat="52.3868986" lon="6.0549013"/>
<trkpt lat="52.3877726" lon="6.0534065"/>
<trkpt lat="52.3880059" lon="6.0525238"/>
<trkpt lat="52.3882948" lon="6.0518907"/>
<trkpt lat="52.3880967" lon="6.0515924"/>
<trkpt lat="52.3882259" lon="6.0513331"/>
</trkseg></trk>
<trk><name>Vosbergenpad - overstaproute</name><type>connectionRoute</type><trkseg>
<trkpt lat="52.4244260" lon="6.0666935"/>
<trkpt lat="52.4244840" lon="6.0626659"/>
<trkpt lat="52.4243190" lon="6.0626033"/>
<trkpt lat="52.4253858" lon="6.0558884"/>
<trkpt lat="52.4255758" lon="6.0547794"/>
<trkpt lat="52.4254676" lon="6.0544171"/>
<trkpt lat="52.4254703" lon="6.0506609"/>
<trkpt lat="52.4256370" lon="6.0504230"/>
<trkpt lat="52.4256272" lon="6.0488903"/>
<trkpt lat="52.4252966" lon="6.0488854"/>
</trkseg></trk>
<trk><name>Vosbergenpad - overstaproute</name><type>connectionRoute</type><trkseg>
<trkpt lat="52.3860462" lon="6.0490940"/>
<trkpt lat="52.3861190" lon="6.0489976"/>
<trkpt lat="52.3861885" lon="6.0488972"/>
<trkpt lat="52.3863621" lon="6.0489021"/>
<trkpt lat="52.3867477" lon="6.0488320"/>
<trkpt lat="52.3867963" lon="6.0490718"/>
<trkpt lat="52.3872330" lon="6.0495141"/>
<trkpt lat="52.3873528" lon="6.0496472"/>
<trkpt lat="52.3873570" lon="6.0497221"/>
<trkpt lat="52.3874222" lon="6.0498229"/>
<trkpt lat="52.3874728" lon="6.0500040"/>
<trkpt lat="52.3875095" lon="6.0501657"/>
<trkpt lat="52.3875583" lon="6.0502662"/>
<trkpt lat="52.3876425" lon="6.0503097"/>
<trkpt lat="52.3877196" lon="6.0503799"/>
<trkpt lat="52.3877615" lon="6.0504496"/>
<trkpt lat="52.3878457" lon="6.0505123"/>
<trkpt lat="52.3879251" lon="6.0505864"/>
<trkpt lat="52.3880116" lon="6.0506453"/>
<trkpt lat="52.3880815" lon="6.0507423"/>
<trkpt lat="52.3881398" lon="6.0508237"/>
<trkpt lat="52.3881842" lon="6.0508628"/>
<trkpt lat="52.3882189" lon="6.0509477"/>
<trkpt lat="52.3882232" lon="6.0510207"/>
<trkpt lat="52.3881901" lon="6.0510701"/>
<trkpt lat="52.3881731" lon="6.0511696"/>
<trkpt lat="52.3884574" lon="6.0510361"/>
<trkpt lat="52.3900610" lon="6.0504420"/>
<trkpt lat="52.3904606" lon="6.0519876"/>
<trkpt lat="52.3919398" lon="6.0521206"/>
<trkpt lat="52.3919760" lon="6.0542913"/>
<trkpt lat="52.3911997" lon="6.0552356"/>
<trkpt lat="52.3910089" lon="6.0554484"/>
</trkseg></trk>
</gpx>