<?xml version="1.0" encoding="UTF-8"?>
<gpx version="1.1" creator="klompenpaden.nl via Jimbo API" xmlns="http://www.topografix.com/GPX/1/1">
<metadata><name>Vredelantsepad</name><desc>Ontdek het mooie buitengebied van Vreeland. Wandelen over boerenland, langs verdwenen buitenplaatsen en de Vecht. Geniet van de combinatie cultuur en natuur. Klompen aan, rugzak op en gaan!</desc><link href="https://www.klompenpaden.nl/klompenpaden/Vredelantsepad/97447254-17cb-4eb8-960c-c8de9406a2dd"><text>klompenpaden.nl</text></link></metadata>
<wpt lat="52.23024733326429" lon="5.031341247808917"><name>Start Vreeland</name></wpt>
<trk><name>Vredelantsepad - mainRoute</name><type>mainRoute</type><trkseg>
<trkpt lat="52.2300500" lon="5.0313100"/>
<trkpt lat="52.2296300" lon="5.0311700"/>
<trkpt lat="52.2293200" lon="5.0310100"/>
<trkpt lat="52.2292800" lon="5.0308900"/>
<trkpt lat="52.2295100" lon="5.0302500"/>
<trkpt lat="52.2297000" lon="5.0268000"/>
<trkpt lat="52.2298100" lon="5.0267000"/>
<trkpt lat="52.2308700" lon="5.0208900"/>
<trkpt lat="52.2308700" lon="5.0206900"/>
<trkpt lat="52.2307300" lon="5.0202400"/>
<trkpt lat="52.2301600" lon="5.0131600"/>
<trkpt lat="52.2300700" lon="5.0122700"/>
<trkpt lat="52.2300000" lon="5.0112200"/>
<trkpt lat="52.2298200" lon="5.0092800"/>
<trkpt lat="52.2298000" lon="5.0085300"/>
<trkpt lat="52.2313200" lon="5.0089200"/>
<trkpt lat="52.2323200" lon="5.0092300"/>
<trkpt lat="52.2338300" lon="5.0095800"/>
<trkpt lat="52.2345100" lon="5.0097600"/>
<trkpt lat="52.2359700" lon="5.0101900"/>
<trkpt lat="52.2404400" lon="5.0113900"/>
<trkpt lat="52.2407000" lon="5.0115000"/>
<trkpt lat="52.2412000" lon="5.0116500"/>
<trkpt lat="52.2413900" lon="5.0116400"/>
<trkpt lat="52.2414300" lon="5.0116600"/>
<trkpt lat="52.2414800" lon="5.0119300"/>
<trkpt lat="52.2414300" lon="5.0119700"/>
<trkpt lat="52.2420500" lon="5.0150000"/>
<trkpt lat="52.2426900" lon="5.0183200"/>
<trkpt lat="52.2429600" lon="5.0196400"/>
<trkpt lat="52.2428400" lon="5.0197000"/>
<trkpt lat="52.2435800" lon="5.0242700"/>
<trkpt lat="52.2440400" lon="5.0269800"/>
<trkpt lat="52.2449500" lon="5.0265600"/>
<trkpt lat="52.2456200" lon="5.0262900"/>
<trkpt lat="52.2472700" lon="5.0255600"/>
<trkpt lat="52.2473800" lon="5.0254200"/>
<trkpt lat="52.2482500" lon="5.0250200"/>
<trkpt lat="52.2482200" lon="5.0288800"/>
<trkpt lat="52.2482400" lon="5.0292800"/>
<trkpt lat="52.2489900" lon="5.0338300"/>
<trkpt lat="52.2490100" lon="5.0340000"/>
<trkpt lat="52.2489600" lon="5.0342300"/>
<trkpt lat="52.2492300" lon="5.0350300"/>
<trkpt lat="52.2500800" lon="5.0372300"/>
<trkpt lat="52.2509100" lon="5.0394400"/>
<trkpt lat="52.2511200" lon="5.0396900"/>
<trkpt lat="52.2514500" lon="5.0411400"/>
<trkpt lat="52.2518300" lon="5.0416600"/>
<trkpt lat="52.2520000" lon="5.0418400"/>
<trkpt lat="52.2522200" lon="5.0425500"/>
<trkpt lat="52.2522800" lon="5.0428500"/>
<trkpt lat="52.2521000" lon="5.0429500"/>
<trkpt lat="52.2519200" lon="5.0431400"/>
<trkpt lat="52.2510000" lon="5.0433500"/>
<trkpt lat="52.2508200" lon="5.0434200"/>
<trkpt lat="52.2499300" lon="5.0439400"/>
<trkpt lat="52.2495000" lon="5.0442600"/>
<trkpt lat="52.2490700" lon="5.0443300"/>
<trkpt lat="52.2486500" lon="5.0443200"/>
<trkpt lat="52.2481700" lon="5.0442500"/>
<trkpt lat="52.2478300" lon="5.0440600"/>
<trkpt lat="52.2476200" lon="5.0439200"/>
<trkpt lat="52.2475100" lon="5.0433900"/>
<trkpt lat="52.2473800" lon="5.0424400"/>
<trkpt lat="52.2473500" lon="5.0419600"/>
<trkpt lat="52.2474000" lon="5.0415600"/>
<trkpt lat="52.2474400" lon="5.0413500"/>
<trkpt lat="52.2474300" lon="5.0410100"/>
<trkpt lat="52.2474000" lon="5.0407900"/>
<trkpt lat="52.2473500" lon="5.0405600"/>
<trkpt lat="52.2472400" lon="5.0392100"/>
<trkpt lat="52.2471600" lon="5.0384600"/>
<trkpt lat="52.2470500" lon="5.0379000"/>
<trkpt lat="52.2467900" lon="5.0369500"/>
<trkpt lat="52.2465800" lon="5.0363500"/>
<trkpt lat="52.2464000" lon="5.0359700"/>
<trkpt lat="52.2462500" lon="5.0357700"/>
<trkpt lat="52.2460500" lon="5.0356300"/>
<trkpt lat="52.2457700" lon="5.0355900"/>
<trkpt lat="52.2456300" lon="5.0356100"/>
<trkpt lat="52.2454700" lon="5.0356700"/>
<trkpt lat="52.2453000" lon="5.0358300"/>
<trkpt lat="52.2451800" lon="5.0359600"/>
<trkpt lat="52.2449700" lon="5.0363000"/>
<trkpt lat="52.2448000" lon="5.0366300"/>
<trkpt lat="52.2444400" lon="5.0374700"/>
<trkpt lat="52.2442100" lon="5.0378800"/>
<trkpt lat="52.2436800" lon="5.0386700"/>
<trkpt lat="52.2432800" lon="5.0391500"/>
<trkpt lat="52.2430200" lon="5.0394400"/>
<trkpt lat="52.2427800" lon="5.0395500"/>
<trkpt lat="52.2426400" lon="5.0395300"/>
<trkpt lat="52.2418400" lon="5.0388500"/>
<trkpt lat="52.2415900" lon="5.0387000"/>
<trkpt lat="52.2411900" lon="5.0385200"/>
<trkpt lat="52.2409900" lon="5.0382800"/>
<trkpt lat="52.2403200" lon="5.0372000"/>
<trkpt lat="52.2398200" lon="5.0364200"/>
<trkpt lat="52.2391300" lon="5.0352700"/>
<trkpt lat="52.2383300" lon="5.0339800"/>
<trkpt lat="52.2372400" lon="5.0328600"/>
<trkpt lat="52.2367100" lon="5.0325700"/>
<trkpt lat="52.2363500" lon="5.0323400"/>
<trkpt lat="52.2362200" lon="5.0321900"/>
<trkpt lat="52.2358600" lon="5.0315000"/>
<trkpt lat="52.2351000" lon="5.0309500"/>
<trkpt lat="52.2336900" lon="5.0308100"/>
<trkpt lat="52.2335000" lon="5.0307200"/>
<trkpt lat="52.2332200" lon="5.0305600"/>
<trkpt lat="52.2330300" lon="5.0305000"/>
<trkpt lat="52.2328100" lon="5.0305500"/>
<trkpt lat="52.2324000" lon="5.0306800"/>
<trkpt lat="52.2322800" lon="5.0307700"/>
<trkpt lat="52.2321400" lon="5.0309700"/>
<trkpt lat="52.2319700" lon="5.0312500"/>
<trkpt lat="52.2316600" lon="5.0320300"/>
<trkpt lat="52.2315700" lon="5.0322000"/>
<trkpt lat="52.2314700" lon="5.0323300"/>
<trkpt lat="52.2309500" lon="5.0325300"/>
<trkpt lat="52.2303400" lon="5.0325000"/>
<trkpt lat="52.2302000" lon="5.0325900"/>
<trkpt lat="52.2297800" lon="5.0326100"/>
<trkpt lat="52.2298100" lon="5.0332700"/>
<trkpt lat="52.2306300" lon="5.0331400"/>
<trkpt lat="52.2307600" lon="5.0330900"/>
<trkpt lat="52.2313700" lon="5.0331800"/>
<trkpt lat="52.2317000" lon="5.0331600"/>
<trkpt lat="52.2321500" lon="5.0330100"/>
<trkpt lat="52.2320200" lon="5.0337100"/>
<trkpt lat="52.2318900" lon="5.0338300"/>
<trkpt lat="52.2317600" lon="5.0338900"/>
<trkpt lat="52.2317300" lon="5.0339500"/>
<trkpt lat="52.2320100" lon="5.0351400"/>
<trkpt lat="52.2319900" lon="5.0357500"/>
<trkpt lat="52.2318800" lon="5.0360900"/>
<trkpt lat="52.2317400" lon="5.0364200"/>
<trkpt lat="52.2315200" lon="5.0367300"/>
<trkpt lat="52.2314100" lon="5.0368600"/>
<trkpt lat="52.2311100" lon="5.0369600"/>
<trkpt lat="52.2292700" lon="5.0373800"/>
<trkpt lat="52.2292000" lon="5.0371700"/>
<trkpt lat="52.2291600" lon="5.0366200"/>
<trkpt lat="52.2290000" lon="5.0351300"/>
<trkpt lat="52.2290400" lon="5.0345900"/>
<trkpt lat="52.2288900" lon="5.0335700"/>
<trkpt lat="52.2289600" lon="5.0334200"/>
<trkpt lat="52.2290700" lon="5.0333600"/>
<trkpt lat="52.2293700" lon="5.0332600"/>
<trkpt lat="52.2295700" lon="5.0332600"/>
<trkpt lat="52.2298100" lon="5.0333200"/>
<trkpt lat="52.2297200" lon="5.0318500"/>
<trkpt lat="52.2297900" lon="5.0312900"/>
<trkpt lat="52.2299100" lon="5.0312600"/>
<trkpt lat="52.2300400" lon="5.0313100"/>
</trkseg></trk>
</gpx>