<?xml version="1.0" encoding="UTF-8"?>
<gpx version="1.1" creator="klompenpaden.nl via Jimbo API" xmlns="http://www.topografix.com/GPX/1/1">
<metadata><name>Vreepad</name><desc>Ontdek het mooie afwisselende buitengebied van de gemeente Oldebroek. Wandel door weilanden, over landgoederen en resten van een zandverstuiving.  Het Vreepad voert u langs een oude nederzetting en langs historische boerderijen. Ervaar de lengte van het copelandschap. De vroegere Zuiderzee ligt op hemelsbreed zo’n 6 kilometer afstand. Aan de andere kant de hoger liggende Veluwe. Klompen aan, rugzak op en gaan!</desc><link href="https://www.klompenpaden.nl/klompenpaden/Vreepad/4fed22a5-82de-447e-9ced-6103ebebc745"><text>klompenpaden.nl</text></link></metadata>
<wpt lat="52.44280098586732" lon="5.913015604019164"><name>Start Oldebroek</name></wpt>
<trk><name>Vreepad - mainRoute</name><type>mainRoute</type><trkseg>
<trkpt lat="52.4426700" lon="5.9131100"/>
<trkpt lat="52.4427400" lon="5.9129900"/>
<trkpt lat="52.4429400" lon="5.9127800"/>
<trkpt lat="52.4432800" lon="5.9124900"/>
<trkpt lat="52.4434700" lon="5.9122400"/>
<trkpt lat="52.4453800" lon="5.9179700"/>
<trkpt lat="52.4455200" lon="5.9178200"/>
<trkpt lat="52.4456000" lon="5.9180200"/>
<trkpt lat="52.4455800" lon="5.9181300"/>
<trkpt lat="52.4454800" lon="5.9182400"/>
<trkpt lat="52.4460900" lon="5.9202100"/>
<trkpt lat="52.4458100" lon="5.9204600"/>
<trkpt lat="52.4457300" lon="5.9204500"/>
<trkpt lat="52.4452500" lon="5.9209700"/>
<trkpt lat="52.4452500" lon="5.9211000"/>
<trkpt lat="52.4460700" lon="5.9233600"/>
<trkpt lat="52.4461800" lon="5.9235500"/>
<trkpt lat="52.4463300" lon="5.9239900"/>
<trkpt lat="52.4463500" lon="5.9241300"/>
<trkpt lat="52.4467300" lon="5.9252600"/>
<trkpt lat="52.4470000" lon="5.9249900"/>
<trkpt lat="52.4476400" lon="5.9265700"/>
<trkpt lat="52.4479500" lon="5.9274300"/>
<trkpt lat="52.4480500" lon="5.9280400"/>
<trkpt lat="52.4485300" lon="5.9296600"/>
<trkpt lat="52.4479500" lon="5.9302800"/>
<trkpt lat="52.4483000" lon="5.9314700"/>
<trkpt lat="52.4484900" lon="5.9323700"/>
<trkpt lat="52.4497100" lon="5.9358100"/>
<trkpt lat="52.4501400" lon="5.9391800"/>
<trkpt lat="52.4511400" lon="5.9421000"/>
<trkpt lat="52.4509100" lon="5.9423500"/>
<trkpt lat="52.4513700" lon="5.9433400"/>
<trkpt lat="52.4524500" lon="5.9459300"/>
<trkpt lat="52.4531000" lon="5.9474100"/>
<trkpt lat="52.4538000" lon="5.9486200"/>
<trkpt lat="52.4545800" lon="5.9498100"/>
<trkpt lat="52.4545900" lon="5.9499100"/>
<trkpt lat="52.4549700" lon="5.9510400"/>
<trkpt lat="52.4558400" lon="5.9532700"/>
<trkpt lat="52.4559400" lon="5.9532900"/>
<trkpt lat="52.4562700" lon="5.9543400"/>
<trkpt lat="52.4565600" lon="5.9551600"/>
<trkpt lat="52.4585100" lon="5.9532300"/>
<trkpt lat="52.4588400" lon="5.9529600"/>
<trkpt lat="52.4589600" lon="5.9531100"/>
<trkpt lat="52.4591200" lon="5.9532000"/>
<trkpt lat="52.4592800" lon="5.9532400"/>
<trkpt lat="52.4601200" lon="5.9529500"/>
<trkpt lat="52.4603900" lon="5.9528200"/>
<trkpt lat="52.4607100" lon="5.9525500"/>
<trkpt lat="52.4611200" lon="5.9521400"/>
<trkpt lat="52.4613800" lon="5.9535100"/>
<trkpt lat="52.4614700" lon="5.9538000"/>
<trkpt lat="52.4614700" lon="5.9539000"/>
<trkpt lat="52.4614500" lon="5.9541200"/>
<trkpt lat="52.4614200" lon="5.9542300"/>
<trkpt lat="52.4614000" lon="5.9544000"/>
<trkpt lat="52.4614200" lon="5.9546100"/>
<trkpt lat="52.4614700" lon="5.9548000"/>
<trkpt lat="52.4615000" lon="5.9548600"/>
<trkpt lat="52.4614900" lon="5.9550900"/>
<trkpt lat="52.4615300" lon="5.9559200"/>
<trkpt lat="52.4616400" lon="5.9564500"/>
<trkpt lat="52.4617100" lon="5.9566000"/>
<trkpt lat="52.4618600" lon="5.9564700"/>
<trkpt lat="52.4619700" lon="5.9563100"/>
<trkpt lat="52.4624000" lon="5.9560100"/>
<trkpt lat="52.4624900" lon="5.9558800"/>
<trkpt lat="52.4627400" lon="5.9558300"/>
<trkpt lat="52.4634700" lon="5.9580000"/>
<trkpt lat="52.4635300" lon="5.9583000"/>
<trkpt lat="52.4616200" lon="5.9600200"/>
<trkpt lat="52.4611900" lon="5.9588700"/>
<trkpt lat="52.4599700" lon="5.9599800"/>
<trkpt lat="52.4595400" lon="5.9588200"/>
<trkpt lat="52.4573800" lon="5.9608800"/>
<trkpt lat="52.4574300" lon="5.9611000"/>
<trkpt lat="52.4574000" lon="5.9612700"/>
<trkpt lat="52.4572700" lon="5.9614200"/>
<trkpt lat="52.4570000" lon="5.9616700"/>
<trkpt lat="52.4566200" lon="5.9619700"/>
<trkpt lat="52.4564200" lon="5.9621600"/>
<trkpt lat="52.4563000" lon="5.9623700"/>
<trkpt lat="52.4560600" lon="5.9625100"/>
<trkpt lat="52.4559400" lon="5.9625500"/>
<trkpt lat="52.4558000" lon="5.9625600"/>
<trkpt lat="52.4557200" lon="5.9626400"/>
<trkpt lat="52.4556000" lon="5.9629800"/>
<trkpt lat="52.4555200" lon="5.9631000"/>
<trkpt lat="52.4553700" lon="5.9631600"/>
<trkpt lat="52.4552100" lon="5.9631600"/>
<trkpt lat="52.4550500" lon="5.9633900"/>
<trkpt lat="52.4540800" lon="5.9643400"/>
<trkpt lat="52.4538100" lon="5.9645700"/>
<trkpt lat="52.4535300" lon="5.9648300"/>
<trkpt lat="52.4534800" lon="5.9648400"/>
<trkpt lat="52.4534300" lon="5.9647800"/>
<trkpt lat="52.4532800" lon="5.9648400"/>
<trkpt lat="52.4527400" lon="5.9653300"/>
<trkpt lat="52.4527100" lon="5.9655200"/>
<trkpt lat="52.4540500" lon="5.9708600"/>
<trkpt lat="52.4528900" lon="5.9716400"/>
<trkpt lat="52.4527100" lon="5.9712400"/>
<trkpt lat="52.4520500" lon="5.9721900"/>
<trkpt lat="52.4519400" lon="5.9722600"/>
<trkpt lat="52.4516500" lon="5.9725800"/>
<trkpt lat="52.4509500" lon="5.9729100"/>
<trkpt lat="52.4502800" lon="5.9736300"/>
<trkpt lat="52.4502200" lon="5.9736500"/>
<trkpt lat="52.4501700" lon="5.9737700"/>
<trkpt lat="52.4496900" lon="5.9742000"/>
<trkpt lat="52.4493600" lon="5.9745000"/>
<trkpt lat="52.4488100" lon="5.9749000"/>
<trkpt lat="52.4487100" lon="5.9749600"/>
<trkpt lat="52.4485500" lon="5.9748600"/>
<trkpt lat="52.4483600" lon="5.9744600"/>
<trkpt lat="52.4482400" lon="5.9743900"/>
<trkpt lat="52.4481100" lon="5.9742700"/>
<trkpt lat="52.4480400" lon="5.9741800"/>
<trkpt lat="52.4479600" lon="5.9739600"/>
<trkpt lat="52.4475800" lon="5.9740500"/>
<trkpt lat="52.4475000" lon="5.9741300"/>
<trkpt lat="52.4473600" lon="5.9740400"/>
<trkpt lat="52.4471300" lon="5.9738200"/>
<trkpt lat="52.4470900" lon="5.9737400"/>
<trkpt lat="52.4469400" lon="5.9736800"/>
<trkpt lat="52.4464800" lon="5.9729100"/>
<trkpt lat="52.4464400" lon="5.9728000"/>
<trkpt lat="52.4464400" lon="5.9726400"/>
<trkpt lat="52.4459700" lon="5.9723700"/>
<trkpt lat="52.4459000" lon="5.9721900"/>
<trkpt lat="52.4458000" lon="5.9722400"/>
<trkpt lat="52.4454900" lon="5.9721100"/>
<trkpt lat="52.4453600" lon="5.9719600"/>
<trkpt lat="52.4452700" lon="5.9717500"/>
<trkpt lat="52.4451900" lon="5.9713400"/>
<trkpt lat="52.4449600" lon="5.9707900"/>
<trkpt lat="52.4448200" lon="5.9700400"/>
<trkpt lat="52.4448100" lon="5.9698900"/>
<trkpt lat="52.4447300" lon="5.9696600"/>
<trkpt lat="52.4445400" lon="5.9698000"/>
<trkpt lat="52.4443100" lon="5.9700000"/>
<trkpt lat="52.4439300" lon="5.9687900"/>
<trkpt lat="52.4435900" lon="5.9676600"/>
<trkpt lat="52.4437500" lon="5.9674700"/>
<trkpt lat="52.4436700" lon="5.9672600"/>
<trkpt lat="52.4436600" lon="5.9671200"/>
<trkpt lat="52.4435600" lon="5.9669400"/>
<trkpt lat="52.4435500" lon="5.9666800"/>
<trkpt lat="52.4433000" lon="5.9660500"/>
<trkpt lat="52.4430400" lon="5.9655500"/>
<trkpt lat="52.4430200" lon="5.9654000"/>
<trkpt lat="52.4428300" lon="5.9648300"/>
<trkpt lat="52.4425500" lon="5.9642800"/>
<trkpt lat="52.4425200" lon="5.9639200"/>
<trkpt lat="52.4424200" lon="5.9635000"/>
<trkpt lat="52.4423600" lon="5.9634100"/>
<trkpt lat="52.4429900" lon="5.9627200"/>
<trkpt lat="52.4422200" lon="5.9608900"/>
<trkpt lat="52.4429200" lon="5.9601400"/>
<trkpt lat="52.4430600" lon="5.9595400"/>
<trkpt lat="52.4430800" lon="5.9592800"/>
<trkpt lat="52.4432100" lon="5.9585600"/>
<trkpt lat="52.4433700" lon="5.9583800"/>
<trkpt lat="52.4440400" lon="5.9577900"/>
<trkpt lat="52.4437500" lon="5.9570600"/>
<trkpt lat="52.4421800" lon="5.9532800"/>
<trkpt lat="52.4439300" lon="5.9513300"/>
<trkpt lat="52.4427700" lon="5.9487200"/>
</trkseg></trk>
<trk><name>Vreepad - mainRoute</name><type>mainRoute</type><trkseg>
<trkpt lat="52.4426700" lon="5.9131100"/>
<trkpt lat="52.4384700" lon="5.9182500"/>
<trkpt lat="52.4383200" lon="5.9184800"/>
<trkpt lat="52.4367000" lon="5.9204700"/>
<trkpt lat="52.4365200" lon="5.9209400"/>
<trkpt lat="52.4363600" lon="5.9222600"/>
<trkpt lat="52.4363600" lon="5.9223900"/>
<trkpt lat="52.4364200" lon="5.9225500"/>
<trkpt lat="52.4366200" lon="5.9227700"/>
<trkpt lat="52.4366300" lon="5.9229000"/>
<trkpt lat="52.4360900" lon="5.9233600"/>
<trkpt lat="52.4359000" lon="5.9236000"/>
<trkpt lat="52.4357500" lon="5.9239700"/>
<trkpt lat="52.4356100" lon="5.9241900"/>
<trkpt lat="52.4349100" lon="5.9245200"/>
<trkpt lat="52.4336300" lon="5.9250800"/>
<trkpt lat="52.4335400" lon="5.9252000"/>
<trkpt lat="52.4334700" lon="5.9254400"/>
<trkpt lat="52.4331200" lon="5.9253100"/>
<trkpt lat="52.4305700" lon="5.9257500"/>
<trkpt lat="52.4305600" lon="5.9258500"/>
<trkpt lat="52.4311700" lon="5.9280900"/>
<trkpt lat="52.4311700" lon="5.9282200"/>
<trkpt lat="52.4300600" lon="5.9311200"/>
<trkpt lat="52.4300100" lon="5.9313400"/>
<trkpt lat="52.4301400" lon="5.9330900"/>
<trkpt lat="52.4302100" lon="5.9335400"/>
<trkpt lat="52.4303200" lon="5.9339800"/>
<trkpt lat="52.4304800" lon="5.9345700"/>
<trkpt lat="52.4309300" lon="5.9357300"/>
<trkpt lat="52.4314500" lon="5.9366500"/>
<trkpt lat="52.4314200" lon="5.9369500"/>
<trkpt lat="52.4314400" lon="5.9370800"/>
<trkpt lat="52.4315000" lon="5.9372300"/>
<trkpt lat="52.4317800" lon="5.9374200"/>
<trkpt lat="52.4320300" lon="5.9374900"/>
<trkpt lat="52.4321000" lon="5.9376300"/>
<trkpt lat="52.4321500" lon="5.9380200"/>
<trkpt lat="52.4322300" lon="5.9382600"/>
<trkpt lat="52.4326100" lon="5.9379000"/>
<trkpt lat="52.4326600" lon="5.9378300"/>
<trkpt lat="52.4327500" lon="5.9378200"/>
<trkpt lat="52.4334200" lon="5.9393100"/>
<trkpt lat="52.4348100" lon="5.9381800"/>
<trkpt lat="52.4358400" lon="5.9372800"/>
<trkpt lat="52.4365700" lon="5.9366200"/>
<trkpt lat="52.4370200" lon="5.9379200"/>
<trkpt lat="52.4372000" lon="5.9381700"/>
<trkpt lat="52.4372600" lon="5.9385300"/>
<trkpt lat="52.4367000" lon="5.9391700"/>
<trkpt lat="52.4366700" lon="5.9392600"/>
<trkpt lat="52.4367100" lon="5.9394600"/>
<trkpt lat="52.4371900" lon="5.9407400"/>
<trkpt lat="52.4371400" lon="5.9408100"/>
<trkpt lat="52.4379300" lon="5.9427800"/>
<trkpt lat="52.4380700" lon="5.9429300"/>
<trkpt lat="52.4385700" lon="5.9441800"/>
<trkpt lat="52.4388100" lon="5.9439100"/>
<trkpt lat="52.4388800" lon="5.9437600"/>
<trkpt lat="52.4393800" lon="5.9431700"/>
<trkpt lat="52.4394000" lon="5.9432300"/>
<trkpt lat="52.4395100" lon="5.9432700"/>
<trkpt lat="52.4395700" lon="5.9432400"/>
<trkpt lat="52.4398600" lon="5.9428700"/>
<trkpt lat="52.4399300" lon="5.9427800"/>
<trkpt lat="52.4399200" lon="5.9426600"/>
<trkpt lat="52.4406300" lon="5.9419000"/>
<trkpt lat="52.4408900" lon="5.9413200"/>
<trkpt lat="52.4409200" lon="5.9410600"/>
<trkpt lat="52.4407100" lon="5.9404900"/>
<trkpt lat="52.4406300" lon="5.9403700"/>
<trkpt lat="52.4405800" lon="5.9400500"/>
<trkpt lat="52.4405300" lon="5.9398900"/>
<trkpt lat="52.4404700" lon="5.9397900"/>
<trkpt lat="52.4401400" lon="5.9394600"/>
<trkpt lat="52.4400900" lon="5.9393200"/>
<trkpt lat="52.4399200" lon="5.9389900"/>
<trkpt lat="52.4398000" lon="5.9388100"/>
<trkpt lat="52.4397100" lon="5.9387100"/>
<trkpt lat="52.4396400" lon="5.9385600"/>
<trkpt lat="52.4398300" lon="5.9382700"/>
<trkpt lat="52.4399600" lon="5.9379900"/>
<trkpt lat="52.4400300" lon="5.9379200"/>
<trkpt lat="52.4401400" lon="5.9379800"/>
<trkpt lat="52.4401800" lon="5.9380300"/>
<trkpt lat="52.4402700" lon="5.9383000"/>
<trkpt lat="52.4407200" lon="5.9379300"/>
<trkpt lat="52.4411300" lon="5.9375400"/>
<trkpt lat="52.4417100" lon="5.9368900"/>
<trkpt lat="52.4417700" lon="5.9368700"/>
<trkpt lat="52.4418500" lon="5.9369400"/>
<trkpt lat="52.4422000" lon="5.9377700"/>
<trkpt lat="52.4423300" lon="5.9381500"/>
<trkpt lat="52.4424600" lon="5.9384900"/>
<trkpt lat="52.4425100" lon="5.9387500"/>
<trkpt lat="52.4426100" lon="5.9389800"/>
<trkpt lat="52.4428000" lon="5.9395200"/>
<trkpt lat="52.4428800" lon="5.9396600"/>
<trkpt lat="52.4430200" lon="5.9402400"/>
<trkpt lat="52.4430700" lon="5.9405900"/>
<trkpt lat="52.4432300" lon="5.9411900"/>
<trkpt lat="52.4432200" lon="5.9413600"/>
<trkpt lat="52.4428200" lon="5.9416700"/>
<trkpt lat="52.4426600" lon="5.9419100"/>
<trkpt lat="52.4425600" lon="5.9421100"/>
<trkpt lat="52.4424500" lon="5.9424400"/>
<trkpt lat="52.4423800" lon="5.9425300"/>
<trkpt lat="52.4422800" lon="5.9425900"/>
<trkpt lat="52.4422200" lon="5.9427200"/>
<trkpt lat="52.4420800" lon="5.9428800"/>
<trkpt lat="52.4416800" lon="5.9432900"/>
<trkpt lat="52.4412700" lon="5.9438000"/>
<trkpt lat="52.4410300" lon="5.9440400"/>
<trkpt lat="52.4409100" lon="5.9442300"/>
<trkpt lat="52.4408900" lon="5.9444000"/>
<trkpt lat="52.4412300" lon="5.9452800"/>
<trkpt lat="52.4413000" lon="5.9456300"/>
<trkpt lat="52.4413900" lon="5.9458300"/>
<trkpt lat="52.4414800" lon="5.9460900"/>
<trkpt lat="52.4416700" lon="5.9463700"/>
<trkpt lat="52.4418400" lon="5.9466900"/>
<trkpt lat="52.4418200" lon="5.9468300"/>
<trkpt lat="52.4422900" lon="5.9474000"/>
<trkpt lat="52.4425100" lon="5.9477300"/>
<trkpt lat="52.4425800" lon="5.9478700"/>
<trkpt lat="52.4426400" lon="5.9480200"/>
<trkpt lat="52.4426900" lon="5.9482200"/>
<trkpt lat="52.4427100" lon="5.9484700"/>
<trkpt lat="52.4427700" lon="5.9487200"/>
</trkseg></trk>
<trk><name>Vreepad - mainRoute</name><type>mainRoute</type><trkseg>
<trkpt lat="52.4427700" lon="5.9487200"/>
<trkpt lat="52.4427800" lon="5.9487500"/>
</trkseg></trk>
<trk><name>Vreepad - shorteningRoute</name><type>shorteningRoute</type><trkseg>
<trkpt lat="52.4439300" lon="5.9511800"/>
<trkpt lat="52.4457900" lon="5.9492000"/>
<trkpt lat="52.4462500" lon="5.9491400"/>
<trkpt lat="52.4464400" lon="5.9490600"/>
<trkpt lat="52.4467700" lon="5.9486100"/>
<trkpt lat="52.4492000" lon="5.9461200"/>
<trkpt lat="52.4491000" lon="5.9448200"/>
<trkpt lat="52.4491800" lon="5.9442500"/>
<trkpt lat="52.4492600" lon="5.9439900"/>
<trkpt lat="52.4502400" lon="5.9429800"/>
<trkpt lat="52.4507200" lon="5.9424400"/>
<trkpt lat="52.4509200" lon="5.9423400"/>
</trkseg></trk>
<trk><name>Vreepad - shorteningRoute</name><type>shorteningRoute</type><trkseg>
<trkpt lat="52.4427800" lon="5.9487500"/>
<trkpt lat="52.4408700" lon="5.9487300"/>
<trkpt lat="52.4404800" lon="5.9483300"/>
<trkpt lat="52.4385700" lon="5.9441800"/>
</trkseg></trk>
<trk><name>Vreepad - overstaproute</name><type>connectionRoute</type><trkseg>
<trkpt lat="52.4571500" lon="5.8878500"/>
<trkpt lat="52.4536300" lon="5.8920600"/>
<trkpt lat="52.4487500" lon="5.8979300"/>
<trkpt lat="52.4486100" lon="5.8979500"/>
<trkpt lat="52.4485100" lon="5.8978700"/>
<trkpt lat="52.4481500" lon="5.8983100"/>
<trkpt lat="52.4480000" lon="5.8979600"/>
<trkpt lat="52.4475700" lon="5.8984300"/>
<trkpt lat="52.4476900" lon="5.8988100"/>
<trkpt lat="52.4478000" lon="5.8990600"/>
<trkpt lat="52.4477900" lon="5.8991900"/>
<trkpt lat="52.4478100" lon="5.8993300"/>
<trkpt lat="52.4484500" lon="5.9008900"/>
<trkpt lat="52.4482200" lon="5.9011600"/>
<trkpt lat="52.4481500" lon="5.9014100"/>
<trkpt lat="52.4471200" lon="5.9026900"/>
<trkpt lat="52.4470500" lon="5.9028000"/>
<trkpt lat="52.4470700" lon="5.9028700"/>
<trkpt lat="52.4477900" lon="5.9043900"/>
<trkpt lat="52.4478400" lon="5.9045400"/>
<trkpt lat="52.4478000" lon="5.9048200"/>
<trkpt lat="52.4483600" lon="5.9060800"/>
<trkpt lat="52.4465900" lon="5.9083600"/>
<trkpt lat="52.4434700" lon="5.9122400"/>
</trkseg></trk>
<trk><name>Vreepad - approachRoute</name><type>approachRoute</type><trkseg>
<trkpt lat="52.4434700" lon="5.9122400"/>
<trkpt lat="52.4461000" lon="5.9089900"/>
<trkpt lat="52.4483600" lon="5.9060800"/>
<trkpt lat="52.4478000" lon="5.9048200"/>
<trkpt lat="52.4478400" lon="5.9045400"/>
<trkpt lat="52.4477900" lon="5.9043900"/>
<trkpt lat="52.4470700" lon="5.9028700"/>
<trkpt lat="52.4470500" lon="5.9028100"/>
<trkpt lat="52.4471200" lon="5.9026900"/>
<trkpt lat="52.4481500" lon="5.9014100"/>
<trkpt lat="52.4482200" lon="5.9011600"/>
<trkpt lat="52.4484500" lon="5.9008900"/>
<trkpt lat="52.4478100" lon="5.8993300"/>
<trkpt lat="52.4477900" lon="5.8991900"/>
<trkpt lat="52.4478000" lon="5.8990600"/>
<trkpt lat="52.4476900" lon="5.8988000"/>
</trkseg></trk>
<trk><name>Vreepad - aanlooproute</name><type>approachRoute</type><trkseg>
<trkpt lat="52.4540467" lon="6.0024709"/>
<trkpt lat="52.4544300" lon="6.0021588"/>
<trkpt lat="52.4557521" lon="6.0009652"/>
<trkpt lat="52.4556319" lon="6.0007348"/>
<trkpt lat="52.4556874" lon="6.0006361"/>
<trkpt lat="52.4559463" lon="6.0003276"/>
<trkpt lat="52.4560361" lon="6.0002580"/>
<trkpt lat="52.4561115" lon="6.0004104"/>
<trkpt lat="52.4565201" lon="6.0000515"/>
<trkpt lat="52.4565568" lon="5.9999661"/>
<trkpt lat="52.4564428" lon="5.9996044"/>
<trkpt lat="52.4565152" lon="5.9997181"/>
<trkpt lat="52.4569715" lon="5.9993194"/>
<trkpt lat="52.4569749" lon="5.9990916"/>
<trkpt lat="52.4570457" lon="5.9990675"/>
<trkpt lat="52.4571333" lon="5.9991680"/>
<trkpt lat="52.4572402" lon="5.9990463"/>
<trkpt lat="52.4575427" lon="5.9986477"/>
<trkpt lat="52.4575545" lon="5.9984327"/>
<trkpt lat="52.4571111" lon="5.9970380"/>
<trkpt lat="52.4569282" lon="5.9961064"/>
<trkpt lat="52.4568224" lon="5.9947506"/>
<trkpt lat="52.4564611" lon="5.9931921"/>
<trkpt lat="52.4556949" lon="5.9897712"/>
<trkpt lat="52.4556866" lon="5.9881235"/>
<trkpt lat="52.4566005" lon="5.9849656"/>
<trkpt lat="52.4567731" lon="5.9822637"/>
<trkpt lat="52.4566182" lon="5.9811631"/>
<trkpt lat="52.4574276" lon="5.9810754"/>
<trkpt lat="52.4578719" lon="5.9841053"/>
<trkpt lat="52.4579823" lon="5.9840917"/>
<trkpt lat="52.4575669" lon="5.9810018"/>
<trkpt lat="52.4575262" lon="5.9805808"/>
<trkpt lat="52.4573887" lon="5.9795338"/>
<trkpt lat="52.4572100" lon="5.9789007"/>
<trkpt lat="52.4570122" lon="5.9785069"/>
<trkpt lat="52.4566087" lon="5.9778709"/>
<trkpt lat="52.4563893" lon="5.9775234"/>
<trkpt lat="52.4562626" lon="5.9771889"/>
<trkpt lat="52.4560182" lon="5.9775535"/>
<trkpt lat="52.4556664" lon="5.9779926"/>
<trkpt lat="52.4554914" lon="5.9780545"/>
<trkpt lat="52.4552956" lon="5.9779701"/>
<trkpt lat="52.4552071" lon="5.9778346"/>
<trkpt lat="52.4550389" lon="5.9772193"/>
<trkpt lat="52.4547885" lon="5.9763219"/>
<trkpt lat="52.4546787" lon="5.9758315"/>
<trkpt lat="52.4545726" lon="5.9754198"/>
<trkpt lat="52.4544579" lon="5.9750202"/>
<trkpt lat="52.4543949" lon="5.9747269"/>
<trkpt lat="52.4543080" lon="5.9742447"/>
<trkpt lat="52.4542786" lon="5.9741527"/>
<trkpt lat="52.4542499" lon="5.9739371"/>
<trkpt lat="52.4542236" lon="5.9737417"/>
<trkpt lat="52.4541964" lon="5.9737170"/>
<trkpt lat="52.4541518" lon="5.9737124"/>
<trkpt lat="52.4540277" lon="5.9737148"/>
<trkpt lat="52.4538937" lon="5.9737130"/>
<trkpt lat="52.4536976" lon="5.9737185"/>
<trkpt lat="52.4534050" lon="5.9737313"/>
<trkpt lat="52.4533232" lon="5.9737334"/>
<trkpt lat="52.4533186" lon="5.9734967"/>
<trkpt lat="52.4533695" lon="5.9728216"/>
<trkpt lat="52.4533702" lon="5.9726940"/>
<trkpt lat="52.4531561" lon="5.9725167"/>
<trkpt lat="52.4530308" lon="5.9720854"/>
<trkpt lat="52.4528775" lon="5.9716586"/>
</trkseg></trk>
</gpx>