<?xml version="1.0" encoding="UTF-8"?>
<gpx version="1.1" creator="klompenpaden.nl via Jimbo API" xmlns="http://www.topografix.com/GPX/1/1">
<metadata><name>Vrijheijtpad</name><desc>Ontdek het mooie afwisselende buitengebied van Elburg. Wandel door de vestingstad, door weilanden, langs het open weidegebied De Mheen en door de voormalige buurtschap De Vrijheid.</desc><link href="https://www.klompenpaden.nl/klompenpaden/Vrijheijtpad/321b7142-c4d9-4253-9ac1-97b099322c99"><text>klompenpaden.nl</text></link></metadata>
<wpt lat="52.449654247359675" lon="5.82868670731978"><name>Start Elburg</name></wpt>
<trk><name>Vrijheijtpad - Hoofdroute</name><type>mainRoute</type><trkseg>
<trkpt lat="52.4494970" lon="5.8302001"/>
<trkpt lat="52.4495060" lon="5.8300621"/>
<trkpt lat="52.4494130" lon="5.8299951"/>
<trkpt lat="52.4487450" lon="5.8289631"/>
<trkpt lat="52.4486590" lon="5.8289771"/>
<trkpt lat="52.4485150" lon="5.8286981"/>
<trkpt lat="52.4483430" lon="5.8285681"/>
<trkpt lat="52.4483090" lon="5.8285421"/>
<trkpt lat="52.4480540" lon="5.8285741"/>
<trkpt lat="52.4479630" lon="5.8286921"/>
<trkpt lat="52.4476713" lon="5.8302901"/>
<trkpt lat="52.4475250" lon="5.8308441"/>
<trkpt lat="52.4473130" lon="5.8314171"/>
<trkpt lat="52.4470740" lon="5.8320431"/>
<trkpt lat="52.4470020" lon="5.8322251"/>
<trkpt lat="52.4469060" lon="5.8322001"/>
<trkpt lat="52.4469060" lon="5.8322271"/>
<trkpt lat="52.4468970" lon="5.8323511"/>
<trkpt lat="52.4467660" lon="5.8327151"/>
<trkpt lat="52.4456520" lon="5.8346671"/>
<trkpt lat="52.4454745" lon="5.8349619"/>
<trkpt lat="52.4454091" lon="5.8353001"/>
<trkpt lat="52.4454087" lon="5.8354737"/>
<trkpt lat="52.4454366" lon="5.8356275"/>
<trkpt lat="52.4455598" lon="5.8358093"/>
<trkpt lat="52.4456980" lon="5.8359447"/>
<trkpt lat="52.4457744" lon="5.8360864"/>
<trkpt lat="52.4457669" lon="5.8361953"/>
<trkpt lat="52.4457375" lon="5.8365159"/>
<trkpt lat="52.4456876" lon="5.8367465"/>
<trkpt lat="52.4456469" lon="5.8379874"/>
<trkpt lat="52.4456442" lon="5.8383601"/>
<trkpt lat="52.4459371" lon="5.8396474"/>
<trkpt lat="52.4456785" lon="5.8400398"/>
<trkpt lat="52.4452751" lon="5.8405873"/>
<trkpt lat="52.4446492" lon="5.8412276"/>
<trkpt lat="52.4446115" lon="5.8410517"/>
<trkpt lat="52.4443285" lon="5.8389348"/>
<trkpt lat="52.4442348" lon="5.8387222"/>
<trkpt lat="52.4442032" lon="5.8385236"/>
<trkpt lat="52.4428080" lon="5.8380681"/>
<trkpt lat="52.4427480" lon="5.8381711"/>
<trkpt lat="52.4426330" lon="5.8382691"/>
<trkpt lat="52.4424200" lon="5.8383901"/>
<trkpt lat="52.4423413" lon="5.8384099"/>
<trkpt lat="52.4415923" lon="5.8381330"/>
<trkpt lat="52.4410042" lon="5.8391752"/>
<trkpt lat="52.4402663" lon="5.8396088"/>
<trkpt lat="52.4396327" lon="5.8394965"/>
<trkpt lat="52.4389087" lon="5.8393682"/>
<trkpt lat="52.4367777" lon="5.8360877"/>
<trkpt lat="52.4357392" lon="5.8364186"/>
<trkpt lat="52.4357016" lon="5.8365850"/>
<trkpt lat="52.4354273" lon="5.8365458"/>
<trkpt lat="52.4354633" lon="5.8368718"/>
<trkpt lat="52.4356133" lon="5.8378641"/>
<trkpt lat="52.4357348" lon="5.8388329"/>
<trkpt lat="52.4357165" lon="5.8389547"/>
<trkpt lat="52.4357876" lon="5.8389898"/>
<trkpt lat="52.4357824" lon="5.8391035"/>
<trkpt lat="52.4357056" lon="5.8391331"/>
<trkpt lat="52.4360866" lon="5.8408263"/>
<trkpt lat="52.4364386" lon="5.8425231"/>
<trkpt lat="52.4364607" lon="5.8426086"/>
<trkpt lat="52.4364846" lon="5.8426566"/>
<trkpt lat="52.4365004" lon="5.8427287"/>
<trkpt lat="52.4369068" lon="5.8467583"/>
<trkpt lat="52.4349208" lon="5.8474612"/>
<trkpt lat="52.4349653" lon="5.8476587"/>
<trkpt lat="52.4352543" lon="5.8476355"/>
<trkpt lat="52.4360937" lon="5.8518952"/>
<trkpt lat="52.4366141" lon="5.8517183"/>
<trkpt lat="52.4366591" lon="5.8519058"/>
<trkpt lat="52.4374796" lon="5.8516034"/>
<trkpt lat="52.4387515" lon="5.8511748"/>
<trkpt lat="52.4385890" lon="5.8546610"/>
<trkpt lat="52.4385282" lon="5.8562332"/>
<trkpt lat="52.4384511" lon="5.8572018"/>
<trkpt lat="52.4384602" lon="5.8574219"/>
<trkpt lat="52.4384408" lon="5.8577197"/>
<trkpt lat="52.4387180" lon="5.8587501"/>
<trkpt lat="52.4390392" lon="5.8594326"/>
<trkpt lat="52.4394376" lon="5.8600744"/>
<trkpt lat="52.4398236" lon="5.8606962"/>
<trkpt lat="52.4394283" lon="5.8608339"/>
<trkpt lat="52.4386124" lon="5.8611296"/>
<trkpt lat="52.4379687" lon="5.8613425"/>
<trkpt lat="52.4373857" lon="5.8612206"/>
<trkpt lat="52.4368561" lon="5.8613573"/>
<trkpt lat="52.4361388" lon="5.8616077"/>
<trkpt lat="52.4354641" lon="5.8618343"/>
<trkpt lat="52.4354138" lon="5.8615676"/>
<trkpt lat="52.4349920" lon="5.8619361"/>
<trkpt lat="52.4345760" lon="5.8624871"/>
<trkpt lat="52.4343525" lon="5.8627830"/>
<trkpt lat="52.4339956" lon="5.8631827"/>
<trkpt lat="52.4337886" lon="5.8633991"/>
<trkpt lat="52.4334285" lon="5.8637140"/>
<trkpt lat="52.4330156" lon="5.8639716"/>
<trkpt lat="52.4326735" lon="5.8641850"/>
<trkpt lat="52.4323502" lon="5.8641292"/>
<trkpt lat="52.4319218" lon="5.8640757"/>
<trkpt lat="52.4315586" lon="5.8639169"/>
<trkpt lat="52.4318335" lon="5.8649635"/>
<trkpt lat="52.4316732" lon="5.8651343"/>
<trkpt lat="52.4314996" lon="5.8652360"/>
<trkpt lat="52.4314304" lon="5.8653553"/>
<trkpt lat="52.4311445" lon="5.8656155"/>
<trkpt lat="52.4309166" lon="5.8658229"/>
<trkpt lat="52.4306495" lon="5.8660660"/>
<trkpt lat="52.4303418" lon="5.8664816"/>
<trkpt lat="52.4299757" lon="5.8668736"/>
<trkpt lat="52.4299390" lon="5.8670851"/>
<trkpt lat="52.4299788" lon="5.8675152"/>
<trkpt lat="52.4300180" lon="5.8679401"/>
<trkpt lat="52.4300142" lon="5.8681219"/>
<trkpt lat="52.4299886" lon="5.8683239"/>
<trkpt lat="52.4299402" lon="5.8685372"/>
<trkpt lat="52.4299236" lon="5.8686805"/>
<trkpt lat="52.4298923" lon="5.8689507"/>
<trkpt lat="52.4298696" lon="5.8693540"/>
<trkpt lat="52.4298410" lon="5.8698621"/>
<trkpt lat="52.4298480" lon="5.8702241"/>
<trkpt lat="52.4298920" lon="5.8705456"/>
<trkpt lat="52.4299650" lon="5.8707641"/>
<trkpt lat="52.4305570" lon="5.8714621"/>
<trkpt lat="52.4308180" lon="5.8713551"/>
<trkpt lat="52.4311099" lon="5.8721673"/>
<trkpt lat="52.4315327" lon="5.8732439"/>
<trkpt lat="52.4316679" lon="5.8731333"/>
<trkpt lat="52.4317844" lon="5.8732311"/>
<trkpt lat="52.4319379" lon="5.8732377"/>
<trkpt lat="52.4320089" lon="5.8731332"/>
<trkpt lat="52.4320899" lon="5.8730542"/>
<trkpt lat="52.4322199" lon="5.8729709"/>
<trkpt lat="52.4322799" lon="5.8728032"/>
<trkpt lat="52.4323443" lon="5.8727771"/>
<trkpt lat="52.4324307" lon="5.8728054"/>
<trkpt lat="52.4325366" lon="5.8728024"/>
<trkpt lat="52.4325900" lon="5.8729888"/>
<trkpt lat="52.4327060" lon="5.8730323"/>
<trkpt lat="52.4327809" lon="5.8730012"/>
<trkpt lat="52.4328949" lon="5.8728732"/>
<trkpt lat="52.4329354" lon="5.8728862"/>
<trkpt lat="52.4330049" lon="5.8730632"/>
<trkpt lat="52.4324710" lon="5.8735969"/>
<trkpt lat="52.4320599" lon="5.8740781"/>
<trkpt lat="52.4319190" lon="5.8741951"/>
<trkpt lat="52.4308250" lon="5.8753146"/>
<trkpt lat="52.4315511" lon="5.8772458"/>
<trkpt lat="52.4316231" lon="5.8773423"/>
<trkpt lat="52.4319360" lon="5.8781871"/>
<trkpt lat="52.4321189" lon="5.8783873"/>
<trkpt lat="52.4322920" lon="5.8786561"/>
<trkpt lat="52.4324830" lon="5.8788151"/>
<trkpt lat="52.4326099" lon="5.8786923"/>
<trkpt lat="52.4327649" lon="5.8787153"/>
<trkpt lat="52.4328869" lon="5.8788893"/>
<trkpt lat="52.4329819" lon="5.8788648"/>
<trkpt lat="52.4330509" lon="5.8786933"/>
<trkpt lat="52.4331544" lon="5.8786368"/>
<trkpt lat="52.4332799" lon="5.8785803"/>
<trkpt lat="52.4335780" lon="5.8784981"/>
<trkpt lat="52.4330540" lon="5.8771441"/>
<trkpt lat="52.4345399" lon="5.8757829"/>
<trkpt lat="52.4355992" lon="5.8748125"/>
<trkpt lat="52.4361360" lon="5.8743207"/>
<trkpt lat="52.4374605" lon="5.8731075"/>
<trkpt lat="52.4388279" lon="5.8718576"/>
<trkpt lat="52.4390040" lon="5.8716971"/>
<trkpt lat="52.4390930" lon="5.8716621"/>
<trkpt lat="52.4391930" lon="5.8716811"/>
<trkpt lat="52.4392000" lon="5.8716011"/>
<trkpt lat="52.4394720" lon="5.8716301"/>
<trkpt lat="52.4393429" lon="5.8725324"/>
<trkpt lat="52.4398681" lon="5.8741842"/>
<trkpt lat="52.4401156" lon="5.8748027"/>
<trkpt lat="52.4408643" lon="5.8741502"/>
<trkpt lat="52.4410886" lon="5.8746777"/>
<trkpt lat="52.4421268" lon="5.8736428"/>
<trkpt lat="52.4433451" lon="5.8723020"/>
<trkpt lat="52.4428082" lon="5.8706822"/>
<trkpt lat="52.4432904" lon="5.8702514"/>
<trkpt lat="52.4437678" lon="5.8699010"/>
<trkpt lat="52.4436375" lon="5.8696040"/>
<trkpt lat="52.4429098" lon="5.8669584"/>
<trkpt lat="52.4430430" lon="5.8668495"/>
<trkpt lat="52.4425656" lon="5.8652938"/>
<trkpt lat="52.4439781" lon="5.8640278"/>
<trkpt lat="52.4439454" lon="5.8639098"/>
<trkpt lat="52.4440108" lon="5.8638454"/>
<trkpt lat="52.4443030" lon="5.8641311"/>
<trkpt lat="52.4448570" lon="5.8652991"/>
<trkpt lat="52.4456400" lon="5.8678701"/>
<trkpt lat="52.4458500" lon="5.8680801"/>
<trkpt lat="52.4470700" lon="5.8681501"/>
<trkpt lat="52.4481000" lon="5.8679601"/>
<trkpt lat="52.4503960" lon="5.8687161"/>
<trkpt lat="52.4509840" lon="5.8685891"/>
<trkpt lat="52.4509830" lon="5.8687581"/>
<trkpt lat="52.4508340" lon="5.8716951"/>
<trkpt lat="52.4506380" lon="5.8741591"/>
<trkpt lat="52.4506200" lon="5.8746391"/>
<trkpt lat="52.4506710" lon="5.8748311"/>
<trkpt lat="52.4507260" lon="5.8749191"/>
<trkpt lat="52.4512440" lon="5.8755021"/>
<trkpt lat="52.4520090" lon="5.8765811"/>
<trkpt lat="52.4521020" lon="5.8766641"/>
<trkpt lat="52.4525140" lon="5.8770351"/>
<trkpt lat="52.4531098" lon="5.8775945"/>
<trkpt lat="52.4536688" lon="5.8761353"/>
<trkpt lat="52.4541918" lon="5.8746118"/>
<trkpt lat="52.4543455" lon="5.8743973"/>
<trkpt lat="52.4544443" lon="5.8742938"/>
<trkpt lat="52.4544684" lon="5.8742124"/>
<trkpt lat="52.4544689" lon="5.8740956"/>
<trkpt lat="52.4542005" lon="5.8728432"/>
<trkpt lat="52.4542324" lon="5.8726217"/>
<trkpt lat="52.4543067" lon="5.8724785"/>
<trkpt lat="52.4544643" lon="5.8723011"/>
<trkpt lat="52.4547385" lon="5.8721212"/>
<trkpt lat="52.4548483" lon="5.8720290"/>
<trkpt lat="52.4548900" lon="5.8719201"/>
<trkpt lat="52.4549696" lon="5.8708548"/>
<trkpt lat="52.4550059" lon="5.8707111"/>
<trkpt lat="52.4551001" lon="5.8706653"/>
<trkpt lat="52.4554626" lon="5.8706616"/>
<trkpt lat="52.4555633" lon="5.8704681"/>
<trkpt lat="52.4558359" lon="5.8695252"/>
<trkpt lat="52.4559199" lon="5.8693276"/>
<trkpt lat="52.4558091" lon="5.8690812"/>
<trkpt lat="52.4558142" lon="5.8690034"/>
<trkpt lat="52.4558862" lon="5.8688290"/>
<trkpt lat="52.4560877" lon="5.8684186"/>
<trkpt lat="52.4564866" lon="5.8679753"/>
<trkpt lat="52.4566064" lon="5.8677508"/>
<trkpt lat="52.4568822" lon="5.8671816"/>
<trkpt lat="52.4572830" lon="5.8662556"/>
<trkpt lat="52.4581290" lon="5.8646298"/>
<trkpt lat="52.4585893" lon="5.8635946"/>
<trkpt lat="52.4587027" lon="5.8632968"/>
<trkpt lat="52.4587391" lon="5.8631259"/>
<trkpt lat="52.4587641" lon="5.8628109"/>
<trkpt lat="52.4587756" lon="5.8627225"/>
<trkpt lat="52.4576406" lon="5.8618284"/>
<trkpt lat="52.4574542" lon="5.8616675"/>
<trkpt lat="52.4571731" lon="5.8609916"/>
<trkpt lat="52.4569312" lon="5.8586473"/>
<trkpt lat="52.4568980" lon="5.8584341"/>
<trkpt lat="52.4568530" lon="5.8583451"/>
<trkpt lat="52.4563350" lon="5.8564331"/>
<trkpt lat="52.4561400" lon="5.8557511"/>
<trkpt lat="52.4561380" lon="5.8555031"/>
<trkpt lat="52.4556700" lon="5.8533301"/>
<trkpt lat="52.4554600" lon="5.8529401"/>
<trkpt lat="52.4550300" lon="5.8524801"/>
<trkpt lat="52.4545000" lon="5.8518401"/>
<trkpt lat="52.4541500" lon="5.8515201"/>
<trkpt lat="52.4535800" lon="5.8511701"/>
<trkpt lat="52.4531400" lon="5.8504091"/>
<trkpt lat="52.4528130" lon="5.8496701"/>
<trkpt lat="52.4527500" lon="5.8494601"/>
<trkpt lat="52.4527200" lon="5.8493201"/>
<trkpt lat="52.4526700" lon="5.8483401"/>
<trkpt lat="52.4525200" lon="5.8477701"/>
<trkpt lat="52.4523800" lon="5.8476201"/>
<trkpt lat="52.4513800" lon="5.8468601"/>
<trkpt lat="52.4512700" lon="5.8467501"/>
<trkpt lat="52.4511900" lon="5.8466101"/>
<trkpt lat="52.4511900" lon="5.8465401"/>
<trkpt lat="52.4519300" lon="5.8437201"/>
<trkpt lat="52.4518970" lon="5.8436941"/>
<trkpt lat="52.4509010" lon="5.8429041"/>
<trkpt lat="52.4511260" lon="5.8414461"/>
<trkpt lat="52.4509780" lon="5.8398431"/>
<trkpt lat="52.4505810" lon="5.8382021"/>
<trkpt lat="52.4500520" lon="5.8355181"/>
<trkpt lat="52.4500440" lon="5.8353441"/>
<trkpt lat="52.4497300" lon="5.8353101"/>
<trkpt lat="52.4496210" lon="5.8352531"/>
<trkpt lat="52.4496480" lon="5.8351861"/>
<trkpt lat="52.4501950" lon="5.8338851"/>
<trkpt lat="52.4505700" lon="5.8329571"/>
<trkpt lat="52.4505930" lon="5.8327091"/>
<trkpt lat="52.4505160" lon="5.8325221"/>
<trkpt lat="52.4497160" lon="5.8316391"/>
<trkpt lat="52.4494903" lon="5.8313753"/>
<trkpt lat="52.4496740" lon="5.8309091"/>
<trkpt lat="52.4497400" lon="5.8307471"/>
<trkpt lat="52.4495160" lon="5.8304271"/>
<trkpt lat="52.4494960" lon="5.8302631"/>
<trkpt lat="52.4494972" lon="5.8301970"/>
</trkseg></trk>
<trk><name>Vrijheijtpad - Routeverkorter</name><type>shorteningRoute</type><trkseg>
<trkpt lat="52.4443030" lon="5.8641311"/>
<trkpt lat="52.4443294" lon="5.8640337"/>
<trkpt lat="52.4443114" lon="5.8638619"/>
<trkpt lat="52.4443454" lon="5.8636521"/>
<trkpt lat="52.4442834" lon="5.8633571"/>
<trkpt lat="52.4441711" lon="5.8632798"/>
<trkpt lat="52.4440714" lon="5.8629821"/>
<trkpt lat="52.4440014" lon="5.8629021"/>
<trkpt lat="52.4438014" lon="5.8619701"/>
<trkpt lat="52.4436054" lon="5.8615231"/>
<trkpt lat="52.4437214" lon="5.8604301"/>
<trkpt lat="52.4437114" lon="5.8590001"/>
<trkpt lat="52.4436414" lon="5.8585401"/>
<trkpt lat="52.4433696" lon="5.8577531"/>
<trkpt lat="52.4430714" lon="5.8568901"/>
<trkpt lat="52.4427114" lon="5.8560801"/>
<trkpt lat="52.4425984" lon="5.8560041"/>
<trkpt lat="52.4424794" lon="5.8560021"/>
<trkpt lat="52.4424054" lon="5.8561091"/>
<trkpt lat="52.4423964" lon="5.8561104"/>
<trkpt lat="52.4407346" lon="5.8566299"/>
<trkpt lat="52.4402534" lon="5.8567858"/>
<trkpt lat="52.4392580" lon="5.8571389"/>
<trkpt lat="52.4384602" lon="5.8574219"/>
</trkseg></trk>
<trk><name>Vrijheijtpad - Aanlooproute</name><type>approachRoute</type><trkseg>
<trkpt lat="52.4495060" lon="5.8300621"/>
<trkpt lat="52.4498136" lon="5.8295224"/>
<trkpt lat="52.4500786" lon="5.8292415"/>
<trkpt lat="52.4501697" lon="5.8293863"/>
<trkpt lat="52.4502262" lon="5.8294559"/>
<trkpt lat="52.4503421" lon="5.8293080"/>
<trkpt lat="52.4498298" lon="5.8284829"/>
<trkpt lat="52.4497640" lon="5.8284822"/>
</trkseg></trk>
</gpx>