<?xml version="1.0" encoding="UTF-8"?>
<gpx version="1.1" creator="klompenpaden.nl via Jimbo API" xmlns="http://www.topografix.com/GPX/1/1">
<metadata><name>Vurensche Polderpad</name><desc>Ontdek het mooie buitengebied van de gemeente West-Betuwe. Wandel langs de voormalige Hollandse Waterlinie, Waal en Linge en over historische dijken en paden. Laat je verrassen door dit bijzondere afwisselende landschap. Klompen aan, rugzak op en gaan!</desc><link href="https://www.klompenpaden.nl/klompenpaden/Vurensche_Polderpad/41eaa45d-6366-432b-9f87-5912267b412d"><text>klompenpaden.nl</text></link></metadata>
<wpt lat="51.821442182009875" lon="5.028841495513917"><name>Start Vuren</name></wpt>
<trk><name>Vurensche Polderpad - Hoofdroute</name><type>mainRoute</type><trkseg>
<trkpt lat="51.8214943" lon="5.0287571"/>
<trkpt lat="51.8212502" lon="5.0292827"/>
<trkpt lat="51.8211444" lon="5.0300881"/>
<trkpt lat="51.8212868" lon="5.0307244"/>
<trkpt lat="51.8217084" lon="5.0311892"/>
<trkpt lat="51.8215312" lon="5.0320199"/>
<trkpt lat="51.8215272" lon="5.0321223"/>
<trkpt lat="51.8213938" lon="5.0323623"/>
<trkpt lat="51.8212863" lon="5.0325708"/>
<trkpt lat="51.8210614" lon="5.0331552"/>
<trkpt lat="51.8204247" lon="5.0349638"/>
<trkpt lat="51.8203591" lon="5.0352675"/>
<trkpt lat="51.8202053" lon="5.0371145"/>
<trkpt lat="51.8202057" lon="5.0372680"/>
<trkpt lat="51.8201532" lon="5.0377168"/>
<trkpt lat="51.8200332" lon="5.0384475"/>
<trkpt lat="51.8199838" lon="5.0386129"/>
<trkpt lat="51.8199723" lon="5.0387511"/>
<trkpt lat="51.8200350" lon="5.0390307"/>
<trkpt lat="51.8200594" lon="5.0392570"/>
<trkpt lat="51.8200433" lon="5.0394490"/>
<trkpt lat="51.8200222" lon="5.0395527"/>
<trkpt lat="51.8200546" lon="5.0398452"/>
<trkpt lat="51.8199934" lon="5.0400315"/>
<trkpt lat="51.8199028" lon="5.0407802"/>
<trkpt lat="51.8197861" lon="5.0421362"/>
<trkpt lat="51.8196693" lon="5.0434195"/>
<trkpt lat="51.8195585" lon="5.0437061"/>
<trkpt lat="51.8195251" lon="5.0438995"/>
<trkpt lat="51.8195932" lon="5.0439167"/>
<trkpt lat="51.8198403" lon="5.0437374"/>
<trkpt lat="51.8204572" lon="5.0431831"/>
<trkpt lat="51.8215509" lon="5.0435447"/>
<trkpt lat="51.8219147" lon="5.0436312"/>
<trkpt lat="51.8221270" lon="5.0437500"/>
<trkpt lat="51.8225195" lon="5.0438853"/>
<trkpt lat="51.8227164" lon="5.0439534"/>
<trkpt lat="51.8226692" lon="5.0449234"/>
<trkpt lat="51.8226526" lon="5.0451796"/>
<trkpt lat="51.8224365" lon="5.0458432"/>
<trkpt lat="51.8221617" lon="5.0465871"/>
<trkpt lat="51.8223505" lon="5.0469938"/>
<trkpt lat="51.8221812" lon="5.0476117"/>
<trkpt lat="51.8221866" lon="5.0478034"/>
<trkpt lat="51.8222489" lon="5.0479057"/>
<trkpt lat="51.8227563" lon="5.0482088"/>
<trkpt lat="51.8233615" lon="5.0485880"/>
<trkpt lat="51.8232843" lon="5.0492685"/>
<trkpt lat="51.8240465" lon="5.0497275"/>
<trkpt lat="51.8242517" lon="5.0497171"/>
<trkpt lat="51.8243822" lon="5.0497393"/>
<trkpt lat="51.8244876" lon="5.0496368"/>
<trkpt lat="51.8245862" lon="5.0495920"/>
<trkpt lat="51.8248389" lon="5.0495978"/>
<trkpt lat="51.8261603" lon="5.0493192"/>
<trkpt lat="51.8270875" lon="5.0491895"/>
<trkpt lat="51.8271071" lon="5.0494042"/>
<trkpt lat="51.8273260" lon="5.0494410"/>
<trkpt lat="51.8281629" lon="5.0493656"/>
<trkpt lat="51.8287288" lon="5.0493153"/>
<trkpt lat="51.8295798" lon="5.0491784"/>
<trkpt lat="51.8308778" lon="5.0490305"/>
<trkpt lat="51.8309637" lon="5.0491143"/>
<trkpt lat="51.8311680" lon="5.0490437"/>
<trkpt lat="51.8314578" lon="5.0489264"/>
<trkpt lat="51.8315477" lon="5.0487491"/>
<trkpt lat="51.8315475" lon="5.0486877"/>
<trkpt lat="51.8317948" lon="5.0486859"/>
<trkpt lat="51.8321147" lon="5.0488381"/>
<trkpt lat="51.8322413" lon="5.0490350"/>
<trkpt lat="51.8328337" lon="5.0493613"/>
<trkpt lat="51.8353650" lon="5.0513462"/>
<trkpt lat="51.8363232" lon="5.0520915"/>
<trkpt lat="51.8365128" lon="5.0518674"/>
<trkpt lat="51.8367413" lon="5.0519348"/>
<trkpt lat="51.8370883" lon="5.0518785"/>
<trkpt lat="51.8373737" lon="5.0517525"/>
<trkpt lat="51.8381584" lon="5.0509367"/>
<trkpt lat="51.8384325" lon="5.0507255"/>
<trkpt lat="51.8386368" lon="5.0506104"/>
<trkpt lat="51.8388966" lon="5.0505481"/>
<trkpt lat="51.8403140" lon="5.0505470"/>
<trkpt lat="51.8405796" lon="5.0505979"/>
<trkpt lat="51.8408757" lon="5.0506832"/>
<trkpt lat="51.8411293" lon="5.0508870"/>
<trkpt lat="51.8413724" lon="5.0511704"/>
<trkpt lat="51.8416498" lon="5.0517619"/>
<trkpt lat="51.8418238" lon="5.0522956"/>
<trkpt lat="51.8420421" lon="5.0529481"/>
<trkpt lat="51.8421973" lon="5.0532266"/>
<trkpt lat="51.8424677" lon="5.0535278"/>
<trkpt lat="51.8428135" lon="5.0537982"/>
<trkpt lat="51.8436150" lon="5.0540526"/>
<trkpt lat="51.8447133" lon="5.0543139"/>
<trkpt lat="51.8455907" lon="5.0545170"/>
<trkpt lat="51.8452194" lon="5.0493990"/>
<trkpt lat="51.8451916" lon="5.0489008"/>
<trkpt lat="51.8451859" lon="5.0485612"/>
<trkpt lat="51.8451923" lon="5.0482550"/>
<trkpt lat="51.8489479" lon="5.0492405"/>
<trkpt lat="51.8492127" lon="5.0493737"/>
<trkpt lat="51.8492329" lon="5.0490464"/>
<trkpt lat="51.8487577" lon="5.0475217"/>
<trkpt lat="51.8487609" lon="5.0469841"/>
<trkpt lat="51.8488127" lon="5.0467994"/>
<trkpt lat="51.8488174" lon="5.0444438"/>
<trkpt lat="51.8486596" lon="5.0444433"/>
<trkpt lat="51.8487024" lon="5.0423764"/>
<trkpt lat="51.8484662" lon="5.0420734"/>
<trkpt lat="51.8484176" lon="5.0418642"/>
<trkpt lat="51.8484261" lon="5.0415492"/>
<trkpt lat="51.8485079" lon="5.0402584"/>
<trkpt lat="51.8485340" lon="5.0394287"/>
<trkpt lat="51.8487602" lon="5.0387128"/>
<trkpt lat="51.8487830" lon="5.0367773"/>
<trkpt lat="51.8486106" lon="5.0364100"/>
<trkpt lat="51.8484964" lon="5.0363878"/>
<trkpt lat="51.8489415" lon="5.0325367"/>
<trkpt lat="51.8489199" lon="5.0301177"/>
<trkpt lat="51.8494039" lon="5.0297452"/>
<trkpt lat="51.8494940" lon="5.0265419"/>
<trkpt lat="51.8472394" lon="5.0265139"/>
<trkpt lat="51.8472273" lon="5.0272282"/>
<trkpt lat="51.8460144" lon="5.0272379"/>
<trkpt lat="51.8457599" lon="5.0280002"/>
<trkpt lat="51.8449323" lon="5.0280068"/>
<trkpt lat="51.8448775" lon="5.0287214"/>
<trkpt lat="51.8446374" lon="5.0295527"/>
<trkpt lat="51.8443443" lon="5.0316975"/>
<trkpt lat="51.8445880" lon="5.0320872"/>
<trkpt lat="51.8446338" lon="5.0330544"/>
<trkpt lat="51.8446374" lon="5.0342754"/>
<trkpt lat="51.8447116" lon="5.0352193"/>
<trkpt lat="51.8445704" lon="5.0357042"/>
<trkpt lat="51.8443711" lon="5.0358670"/>
<trkpt lat="51.8441724" lon="5.0362141"/>
<trkpt lat="51.8440748" lon="5.0369982"/>
<trkpt lat="51.8440658" lon="5.0387721"/>
<trkpt lat="51.8443181" lon="5.0420415"/>
<trkpt lat="51.8440957" lon="5.0440705"/>
<trkpt lat="51.8441532" lon="5.0442082"/>
<trkpt lat="51.8454965" lon="5.0448892"/>
<trkpt lat="51.8451616" lon="5.0483759"/>
<trkpt lat="51.8450792" lon="5.0484384"/>
<trkpt lat="51.8451674" lon="5.0498746"/>
<trkpt lat="51.8453068" lon="5.0520397"/>
<trkpt lat="51.8454472" lon="5.0541078"/>
<trkpt lat="51.8454368" lon="5.0542338"/>
<trkpt lat="51.8453486" lon="5.0543065"/>
<trkpt lat="51.8447331" lon="5.0541666"/>
<trkpt lat="51.8434120" lon="5.0538441"/>
<trkpt lat="51.8427435" lon="5.0536145"/>
<trkpt lat="51.8425301" lon="5.0534581"/>
<trkpt lat="51.8424181" lon="5.0533399"/>
<trkpt lat="51.8421520" lon="5.0530245"/>
<trkpt lat="51.8420506" lon="5.0528056"/>
<trkpt lat="51.8418405" lon="5.0521518"/>
<trkpt lat="51.8416693" lon="5.0516458"/>
<trkpt lat="51.8414763" lon="5.0512033"/>
<trkpt lat="51.8412907" lon="5.0509073"/>
<trkpt lat="51.8411280" lon="5.0507388"/>
<trkpt lat="51.8406055" lon="5.0504893"/>
<trkpt lat="51.8388841" lon="5.0504319"/>
<trkpt lat="51.8386682" lon="5.0504730"/>
<trkpt lat="51.8383966" lon="5.0506228"/>
<trkpt lat="51.8379365" lon="5.0510214"/>
<trkpt lat="51.8372742" lon="5.0517329"/>
<trkpt lat="51.8372353" lon="5.0514956"/>
<trkpt lat="51.8379910" lon="5.0507065"/>
<trkpt lat="51.8384424" lon="5.0502983"/>
<trkpt lat="51.8386329" lon="5.0501648"/>
<trkpt lat="51.8387627" lon="5.0498030"/>
<trkpt lat="51.8392324" lon="5.0500811"/>
<trkpt lat="51.8392943" lon="5.0465948"/>
<trkpt lat="51.8389941" lon="5.0463897"/>
<trkpt lat="51.8392767" lon="5.0405598"/>
<trkpt lat="51.8393788" lon="5.0404062"/>
<trkpt lat="51.8394445" lon="5.0405113"/>
<trkpt lat="51.8396681" lon="5.0405360"/>
<trkpt lat="51.8397209" lon="5.0399282"/>
<trkpt lat="51.8384684" lon="5.0374564"/>
<trkpt lat="51.8366319" lon="5.0341077"/>
<trkpt lat="51.8355429" lon="5.0325731"/>
<trkpt lat="51.8347372" lon="5.0304143"/>
<trkpt lat="51.8347643" lon="5.0299304"/>
<trkpt lat="51.8343076" lon="5.0299110"/>
<trkpt lat="51.8337800" lon="5.0300304"/>
<trkpt lat="51.8327803" lon="5.0297389"/>
<trkpt lat="51.8260404" lon="5.0281343"/>
<trkpt lat="51.8242840" lon="5.0277338"/>
<trkpt lat="51.8221751" lon="5.0272231"/>
<trkpt lat="51.8221893" lon="5.0276623"/>
<trkpt lat="51.8222899" lon="5.0279787"/>
<trkpt lat="51.8224457" lon="5.0283070"/>
<trkpt lat="51.8224647" lon="5.0284688"/>
<trkpt lat="51.8223862" lon="5.0285821"/>
<trkpt lat="51.8222893" lon="5.0286354"/>
<trkpt lat="51.8217287" lon="5.0286328"/>
<trkpt lat="51.8215123" lon="5.0287518"/>
</trkseg></trk>
<trk><name>Vurensche Polderpad - Routeverlenger</name><type>extensionRoute</type><trkseg>
<trkpt lat="51.8488146" lon="5.0468564"/>
<trkpt lat="51.8495257" lon="5.0467814"/>
<trkpt lat="51.8497617" lon="5.0462188"/>
<trkpt lat="51.8502294" lon="5.0461297"/>
<trkpt lat="51.8508660" lon="5.0464670"/>
<trkpt lat="51.8512461" lon="5.0466352"/>
<trkpt lat="51.8520855" lon="5.0468570"/>
<trkpt lat="51.8523153" lon="5.0469550"/>
<trkpt lat="51.8524578" lon="5.0473817"/>
<trkpt lat="51.8527054" lon="5.0474939"/>
<trkpt lat="51.8543302" lon="5.0470478"/>
<trkpt lat="51.8544481" lon="5.0470095"/>
<trkpt lat="51.8544920" lon="5.0469681"/>
<trkpt lat="51.8545267" lon="5.0469865"/>
<trkpt lat="51.8546060" lon="5.0471840"/>
<trkpt lat="51.8547496" lon="5.0472128"/>
<trkpt lat="51.8549022" lon="5.0471818"/>
<trkpt lat="51.8551149" lon="5.0471054"/>
<trkpt lat="51.8551694" lon="5.0475161"/>
<trkpt lat="51.8551742" lon="5.0475871"/>
<trkpt lat="51.8550503" lon="5.0479730"/>
<trkpt lat="51.8550509" lon="5.0481748"/>
<trkpt lat="51.8552257" lon="5.0493919"/>
<trkpt lat="51.8555388" lon="5.0512284"/>
<trkpt lat="51.8558135" lon="5.0518020"/>
<trkpt lat="51.8561853" lon="5.0531298"/>
<trkpt lat="51.8562531" lon="5.0533722"/>
<trkpt lat="51.8564389" lon="5.0544061"/>
<trkpt lat="51.8540818" lon="5.0556831"/>
<trkpt lat="51.8536218" lon="5.0558770"/>
<trkpt lat="51.8533049" lon="5.0559504"/>
<trkpt lat="51.8529740" lon="5.0559752"/>
<trkpt lat="51.8528179" lon="5.0547730"/>
<trkpt lat="51.8526796" lon="5.0533464"/>
<trkpt lat="51.8526027" lon="5.0515456"/>
<trkpt lat="51.8524431" lon="5.0499659"/>
<trkpt lat="51.8524148" lon="5.0489795"/>
<trkpt lat="51.8520629" lon="5.0489335"/>
<trkpt lat="51.8511898" lon="5.0487458"/>
<trkpt lat="51.8511159" lon="5.0487762"/>
<trkpt lat="51.8508149" lon="5.0495633"/>
<trkpt lat="51.8505941" lon="5.0500433"/>
<trkpt lat="51.8504328" lon="5.0502799"/>
<trkpt lat="51.8502389" lon="5.0504608"/>
<trkpt lat="51.8499544" lon="5.0505115"/>
<trkpt lat="51.8496857" lon="5.0504238"/>
<trkpt lat="51.8495556" lon="5.0502715"/>
<trkpt lat="51.8493734" lon="5.0496899"/>
<trkpt lat="51.8492872" lon="5.0494701"/>
<trkpt lat="51.8492106" lon="5.0493884"/>
</trkseg></trk>
<trk><name>Vurensche Polderpad - Hoogwaterroute</name><type>alternativeRoute</type><trkseg>
<trkpt lat="51.8217084" lon="5.0311892"/>
<trkpt lat="51.8218617" lon="5.0313546"/>
<trkpt lat="51.8220762" lon="5.0314767"/>
<trkpt lat="51.8222585" lon="5.0314744"/>
<trkpt lat="51.8224237" lon="5.0313883"/>
<trkpt lat="51.8227486" lon="5.0311781"/>
<trkpt lat="51.8228930" lon="5.0311812"/>
<trkpt lat="51.8229799" lon="5.0312526"/>
<trkpt lat="51.8231933" lon="5.0316478"/>
<trkpt lat="51.8234774" lon="5.0322740"/>
<trkpt lat="51.8235939" lon="5.0327000"/>
<trkpt lat="51.8236501" lon="5.0329441"/>
<trkpt lat="51.8236646" lon="5.0342249"/>
<trkpt lat="51.8237188" lon="5.0352025"/>
<trkpt lat="51.8236964" lon="5.0362873"/>
<trkpt lat="51.8238037" lon="5.0379187"/>
<trkpt lat="51.8238034" lon="5.0392651"/>
<trkpt lat="51.8238074" lon="5.0398987"/>
<trkpt lat="51.8236519" lon="5.0414082"/>
<trkpt lat="51.8235739" lon="5.0417393"/>
<trkpt lat="51.8233939" lon="5.0422262"/>
<trkpt lat="51.8230333" lon="5.0429590"/>
<trkpt lat="51.8227687" lon="5.0436669"/>
<trkpt lat="51.8227117" lon="5.0438981"/>
</trkseg></trk>
<trk><name>Vurensche Polderpad - Overstap Jordenpad</name><type>connectionRoute</type><trkseg>
<trkpt lat="51.8120944" lon="5.0611094"/>
<trkpt lat="51.8121253" lon="5.0604764"/>
<trkpt lat="51.8123936" lon="5.0577733"/>
<trkpt lat="51.8122004" lon="5.0567004"/>
<trkpt lat="51.8121707" lon="5.0563169"/>
<trkpt lat="51.8121681" lon="5.0553808"/>
<trkpt lat="51.8121940" lon="5.0544598"/>
<trkpt lat="51.8119090" lon="5.0512389"/>
<trkpt lat="51.8117820" lon="5.0500888"/>
<trkpt lat="51.8114523" lon="5.0479120"/>
<trkpt lat="51.8113831" lon="5.0469917"/>
<trkpt lat="51.8114081" lon="5.0457945"/>
<trkpt lat="51.8119378" lon="5.0414932"/>
<trkpt lat="51.8123995" lon="5.0400163"/>
<trkpt lat="51.8127388" lon="5.0389241"/>
<trkpt lat="51.8130752" lon="5.0368956"/>
<trkpt lat="51.8140750" lon="5.0314265"/>
<trkpt lat="51.8141870" lon="5.0291618"/>
<trkpt lat="51.8149648" lon="5.0268534"/>
<trkpt lat="51.8151053" lon="5.0261424"/>
<trkpt lat="51.8153416" lon="5.0256417"/>
<trkpt lat="51.8157689" lon="5.0254080"/>
<trkpt lat="51.8170572" lon="5.0228843"/>
<trkpt lat="51.8171151" lon="5.0223850"/>
<trkpt lat="51.8175872" lon="5.0212299"/>
<trkpt lat="51.8173470" lon="5.0204836"/>
<trkpt lat="51.8177470" lon="5.0203794"/>
<trkpt lat="51.8180898" lon="5.0204687"/>
<trkpt lat="51.8183167" lon="5.0200371"/>
<trkpt lat="51.8186618" lon="5.0208632"/>
<trkpt lat="51.8204172" lon="5.0286775"/>
<trkpt lat="51.8208738" lon="5.0286738"/>
<trkpt lat="51.8210640" lon="5.0286416"/>
<trkpt lat="51.8213410" lon="5.0287082"/>
<trkpt lat="51.8214269" lon="5.0287920"/>
<trkpt lat="51.8215123" lon="5.0287518"/>
</trkseg></trk>
<trk><name>Vurensche Polderpad - Overstap Merckenburgsepad</name><type>connectionRoute</type><trkseg>
<trkpt lat="51.8606252" lon="5.0643974"/>
<trkpt lat="51.8604694" lon="5.0642597"/>
<trkpt lat="51.8597382" lon="5.0637442"/>
<trkpt lat="51.8590535" lon="5.0628174"/>
<trkpt lat="51.8581058" lon="5.0602999"/>
<trkpt lat="51.8577809" lon="5.0605265"/>
<trkpt lat="51.8575610" lon="5.0606479"/>
<trkpt lat="51.8574313" lon="5.0604865"/>
<trkpt lat="51.8571344" lon="5.0596111"/>
<trkpt lat="51.8570395" lon="5.0579178"/>
<trkpt lat="51.8567488" lon="5.0561117"/>
<trkpt lat="51.8564152" lon="5.0545188"/>
</trkseg></trk>
<trk><name>Vurensche Polderpad - Overstaproute Engelenburgerpad</name><type>connectionRoute</type><trkseg>
<trkpt lat="51.8321222" lon="5.0488815"/>
<trkpt lat="51.8318771" lon="5.0506323"/>
<trkpt lat="51.8318781" lon="5.0509854"/>
<trkpt lat="51.8327173" lon="5.0585049"/>
<trkpt lat="51.8335445" lon="5.0656043"/>
<trkpt lat="51.8335556" lon="5.0658481"/>
<trkpt lat="51.8334834" lon="5.0661345"/>
<trkpt lat="51.8329857" lon="5.0670125"/>
<trkpt lat="51.8334776" lon="5.0678163"/>
<trkpt lat="51.8338241" lon="5.0687893"/>
<trkpt lat="51.8339726" lon="5.0697720"/>
<trkpt lat="51.8340435" lon="5.0709488"/>
<trkpt lat="51.8304347" lon="5.0714702"/>
<trkpt lat="51.8303256" lon="5.0716139"/>
<trkpt lat="51.8301554" lon="5.0722457"/>
<trkpt lat="51.8300518" lon="5.0724482"/>
<trkpt lat="51.8298488" lon="5.0725085"/>
<trkpt lat="51.8290571" lon="5.0725645"/>
<trkpt lat="51.8286673" lon="5.0729119"/>
<trkpt lat="51.8284580" lon="5.0725855"/>
<trkpt lat="51.8278284" lon="5.0728673"/>
<trkpt lat="51.8281590" lon="5.0737562"/>
<trkpt lat="51.8283750" lon="5.0746460"/>
<trkpt lat="51.8284449" lon="5.0754863"/>
<trkpt lat="51.8287915" lon="5.0765096"/>
<trkpt lat="51.8288448" lon="5.0769717"/>
<trkpt lat="51.8288072" lon="5.0785190"/>
<trkpt lat="51.8290859" lon="5.0795008"/>
<trkpt lat="51.8291972" lon="5.0802400"/>
<trkpt lat="51.8291732" lon="5.0810137"/>
<trkpt lat="51.8291009" lon="5.0812832"/>
<trkpt lat="51.8292744" lon="5.0818790"/>
<trkpt lat="51.8294129" lon="5.0830468"/>
<trkpt lat="51.8293734" lon="5.0839131"/>
<trkpt lat="51.8292245" lon="5.0847380"/>
<trkpt lat="51.8294819" lon="5.0855771"/>
<trkpt lat="51.8296467" lon="5.0868625"/>
<trkpt lat="51.8298794" lon="5.0882146"/>
<trkpt lat="51.8300163" lon="5.0887770"/>
<trkpt lat="51.8301946" lon="5.0892719"/>
<trkpt lat="51.8302338" lon="5.0903227"/>
<trkpt lat="51.8301136" lon="5.0922658"/>
<trkpt lat="51.8300233" lon="5.0930085"/>
</trkseg></trk>
</gpx>