<?xml version="1.0" encoding="UTF-8"?>
<gpx version="1.1" creator="klompenpaden.nl via Jimbo API" xmlns="http://www.topografix.com/GPX/1/1">
<metadata><name>Vuylcoppad</name><desc>Ontdek het mooie buitengebied van Schalkwijk. Wandelen door het weidelandschap, langs forten en langs Het Verdronken Bos. Geniet van weidse uitzichten, de rust en ontdek de Nieuwe Hollandse Waterlinie. Klompen aan, rugzak op en gaan! </desc><link href="https://www.klompenpaden.nl/klompenpaden/Vuylcoppad/76a32ead-ce84-4779-9ed0-ef59d6537069"><text>klompenpaden.nl</text></link></metadata>
<wpt lat="51.99213465524216" lon="5.19254207611084"><name>Start Schalkwijk</name></wpt>
<trk><name>Vuylcoppad - Geimporteerde shapefile</name><type>mainRoute</type><trkseg>
<trkpt lat="51.9916758" lon="5.1931502"/>
<trkpt lat="51.9919211" lon="5.1923829"/>
<trkpt lat="51.9921650" lon="5.1920810"/>
<trkpt lat="51.9921644" lon="5.1917169"/>
<trkpt lat="51.9923709" lon="5.1910911"/>
<trkpt lat="51.9926955" lon="5.1900905"/>
<trkpt lat="51.9931958" lon="5.1885358"/>
<trkpt lat="51.9930847" lon="5.1883657"/>
<trkpt lat="51.9934097" lon="5.1872060"/>
<trkpt lat="51.9938583" lon="5.1856446"/>
<trkpt lat="51.9940434" lon="5.1849944"/>
<trkpt lat="51.9944013" lon="5.1838562"/>
<trkpt lat="51.9941163" lon="5.1834747"/>
<trkpt lat="51.9934030" lon="5.1822223"/>
<trkpt lat="51.9925593" lon="5.1807365"/>
<trkpt lat="51.9918458" lon="5.1794963"/>
<trkpt lat="51.9911804" lon="5.1782843"/>
<trkpt lat="51.9909109" lon="5.1778057"/>
<trkpt lat="51.9904030" lon="5.1769235"/>
<trkpt lat="51.9898706" lon="5.1759708"/>
<trkpt lat="51.9892684" lon="5.1748934"/>
<trkpt lat="51.9887418" lon="5.1739560"/>
<trkpt lat="51.9883725" lon="5.1733016"/>
<trkpt lat="51.9877930" lon="5.1722793"/>
<trkpt lat="51.9868889" lon="5.1706980"/>
<trkpt lat="51.9862535" lon="5.1696232"/>
<trkpt lat="51.9868094" lon="5.1678710"/>
<trkpt lat="51.9864487" lon="5.1652280"/>
<trkpt lat="51.9865895" lon="5.1652262"/>
<trkpt lat="51.9865593" lon="5.1650144"/>
<trkpt lat="51.9853058" lon="5.1607479"/>
<trkpt lat="51.9857296" lon="5.1608121"/>
<trkpt lat="51.9860150" lon="5.1608415"/>
<trkpt lat="51.9863478" lon="5.1607704"/>
<trkpt lat="51.9865521" lon="5.1606693"/>
<trkpt lat="51.9869297" lon="5.1603746"/>
<trkpt lat="51.9867685" lon="5.1600384"/>
<trkpt lat="51.9871157" lon="5.1597285"/>
<trkpt lat="51.9873147" lon="5.1596457"/>
<trkpt lat="51.9875764" lon="5.1596829"/>
<trkpt lat="51.9880343" lon="5.1597431"/>
<trkpt lat="51.9883792" lon="5.1597847"/>
<trkpt lat="51.9889441" lon="5.1598348"/>
<trkpt lat="51.9898361" lon="5.1599507"/>
<trkpt lat="51.9904041" lon="5.1600296"/>
<trkpt lat="51.9911593" lon="5.1601221"/>
<trkpt lat="51.9919621" lon="5.1602047"/>
<trkpt lat="51.9923754" lon="5.1602701"/>
<trkpt lat="51.9937966" lon="5.1604333"/>
<trkpt lat="51.9964905" lon="5.1607376"/>
<trkpt lat="51.9978463" lon="5.1609137"/>
<trkpt lat="51.9992557" lon="5.1610704"/>
<trkpt lat="51.9999618" lon="5.1592705"/>
<trkpt lat="52.0003645" lon="5.1583689"/>
<trkpt lat="52.0010995" lon="5.1573327"/>
<trkpt lat="52.0014848" lon="5.1568573"/>
<trkpt lat="52.0017306" lon="5.1563009"/>
<trkpt lat="52.0021798" lon="5.1555098"/>
<trkpt lat="52.0017885" lon="5.1549987"/>
<trkpt lat="52.0024771" lon="5.1537130"/>
<trkpt lat="52.0030161" lon="5.1526983"/>
<trkpt lat="52.0037680" lon="5.1537712"/>
<trkpt lat="52.0040664" lon="5.1542515"/>
<trkpt lat="52.0048788" lon="5.1547807"/>
<trkpt lat="52.0052248" lon="5.1554967"/>
<trkpt lat="52.0049758" lon="5.1561012"/>
<trkpt lat="52.0044046" lon="5.1574879"/>
<trkpt lat="52.0039122" lon="5.1586934"/>
<trkpt lat="52.0034418" lon="5.1598421"/>
<trkpt lat="52.0028174" lon="5.1613432"/>
<trkpt lat="52.0022760" lon="5.1626608"/>
<trkpt lat="52.0018795" lon="5.1636453"/>
<trkpt lat="52.0017049" lon="5.1640555"/>
<trkpt lat="52.0012729" lon="5.1650980"/>
<trkpt lat="52.0009089" lon="5.1660052"/>
<trkpt lat="52.0006662" lon="5.1665747"/>
<trkpt lat="52.0003763" lon="5.1672986"/>
<trkpt lat="51.9998051" lon="5.1686740"/>
<trkpt lat="51.9993493" lon="5.1697646"/>
<trkpt lat="51.9991333" lon="5.1703002"/>
<trkpt lat="51.9986095" lon="5.1715549"/>
<trkpt lat="51.9981509" lon="5.1727322"/>
<trkpt lat="51.9976981" lon="5.1738709"/>
<trkpt lat="51.9975354" lon="5.1742810"/>
<trkpt lat="51.9970338" lon="5.1754639"/>
<trkpt lat="51.9967159" lon="5.1765146"/>
<trkpt lat="51.9965978" lon="5.1769389"/>
<trkpt lat="51.9964442" lon="5.1774636"/>
<trkpt lat="51.9963297" lon="5.1773139"/>
<trkpt lat="51.9962730" lon="5.1775145"/>
<trkpt lat="51.9960271" lon="5.1783247"/>
<trkpt lat="51.9957151" lon="5.1793817"/>
<trkpt lat="51.9953889" lon="5.1804966"/>
<trkpt lat="51.9950957" lon="5.1814726"/>
<trkpt lat="51.9949633" lon="5.1819278"/>
<trkpt lat="51.9947482" lon="5.1826800"/>
<trkpt lat="51.9943674" lon="5.1839584"/>
<trkpt lat="51.9940003" lon="5.1851448"/>
<trkpt lat="51.9935992" lon="5.1865741"/>
<trkpt lat="51.9931087" lon="5.1882799"/>
<trkpt lat="51.9930924" lon="5.1883380"/>
<trkpt lat="51.9931025" lon="5.1883929"/>
<trkpt lat="51.9931784" lon="5.1885092"/>
<trkpt lat="51.9931824" lon="5.1885778"/>
<trkpt lat="51.9927074" lon="5.1900539"/>
<trkpt lat="51.9923757" lon="5.1910701"/>
<trkpt lat="51.9921756" lon="5.1916826"/>
<trkpt lat="51.9921644" lon="5.1917676"/>
<trkpt lat="51.9921600" lon="5.1920313"/>
<trkpt lat="51.9921464" lon="5.1921040"/>
<trkpt lat="51.9919510" lon="5.1923449"/>
<trkpt lat="51.9919006" lon="5.1924462"/>
<trkpt lat="51.9916758" lon="5.1931502"/>
</trkseg></trk>
<trk><name>Vuylcoppad - extensionRoute</name><type>extensionRoute</type><trkseg>
<trkpt lat="52.0052200" lon="5.1554900"/>
<trkpt lat="52.0053900" lon="5.1550600"/>
<trkpt lat="52.0061500" lon="5.1562600"/>
<trkpt lat="52.0061900" lon="5.1562400"/>
<trkpt lat="52.0062400" lon="5.1561600"/>
<trkpt lat="52.0071200" lon="5.1548500"/>
<trkpt lat="52.0067300" lon="5.1540800"/>
<trkpt lat="52.0067100" lon="5.1537900"/>
<trkpt lat="52.0065400" lon="5.1528700"/>
<trkpt lat="52.0065100" lon="5.1525600"/>
<trkpt lat="52.0074800" lon="5.1502200"/>
<trkpt lat="52.0078300" lon="5.1494300"/>
<trkpt lat="52.0085000" lon="5.1478700"/>
<trkpt lat="52.0089600" lon="5.1466700"/>
<trkpt lat="52.0091000" lon="5.1468900"/>
<trkpt lat="52.0092900" lon="5.1466300"/>
<trkpt lat="52.0095200" lon="5.1470100"/>
<trkpt lat="52.0106900" lon="5.1492000"/>
<trkpt lat="52.0118900" lon="5.1513700"/>
<trkpt lat="52.0120400" lon="5.1517600"/>
<trkpt lat="52.0122400" lon="5.1519900"/>
<trkpt lat="52.0117700" lon="5.1535900"/>
<trkpt lat="52.0114800" lon="5.1547000"/>
<trkpt lat="52.0112100" lon="5.1558500"/>
<trkpt lat="52.0103500" lon="5.1601200"/>
<trkpt lat="52.0102400" lon="5.1600700"/>
<trkpt lat="52.0101700" lon="5.1600000"/>
<trkpt lat="52.0101000" lon="5.1599700"/>
<trkpt lat="52.0099900" lon="5.1600600"/>
<trkpt lat="52.0092900" lon="5.1610500"/>
<trkpt lat="52.0092400" lon="5.1610800"/>
<trkpt lat="52.0090800" lon="5.1608600"/>
<trkpt lat="52.0083200" lon="5.1594500"/>
<trkpt lat="52.0071700" lon="5.1574000"/>
<trkpt lat="52.0063400" lon="5.1560200"/>
</trkseg></trk>
</gpx>