<?xml version="1.0" encoding="UTF-8"?>
<gpx version="1.1" creator="klompenpaden.nl via Jimbo API" xmlns="http://www.topografix.com/GPX/1/1">
<metadata><name>Wageningse Engpad</name><desc>Ontdek het mooie buitengebied van Wageningen. Wandelen langs de bosrand, op de stuwwal, over zandwegen en akkers. Cultuurhistorisch landgebruik, fraaie zichtlijnen en landgoederen bepalen hier de sfeer. Klompen aan, rugzak op en gaan!</desc><link href="https://www.klompenpaden.nl/klompenpaden/Wageningse_Engpad/9f15b322-5d00-4f24-8a0a-0d9784c69255"><text>klompenpaden.nl</text></link></metadata>
<wpt lat="51.96563300394788" lon="5.6937409987497665"><name>Start Wageningen</name></wpt>
<trk><name>Wageningse Engpad - hoofdroute</name><type>mainRoute</type><trkseg>
<trkpt lat="51.9656330" lon="5.6937411"/>
<trkpt lat="51.9656200" lon="5.6935911"/>
<trkpt lat="51.9655660" lon="5.6933141"/>
<trkpt lat="51.9655830" lon="5.6931811"/>
<trkpt lat="51.9654820" lon="5.6926471"/>
<trkpt lat="51.9655370" lon="5.6925501"/>
<trkpt lat="51.9652950" lon="5.6921661"/>
<trkpt lat="51.9652610" lon="5.6916041"/>
<trkpt lat="51.9651100" lon="5.6914501"/>
<trkpt lat="51.9649850" lon="5.6913041"/>
<trkpt lat="51.9650600" lon="5.6910561"/>
<trkpt lat="51.9651304" lon="5.6909724"/>
<trkpt lat="51.9652190" lon="5.6910671"/>
<trkpt lat="51.9654040" lon="5.6910661"/>
<trkpt lat="51.9654890" lon="5.6910601"/>
<trkpt lat="51.9654780" lon="5.6909151"/>
<trkpt lat="51.9652930" lon="5.6904061"/>
<trkpt lat="51.9653260" lon="5.6899981"/>
<trkpt lat="51.9652200" lon="5.6883451"/>
<trkpt lat="51.9651390" lon="5.6881021"/>
<trkpt lat="51.9650247" lon="5.6878292"/>
<trkpt lat="51.9650149" lon="5.6875486"/>
<trkpt lat="51.9648879" lon="5.6872567"/>
<trkpt lat="51.9648130" lon="5.6869921"/>
<trkpt lat="51.9648182" lon="5.6867402"/>
<trkpt lat="51.9648160" lon="5.6865691"/>
<trkpt lat="51.9648782" lon="5.6864520"/>
<trkpt lat="51.9647850" lon="5.6863761"/>
<trkpt lat="51.9647060" lon="5.6864231"/>
<trkpt lat="51.9646350" lon="5.6863541"/>
<trkpt lat="51.9645870" lon="5.6862431"/>
<trkpt lat="51.9646050" lon="5.6861111"/>
<trkpt lat="51.9645871" lon="5.6859514"/>
<trkpt lat="51.9645710" lon="5.6857081"/>
<trkpt lat="51.9646440" lon="5.6856189"/>
<trkpt lat="51.9648148" lon="5.6857589"/>
<trkpt lat="51.9650426" lon="5.6859455"/>
<trkpt lat="51.9652900" lon="5.6862211"/>
<trkpt lat="51.9655270" lon="5.6863961"/>
<trkpt lat="51.9657860" lon="5.6865021"/>
<trkpt lat="51.9660780" lon="5.6864851"/>
<trkpt lat="51.9663360" lon="5.6864001"/>
<trkpt lat="51.9665570" lon="5.6862881"/>
<trkpt lat="51.9665880" lon="5.6863381"/>
<trkpt lat="51.9665690" lon="5.6865481"/>
<trkpt lat="51.9664430" lon="5.6869401"/>
<trkpt lat="51.9662870" lon="5.6873041"/>
<trkpt lat="51.9661360" lon="5.6874981"/>
<trkpt lat="51.9660130" lon="5.6878561"/>
<trkpt lat="51.9659310" lon="5.6881471"/>
<trkpt lat="51.9659560" lon="5.6884181"/>
<trkpt lat="51.9659980" lon="5.6887071"/>
<trkpt lat="51.9659960" lon="5.6890031"/>
<trkpt lat="51.9659760" lon="5.6894581"/>
<trkpt lat="51.9660300" lon="5.6895611"/>
<trkpt lat="51.9663030" lon="5.6896801"/>
<trkpt lat="51.9666360" lon="5.6898891"/>
<trkpt lat="51.9667690" lon="5.6900771"/>
<trkpt lat="51.9669880" lon="5.6904961"/>
<trkpt lat="51.9670790" lon="5.6907371"/>
<trkpt lat="51.9672680" lon="5.6910411"/>
<trkpt lat="51.9673430" lon="5.6914631"/>
<trkpt lat="51.9674160" lon="5.6915511"/>
<trkpt lat="51.9674200" lon="5.6918621"/>
<trkpt lat="51.9675230" lon="5.6924161"/>
<trkpt lat="51.9675080" lon="5.6925491"/>
<trkpt lat="51.9672573" lon="5.6926051"/>
<trkpt lat="51.9670770" lon="5.6927001"/>
<trkpt lat="51.9670640" lon="5.6928431"/>
<trkpt lat="51.9671060" lon="5.6929671"/>
<trkpt lat="51.9672820" lon="5.6929841"/>
<trkpt lat="51.9673750" lon="5.6929561"/>
<trkpt lat="51.9674610" lon="5.6929701"/>
<trkpt lat="51.9676632" lon="5.6929169"/>
<trkpt lat="51.9678660" lon="5.6928151"/>
<trkpt lat="51.9680930" lon="5.6925141"/>
<trkpt lat="51.9687297" lon="5.6915823"/>
<trkpt lat="51.9690970" lon="5.6913781"/>
<trkpt lat="51.9698070" lon="5.6912111"/>
<trkpt lat="51.9701280" lon="5.6911228"/>
<trkpt lat="51.9703600" lon="5.6911381"/>
<trkpt lat="51.9706080" lon="5.6912241"/>
<trkpt lat="51.9708153" lon="5.6914183"/>
<trkpt lat="51.9710030" lon="5.6915812"/>
<trkpt lat="51.9711425" lon="5.6918107"/>
<trkpt lat="51.9711668" lon="5.6918912"/>
<trkpt lat="51.9713662" lon="5.6924663"/>
<trkpt lat="51.9715759" lon="5.6926030"/>
<trkpt lat="51.9716437" lon="5.6926225"/>
<trkpt lat="51.9717105" lon="5.6926266"/>
<trkpt lat="51.9717655" lon="5.6926269"/>
<trkpt lat="51.9718762" lon="5.6926121"/>
<trkpt lat="51.9720005" lon="5.6925639"/>
<trkpt lat="51.9721198" lon="5.6925098"/>
<trkpt lat="51.9722315" lon="5.6924735"/>
<trkpt lat="51.9724775" lon="5.6924010"/>
<trkpt lat="51.9731288" lon="5.6921747"/>
<trkpt lat="51.9735782" lon="5.6920031"/>
<trkpt lat="51.9733772" lon="5.6908251"/>
<trkpt lat="51.9731189" lon="5.6896165"/>
<trkpt lat="51.9728637" lon="5.6888351"/>
<trkpt lat="51.9729735" lon="5.6887645"/>
<trkpt lat="51.9732121" lon="5.6889423"/>
<trkpt lat="51.9740169" lon="5.6892120"/>
<trkpt lat="51.9744208" lon="5.6893798"/>
<trkpt lat="51.9748493" lon="5.6897713"/>
<trkpt lat="51.9751337" lon="5.6900428"/>
<trkpt lat="51.9753548" lon="5.6902248"/>
<trkpt lat="51.9754664" lon="5.6901798"/>
<trkpt lat="51.9754725" lon="5.6900188"/>
<trkpt lat="51.9775357" lon="5.6896581"/>
<trkpt lat="51.9775403" lon="5.6891677"/>
<trkpt lat="51.9775615" lon="5.6886631"/>
<trkpt lat="51.9775539" lon="5.6882998"/>
<trkpt lat="51.9773401" lon="5.6863947"/>
<trkpt lat="51.9772672" lon="5.6854378"/>
<trkpt lat="51.9772421" lon="5.6843975"/>
<trkpt lat="51.9773198" lon="5.6832564"/>
<trkpt lat="51.9774970" lon="5.6834032"/>
<trkpt lat="51.9779836" lon="5.6840253"/>
<trkpt lat="51.9785300" lon="5.6849181"/>
<trkpt lat="51.9787834" lon="5.6853032"/>
<trkpt lat="51.9790240" lon="5.6854216"/>
<trkpt lat="51.9795941" lon="5.6853480"/>
<trkpt lat="51.9799675" lon="5.6852293"/>
<trkpt lat="51.9802741" lon="5.6850949"/>
<trkpt lat="51.9806673" lon="5.6848189"/>
<trkpt lat="51.9811088" lon="5.6843711"/>
<trkpt lat="51.9811833" lon="5.6841816"/>
<trkpt lat="51.9821447" lon="5.6855803"/>
<trkpt lat="51.9821047" lon="5.6841252"/>
<trkpt lat="51.9820281" lon="5.6794273"/>
<trkpt lat="51.9827742" lon="5.6791187"/>
<trkpt lat="51.9834175" lon="5.6788002"/>
<trkpt lat="51.9841184" lon="5.6785652"/>
<trkpt lat="51.9847235" lon="5.6785213"/>
<trkpt lat="51.9848922" lon="5.6785616"/>
<trkpt lat="51.9850388" lon="5.6806028"/>
<trkpt lat="51.9854651" lon="5.6808650"/>
<trkpt lat="51.9858287" lon="5.6807990"/>
<trkpt lat="51.9865911" lon="5.6806242"/>
<trkpt lat="51.9875021" lon="5.6805725"/>
<trkpt lat="51.9882612" lon="5.6808682"/>
<trkpt lat="51.9887116" lon="5.6811150"/>
<trkpt lat="51.9890389" lon="5.6811664"/>
<trkpt lat="51.9894755" lon="5.6814324"/>
<trkpt lat="51.9894845" lon="5.6816482"/>
<trkpt lat="51.9895584" lon="5.6825115"/>
<trkpt lat="51.9896400" lon="5.6833564"/>
<trkpt lat="51.9896988" lon="5.6834492"/>
<trkpt lat="51.9897830" lon="5.6839952"/>
<trkpt lat="51.9898896" lon="5.6847448"/>
<trkpt lat="51.9899159" lon="5.6848713"/>
<trkpt lat="51.9901901" lon="5.6847745"/>
<trkpt lat="51.9902681" lon="5.6847504"/>
<trkpt lat="51.9903386" lon="5.6847200"/>
<trkpt lat="51.9903975" lon="5.6847358"/>
<trkpt lat="51.9904106" lon="5.6848222"/>
<trkpt lat="51.9903778" lon="5.6850038"/>
<trkpt lat="51.9903776" lon="5.6851055"/>
<trkpt lat="51.9903294" lon="5.6853486"/>
<trkpt lat="51.9902925" lon="5.6856534"/>
<trkpt lat="51.9903123" lon="5.6860912"/>
<trkpt lat="51.9903725" lon="5.6863720"/>
<trkpt lat="51.9904117" lon="5.6866681"/>
<trkpt lat="51.9903807" lon="5.6868713"/>
<trkpt lat="51.9904655" lon="5.6871954"/>
<trkpt lat="51.9904543" lon="5.6876050"/>
<trkpt lat="51.9903158" lon="5.6877184"/>
<trkpt lat="51.9895247" lon="5.6882206"/>
<trkpt lat="51.9889135" lon="5.6885865"/>
<trkpt lat="51.9886783" lon="5.6886590"/>
<trkpt lat="51.9879965" lon="5.6888013"/>
<trkpt lat="51.9877205" lon="5.6888985"/>
<trkpt lat="51.9876740" lon="5.6887981"/>
<trkpt lat="51.9873040" lon="5.6888931"/>
<trkpt lat="51.9871956" lon="5.6888192"/>
<trkpt lat="51.9870610" lon="5.6887281"/>
<trkpt lat="51.9868710" lon="5.6887901"/>
<trkpt lat="51.9866180" lon="5.6886811"/>
<trkpt lat="51.9863570" lon="5.6886161"/>
<trkpt lat="51.9860453" lon="5.6886208"/>
<trkpt lat="51.9859200" lon="5.6887151"/>
<trkpt lat="51.9856490" lon="5.6886231"/>
<trkpt lat="51.9854586" lon="5.6885385"/>
<trkpt lat="51.9851898" lon="5.6885637"/>
<trkpt lat="51.9850112" lon="5.6886549"/>
<trkpt lat="51.9849109" lon="5.6887929"/>
<trkpt lat="51.9846406" lon="5.6884907"/>
<trkpt lat="51.9842203" lon="5.6882568"/>
<trkpt lat="51.9839710" lon="5.6880702"/>
<trkpt lat="51.9837790" lon="5.6878494"/>
<trkpt lat="51.9835868" lon="5.6876863"/>
<trkpt lat="51.9834870" lon="5.6875451"/>
<trkpt lat="51.9834108" lon="5.6878557"/>
<trkpt lat="51.9831090" lon="5.6884991"/>
<trkpt lat="51.9827980" lon="5.6892541"/>
<trkpt lat="51.9823930" lon="5.6902101"/>
<trkpt lat="51.9823260" lon="5.6906501"/>
<trkpt lat="51.9823590" lon="5.6912741"/>
<trkpt lat="51.9824200" lon="5.6915931"/>
<trkpt lat="51.9825540" lon="5.6919955"/>
<trkpt lat="51.9824070" lon="5.6919841"/>
<trkpt lat="51.9821440" lon="5.6919321"/>
<trkpt lat="51.9816350" lon="5.6916871"/>
<trkpt lat="51.9815670" lon="5.6915108"/>
<trkpt lat="51.9814081" lon="5.6908646"/>
<trkpt lat="51.9812492" lon="5.6902377"/>
<trkpt lat="51.9811019" lon="5.6897120"/>
<trkpt lat="51.9809547" lon="5.6891429"/>
<trkpt lat="51.9808565" lon="5.6891952"/>
<trkpt lat="51.9803775" lon="5.6871317"/>
<trkpt lat="51.9803054" lon="5.6870992"/>
<trkpt lat="51.9796711" lon="5.6876067"/>
<trkpt lat="51.9791420" lon="5.6879511"/>
<trkpt lat="51.9786479" lon="5.6880699"/>
<trkpt lat="51.9781211" lon="5.6880814"/>
<trkpt lat="51.9778530" lon="5.6881423"/>
<trkpt lat="51.9778780" lon="5.6885291"/>
<trkpt lat="51.9780440" lon="5.6906006"/>
<trkpt lat="51.9779790" lon="5.6907561"/>
<trkpt lat="51.9775805" lon="5.6908047"/>
<trkpt lat="51.9776107" lon="5.6921148"/>
<trkpt lat="51.9775428" lon="5.6923087"/>
<trkpt lat="51.9769517" lon="5.6924317"/>
<trkpt lat="51.9766576" lon="5.6925477"/>
<trkpt lat="51.9762290" lon="5.6928042"/>
<trkpt lat="51.9760856" lon="5.6928301"/>
<trkpt lat="51.9758181" lon="5.6931249"/>
<trkpt lat="51.9755024" lon="5.6933808"/>
<trkpt lat="51.9752312" lon="5.6935201"/>
<trkpt lat="51.9749083" lon="5.6936250"/>
<trkpt lat="51.9745577" lon="5.6936346"/>
<trkpt lat="51.9743165" lon="5.6935586"/>
<trkpt lat="51.9739171" lon="5.6930115"/>
<trkpt lat="51.9743470" lon="5.6942911"/>
<trkpt lat="51.9743685" lon="5.6946986"/>
<trkpt lat="51.9745494" lon="5.6951104"/>
<trkpt lat="51.9747159" lon="5.6953276"/>
<trkpt lat="51.9749273" lon="5.6980091"/>
<trkpt lat="51.9749422" lon="5.6981314"/>
<trkpt lat="51.9750324" lon="5.6984672"/>
<trkpt lat="51.9754608" lon="5.7037748"/>
<trkpt lat="51.9755621" lon="5.7061814"/>
<trkpt lat="51.9755549" lon="5.7064767"/>
<trkpt lat="51.9754489" lon="5.7068190"/>
<trkpt lat="51.9741578" lon="5.7099528"/>
<trkpt lat="51.9726867" lon="5.7133945"/>
<trkpt lat="51.9722124" lon="5.7144903"/>
<trkpt lat="51.9720393" lon="5.7147335"/>
<trkpt lat="51.9718844" lon="5.7147371"/>
<trkpt lat="51.9713428" lon="5.7143936"/>
<trkpt lat="51.9681690" lon="5.7121031"/>
<trkpt lat="51.9680820" lon="5.7118511"/>
<trkpt lat="51.9679040" lon="5.7118241"/>
<trkpt lat="51.9678180" lon="5.7117791"/>
<trkpt lat="51.9677890" lon="5.7116341"/>
<trkpt lat="51.9675236" lon="5.7115398"/>
<trkpt lat="51.9673960" lon="5.7113242"/>
<trkpt lat="51.9670744" lon="5.7099743"/>
<trkpt lat="51.9669130" lon="5.7089599"/>
<trkpt lat="51.9671210" lon="5.7088111"/>
<trkpt lat="51.9670880" lon="5.7086741"/>
<trkpt lat="51.9670590" lon="5.7084041"/>
<trkpt lat="51.9670100" lon="5.7081211"/>
<trkpt lat="51.9669480" lon="5.7078561"/>
<trkpt lat="51.9668900" lon="5.7076101"/>
<trkpt lat="51.9667840" lon="5.7072141"/>
<trkpt lat="51.9667685" lon="5.7068014"/>
<trkpt lat="51.9666780" lon="5.7064851"/>
<trkpt lat="51.9665860" lon="5.7062391"/>
<trkpt lat="51.9665290" lon="5.7059581"/>
<trkpt lat="51.9665060" lon="5.7056801"/>
<trkpt lat="51.9665040" lon="5.7055341"/>
<trkpt lat="51.9663970" lon="5.7053111"/>
<trkpt lat="51.9663250" lon="5.7051461"/>
<trkpt lat="51.9663460" lon="5.7050361"/>
<trkpt lat="51.9663860" lon="5.7048731"/>
<trkpt lat="51.9663460" lon="5.7047571"/>
<trkpt lat="51.9662810" lon="5.7046611"/>
<trkpt lat="51.9661790" lon="5.7044311"/>
<trkpt lat="51.9661390" lon="5.7043121"/>
<trkpt lat="51.9661320" lon="5.7040761"/>
<trkpt lat="51.9660790" lon="5.7039601"/>
<trkpt lat="51.9661140" lon="5.7037671"/>
<trkpt lat="51.9661560" lon="5.7035051"/>
<trkpt lat="51.9660930" lon="5.7030811"/>
<trkpt lat="51.9659199" lon="5.7027386"/>
<trkpt lat="51.9658500" lon="5.7020921"/>
<trkpt lat="51.9657780" lon="5.7017551"/>
<trkpt lat="51.9657150" lon="5.7012971"/>
<trkpt lat="51.9656500" lon="5.7008801"/>
<trkpt lat="51.9656781" lon="5.7005646"/>
<trkpt lat="51.9655880" lon="5.7000371"/>
<trkpt lat="51.9656330" lon="5.6996001"/>
<trkpt lat="51.9655201" lon="5.6992196"/>
<trkpt lat="51.9654330" lon="5.6988581"/>
<trkpt lat="51.9653900" lon="5.6985631"/>
<trkpt lat="51.9653740" lon="5.6982471"/>
<trkpt lat="51.9653330" lon="5.6980491"/>
<trkpt lat="51.9654770" lon="5.6977061"/>
<trkpt lat="51.9654670" lon="5.6975591"/>
<trkpt lat="51.9653710" lon="5.6973871"/>
<trkpt lat="51.9652760" lon="5.6971481"/>
<trkpt lat="51.9652200" lon="5.6968851"/>
<trkpt lat="51.9651760" lon="5.6963651"/>
<trkpt lat="51.9652370" lon="5.6961041"/>
<trkpt lat="51.9652780" lon="5.6959751"/>
<trkpt lat="51.9656245" lon="5.6958483"/>
<trkpt lat="51.9657720" lon="5.6957201"/>
<trkpt lat="51.9659350" lon="5.6956421"/>
<trkpt lat="51.9660140" lon="5.6954041"/>
<trkpt lat="51.9660110" lon="5.6952621"/>
<trkpt lat="51.9659750" lon="5.6951201"/>
<trkpt lat="51.9659115" lon="5.6949286"/>
<trkpt lat="51.9657630" lon="5.6947251"/>
<trkpt lat="51.9657180" lon="5.6945851"/>
<trkpt lat="51.9656070" lon="5.6940271"/>
<trkpt lat="51.9656375" lon="5.6938709"/>
<trkpt lat="51.9656330" lon="5.6937411"/>
</trkseg></trk>
<trk><name>Wageningse Engpad - overstaproute</name><type>connectionRoute</type><trkseg>
<trkpt lat="51.9875021" lon="5.6805725"/>
<trkpt lat="51.9876360" lon="5.6804571"/>
<trkpt lat="51.9877410" lon="5.6802331"/>
<trkpt lat="51.9877839" lon="5.6798213"/>
<trkpt lat="51.9877912" lon="5.6793332"/>
<trkpt lat="51.9877760" lon="5.6789721"/>
<trkpt lat="51.9875990" lon="5.6786481"/>
<trkpt lat="51.9874090" lon="5.6783521"/>
<trkpt lat="51.9874834" lon="5.6781686"/>
<trkpt lat="51.9875379" lon="5.6777645"/>
<trkpt lat="51.9875802" lon="5.6774855"/>
<trkpt lat="51.9876637" lon="5.6773657"/>
<trkpt lat="51.9878035" lon="5.6773377"/>
<trkpt lat="51.9882880" lon="5.6773553"/>
<trkpt lat="51.9887547" lon="5.6773872"/>
<trkpt lat="51.9890609" lon="5.6773795"/>
<trkpt lat="51.9893762" lon="5.6772853"/>
<trkpt lat="51.9897037" lon="5.6770755"/>
<trkpt lat="51.9899423" lon="5.6767545"/>
<trkpt lat="51.9902197" lon="5.6763855"/>
<trkpt lat="51.9904698" lon="5.6762186"/>
<trkpt lat="51.9906576" lon="5.6759935"/>
<trkpt lat="51.9909232" lon="5.6755667"/>
<trkpt lat="51.9911024" lon="5.6752548"/>
<trkpt lat="51.9911829" lon="5.6751446"/>
<trkpt lat="51.9914070" lon="5.6747461"/>
<trkpt lat="51.9916920" lon="5.6744251"/>
<trkpt lat="51.9922280" lon="5.6739091"/>
<trkpt lat="51.9928260" lon="5.6733491"/>
<trkpt lat="51.9933884" lon="5.6728040"/>
<trkpt lat="51.9938654" lon="5.6722244"/>
<trkpt lat="51.9938390" lon="5.6720846"/>
<trkpt lat="51.9942627" lon="5.6719370"/>
<trkpt lat="51.9942767" lon="5.6717984"/>
<trkpt lat="51.9940939" lon="5.6711809"/>
<trkpt lat="51.9941004" lon="5.6709402"/>
<trkpt lat="51.9941370" lon="5.6706591"/>
<trkpt lat="51.9942670" lon="5.6702901"/>
<trkpt lat="51.9944760" lon="5.6699011"/>
<trkpt lat="51.9946210" lon="5.6695591"/>
<trkpt lat="51.9946990" lon="5.6693011"/>
<trkpt lat="51.9946420" lon="5.6691881"/>
<trkpt lat="51.9946010" lon="5.6690511"/>
<trkpt lat="51.9945550" lon="5.6687781"/>
<trkpt lat="51.9944750" lon="5.6687021"/>
<trkpt lat="51.9944580" lon="5.6685601"/>
<trkpt lat="51.9943880" lon="5.6680481"/>
<trkpt lat="51.9943260" lon="5.6669151"/>
<trkpt lat="51.9942540" lon="5.6662431"/>
<trkpt lat="51.9941490" lon="5.6656521"/>
<trkpt lat="51.9941200" lon="5.6651461"/>
<trkpt lat="51.9940390" lon="5.6647551"/>
<trkpt lat="51.9940280" lon="5.6646071"/>
<trkpt lat="51.9939640" lon="5.6645081"/>
<trkpt lat="51.9938850" lon="5.6644641"/>
<trkpt lat="51.9938080" lon="5.6643771"/>
<trkpt lat="51.9937090" lon="5.6641081"/>
<trkpt lat="51.9936730" lon="5.6639741"/>
<trkpt lat="51.9936870" lon="5.6638371"/>
<trkpt lat="51.9936630" lon="5.6632481"/>
<trkpt lat="51.9934207" lon="5.6629886"/>
<trkpt lat="51.9930868" lon="5.6625275"/>
<trkpt lat="51.9918572" lon="5.6578328"/>
<trkpt lat="51.9916066" lon="5.6568558"/>
</trkseg></trk>
<trk><name>Wageningse Engpad - aanlooproute</name><type>approachRoute</type><trkseg>
<trkpt lat="51.9646440" lon="5.6856189"/>
<trkpt lat="51.9645552" lon="5.6855435"/>
<trkpt lat="51.9646097" lon="5.6851938"/>
<trkpt lat="51.9648360" lon="5.6846271"/>
<trkpt lat="51.9649070" lon="5.6844441"/>
<trkpt lat="51.9649870" lon="5.6841831"/>
<trkpt lat="51.9650940" lon="5.6839671"/>
<trkpt lat="51.9651530" lon="5.6835731"/>
<trkpt lat="51.9651580" lon="5.6832831"/>
<trkpt lat="51.9650774" lon="5.6830401"/>
<trkpt lat="51.9650026" lon="5.6825315"/>
<trkpt lat="51.9649810" lon="5.6822401"/>
<trkpt lat="51.9650300" lon="5.6815523"/>
<trkpt lat="51.9650799" lon="5.6804075"/>
<trkpt lat="51.9651406" lon="5.6800163"/>
<trkpt lat="51.9652753" lon="5.6796818"/>
<trkpt lat="51.9654030" lon="5.6795406"/>
<trkpt lat="51.9655772" lon="5.6793471"/>
<trkpt lat="51.9656145" lon="5.6789702"/>
<trkpt lat="51.9655767" lon="5.6786838"/>
<trkpt lat="51.9655725" lon="5.6782195"/>
<trkpt lat="51.9654727" lon="5.6777461"/>
<trkpt lat="51.9653089" lon="5.6774202"/>
<trkpt lat="51.9652821" lon="5.6770546"/>
<trkpt lat="51.9653309" lon="5.6763491"/>
<trkpt lat="51.9653320" lon="5.6758858"/>
<trkpt lat="51.9654173" lon="5.6755135"/>
<trkpt lat="51.9655608" lon="5.6750883"/>
<trkpt lat="51.9655960" lon="5.6748616"/>
<trkpt lat="51.9655296" lon="5.6746147"/>
<trkpt lat="51.9654516" lon="5.6741784"/>
<trkpt lat="51.9654287" lon="5.6737045"/>
<trkpt lat="51.9655044" lon="5.6733893"/>
<trkpt lat="51.9655685" lon="5.6730647"/>
<trkpt lat="51.9656043" lon="5.6726904"/>
<trkpt lat="51.9656000" lon="5.6724521"/>
<trkpt lat="51.9655301" lon="5.6721905"/>
<trkpt lat="51.9654633" lon="5.6720364"/>
<trkpt lat="51.9654917" lon="5.6719402"/>
<trkpt lat="51.9656044" lon="5.6717041"/>
<trkpt lat="51.9656222" lon="5.6714773"/>
<trkpt lat="51.9658287" lon="5.6705630"/>
<trkpt lat="51.9661347" lon="5.6691924"/>
<trkpt lat="51.9662374" lon="5.6690545"/>
<trkpt lat="51.9666064" lon="5.6694658"/>
<trkpt lat="51.9669927" lon="5.6699307"/>
<trkpt lat="51.9671504" lon="5.6700216"/>
<trkpt lat="51.9672271" lon="5.6699775"/>
<trkpt lat="51.9673662" lon="5.6679971"/>
<trkpt lat="51.9674791" lon="5.6672778"/>
<trkpt lat="51.9675247" lon="5.6670106"/>
<trkpt lat="51.9675332" lon="5.6669608"/>
<trkpt lat="51.9675203" lon="5.6666666"/>
<trkpt lat="51.9676425" lon="5.6666234"/>
<trkpt lat="51.9676682" lon="5.6666379"/>
<trkpt lat="51.9676984" lon="5.6665359"/>
<trkpt lat="51.9677214" lon="5.6665273"/>
<trkpt lat="51.9677366" lon="5.6664067"/>
<trkpt lat="51.9679740" lon="5.6663401"/>
<trkpt lat="51.9680295" lon="5.6663734"/>
<trkpt lat="51.9683091" lon="5.6662895"/>
<trkpt lat="51.9683715" lon="5.6668629"/>
<trkpt lat="51.9685262" lon="5.6668177"/>
<trkpt lat="51.9685169" lon="5.6667189"/>
<trkpt lat="51.9685990" lon="5.6666988"/>
</trkseg></trk>
</gpx>