<?xml version="1.0" encoding="UTF-8"?>
<gpx version="1.1" creator="klompenpaden.nl via Jimbo API" xmlns="http://www.topografix.com/GPX/1/1">
<metadata><name>Wiseperpad</name><desc>Ontdek het prachtige landschap rond Wezep en Hattemerbroek: over landgoed IJsselvliedt, door bossen, over heide en door uitgestrekte weidegebieden. Klompen aan, rugzak op en gaan!
</desc><link href="https://www.klompenpaden.nl/klompenpaden/Wiseperpad/a0eee43c-e5b0-447c-b068-2b9f7dc85229"><text>klompenpaden.nl</text></link></metadata>
<wpt lat="52.45372109100254" lon="6.002735495567322"><name>Start Wezep</name></wpt>
<trk><name>Wiseperpad - Geimporteerde shapefile</name><type>mainRoute</type><trkseg>
<trkpt lat="52.4538647" lon="6.0025660"/>
<trkpt lat="52.4535511" lon="6.0030261"/>
<trkpt lat="52.4534592" lon="6.0031201"/>
<trkpt lat="52.4539939" lon="6.0042388"/>
<trkpt lat="52.4542114" lon="6.0044909"/>
<trkpt lat="52.4538903" lon="6.0049535"/>
<trkpt lat="52.4533716" lon="6.0057168"/>
<trkpt lat="52.4534872" lon="6.0062726"/>
<trkpt lat="52.4534170" lon="6.0063404"/>
<trkpt lat="52.4535750" lon="6.0070510"/>
<trkpt lat="52.4531206" lon="6.0075507"/>
<trkpt lat="52.4532114" lon="6.0083616"/>
<trkpt lat="52.4532075" lon="6.0091088"/>
<trkpt lat="52.4532042" lon="6.0097471"/>
<trkpt lat="52.4530833" lon="6.0101269"/>
<trkpt lat="52.4530659" lon="6.0107105"/>
<trkpt lat="52.4531529" lon="6.0113579"/>
<trkpt lat="52.4532506" lon="6.0117641"/>
<trkpt lat="52.4537265" lon="6.0135068"/>
<trkpt lat="52.4543700" lon="6.0159370"/>
<trkpt lat="52.4545479" lon="6.0164612"/>
<trkpt lat="52.4552384" lon="6.0163075"/>
<trkpt lat="52.4554275" lon="6.0164409"/>
<trkpt lat="52.4556122" lon="6.0178272"/>
<trkpt lat="52.4559066" lon="6.0196999"/>
<trkpt lat="52.4558773" lon="6.0216302"/>
<trkpt lat="52.4566128" lon="6.0228241"/>
<trkpt lat="52.4577270" lon="6.0243661"/>
<trkpt lat="52.4583124" lon="6.0252529"/>
<trkpt lat="52.4578439" lon="6.0260211"/>
<trkpt lat="52.4582215" lon="6.0267515"/>
<trkpt lat="52.4587961" lon="6.0260280"/>
<trkpt lat="52.4624703" lon="6.0208739"/>
<trkpt lat="52.4630307" lon="6.0201344"/>
<trkpt lat="52.4632669" lon="6.0213291"/>
<trkpt lat="52.4664406" lon="6.0201599"/>
<trkpt lat="52.4663756" lon="6.0189675"/>
<trkpt lat="52.4673764" lon="6.0185847"/>
<trkpt lat="52.4681906" lon="6.0210960"/>
<trkpt lat="52.4688416" lon="6.0220866"/>
<trkpt lat="52.4691006" lon="6.0235467"/>
<trkpt lat="52.4695786" lon="6.0235246"/>
<trkpt lat="52.4695080" lon="6.0230625"/>
<trkpt lat="52.4695147" lon="6.0229263"/>
<trkpt lat="52.4695897" lon="6.0227960"/>
<trkpt lat="52.4697122" lon="6.0226907"/>
<trkpt lat="52.4697661" lon="6.0226038"/>
<trkpt lat="52.4699456" lon="6.0223971"/>
<trkpt lat="52.4700409" lon="6.0223547"/>
<trkpt lat="52.4701722" lon="6.0222641"/>
<trkpt lat="52.4702741" lon="6.0221147"/>
<trkpt lat="52.4703973" lon="6.0218585"/>
<trkpt lat="52.4705289" lon="6.0217095"/>
<trkpt lat="52.4706794" lon="6.0216887"/>
<trkpt lat="52.4707807" lon="6.0214332"/>
<trkpt lat="52.4709525" lon="6.0213188"/>
<trkpt lat="52.4713510" lon="6.0215115"/>
<trkpt lat="52.4716501" lon="6.0216092"/>
<trkpt lat="52.4737566" lon="6.0252143"/>
<trkpt lat="52.4743684" lon="6.0277620"/>
<trkpt lat="52.4746146" lon="6.0297283"/>
<trkpt lat="52.4749640" lon="6.0297451"/>
<trkpt lat="52.4752202" lon="6.0285454"/>
<trkpt lat="52.4755592" lon="6.0278611"/>
<trkpt lat="52.4757615" lon="6.0274649"/>
<trkpt lat="52.4765262" lon="6.0254549"/>
<trkpt lat="52.4764892" lon="6.0243795"/>
<trkpt lat="52.4762737" lon="6.0219931"/>
<trkpt lat="52.4758721" lon="6.0197208"/>
<trkpt lat="52.4754328" lon="6.0192376"/>
<trkpt lat="52.4747143" lon="6.0181256"/>
<trkpt lat="52.4739076" lon="6.0161879"/>
<trkpt lat="52.4731891" lon="6.0144720"/>
<trkpt lat="52.4729800" lon="6.0142223"/>
<trkpt lat="52.4725496" lon="6.0139723"/>
<trkpt lat="52.4719948" lon="6.0136607"/>
<trkpt lat="52.4717906" lon="6.0134032"/>
<trkpt lat="52.4716841" lon="6.0130722"/>
<trkpt lat="52.4739419" lon="6.0096928"/>
<trkpt lat="52.4752802" lon="6.0081025"/>
<trkpt lat="52.4750864" lon="6.0077518"/>
<trkpt lat="52.4747989" lon="6.0072409"/>
<trkpt lat="52.4746087" lon="6.0069143"/>
<trkpt lat="52.4746837" lon="6.0068462"/>
<trkpt lat="52.4747394" lon="6.0067281"/>
<trkpt lat="52.4748116" lon="6.0064495"/>
<trkpt lat="52.4752856" lon="6.0057273"/>
<trkpt lat="52.4764721" lon="6.0039916"/>
<trkpt lat="52.4770264" lon="6.0032433"/>
<trkpt lat="52.4771927" lon="6.0030209"/>
<trkpt lat="52.4773107" lon="6.0031849"/>
<trkpt lat="52.4775135" lon="6.0034816"/>
<trkpt lat="52.4777237" lon="6.0037921"/>
<trkpt lat="52.4778990" lon="6.0039897"/>
<trkpt lat="52.4780453" lon="6.0040054"/>
<trkpt lat="52.4784858" lon="6.0039331"/>
<trkpt lat="52.4787318" lon="6.0038936"/>
<trkpt lat="52.4790523" lon="6.0037593"/>
<trkpt lat="52.4789435" lon="6.0034292"/>
<trkpt lat="52.4783552" lon="6.0023706"/>
<trkpt lat="52.4779501" lon="6.0016172"/>
<trkpt lat="52.4775893" lon="6.0008496"/>
<trkpt lat="52.4774544" lon="6.0009171"/>
<trkpt lat="52.4771442" lon="6.0001962"/>
<trkpt lat="52.4761470" lon="5.9982975"/>
<trkpt lat="52.4763859" lon="5.9980905"/>
<trkpt lat="52.4766682" lon="5.9977672"/>
<trkpt lat="52.4767636" lon="5.9976221"/>
<trkpt lat="52.4761672" lon="5.9964421"/>
<trkpt lat="52.4767501" lon="5.9954769"/>
<trkpt lat="52.4751597" lon="5.9926607"/>
<trkpt lat="52.4752444" lon="5.9924163"/>
<trkpt lat="52.4752169" lon="5.9922056"/>
<trkpt lat="52.4750238" lon="5.9918447"/>
<trkpt lat="52.4749149" lon="5.9917497"/>
<trkpt lat="52.4747369" lon="5.9912021"/>
<trkpt lat="52.4745337" lon="5.9909579"/>
<trkpt lat="52.4743592" lon="5.9906673"/>
<trkpt lat="52.4743314" lon="5.9905452"/>
<trkpt lat="52.4743353" lon="5.9902658"/>
<trkpt lat="52.4746019" lon="5.9900417"/>
<trkpt lat="52.4765824" lon="5.9872327"/>
<trkpt lat="52.4748942" lon="5.9841656"/>
<trkpt lat="52.4754073" lon="5.9831364"/>
<trkpt lat="52.4734747" lon="5.9797014"/>
<trkpt lat="52.4735016" lon="5.9795605"/>
<trkpt lat="52.4734480" lon="5.9793378"/>
<trkpt lat="52.4736416" lon="5.9790445"/>
<trkpt lat="52.4738418" lon="5.9787789"/>
<trkpt lat="52.4746453" lon="5.9776811"/>
<trkpt lat="52.4747515" lon="5.9767929"/>
<trkpt lat="52.4745040" lon="5.9763456"/>
<trkpt lat="52.4748702" lon="5.9758715"/>
<trkpt lat="52.4742483" lon="5.9748187"/>
<trkpt lat="52.4729709" lon="5.9763755"/>
<trkpt lat="52.4725923" lon="5.9735757"/>
<trkpt lat="52.4721334" lon="5.9740525"/>
<trkpt lat="52.4720187" lon="5.9759880"/>
<trkpt lat="52.4723975" lon="5.9772781"/>
<trkpt lat="52.4728764" lon="5.9785228"/>
<trkpt lat="52.4714834" lon="5.9803266"/>
<trkpt lat="52.4711019" lon="5.9795972"/>
<trkpt lat="52.4708596" lon="5.9795472"/>
<trkpt lat="52.4707184" lon="5.9792416"/>
<trkpt lat="52.4707779" lon="5.9800413"/>
<trkpt lat="52.4705264" lon="5.9804001"/>
<trkpt lat="52.4704312" lon="5.9809011"/>
<trkpt lat="52.4702749" lon="5.9812290"/>
<trkpt lat="52.4701082" lon="5.9812822"/>
<trkpt lat="52.4699215" lon="5.9815367"/>
<trkpt lat="52.4698137" lon="5.9816871"/>
<trkpt lat="52.4697976" lon="5.9820490"/>
<trkpt lat="52.4695595" lon="5.9827305"/>
<trkpt lat="52.4685294" lon="5.9804504"/>
<trkpt lat="52.4690469" lon="5.9796864"/>
<trkpt lat="52.4678320" lon="5.9767447"/>
<trkpt lat="52.4692122" lon="5.9751329"/>
<trkpt lat="52.4691702" lon="5.9749688"/>
<trkpt lat="52.4684947" lon="5.9730909"/>
<trkpt lat="52.4650246" lon="5.9765723"/>
<trkpt lat="52.4674048" lon="5.9819171"/>
<trkpt lat="52.4691262" lon="5.9857406"/>
<trkpt lat="52.4681541" lon="5.9870617"/>
<trkpt lat="52.4680073" lon="5.9872933"/>
<trkpt lat="52.4679139" lon="5.9875207"/>
<trkpt lat="52.4677792" lon="5.9877186"/>
<trkpt lat="52.4676449" lon="5.9878287"/>
<trkpt lat="52.4674834" lon="5.9879474"/>
<trkpt lat="52.4672354" lon="5.9882806"/>
<trkpt lat="52.4671508" lon="5.9886160"/>
<trkpt lat="52.4670486" lon="5.9887648"/>
<trkpt lat="52.4668161" lon="5.9888930"/>
<trkpt lat="52.4664452" lon="5.9893406"/>
<trkpt lat="52.4664613" lon="5.9895733"/>
<trkpt lat="52.4663331" lon="5.9897576"/>
<trkpt lat="52.4661786" lon="5.9897458"/>
<trkpt lat="52.4660204" lon="5.9898896"/>
<trkpt lat="52.4659572" lon="5.9898092"/>
<trkpt lat="52.4649535" lon="5.9870390"/>
<trkpt lat="52.4642543" lon="5.9850884"/>
<trkpt lat="52.4609692" lon="5.9867981"/>
<trkpt lat="52.4606353" lon="5.9869960"/>
<trkpt lat="52.4605806" lon="5.9865281"/>
<trkpt lat="52.4604764" lon="5.9864333"/>
<trkpt lat="52.4592004" lon="5.9867118"/>
<trkpt lat="52.4584766" lon="5.9868889"/>
<trkpt lat="52.4584298" lon="5.9867325"/>
<trkpt lat="52.4578859" lon="5.9870833"/>
<trkpt lat="52.4570947" lon="5.9874151"/>
<trkpt lat="52.4566476" lon="5.9874246"/>
<trkpt lat="52.4560469" lon="5.9871164"/>
<trkpt lat="52.4555708" lon="5.9883897"/>
<trkpt lat="52.4543444" lon="5.9893315"/>
<trkpt lat="52.4528640" lon="5.9905180"/>
<trkpt lat="52.4528715" lon="5.9907954"/>
<trkpt lat="52.4529244" lon="5.9909129"/>
<trkpt lat="52.4531454" lon="5.9912857"/>
<trkpt lat="52.4535151" lon="5.9916459"/>
<trkpt lat="52.4538420" lon="5.9916747"/>
<trkpt lat="52.4539745" lon="5.9919101"/>
<trkpt lat="52.4541081" lon="5.9919557"/>
<trkpt lat="52.4542735" lon="5.9921477"/>
<trkpt lat="52.4548294" lon="5.9925617"/>
<trkpt lat="52.4551973" lon="5.9927941"/>
<trkpt lat="52.4554501" lon="5.9929651"/>
<trkpt lat="52.4555507" lon="5.9930210"/>
<trkpt lat="52.4560025" lon="5.9932491"/>
<trkpt lat="52.4564937" lon="5.9934543"/>
<trkpt lat="52.4566354" lon="5.9939264"/>
<trkpt lat="52.4568497" lon="5.9947935"/>
<trkpt lat="52.4568779" lon="5.9953350"/>
<trkpt lat="52.4569318" lon="5.9959391"/>
<trkpt lat="52.4570911" lon="5.9968872"/>
<trkpt lat="52.4572523" lon="5.9974305"/>
<trkpt lat="52.4574513" lon="5.9980444"/>
<trkpt lat="52.4575754" lon="5.9984160"/>
<trkpt lat="52.4575553" lon="5.9986376"/>
<trkpt lat="52.4573230" lon="5.9989536"/>
<trkpt lat="52.4570882" lon="5.9992812"/>
<trkpt lat="52.4569434" lon="5.9992364"/>
<trkpt lat="52.4567646" lon="5.9993273"/>
<trkpt lat="52.4564396" lon="5.9995916"/>
<trkpt lat="52.4565591" lon="5.9999660"/>
<trkpt lat="52.4561052" lon="6.0003848"/>
<trkpt lat="52.4560345" lon="6.0002592"/>
<trkpt lat="52.4559462" lon="6.0003242"/>
<trkpt lat="52.4556861" lon="6.0006391"/>
<trkpt lat="52.4555801" lon="6.0008267"/>
<trkpt lat="52.4556913" lon="6.0010993"/>
<trkpt lat="52.4540803" lon="6.0024476"/>
<trkpt lat="52.4538628" lon="6.0025660"/>
</trkseg></trk>
<trk><name>Wiseperpad - routeverkorter1</name><type>shorteningRoute</type><trkseg>
<trkpt lat="52.4739076" lon="6.0161879"/>
<trkpt lat="52.4739480" lon="6.0171163"/>
<trkpt lat="52.4741847" lon="6.0182178"/>
<trkpt lat="52.4741806" lon="6.0189888"/>
<trkpt lat="52.4740203" lon="6.0196174"/>
<trkpt lat="52.4742595" lon="6.0202517"/>
<trkpt lat="52.4734283" lon="6.0209407"/>
<trkpt lat="52.4730706" lon="6.0211225"/>
<trkpt lat="52.4725151" lon="6.0209510"/>
<trkpt lat="52.4722150" lon="6.0210402"/>
<trkpt lat="52.4719137" lon="6.0213396"/>
<trkpt lat="52.4716501" lon="6.0216092"/>
</trkseg></trk>
<trk><name>Wiseperpad - routeverkorter2</name><type>shorteningRoute</type><trkseg>
<trkpt lat="52.4691262" lon="5.9857406"/>
<trkpt lat="52.4703049" lon="5.9840848"/>
<trkpt lat="52.4715759" lon="5.9866720"/>
<trkpt lat="52.4719013" lon="5.9869782"/>
<trkpt lat="52.4720187" lon="5.9872815"/>
<trkpt lat="52.4722196" lon="5.9875277"/>
<trkpt lat="52.4721474" lon="5.9876922"/>
<trkpt lat="52.4723074" lon="5.9878034"/>
<trkpt lat="52.4723916" lon="5.9880693"/>
<trkpt lat="52.4725329" lon="5.9883516"/>
<trkpt lat="52.4727885" lon="5.9885887"/>
<trkpt lat="52.4729390" lon="5.9889179"/>
<trkpt lat="52.4730611" lon="5.9892155"/>
<trkpt lat="52.4732885" lon="5.9894055"/>
<trkpt lat="52.4734209" lon="5.9895475"/>
<trkpt lat="52.4734678" lon="5.9896728"/>
<trkpt lat="52.4734949" lon="5.9899535"/>
<trkpt lat="52.4734565" lon="5.9900309"/>
<trkpt lat="52.4732658" lon="5.9901217"/>
<trkpt lat="52.4737756" lon="5.9908764"/>
<trkpt lat="52.4739190" lon="5.9907381"/>
<trkpt lat="52.4739985" lon="5.9905144"/>
<trkpt lat="52.4743353" lon="5.9902658"/>
</trkseg></trk>
<trk><name>Wiseperpad - Geimporteerde shapefile</name><type>alternativeRoute</type><trkseg>
<trkpt lat="52.4790607" lon="6.0037523"/>
<trkpt lat="52.4795344" lon="6.0032878"/>
<trkpt lat="52.4802996" lon="6.0024240"/>
<trkpt lat="52.4809520" lon="6.0016396"/>
<trkpt lat="52.4806614" lon="6.0010938"/>
<trkpt lat="52.4801647" lon="6.0002277"/>
<trkpt lat="52.4791918" lon="5.9983628"/>
<trkpt lat="52.4783755" lon="5.9969492"/>
<trkpt lat="52.4774939" lon="5.9953252"/>
<trkpt lat="52.4773319" lon="5.9948116"/>
<trkpt lat="52.4772192" lon="5.9950235"/>
<trkpt lat="52.4771435" lon="5.9949797"/>
<trkpt lat="52.4767549" lon="5.9955527"/>
<trkpt lat="52.4767367" lon="5.9954933"/>
</trkseg></trk>
<trk><name>Wiseperpad - overstaproute1</name><type>connectionRoute</type><trkseg>
<trkpt lat="52.4528640" lon="5.9905180"/>
<trkpt lat="52.4527796" lon="5.9902616"/>
<trkpt lat="52.4516961" lon="5.9858680"/>
<trkpt lat="52.4515693" lon="5.9855452"/>
<trkpt lat="52.4507563" lon="5.9833799"/>
<trkpt lat="52.4508286" lon="5.9831765"/>
<trkpt lat="52.4509868" lon="5.9829393"/>
<trkpt lat="52.4519934" lon="5.9820829"/>
<trkpt lat="52.4537277" lon="5.9805182"/>
<trkpt lat="52.4550855" lon="5.9793277"/>
<trkpt lat="52.4557332" lon="5.9796342"/>
<trkpt lat="52.4563637" lon="5.9812192"/>
<trkpt lat="52.4574276" lon="5.9810754"/>
<trkpt lat="52.4578719" lon="5.9841053"/>
<trkpt lat="52.4579823" lon="5.9840917"/>
<trkpt lat="52.4575669" lon="5.9810018"/>
<trkpt lat="52.4575262" lon="5.9805808"/>
<trkpt lat="52.4573887" lon="5.9795338"/>
<trkpt lat="52.4572100" lon="5.9789007"/>
<trkpt lat="52.4570122" lon="5.9785069"/>
<trkpt lat="52.4566087" lon="5.9778709"/>
<trkpt lat="52.4563893" lon="5.9775234"/>
<trkpt lat="52.4562626" lon="5.9771889"/>
<trkpt lat="52.4560182" lon="5.9775535"/>
<trkpt lat="52.4556664" lon="5.9779926"/>
<trkpt lat="52.4554914" lon="5.9780545"/>
<trkpt lat="52.4552956" lon="5.9779701"/>
<trkpt lat="52.4552071" lon="5.9778346"/>
<trkpt lat="52.4550389" lon="5.9772193"/>
<trkpt lat="52.4547885" lon="5.9763219"/>
<trkpt lat="52.4546787" lon="5.9758315"/>
<trkpt lat="52.4545726" lon="5.9754198"/>
<trkpt lat="52.4544579" lon="5.9750202"/>
<trkpt lat="52.4543949" lon="5.9747269"/>
<trkpt lat="52.4543080" lon="5.9742447"/>
<trkpt lat="52.4542786" lon="5.9741527"/>
<trkpt lat="52.4542499" lon="5.9739371"/>
<trkpt lat="52.4542236" lon="5.9737417"/>
<trkpt lat="52.4541964" lon="5.9737170"/>
<trkpt lat="52.4541518" lon="5.9737124"/>
<trkpt lat="52.4540277" lon="5.9737148"/>
<trkpt lat="52.4538937" lon="5.9737130"/>
<trkpt lat="52.4536976" lon="5.9737185"/>
<trkpt lat="52.4534050" lon="5.9737313"/>
<trkpt lat="52.4533232" lon="5.9737334"/>
<trkpt lat="52.4533186" lon="5.9734967"/>
<trkpt lat="52.4533695" lon="5.9728216"/>
<trkpt lat="52.4533702" lon="5.9726940"/>
<trkpt lat="52.4531561" lon="5.9725167"/>
<trkpt lat="52.4530308" lon="5.9720854"/>
<trkpt lat="52.4528775" lon="5.9716586"/>
</trkseg></trk>
<trk><name>Wiseperpad - overstaproute2</name><type>connectionRoute</type><trkseg>
<trkpt lat="52.4749640" lon="6.0297451"/>
<trkpt lat="52.4749588" lon="6.0302145"/>
<trkpt lat="52.4754500" lon="6.0317171"/>
<trkpt lat="52.4761112" lon="6.0334442"/>
<trkpt lat="52.4764759" lon="6.0345945"/>
<trkpt lat="52.4767408" lon="6.0357316"/>
<trkpt lat="52.4770698" lon="6.0368697"/>
<trkpt lat="52.4770758" lon="6.0373955"/>
</trkseg></trk>
</gpx>