<?xml version="1.0" encoding="UTF-8"?>
<gpx version="1.1" creator="klompenpaden.nl via Jimbo API" xmlns="http://www.topografix.com/GPX/1/1">
<metadata><name>Woldermarkerpad</name><desc>Ontdek het mooie buitengebied van Terwolde. Wandelen langs boerenerven, over schouwpaden en historische wegen, Rust, ruimte en het IJssellandschap bepalen hier de sfeer. Klompen aan, rugzak op en gaan!</desc><link href="https://www.klompenpaden.nl/klompenpaden/Woldermarkerpad/df967ad3-4c71-411a-bdba-8f58c0cdb42d"><text>klompenpaden.nl</text></link></metadata>
<wpt lat="52.28380721601418" lon="6.098758578300476"><name>Start Terwolde</name></wpt>
<trk><name>Woldermarkerpad - mainRoute</name><type>mainRoute</type><trkseg>
<trkpt lat="52.2835000" lon="6.0986800"/>
<trkpt lat="52.2838400" lon="6.0987300"/>
<trkpt lat="52.2834600" lon="6.0987600"/>
<trkpt lat="52.2833100" lon="6.0989000"/>
<trkpt lat="52.2832500" lon="6.0991300"/>
<trkpt lat="52.2831700" lon="6.0992900"/>
<trkpt lat="52.2826800" lon="6.0995400"/>
<trkpt lat="52.2823600" lon="6.0996700"/>
<trkpt lat="52.2820800" lon="6.0998100"/>
<trkpt lat="52.2819300" lon="6.0999400"/>
<trkpt lat="52.2817700" lon="6.0998700"/>
<trkpt lat="52.2816000" lon="6.1002400"/>
<trkpt lat="52.2815000" lon="6.1003700"/>
<trkpt lat="52.2805100" lon="6.1014800"/>
<trkpt lat="52.2800800" lon="6.1019200"/>
<trkpt lat="52.2795100" lon="6.1025600"/>
<trkpt lat="52.2791600" lon="6.1030100"/>
<trkpt lat="52.2787300" lon="6.1036000"/>
<trkpt lat="52.2785300" lon="6.1034600"/>
<trkpt lat="52.2783900" lon="6.1034000"/>
<trkpt lat="52.2782400" lon="6.1034300"/>
<trkpt lat="52.2782000" lon="6.1031100"/>
<trkpt lat="52.2781100" lon="6.1019100"/>
<trkpt lat="52.2780000" lon="6.1009000"/>
<trkpt lat="52.2780100" lon="6.1007800"/>
<trkpt lat="52.2781800" lon="6.1006900"/>
<trkpt lat="52.2787000" lon="6.1006300"/>
<trkpt lat="52.2790100" lon="6.1005600"/>
<trkpt lat="52.2791100" lon="6.0992600"/>
<trkpt lat="52.2773700" lon="6.0986300"/>
<trkpt lat="52.2774500" lon="6.0976700"/>
<trkpt lat="52.2774500" lon="6.0973600"/>
<trkpt lat="52.2774300" lon="6.0968500"/>
<trkpt lat="52.2773800" lon="6.0963600"/>
<trkpt lat="52.2771900" lon="6.0952100"/>
<trkpt lat="52.2770300" lon="6.0943800"/>
<trkpt lat="52.2766500" lon="6.0935100"/>
<trkpt lat="52.2763500" lon="6.0929300"/>
<trkpt lat="52.2762100" lon="6.0922900"/>
<trkpt lat="52.2759300" lon="6.0905700"/>
<trkpt lat="52.2758700" lon="6.0905500"/>
<trkpt lat="52.2758400" lon="6.0904200"/>
<trkpt lat="52.2751300" lon="6.0908100"/>
<trkpt lat="52.2743200" lon="6.0913000"/>
<trkpt lat="52.2740100" lon="6.0914400"/>
<trkpt lat="52.2737500" lon="6.0915300"/>
<trkpt lat="52.2735400" lon="6.0916600"/>
<trkpt lat="52.2729100" lon="6.0920900"/>
<trkpt lat="52.2728200" lon="6.0920500"/>
<trkpt lat="52.2727100" lon="6.0911900"/>
<trkpt lat="52.2725500" lon="6.0901300"/>
<trkpt lat="52.2721500" lon="6.0871600"/>
<trkpt lat="52.2716300" lon="6.0835600"/>
<trkpt lat="52.2715800" lon="6.0830800"/>
<trkpt lat="52.2722400" lon="6.0830700"/>
<trkpt lat="52.2729900" lon="6.0827300"/>
<trkpt lat="52.2737100" lon="6.0824300"/>
<trkpt lat="52.2748700" lon="6.0820000"/>
<trkpt lat="52.2774300" lon="6.0809600"/>
<trkpt lat="52.2787100" lon="6.0805200"/>
<trkpt lat="52.2797600" lon="6.0804000"/>
<trkpt lat="52.2797700" lon="6.0802600"/>
<trkpt lat="52.2806700" lon="6.0802700"/>
<trkpt lat="52.2808700" lon="6.0803200"/>
<trkpt lat="52.2810800" lon="6.0805900"/>
<trkpt lat="52.2820000" lon="6.0822300"/>
<trkpt lat="52.2819400" lon="6.0823300"/>
<trkpt lat="52.2825400" lon="6.0836400"/>
<trkpt lat="52.2827600" lon="6.0837500"/>
<trkpt lat="52.2826800" lon="6.0840200"/>
<trkpt lat="52.2826200" lon="6.0843100"/>
<trkpt lat="52.2827600" lon="6.0856900"/>
<trkpt lat="52.2827300" lon="6.0860400"/>
<trkpt lat="52.2826400" lon="6.0862600"/>
<trkpt lat="52.2825100" lon="6.0864000"/>
<trkpt lat="52.2812400" lon="6.0871400"/>
<trkpt lat="52.2785500" lon="6.0888200"/>
<trkpt lat="52.2766400" lon="6.0899000"/>
<trkpt lat="52.2758400" lon="6.0904200"/>
<trkpt lat="52.2758700" lon="6.0905500"/>
<trkpt lat="52.2759300" lon="6.0905600"/>
<trkpt lat="52.2774900" lon="6.0896500"/>
<trkpt lat="52.2778200" lon="6.0894800"/>
<trkpt lat="52.2779200" lon="6.0895600"/>
<trkpt lat="52.2780100" lon="6.0897300"/>
<trkpt lat="52.2786800" lon="6.0917500"/>
<trkpt lat="52.2787900" lon="6.0921200"/>
<trkpt lat="52.2788900" lon="6.0927500"/>
<trkpt lat="52.2789400" lon="6.0929400"/>
<trkpt lat="52.2790500" lon="6.0930800"/>
<trkpt lat="52.2794900" lon="6.0934400"/>
<trkpt lat="52.2800700" lon="6.0938000"/>
<trkpt lat="52.2803900" lon="6.0940500"/>
<trkpt lat="52.2808800" lon="6.0948200"/>
<trkpt lat="52.2810100" lon="6.0949400"/>
<trkpt lat="52.2811600" lon="6.0949600"/>
<trkpt lat="52.2815600" lon="6.0948300"/>
<trkpt lat="52.2823300" lon="6.0949500"/>
<trkpt lat="52.2824000" lon="6.0950200"/>
<trkpt lat="52.2826100" lon="6.0958500"/>
<trkpt lat="52.2825700" lon="6.0959500"/>
<trkpt lat="52.2827400" lon="6.0963600"/>
<trkpt lat="52.2829700" lon="6.0971700"/>
<trkpt lat="52.2833200" lon="6.0985200"/>
<trkpt lat="52.2833800" lon="6.0986100"/>
<trkpt lat="52.2834900" lon="6.0986800"/>
</trkseg></trk>
</gpx>