<?xml version="1.0" encoding="UTF-8"?>
<gpx version="1.1" creator="klompenpaden.nl via Jimbo API" xmlns="http://www.topografix.com/GPX/1/1">
<metadata><name>Wolferensepad</name><desc>Ontdek het prachtige buitengebied van Herveld en Andelst en leer meer over de historie van de fruit- en tabaksteelt in deze regio. Zoek op deze gevarieerde route de wespendief in het bos en het icarusblauwtje in de Loenensche Buitenpolder! Klompen aan, rugzak op en gaan!</desc><link href="https://www.klompenpaden.nl/klompenpaden/Wolferensepad/5d029c6d-671f-4caf-af6a-6888c1eb5737"><text>klompenpaden.nl</text></link></metadata>
<wpt lat="51.9096494266756" lon="5.738065838813782"><name>Start Herveld</name></wpt>
<trk><name>Wolferensepad - Hoofroute</name><type>mainRoute</type><trkseg>
<trkpt lat="51.9094857" lon="5.7377375"/>
<trkpt lat="51.9100024" lon="5.7372337"/>
<trkpt lat="51.9099422" lon="5.7371065"/>
<trkpt lat="51.9098546" lon="5.7368878"/>
<trkpt lat="51.9096804" lon="5.7360935"/>
<trkpt lat="51.9094505" lon="5.7350531"/>
<trkpt lat="51.9093006" lon="5.7346717"/>
<trkpt lat="51.9089092" lon="5.7341847"/>
<trkpt lat="51.9086768" lon="5.7336990"/>
<trkpt lat="51.9084077" lon="5.7329560"/>
<trkpt lat="51.9081576" lon="5.7321223"/>
<trkpt lat="51.9078523" lon="5.7310009"/>
<trkpt lat="51.9076489" lon="5.7301828"/>
<trkpt lat="51.9074277" lon="5.7290469"/>
<trkpt lat="51.9073822" lon="5.7288411"/>
<trkpt lat="51.9072914" lon="5.7288840"/>
<trkpt lat="51.9071835" lon="5.7288832"/>
<trkpt lat="51.9069653" lon="5.7288815"/>
<trkpt lat="51.9068305" lon="5.7288448"/>
<trkpt lat="51.9067130" lon="5.7287726"/>
<trkpt lat="51.9065981" lon="5.7286805"/>
<trkpt lat="51.9065468" lon="5.7286088"/>
<trkpt lat="51.9064762" lon="5.7284378"/>
<trkpt lat="51.9063203" lon="5.7280798"/>
<trkpt lat="51.9061693" lon="5.7277338"/>
<trkpt lat="51.9060057" lon="5.7274987"/>
<trkpt lat="51.9058393" lon="5.7273864"/>
<trkpt lat="51.9057362" lon="5.7274372"/>
<trkpt lat="51.9056429" lon="5.7274523"/>
<trkpt lat="51.9055720" lon="5.7274082"/>
<trkpt lat="51.9053446" lon="5.7271647"/>
<trkpt lat="51.9051759" lon="5.7270048"/>
<trkpt lat="51.9050709" lon="5.7268653"/>
<trkpt lat="51.9050148" lon="5.7267658"/>
<trkpt lat="51.9049031" lon="5.7263844"/>
<trkpt lat="51.9047677" lon="5.7259290"/>
<trkpt lat="51.9047267" lon="5.7258788"/>
<trkpt lat="51.9046982" lon="5.7258712"/>
<trkpt lat="51.9046295" lon="5.7259132"/>
<trkpt lat="51.9045378" lon="5.7259975"/>
<trkpt lat="51.9044274" lon="5.7260823"/>
<trkpt lat="51.9043474" lon="5.7261621"/>
<trkpt lat="51.9042608" lon="5.7262749"/>
<trkpt lat="51.9041895" lon="5.7264044"/>
<trkpt lat="51.9041153" lon="5.7265398"/>
<trkpt lat="51.9040667" lon="5.7266553"/>
<trkpt lat="51.9040571" lon="5.7266813"/>
<trkpt lat="51.9040446" lon="5.7267013"/>
<trkpt lat="51.9039731" lon="5.7266452"/>
<trkpt lat="51.9039351" lon="5.7266248"/>
<trkpt lat="51.9038714" lon="5.7266539"/>
<trkpt lat="51.9037718" lon="5.7266969"/>
<trkpt lat="51.9037029" lon="5.7267519"/>
<trkpt lat="51.9035812" lon="5.7268538"/>
<trkpt lat="51.9033855" lon="5.7270273"/>
<trkpt lat="51.9031476" lon="5.7272381"/>
<trkpt lat="51.9031276" lon="5.7272596"/>
<trkpt lat="51.9028153" lon="5.7265885"/>
<trkpt lat="51.9022773" lon="5.7253191"/>
<trkpt lat="51.9018821" lon="5.7244849"/>
<trkpt lat="51.9017310" lon="5.7241624"/>
<trkpt lat="51.9014989" lon="5.7234236"/>
<trkpt lat="51.9013371" lon="5.7228461"/>
<trkpt lat="51.9013031" lon="5.7227442"/>
<trkpt lat="51.9012347" lon="5.7226883"/>
<trkpt lat="51.9011639" lon="5.7226693"/>
<trkpt lat="51.9010748" lon="5.7226760"/>
<trkpt lat="51.9007159" lon="5.7227121"/>
<trkpt lat="51.8999894" lon="5.7228141"/>
<trkpt lat="51.8997060" lon="5.7228190"/>
<trkpt lat="51.8994183" lon="5.7228239"/>
<trkpt lat="51.8991436" lon="5.7228641"/>
<trkpt lat="51.8988514" lon="5.7229324"/>
<trkpt lat="51.8981757" lon="5.7229414"/>
<trkpt lat="51.8974740" lon="5.7229010"/>
<trkpt lat="51.8960184" lon="5.7228126"/>
<trkpt lat="51.8955942" lon="5.7227866"/>
<trkpt lat="51.8955246" lon="5.7227528"/>
<trkpt lat="51.8954790" lon="5.7227044"/>
<trkpt lat="51.8954552" lon="5.7226433"/>
<trkpt lat="51.8954396" lon="5.7225250"/>
<trkpt lat="51.8954392" lon="5.7218508"/>
<trkpt lat="51.8954202" lon="5.7216992"/>
<trkpt lat="51.8953591" lon="5.7214956"/>
<trkpt lat="51.8952977" lon="5.7213696"/>
<trkpt lat="51.8951613" lon="5.7211414"/>
<trkpt lat="51.8950860" lon="5.7210947"/>
<trkpt lat="51.8950392" lon="5.7210869"/>
<trkpt lat="51.8949968" lon="5.7211125"/>
<trkpt lat="51.8949751" lon="5.7211215"/>
<trkpt lat="51.8949216" lon="5.7209953"/>
<trkpt lat="51.8942895" lon="5.7197584"/>
<trkpt lat="51.8939450" lon="5.7190921"/>
<trkpt lat="51.8940724" lon="5.7188478"/>
<trkpt lat="51.8937482" lon="5.7182319"/>
<trkpt lat="51.8934100" lon="5.7182717"/>
<trkpt lat="51.8933851" lon="5.7180697"/>
<trkpt lat="51.8932261" lon="5.7160832"/>
<trkpt lat="51.8931847" lon="5.7155784"/>
<trkpt lat="51.8930028" lon="5.7155061"/>
<trkpt lat="51.8928832" lon="5.7156067"/>
<trkpt lat="51.8927822" lon="5.7157633"/>
<trkpt lat="51.8924522" lon="5.7166325"/>
<trkpt lat="51.8920694" lon="5.7173017"/>
<trkpt lat="51.8917788" lon="5.7179100"/>
<trkpt lat="51.8915571" lon="5.7188780"/>
<trkpt lat="51.8911774" lon="5.7195677"/>
<trkpt lat="51.8908500" lon="5.7208734"/>
<trkpt lat="51.8905790" lon="5.7215908"/>
<trkpt lat="51.8902499" lon="5.7223515"/>
<trkpt lat="51.8899431" lon="5.7237778"/>
<trkpt lat="51.8895623" lon="5.7248347"/>
<trkpt lat="51.8889672" lon="5.7269593"/>
<trkpt lat="51.8885505" lon="5.7290350"/>
<trkpt lat="51.8880306" lon="5.7319240"/>
<trkpt lat="51.8878077" lon="5.7339510"/>
<trkpt lat="51.8875879" lon="5.7348886"/>
<trkpt lat="51.8874489" lon="5.7373295"/>
<trkpt lat="51.8872209" lon="5.7384298"/>
<trkpt lat="51.8872261" lon="5.7392765"/>
<trkpt lat="51.8873402" lon="5.7396370"/>
<trkpt lat="51.8872732" lon="5.7401794"/>
<trkpt lat="51.8870956" lon="5.7404830"/>
<trkpt lat="51.8870800" lon="5.7411786"/>
<trkpt lat="51.8870378" lon="5.7414860"/>
<trkpt lat="51.8870021" lon="5.7416585"/>
<trkpt lat="51.8870961" lon="5.7419176"/>
<trkpt lat="51.8871569" lon="5.7422278"/>
<trkpt lat="51.8870382" lon="5.7427673"/>
<trkpt lat="51.8869193" lon="5.7433795"/>
<trkpt lat="51.8868125" lon="5.7437923"/>
<trkpt lat="51.8867600" lon="5.7441598"/>
<trkpt lat="51.8866686" lon="5.7446060"/>
<trkpt lat="51.8865703" lon="5.7452018"/>
<trkpt lat="51.8864810" lon="5.7458101"/>
<trkpt lat="51.8863984" lon="5.7463229"/>
<trkpt lat="51.8862945" lon="5.7470454"/>
<trkpt lat="51.8862090" lon="5.7476642"/>
<trkpt lat="51.8861700" lon="5.7478260"/>
<trkpt lat="51.8861399" lon="5.7479795"/>
<trkpt lat="51.8860657" lon="5.7482824"/>
<trkpt lat="51.8860042" lon="5.7486207"/>
<trkpt lat="51.8859560" lon="5.7488199"/>
<trkpt lat="51.8859089" lon="5.7490461"/>
<trkpt lat="51.8858515" lon="5.7493366"/>
<trkpt lat="51.8857770" lon="5.7496616"/>
<trkpt lat="51.8857038" lon="5.7500858"/>
<trkpt lat="51.8856181" lon="5.7503574"/>
<trkpt lat="51.8855324" lon="5.7506207"/>
<trkpt lat="51.8854464" lon="5.7509671"/>
<trkpt lat="51.8853408" lon="5.7514173"/>
<trkpt lat="51.8852729" lon="5.7517597"/>
<trkpt lat="51.8851764" lon="5.7521705"/>
<trkpt lat="51.8851175" lon="5.7525109"/>
<trkpt lat="51.8850664" lon="5.7527973"/>
<trkpt lat="51.8850215" lon="5.7530763"/>
<trkpt lat="51.8849819" lon="5.7534846"/>
<trkpt lat="51.8848600" lon="5.7539853"/>
<trkpt lat="51.8847778" lon="5.7544129"/>
<trkpt lat="51.8847065" lon="5.7548999"/>
<trkpt lat="51.8845754" lon="5.7551588"/>
<trkpt lat="51.8844431" lon="5.7556806"/>
<trkpt lat="51.8842382" lon="5.7562993"/>
<trkpt lat="51.8839325" lon="5.7576250"/>
<trkpt lat="51.8836122" lon="5.7585058"/>
<trkpt lat="51.8834992" lon="5.7592875"/>
<trkpt lat="51.8831550" lon="5.7600901"/>
<trkpt lat="51.8829135" lon="5.7608155"/>
<trkpt lat="51.8824529" lon="5.7634552"/>
<trkpt lat="51.8822230" lon="5.7648692"/>
<trkpt lat="51.8821211" lon="5.7653912"/>
<trkpt lat="51.8823190" lon="5.7663541"/>
<trkpt lat="51.8824807" lon="5.7666900"/>
<trkpt lat="51.8832267" lon="5.7673780"/>
<trkpt lat="51.8837016" lon="5.7677507"/>
<trkpt lat="51.8843153" lon="5.7681325"/>
<trkpt lat="51.8844541" lon="5.7681417"/>
<trkpt lat="51.8845157" lon="5.7681379"/>
<trkpt lat="51.8846291" lon="5.7680422"/>
<trkpt lat="51.8847073" lon="5.7680051"/>
<trkpt lat="51.8847728" lon="5.7678376"/>
<trkpt lat="51.8849085" lon="5.7672799"/>
<trkpt lat="51.8849760" lon="5.7669191"/>
<trkpt lat="51.8850553" lon="5.7664753"/>
<trkpt lat="51.8850594" lon="5.7661727"/>
<trkpt lat="51.8849879" lon="5.7657054"/>
<trkpt lat="51.8849958" lon="5.7652387"/>
<trkpt lat="51.8851406" lon="5.7646141"/>
<trkpt lat="51.8852634" lon="5.7639586"/>
<trkpt lat="51.8854051" lon="5.7633084"/>
<trkpt lat="51.8854507" lon="5.7629343"/>
<trkpt lat="51.8853906" lon="5.7628672"/>
<trkpt lat="51.8852736" lon="5.7627431"/>
<trkpt lat="51.8854313" lon="5.7620725"/>
<trkpt lat="51.8854867" lon="5.7616164"/>
<trkpt lat="51.8855428" lon="5.7609296"/>
<trkpt lat="51.8855662" lon="5.7605605"/>
<trkpt lat="51.8856208" lon="5.7603763"/>
<trkpt lat="51.8858718" lon="5.7603014"/>
<trkpt lat="51.8859227" lon="5.7602608"/>
<trkpt lat="51.8859173" lon="5.7599581"/>
<trkpt lat="51.8858992" lon="5.7596605"/>
<trkpt lat="51.8859033" lon="5.7593784"/>
<trkpt lat="51.8859106" lon="5.7590758"/>
<trkpt lat="51.8858925" lon="5.7587782"/>
<trkpt lat="51.8858743" lon="5.7585113"/>
<trkpt lat="51.8859098" lon="5.7583115"/>
<trkpt lat="51.8860055" lon="5.7581790"/>
<trkpt lat="51.8860944" lon="5.7581592"/>
<trkpt lat="51.8861831" lon="5.7580811"/>
<trkpt lat="51.8864075" lon="5.7584474"/>
<trkpt lat="51.8865957" lon="5.7586623"/>
<trkpt lat="51.8867961" lon="5.7588938"/>
<trkpt lat="51.8869098" lon="5.7588980"/>
<trkpt lat="51.8869627" lon="5.7588754"/>
<trkpt lat="51.8869926" lon="5.7588627"/>
<trkpt lat="51.8870440" lon="5.7588597"/>
<trkpt lat="51.8870907" lon="5.7588732"/>
<trkpt lat="51.8871638" lon="5.7588869"/>
<trkpt lat="51.8880045" lon="5.7589825"/>
<trkpt lat="51.8887496" lon="5.7591134"/>
<trkpt lat="51.8888925" lon="5.7569544"/>
<trkpt lat="51.8891286" lon="5.7535847"/>
<trkpt lat="51.8906863" lon="5.7534160"/>
<trkpt lat="51.8917753" lon="5.7533274"/>
<trkpt lat="51.8917722" lon="5.7543226"/>
<trkpt lat="51.8916960" lon="5.7543374"/>
<trkpt lat="51.8916913" lon="5.7558353"/>
<trkpt lat="51.8917389" lon="5.7578569"/>
<trkpt lat="51.8918974" lon="5.7599205"/>
<trkpt lat="51.8921279" lon="5.7622925"/>
<trkpt lat="51.8922078" lon="5.7631242"/>
<trkpt lat="51.8928490" lon="5.7661468"/>
<trkpt lat="51.8929398" lon="5.7661062"/>
<trkpt lat="51.8929698" lon="5.7660970"/>
<trkpt lat="51.8929571" lon="5.7659432"/>
<trkpt lat="51.8930245" lon="5.7658989"/>
<trkpt lat="51.8930767" lon="5.7660530"/>
<trkpt lat="51.8931446" lon="5.7663077"/>
<trkpt lat="51.8931915" lon="5.7665255"/>
<trkpt lat="51.8932317" lon="5.7667540"/>
<trkpt lat="51.8936588" lon="5.7665259"/>
<trkpt lat="51.8941758" lon="5.7662986"/>
<trkpt lat="51.8950675" lon="5.7658884"/>
<trkpt lat="51.8951408" lon="5.7658515"/>
<trkpt lat="51.8953105" lon="5.7658154"/>
<trkpt lat="51.8955000" lon="5.7657477"/>
<trkpt lat="51.8957164" lon="5.7656485"/>
<trkpt lat="51.8964959" lon="5.7653117"/>
<trkpt lat="51.8965531" lon="5.7652977"/>
<trkpt lat="51.8966334" lon="5.7653071"/>
<trkpt lat="51.8966940" lon="5.7653249"/>
<trkpt lat="51.8967671" lon="5.7653659"/>
<trkpt lat="51.8969007" lon="5.7654796"/>
<trkpt lat="51.8970466" lon="5.7656078"/>
<trkpt lat="51.8971605" lon="5.7657242"/>
<trkpt lat="51.8972724" lon="5.7659070"/>
<trkpt lat="51.8972907" lon="5.7657917"/>
<trkpt lat="51.8973278" lon="5.7653389"/>
<trkpt lat="51.8973522" lon="5.7649755"/>
<trkpt lat="51.8973471" lon="5.7649004"/>
<trkpt lat="51.8972753" lon="5.7644640"/>
<trkpt lat="51.8972164" lon="5.7644664"/>
<trkpt lat="51.8970448" lon="5.7645255"/>
<trkpt lat="51.8956717" lon="5.7651027"/>
<trkpt lat="51.8953695" lon="5.7652474"/>
<trkpt lat="51.8953255" lon="5.7650421"/>
<trkpt lat="51.8952484" lon="5.7646028"/>
<trkpt lat="51.8948396" lon="5.7623427"/>
<trkpt lat="51.8947188" lon="5.7616087"/>
<trkpt lat="51.8946959" lon="5.7615075"/>
<trkpt lat="51.8946793" lon="5.7611120"/>
<trkpt lat="51.8946339" lon="5.7602170"/>
<trkpt lat="51.8945038" lon="5.7578900"/>
<trkpt lat="51.8944551" lon="5.7569142"/>
<trkpt lat="51.8943284" lon="5.7546189"/>
<trkpt lat="51.8943059" lon="5.7545907"/>
<trkpt lat="51.8941678" lon="5.7545470"/>
<trkpt lat="51.8940005" lon="5.7545007"/>
<trkpt lat="51.8936359" lon="5.7544043"/>
<trkpt lat="51.8936873" lon="5.7540880"/>
<trkpt lat="51.8937596" lon="5.7536489"/>
<trkpt lat="51.8938256" lon="5.7533775"/>
<trkpt lat="51.8940475" lon="5.7530259"/>
<trkpt lat="51.8948149" lon="5.7520401"/>
<trkpt lat="51.8954798" lon="5.7512375"/>
<trkpt lat="51.8956664" lon="5.7509619"/>
<trkpt lat="51.8960004" lon="5.7503384"/>
<trkpt lat="51.8962233" lon="5.7498352"/>
<trkpt lat="51.8963836" lon="5.7494007"/>
<trkpt lat="51.8963894" lon="5.7492651"/>
<trkpt lat="51.8962869" lon="5.7489180"/>
<trkpt lat="51.8962347" lon="5.7488320"/>
<trkpt lat="51.8961698" lon="5.7487535"/>
<trkpt lat="51.8961165" lon="5.7487389"/>
<trkpt lat="51.8959616" lon="5.7486986"/>
<trkpt lat="51.8958893" lon="5.7486756"/>
<trkpt lat="51.8958391" lon="5.7485853"/>
<trkpt lat="51.8958269" lon="5.7485025"/>
<trkpt lat="51.8958360" lon="5.7483997"/>
<trkpt lat="51.8958868" lon="5.7482949"/>
<trkpt lat="51.8959425" lon="5.7482304"/>
<trkpt lat="51.8959865" lon="5.7482000"/>
<trkpt lat="51.8961742" lon="5.7480514"/>
<trkpt lat="51.8965951" lon="5.7476812"/>
<trkpt lat="51.8967975" lon="5.7475103"/>
<trkpt lat="51.8969844" lon="5.7473486"/>
<trkpt lat="51.8971877" lon="5.7471422"/>
<trkpt lat="51.8973000" lon="5.7469261"/>
<trkpt lat="51.8974034" lon="5.7467096"/>
<trkpt lat="51.8974785" lon="5.7467859"/>
<trkpt lat="51.8976211" lon="5.7469951"/>
<trkpt lat="51.8978462" lon="5.7473116"/>
<trkpt lat="51.8980802" lon="5.7476312"/>
<trkpt lat="51.8981380" lon="5.7476960"/>
<trkpt lat="51.8983954" lon="5.7479939"/>
<trkpt lat="51.8984873" lon="5.7481111"/>
<trkpt lat="51.8986632" lon="5.7482964"/>
<trkpt lat="51.8987756" lon="5.7484214"/>
<trkpt lat="51.8988889" lon="5.7485426"/>
<trkpt lat="51.8989260" lon="5.7485164"/>
<trkpt lat="51.8989623" lon="5.7484320"/>
<trkpt lat="51.8990523" lon="5.7482413"/>
<trkpt lat="51.8993171" lon="5.7476234"/>
<trkpt lat="51.8995062" lon="5.7470968"/>
<trkpt lat="51.8996992" lon="5.7464691"/>
<trkpt lat="51.8998219" lon="5.7460372"/>
<trkpt lat="51.8998886" lon="5.7458270"/>
<trkpt lat="51.9002892" lon="5.7450452"/>
<trkpt lat="51.9006373" lon="5.7444505"/>
<trkpt lat="51.9008079" lon="5.7441546"/>
<trkpt lat="51.9011255" lon="5.7436174"/>
<trkpt lat="51.9012062" lon="5.7434968"/>
<trkpt lat="51.9012177" lon="5.7433737"/>
<trkpt lat="51.9011957" lon="5.7426713"/>
<trkpt lat="51.9011907" lon="5.7423911"/>
<trkpt lat="51.9011845" lon="5.7415257"/>
<trkpt lat="51.9011625" lon="5.7410834"/>
<trkpt lat="51.9010975" lon="5.7403073"/>
<trkpt lat="51.9010479" lon="5.7397785"/>
<trkpt lat="51.9009926" lon="5.7392024"/>
<trkpt lat="51.9011412" lon="5.7391586"/>
<trkpt lat="51.9016841" lon="5.7389519"/>
<trkpt lat="51.9050127" lon="5.7375751"/>
<trkpt lat="51.9050895" lon="5.7375786"/>
<trkpt lat="51.9051264" lon="5.7377752"/>
<trkpt lat="51.9053004" lon="5.7386915"/>
<trkpt lat="51.9053814" lon="5.7390587"/>
<trkpt lat="51.9056845" lon="5.7404062"/>
<trkpt lat="51.9060241" lon="5.7402848"/>
<trkpt lat="51.9059781" lon="5.7401228"/>
<trkpt lat="51.9058457" lon="5.7396426"/>
<trkpt lat="51.9057582" lon="5.7390530"/>
<trkpt lat="51.9058352" lon="5.7389757"/>
<trkpt lat="51.9061251" lon="5.7387470"/>
<trkpt lat="51.9062146" lon="5.7386842"/>
<trkpt lat="51.9062290" lon="5.7386451"/>
<trkpt lat="51.9062372" lon="5.7385766"/>
<trkpt lat="51.9065851" lon="5.7383552"/>
<trkpt lat="51.9067631" lon="5.7382452"/>
<trkpt lat="51.9068521" lon="5.7382050"/>
<trkpt lat="51.9069692" lon="5.7381817"/>
<trkpt lat="51.9074174" lon="5.7381042"/>
<trkpt lat="51.9075005" lon="5.7379929"/>
<trkpt lat="51.9076064" lon="5.7379710"/>
<trkpt lat="51.9078986" lon="5.7379256"/>
<trkpt lat="51.9080457" lon="5.7378821"/>
<trkpt lat="51.9081523" lon="5.7380196"/>
<trkpt lat="51.9086429" lon="5.7379552"/>
<trkpt lat="51.9087336" lon="5.7380789"/>
<trkpt lat="51.9090332" lon="5.7380180"/>
<trkpt lat="51.9090958" lon="5.7381053"/>
<trkpt lat="51.9092772" lon="5.7385908"/>
<trkpt lat="51.9092806" lon="5.7386093"/>
<trkpt lat="51.9096692" lon="5.7382283"/>
<trkpt lat="51.9094857" lon="5.7377375"/>
</trkseg></trk>
<trk><name>Wolferensepad - Route verkorter</name><type>shorteningRoute</type><trkseg>
<trkpt lat="51.8870961" lon="5.7419176"/>
<trkpt lat="51.8871284" lon="5.7418492"/>
<trkpt lat="51.8871639" lon="5.7417845"/>
<trkpt lat="51.8874669" lon="5.7415841"/>
<trkpt lat="51.8877234" lon="5.7414760"/>
<trkpt lat="51.8882403" lon="5.7416494"/>
<trkpt lat="51.8884059" lon="5.7414082"/>
<trkpt lat="51.8888339" lon="5.7405871"/>
<trkpt lat="51.8889658" lon="5.7405924"/>
<trkpt lat="51.8890016" lon="5.7406618"/>
<trkpt lat="51.8891024" lon="5.7409220"/>
<trkpt lat="51.8892276" lon="5.7411593"/>
<trkpt lat="51.8892783" lon="5.7412090"/>
<trkpt lat="51.8895871" lon="5.7418549"/>
<trkpt lat="51.8896733" lon="5.7422594"/>
<trkpt lat="51.8896842" lon="5.7426633"/>
<trkpt lat="51.8896460" lon="5.7432080"/>
<trkpt lat="51.8896453" lon="5.7434443"/>
<trkpt lat="51.8897313" lon="5.7438915"/>
<trkpt lat="51.8899783" lon="5.7441758"/>
<trkpt lat="51.8905974" lon="5.7449851"/>
<trkpt lat="51.8913093" lon="5.7460381"/>
<trkpt lat="51.8920350" lon="5.7471963"/>
<trkpt lat="51.8923950" lon="5.7477179"/>
<trkpt lat="51.8925672" lon="5.7478638"/>
<trkpt lat="51.8929508" lon="5.7479686"/>
<trkpt lat="51.8933284" lon="5.7480538"/>
<trkpt lat="51.8940977" lon="5.7482405"/>
<trkpt lat="51.8949158" lon="5.7484375"/>
<trkpt lat="51.8952710" lon="5.7485290"/>
<trkpt lat="51.8955129" lon="5.7484752"/>
<trkpt lat="51.8957366" lon="5.7483981"/>
<trkpt lat="51.8958868" lon="5.7482949"/>
</trkseg></trk>
<trk><name>Wolferensepad - Overstap route</name><type>connectionRoute</type><trkseg>
<trkpt lat="51.8931847" lon="5.7155784"/>
<trkpt lat="51.8932796" lon="5.7153254"/>
<trkpt lat="51.8935296" lon="5.7151466"/>
<trkpt lat="51.8937187" lon="5.7150141"/>
<trkpt lat="51.8939253" lon="5.7146296"/>
<trkpt lat="51.8940903" lon="5.7142547"/>
<trkpt lat="51.8949922" lon="5.7121727"/>
<trkpt lat="51.8950551" lon="5.7120316"/>
<trkpt lat="51.8951477" lon="5.7117156"/>
<trkpt lat="51.8952491" lon="5.7112246"/>
<trkpt lat="51.8954774" lon="5.7100472"/>
<trkpt lat="51.8955740" lon="5.7097784"/>
<trkpt lat="51.8957959" lon="5.7094431"/>
<trkpt lat="51.8960217" lon="5.7091617"/>
<trkpt lat="51.8962123" lon="5.7080784"/>
<trkpt lat="51.8965260" lon="5.7061469"/>
<trkpt lat="51.8966191" lon="5.7056221"/>
<trkpt lat="51.8966615" lon="5.7053529"/>
<trkpt lat="51.8966831" lon="5.7050633"/>
<trkpt lat="51.8966838" lon="5.7048410"/>
<trkpt lat="51.8967078" lon="5.7045660"/>
</trkseg></trk>
<trk><name>Wolferensepad - Aanloop route</name><type>approachRoute</type><trkseg>
<trkpt lat="51.9198266" lon="5.7235127"/>
<trkpt lat="51.9198273" lon="5.7235409"/>
<trkpt lat="51.9198033" lon="5.7240844"/>
<trkpt lat="51.9198254" lon="5.7243110"/>
<trkpt lat="51.9196744" lon="5.7243835"/>
<trkpt lat="51.9195560" lon="5.7244057"/>
<trkpt lat="51.9194936" lon="5.7244200"/>
<trkpt lat="51.9194127" lon="5.7244909"/>
<trkpt lat="51.9192800" lon="5.7245256"/>
<trkpt lat="51.9191305" lon="5.7245371"/>
<trkpt lat="51.9190837" lon="5.7245430"/>
<trkpt lat="51.9191016" lon="5.7246504"/>
<trkpt lat="51.9191544" lon="5.7248001"/>
<trkpt lat="51.9192126" lon="5.7249330"/>
<trkpt lat="51.9192368" lon="5.7251056"/>
<trkpt lat="51.9192646" lon="5.7253770"/>
<trkpt lat="51.9192767" lon="5.7256967"/>
<trkpt lat="51.9192707" lon="5.7259784"/>
<trkpt lat="51.9192460" lon="5.7264176"/>
<trkpt lat="51.9191934" lon="5.7275295"/>
<trkpt lat="51.9191485" lon="5.7281893"/>
<trkpt lat="51.9190936" lon="5.7287545"/>
<trkpt lat="51.9190429" lon="5.7296540"/>
<trkpt lat="51.9189822" lon="5.7308288"/>
<trkpt lat="51.9187988" lon="5.7343950"/>
<trkpt lat="51.9187650" lon="5.7348645"/>
<trkpt lat="51.9187318" lon="5.7351007"/>
<trkpt lat="51.9186986" lon="5.7353206"/>
<trkpt lat="51.9186737" lon="5.7354978"/>
<trkpt lat="51.9186610" lon="5.7356685"/>
<trkpt lat="51.9186335" lon="5.7357715"/>
<trkpt lat="51.9185999" lon="5.7358601"/>
<trkpt lat="51.9185838" lon="5.7359501"/>
<trkpt lat="51.9185812" lon="5.7360012"/>
<trkpt lat="51.9185636" lon="5.7360347"/>
<trkpt lat="51.9184894" lon="5.7360839"/>
<trkpt lat="51.9180783" lon="5.7362400"/>
<trkpt lat="51.9177074" lon="5.7363716"/>
<trkpt lat="51.9173729" lon="5.7364868"/>
<trkpt lat="51.9167839" lon="5.7366644"/>
<trkpt lat="51.9163224" lon="5.7367571"/>
<trkpt lat="51.9154838" lon="5.7369270"/>
<trkpt lat="51.9140843" lon="5.7372208"/>
<trkpt lat="51.9127073" lon="5.7375997"/>
<trkpt lat="51.9118331" lon="5.7378360"/>
<trkpt lat="51.9111796" lon="5.7382940"/>
<trkpt lat="51.9106769" lon="5.7386251"/>
<trkpt lat="51.9103720" lon="5.7379855"/>
<trkpt lat="51.9100024" lon="5.7372337"/>
</trkseg></trk>
<trk><name>Wolferensepad - Aanloop route</name><type>approachRoute</type><trkseg>
<trkpt lat="51.8860500" lon="5.7538863"/>
<trkpt lat="51.8860834" lon="5.7537638"/>
<trkpt lat="51.8861268" lon="5.7536226"/>
<trkpt lat="51.8861377" lon="5.7534871"/>
<trkpt lat="51.8858531" lon="5.7534689"/>
<trkpt lat="51.8855048" lon="5.7534502"/>
<trkpt lat="51.8849819" lon="5.7534846"/>
</trkseg></trk>
</gpx>