<?xml version="1.0" encoding="UTF-8"?>
<gpx version="1.1" creator="klompenpaden.nl via Jimbo API" xmlns="http://www.topografix.com/GPX/1/1">
<metadata><name>Zandslagenpad</name><desc>Ontdek het gebied waar de Maas en Waal elkaar bijna raken. Een schilderachtig landschap met Maasheggen, hoogstamboomgaarden en een indrukwekkend fort. Klompen aan, rugzak op en gaan!</desc><link href="https://www.klompenpaden.nl/klompenpaden/Zandslagenpad/044e49e7-09fd-4321-81fb-57c95ed4a3f4"><text>klompenpaden.nl</text></link></metadata>
<wpt lat="51.80108174414561" lon="5.346227288246155"><name>Start Rossum</name></wpt>
<trk><name>Zandslagenpad - Hoofdroute 1</name><type>mainRoute</type><trkseg>
<trkpt lat="51.7998115" lon="5.3421583"/>
<trkpt lat="51.7998244" lon="5.3423203"/>
<trkpt lat="51.7998420" lon="5.3430805"/>
<trkpt lat="51.7996997" lon="5.3441547"/>
<trkpt lat="51.7995141" lon="5.3449832"/>
<trkpt lat="51.7994275" lon="5.3452218"/>
<trkpt lat="51.7993768" lon="5.3460689"/>
<trkpt lat="51.7993616" lon="5.3464143"/>
<trkpt lat="51.7995656" lon="5.3465950"/>
<trkpt lat="51.8002047" lon="5.3465631"/>
<trkpt lat="51.8004570" lon="5.3465314"/>
<trkpt lat="51.8004376" lon="5.3467176"/>
<trkpt lat="51.8003357" lon="5.3471700"/>
<trkpt lat="51.8008506" lon="5.3468571"/>
<trkpt lat="51.8011209" lon="5.3468650"/>
<trkpt lat="51.8011209" lon="5.3468650"/>
</trkseg></trk>
<trk><name>Zandslagenpad - Hoofdroute 2</name><type>mainRoute</type><trkseg>
<trkpt lat="51.8011209" lon="5.3468650"/>
<trkpt lat="51.8011233" lon="5.3466503"/>
</trkseg></trk>
<trk><name>Zandslagenpad - Hoofdroute 3</name><type>mainRoute</type><trkseg>
<trkpt lat="51.8011209" lon="5.3468650"/>
<trkpt lat="51.8011915" lon="5.3468763"/>
<trkpt lat="51.8012657" lon="5.3468333"/>
<trkpt lat="51.8014550" lon="5.3466206"/>
<trkpt lat="51.8016577" lon="5.3462289"/>
<trkpt lat="51.8019168" lon="5.3455315"/>
<trkpt lat="51.8021858" lon="5.3445819"/>
<trkpt lat="51.8023716" lon="5.3436056"/>
<trkpt lat="51.8025376" lon="5.3429833"/>
<trkpt lat="51.8021997" lon="5.3428595"/>
<trkpt lat="51.8020945" lon="5.3427545"/>
<trkpt lat="51.8021292" lon="5.3422872"/>
<trkpt lat="51.8021519" lon="5.3418944"/>
<trkpt lat="51.8021898" lon="5.3415629"/>
<trkpt lat="51.8021821" lon="5.3412683"/>
<trkpt lat="51.8022580" lon="5.3406913"/>
<trkpt lat="51.8023415" lon="5.3403843"/>
<trkpt lat="51.8023507" lon="5.3402963"/>
<trkpt lat="51.8025174" lon="5.3404447"/>
<trkpt lat="51.8025932" lon="5.3405548"/>
<trkpt lat="51.8027003" lon="5.3406410"/>
<trkpt lat="51.8028227" lon="5.3407304"/>
<trkpt lat="51.8030486" lon="5.3400383"/>
<trkpt lat="51.8033244" lon="5.3395982"/>
<trkpt lat="51.8035801" lon="5.3389383"/>
<trkpt lat="51.8038126" lon="5.3382032"/>
<trkpt lat="51.8040084" lon="5.3374360"/>
<trkpt lat="51.8041910" lon="5.3366581"/>
<trkpt lat="51.8047460" lon="5.3355664"/>
<trkpt lat="51.8052344" lon="5.3349276"/>
<trkpt lat="51.8055613" lon="5.3342251"/>
<trkpt lat="51.8058328" lon="5.3339609"/>
<trkpt lat="51.8065889" lon="5.3334122"/>
<trkpt lat="51.8073758" lon="5.3328038"/>
<trkpt lat="51.8077707" lon="5.3324248"/>
<trkpt lat="51.8083076" lon="5.3318764"/>
<trkpt lat="51.8086377" lon="5.3314676"/>
<trkpt lat="51.8091190" lon="5.3308894"/>
<trkpt lat="51.8098749" lon="5.3299073"/>
<trkpt lat="51.8100600" lon="5.3296979"/>
<trkpt lat="51.8102204" lon="5.3294936"/>
<trkpt lat="51.8107389" lon="5.3284700"/>
<trkpt lat="51.8110686" lon="5.3281179"/>
<trkpt lat="51.8113679" lon="5.3277789"/>
<trkpt lat="51.8121824" lon="5.3268614"/>
<trkpt lat="51.8135214" lon="5.3253705"/>
<trkpt lat="51.8142034" lon="5.3248914"/>
<trkpt lat="51.8145791" lon="5.3244934"/>
<trkpt lat="51.8147469" lon="5.3242031"/>
<trkpt lat="51.8148924" lon="5.3240811"/>
<trkpt lat="51.8156644" lon="5.3239191"/>
<trkpt lat="51.8157593" lon="5.3237338"/>
</trkseg></trk>
<trk><name>Zandslagenpad - Hoofdroute 4</name><type>mainRoute</type><trkseg>
<trkpt lat="51.8011233" lon="5.3466503"/>
<trkpt lat="51.8011154" lon="5.3468641"/>
<trkpt lat="51.8011209" lon="5.3468650"/>
</trkseg></trk>
<trk><name>Zandslagenpad - Hoofdroute 5</name><type>mainRoute</type><trkseg>
<trkpt lat="51.8011233" lon="5.3466503"/>
<trkpt lat="51.8011258" lon="5.3464374"/>
</trkseg></trk>
<trk><name>Zandslagenpad - Hoofdroute 6</name><type>mainRoute</type><trkseg>
<trkpt lat="51.8011309" lon="5.3464456"/>
<trkpt lat="51.8011233" lon="5.3466503"/>
</trkseg></trk>
<trk><name>Zandslagenpad - Hoofdroute 7</name><type>mainRoute</type><trkseg>
<trkpt lat="51.8034469" lon="5.3352848"/>
<trkpt lat="51.8032190" lon="5.3356507"/>
<trkpt lat="51.8029405" lon="5.3360133"/>
<trkpt lat="51.8024181" lon="5.3365910"/>
<trkpt lat="51.8018489" lon="5.3371994"/>
<trkpt lat="51.8016867" lon="5.3372424"/>
<trkpt lat="51.8016844" lon="5.3375562"/>
<trkpt lat="51.8015536" lon="5.3391630"/>
<trkpt lat="51.8014660" lon="5.3400923"/>
<trkpt lat="51.8011472" lon="5.3415619"/>
<trkpt lat="51.8009992" lon="5.3416826"/>
<trkpt lat="51.8005068" lon="5.3418384"/>
<trkpt lat="51.7999434" lon="5.3421347"/>
<trkpt lat="51.7998111" lon="5.3421582"/>
</trkseg></trk>
<trk><name>Zandslagenpad - Hoofdroute 8</name><type>mainRoute</type><trkseg>
<trkpt lat="51.8104929" lon="5.3249536"/>
<trkpt lat="51.8099365" lon="5.3253241"/>
<trkpt lat="51.8092974" lon="5.3257301"/>
<trkpt lat="51.8089152" lon="5.3259976"/>
<trkpt lat="51.8087551" lon="5.3254362"/>
<trkpt lat="51.8083776" lon="5.3240372"/>
<trkpt lat="51.8082694" lon="5.3236250"/>
<trkpt lat="51.8083408" lon="5.3235489"/>
<trkpt lat="51.8080929" lon="5.3225793"/>
<trkpt lat="51.8082792" lon="5.3222445"/>
<trkpt lat="51.8082354" lon="5.3221341"/>
<trkpt lat="51.8075013" lon="5.3233339"/>
<trkpt lat="51.8066009" lon="5.3219747"/>
<trkpt lat="51.8065102" lon="5.3221247"/>
<trkpt lat="51.8060654" lon="5.3228711"/>
<trkpt lat="51.8056149" lon="5.3236819"/>
<trkpt lat="51.8053498" lon="5.3233314"/>
<trkpt lat="51.8052951" lon="5.3234428"/>
<trkpt lat="51.8052038" lon="5.3235313"/>
<trkpt lat="51.8052750" lon="5.3237734"/>
<trkpt lat="51.8051715" lon="5.3238946"/>
<trkpt lat="51.8049816" lon="5.3241432"/>
<trkpt lat="51.8053819" lon="5.3254408"/>
<trkpt lat="51.8054390" lon="5.3256525"/>
<trkpt lat="51.8055821" lon="5.3263244"/>
<trkpt lat="51.8056508" lon="5.3266926"/>
<trkpt lat="51.8056966" lon="5.3269871"/>
<trkpt lat="51.8056969" lon="5.3276500"/>
<trkpt lat="51.8055603" lon="5.3283131"/>
<trkpt lat="51.8053268" lon="5.3293078"/>
<trkpt lat="51.8050590" lon="5.3303209"/>
<trkpt lat="51.8049337" lon="5.3309287"/>
<trkpt lat="51.8048711" lon="5.3312510"/>
<trkpt lat="51.8045348" lon="5.3322642"/>
<trkpt lat="51.8042384" lon="5.3331576"/>
<trkpt lat="51.8041415" lon="5.3333786"/>
<trkpt lat="51.8038907" lon="5.3341769"/>
<trkpt lat="51.8037198" lon="5.3348369"/>
<trkpt lat="51.8035012" lon="5.3353281"/>
<trkpt lat="51.8034485" lon="5.3352842"/>
</trkseg></trk>
<trk><name>Zandslagenpad - Hoofdroute 9</name><type>mainRoute</type><trkseg>
<trkpt lat="51.8157592" lon="5.3237338"/>
<trkpt lat="51.8159394" lon="5.3236628"/>
<trkpt lat="51.8160061" lon="5.3235471"/>
<trkpt lat="51.8160677" lon="5.3232880"/>
<trkpt lat="51.8162895" lon="5.3225426"/>
<trkpt lat="51.8164225" lon="5.3217893"/>
<trkpt lat="51.8165901" lon="5.3212192"/>
<trkpt lat="51.8167972" lon="5.3206930"/>
<trkpt lat="51.8171845" lon="5.3199991"/>
<trkpt lat="51.8173006" lon="5.3199152"/>
<trkpt lat="51.8173694" lon="5.3194011"/>
<trkpt lat="51.8174356" lon="5.3186040"/>
<trkpt lat="51.8174777" lon="5.3181179"/>
<trkpt lat="51.8175195" lon="5.3178701"/>
<trkpt lat="51.8175852" lon="5.3176279"/>
<trkpt lat="51.8175429" lon="5.3174919"/>
<trkpt lat="51.8176566" lon="5.3164161"/>
<trkpt lat="51.8177718" lon="5.3149574"/>
<trkpt lat="51.8177953" lon="5.3131125"/>
<trkpt lat="51.8177748" lon="5.3118653"/>
<trkpt lat="51.8177466" lon="5.3102395"/>
<trkpt lat="51.8176538" lon="5.3081756"/>
<trkpt lat="51.8174193" lon="5.3082716"/>
<trkpt lat="51.8171601" lon="5.3085391"/>
<trkpt lat="51.8169356" lon="5.3087666"/>
<trkpt lat="51.8168443" lon="5.3089022"/>
<trkpt lat="51.8164543" lon="5.3092774"/>
<trkpt lat="51.8160619" lon="5.3096407"/>
<trkpt lat="51.8158256" lon="5.3098612"/>
<trkpt lat="51.8156768" lon="5.3099163"/>
<trkpt lat="51.8156131" lon="5.3095548"/>
<trkpt lat="51.8154981" lon="5.3090381"/>
<trkpt lat="51.8150160" lon="5.3094852"/>
<trkpt lat="51.8142719" lon="5.3102415"/>
<trkpt lat="51.8136252" lon="5.3108522"/>
<trkpt lat="51.8130132" lon="5.3114509"/>
<trkpt lat="51.8125931" lon="5.3118112"/>
<trkpt lat="51.8122406" lon="5.3121494"/>
<trkpt lat="51.8119802" lon="5.3124597"/>
<trkpt lat="51.8115620" lon="5.3131366"/>
<trkpt lat="51.8111223" lon="5.3135977"/>
<trkpt lat="51.8099930" lon="5.3141751"/>
<trkpt lat="51.8086850" lon="5.3143882"/>
<trkpt lat="51.8083837" lon="5.3130311"/>
<trkpt lat="51.8067044" lon="5.3142766"/>
<trkpt lat="51.8072615" lon="5.3158767"/>
<trkpt lat="51.8077623" lon="5.3176302"/>
<trkpt lat="51.8082771" lon="5.3192873"/>
<trkpt lat="51.8087564" lon="5.3204561"/>
<trkpt lat="51.8089080" lon="5.3209725"/>
<trkpt lat="51.8095845" lon="5.3224194"/>
<trkpt lat="51.8100285" lon="5.3233839"/>
<trkpt lat="51.8105009" lon="5.3249503"/>
</trkseg></trk>
<trk><name>Zandslagenpad - Routverlenger oost</name><type>extensionRoute</type><trkseg>
<trkpt lat="51.7989617" lon="5.3580361"/>
<trkpt lat="51.7987532" lon="5.3576875"/>
<trkpt lat="51.7986599" lon="5.3575184"/>
<trkpt lat="51.7984307" lon="5.3571197"/>
<trkpt lat="51.7982914" lon="5.3568807"/>
<trkpt lat="51.7981683" lon="5.3566730"/>
<trkpt lat="51.7981321" lon="5.3565958"/>
<trkpt lat="51.7981275" lon="5.3565373"/>
<trkpt lat="51.7981353" lon="5.3564882"/>
<trkpt lat="51.7982207" lon="5.3563420"/>
<trkpt lat="51.7984860" lon="5.3559492"/>
<trkpt lat="51.7987481" lon="5.3555679"/>
<trkpt lat="51.7989539" lon="5.3552650"/>
<trkpt lat="51.7992924" lon="5.3547802"/>
<trkpt lat="51.7995046" lon="5.3544564"/>
<trkpt lat="51.7995564" lon="5.3543593"/>
<trkpt lat="51.7996372" lon="5.3541702"/>
<trkpt lat="51.7996844" lon="5.3539728"/>
<trkpt lat="51.7997038" lon="5.3538903"/>
<trkpt lat="51.7997355" lon="5.3536428"/>
<trkpt lat="51.7997529" lon="5.3532325"/>
<trkpt lat="51.7997528" lon="5.3529840"/>
<trkpt lat="51.7997384" lon="5.3525402"/>
<trkpt lat="51.7997311" lon="5.3519544"/>
<trkpt lat="51.7997154" lon="5.3513279"/>
<trkpt lat="51.7997075" lon="5.3510262"/>
<trkpt lat="51.7997230" lon="5.3507317"/>
<trkpt lat="51.7997519" lon="5.3499882"/>
<trkpt lat="51.7997808" lon="5.3493941"/>
<trkpt lat="51.7998214" lon="5.3487780"/>
<trkpt lat="51.7998646" lon="5.3480878"/>
<trkpt lat="51.7999344" lon="5.3477233"/>
<trkpt lat="51.8000476" lon="5.3474757"/>
<trkpt lat="51.8001181" lon="5.3473650"/>
<trkpt lat="51.8002611" lon="5.3472291"/>
<trkpt lat="51.8003388" lon="5.3471674"/>
</trkseg></trk>
<trk><name>Zandslagenpad - Routeverlenger oost2</name><type>extensionRoute</type><trkseg>
<trkpt lat="51.8007457" lon="5.3596571"/>
<trkpt lat="51.8006157" lon="5.3594790"/>
<trkpt lat="51.8002803" lon="5.3592769"/>
<trkpt lat="51.7998576" lon="5.3592098"/>
<trkpt lat="51.7995905" lon="5.3590600"/>
<trkpt lat="51.7992614" lon="5.3585808"/>
<trkpt lat="51.7989769" lon="5.3580686"/>
<trkpt lat="51.7988124" lon="5.3575642"/>
<trkpt lat="51.7987840" lon="5.3574231"/>
<trkpt lat="51.7988139" lon="5.3573150"/>
<trkpt lat="51.7988789" lon="5.3572013"/>
<trkpt lat="51.7994582" lon="5.3563238"/>
<trkpt lat="51.7997914" lon="5.3558496"/>
<trkpt lat="51.7998630" lon="5.3558057"/>
<trkpt lat="51.7999470" lon="5.3559053"/>
<trkpt lat="51.8001570" lon="5.3561839"/>
<trkpt lat="51.8002879" lon="5.3562834"/>
<trkpt lat="51.8005028" lon="5.3564466"/>
<trkpt lat="51.8007054" lon="5.3566616"/>
<trkpt lat="51.8007721" lon="5.3568766"/>
<trkpt lat="51.8008117" lon="5.3570040"/>
<trkpt lat="51.8008315" lon="5.3571833"/>
<trkpt lat="51.8008192" lon="5.3573506"/>
<trkpt lat="51.8007649" lon="5.3577928"/>
<trkpt lat="51.8007157" lon="5.3582309"/>
<trkpt lat="51.8006540" lon="5.3585058"/>
<trkpt lat="51.8006071" lon="5.3587210"/>
<trkpt lat="51.8006168" lon="5.3589135"/>
<trkpt lat="51.8007881" lon="5.3594281"/>
<trkpt lat="51.8008208" lon="5.3595760"/>
<trkpt lat="51.8008197" lon="5.3596768"/>
<trkpt lat="51.8007885" lon="5.3597553"/>
<trkpt lat="51.8007455" lon="5.3596576"/>
</trkseg></trk>
<trk><name>Zandslagenpad - Routeverlenger zuid</name><type>extensionRoute</type><trkseg>
<trkpt lat="51.8034290" lon="5.3352227"/>
<trkpt lat="51.8031966" lon="5.3348835"/>
<trkpt lat="51.8029776" lon="5.3344388"/>
<trkpt lat="51.8026538" lon="5.3336106"/>
<trkpt lat="51.8023014" lon="5.3327057"/>
<trkpt lat="51.8019491" lon="5.3318622"/>
<trkpt lat="51.8018059" lon="5.3308651"/>
<trkpt lat="51.8016531" lon="5.3296685"/>
<trkpt lat="51.8013765" lon="5.3281651"/>
<trkpt lat="51.8012048" lon="5.3273215"/>
<trkpt lat="51.8010148" lon="5.3276746"/>
<trkpt lat="51.8006916" lon="5.3282121"/>
<trkpt lat="51.8004065" lon="5.3287188"/>
<trkpt lat="51.8002448" lon="5.3288724"/>
<trkpt lat="51.7999975" lon="5.3287807"/>
<trkpt lat="51.7997688" lon="5.3281519"/>
<trkpt lat="51.7994744" lon="5.3272041"/>
<trkpt lat="51.7996662" lon="5.3268752"/>
<trkpt lat="51.7996483" lon="5.3267362"/>
<trkpt lat="51.7994605" lon="5.3264296"/>
<trkpt lat="51.7991889" lon="5.3260209"/>
<trkpt lat="51.7990638" lon="5.3260048"/>
<trkpt lat="51.7989936" lon="5.3260662"/>
<trkpt lat="51.7988353" lon="5.3256523"/>
<trkpt lat="51.7985590" lon="5.3247781"/>
<trkpt lat="51.7982445" lon="5.3237659"/>
<trkpt lat="51.7979398" lon="5.3231527"/>
<trkpt lat="51.7974923" lon="5.3224629"/>
<trkpt lat="51.7966164" lon="5.3212061"/>
<trkpt lat="51.7957310" lon="5.3199034"/>
<trkpt lat="51.7951884" lon="5.3191831"/>
<trkpt lat="51.7943602" lon="5.3182793"/>
<trkpt lat="51.7932752" lon="5.3172224"/>
<trkpt lat="51.7928279" lon="5.3168703"/>
<trkpt lat="51.7927779" lon="5.3168365"/>
<trkpt lat="51.7925719" lon="5.3172189"/>
<trkpt lat="51.7921701" lon="5.3180156"/>
<trkpt lat="51.7915472" lon="5.3193768"/>
<trkpt lat="51.7913084" lon="5.3199495"/>
<trkpt lat="51.7912167" lon="5.3201995"/>
<trkpt lat="51.7913194" lon="5.3206200"/>
<trkpt lat="51.7913807" lon="5.3210319"/>
<trkpt lat="51.7913259" lon="5.3213246"/>
<trkpt lat="51.7913246" lon="5.3213603"/>
<trkpt lat="51.7916868" lon="5.3214306"/>
<trkpt lat="51.7923636" lon="5.3218006"/>
<trkpt lat="51.7927244" lon="5.3220496"/>
<trkpt lat="51.7930878" lon="5.3222851"/>
<trkpt lat="51.7930689" lon="5.3224539"/>
<trkpt lat="51.7933354" lon="5.3227450"/>
<trkpt lat="51.7936399" lon="5.3230054"/>
<trkpt lat="51.7939065" lon="5.3233425"/>
<trkpt lat="51.7941827" lon="5.3240631"/>
<trkpt lat="51.7943828" lon="5.3245691"/>
<trkpt lat="51.7946019" lon="5.3252285"/>
<trkpt lat="51.7949734" lon="5.3261484"/>
<trkpt lat="51.7952590" lon="5.3265469"/>
<trkpt lat="51.7955066" lon="5.3271603"/>
<trkpt lat="51.7957257" lon="5.3277583"/>
<trkpt lat="51.7959542" lon="5.3280495"/>
<trkpt lat="51.7962398" lon="5.3284480"/>
<trkpt lat="51.7967347" lon="5.3290457"/>
<trkpt lat="51.7973438" lon="5.3295665"/>
<trkpt lat="51.7977721" lon="5.3299495"/>
<trkpt lat="51.7979911" lon="5.3303942"/>
<trkpt lat="51.7982770" lon="5.3314525"/>
<trkpt lat="51.7985628" lon="5.3323880"/>
<trkpt lat="51.7986485" lon="5.3326948"/>
<trkpt lat="51.7986773" lon="5.3331397"/>
<trkpt lat="51.7989155" lon="5.3339986"/>
<trkpt lat="51.7990109" lon="5.3345508"/>
<trkpt lat="51.7991445" lon="5.3356553"/>
<trkpt lat="51.7993066" lon="5.3364836"/>
<trkpt lat="51.7995259" lon="5.3376955"/>
<trkpt lat="51.7996404" lon="5.3385392"/>
<trkpt lat="51.7998691" lon="5.3394442"/>
<trkpt lat="51.7999170" lon="5.3402727"/>
<trkpt lat="51.7998239" lon="5.3421647"/>
</trkseg></trk>
<trk><name>Zandslagenpad - alternatieve route</name><type>alternativeRoute</type><trkseg>
<trkpt lat="51.8119802" lon="5.3124597"/>
<trkpt lat="51.8120839" lon="5.3125620"/>
<trkpt lat="51.8121795" lon="5.3127927"/>
<trkpt lat="51.8128195" lon="5.3141000"/>
<trkpt lat="51.8129597" lon="5.3145512"/>
<trkpt lat="51.8133200" lon="5.3160284"/>
<trkpt lat="51.8136347" lon="5.3158739"/>
<trkpt lat="51.8138001" lon="5.3158993"/>
<trkpt lat="51.8141246" lon="5.3161964"/>
<trkpt lat="51.8144461" lon="5.3165807"/>
<trkpt lat="51.8151367" lon="5.3175339"/>
<trkpt lat="51.8153692" lon="5.3180775"/>
<trkpt lat="51.8155507" lon="5.3185852"/>
<trkpt lat="51.8156655" lon="5.3191289"/>
<trkpt lat="51.8157709" lon="5.3198624"/>
<trkpt lat="51.8158701" lon="5.3209398"/>
<trkpt lat="51.8155047" lon="5.3214996"/>
<trkpt lat="51.8154603" lon="5.3216998"/>
<trkpt lat="51.8155689" lon="5.3225411"/>
<trkpt lat="51.8157505" lon="5.3232746"/>
<trkpt lat="51.8157953" lon="5.3236132"/>
<trkpt lat="51.8157592" lon="5.3237338"/>
</trkseg></trk>
<trk><name>Zandslagenpad - overstaproute alem</name><type>connectionRoute</type><trkseg>
<trkpt lat="51.7897790" lon="5.3378655"/>
<trkpt lat="51.7896888" lon="5.3376533"/>
<trkpt lat="51.7897908" lon="5.3360886"/>
<trkpt lat="51.7899501" lon="5.3348183"/>
<trkpt lat="51.7900753" lon="5.3340266"/>
<trkpt lat="51.7901551" lon="5.3338424"/>
<trkpt lat="51.7896769" lon="5.3336207"/>
<trkpt lat="51.7898280" lon="5.3313195"/>
<trkpt lat="51.7900261" lon="5.3277912"/>
<trkpt lat="51.7901735" lon="5.3254747"/>
<trkpt lat="51.7904199" lon="5.3227150"/>
<trkpt lat="51.7906285" lon="5.3218583"/>
<trkpt lat="51.7908796" lon="5.3218212"/>
<trkpt lat="51.7911535" lon="5.3216919"/>
<trkpt lat="51.7913246" lon="5.3213603"/>
</trkseg></trk>
</gpx>