<?xml version="1.0" encoding="UTF-8"?>
<gpx version="1.1" creator="klompenpaden.nl via Jimbo API" xmlns="http://www.topografix.com/GPX/1/1">
<metadata><name>Zeegsepad</name><desc>Ontdek het mooie buitengebied van Ressen, Bemmel en Lent in Park Lingezegen. Wandelen door weilanden, boomgaarden en over historische paden. Laat je verrassen door dit bijzondere afwisselende landschap. Klompen aan, rugzak op en gaan!</desc><link href="https://www.klompenpaden.nl/klompenpaden/Zeegsepad/dd77fc78-e6c1-499d-97df-54a4ce96e1e6"><text>klompenpaden.nl</text></link></metadata>
<wpt lat="51.888943148379134" lon="5.872149378432284"><name>Start Ressen</name></wpt>
<trk><name>Zeegsepad - hoofdroute</name><type>mainRoute</type><trkseg>
<trkpt lat="51.8893323" lon="5.8717301"/>
<trkpt lat="51.8888777" lon="5.8719906"/>
<trkpt lat="51.8873752" lon="5.8729069"/>
<trkpt lat="51.8877427" lon="5.8756416"/>
<trkpt lat="51.8867886" lon="5.8761189"/>
<trkpt lat="51.8867895" lon="5.8761669"/>
<trkpt lat="51.8857270" lon="5.8766322"/>
<trkpt lat="51.8856231" lon="5.8759792"/>
<trkpt lat="51.8842258" lon="5.8763385"/>
<trkpt lat="51.8841421" lon="5.8762336"/>
<trkpt lat="51.8838709" lon="5.8763415"/>
<trkpt lat="51.8830870" lon="5.8766733"/>
<trkpt lat="51.8830669" lon="5.8765990"/>
<trkpt lat="51.8830114" lon="5.8766170"/>
<trkpt lat="51.8826787" lon="5.8749551"/>
<trkpt lat="51.8810526" lon="5.8758308"/>
<trkpt lat="51.8803222" lon="5.8759572"/>
<trkpt lat="51.8806746" lon="5.8792560"/>
<trkpt lat="51.8806987" lon="5.8795502"/>
<trkpt lat="51.8812968" lon="5.8794549"/>
<trkpt lat="51.8815483" lon="5.8796297"/>
<trkpt lat="51.8816734" lon="5.8799097"/>
<trkpt lat="51.8818854" lon="5.8808348"/>
<trkpt lat="51.8818202" lon="5.8808757"/>
<trkpt lat="51.8819467" lon="5.8814794"/>
<trkpt lat="51.8819621" lon="5.8815592"/>
<trkpt lat="51.8817719" lon="5.8816432"/>
<trkpt lat="51.8817305" lon="5.8816618"/>
<trkpt lat="51.8802264" lon="5.8824466"/>
<trkpt lat="51.8805744" lon="5.8838048"/>
<trkpt lat="51.8798200" lon="5.8841642"/>
<trkpt lat="51.8794167" lon="5.8843717"/>
<trkpt lat="51.8785558" lon="5.8850971"/>
<trkpt lat="51.8778818" lon="5.8832016"/>
<trkpt lat="51.8776548" lon="5.8827655"/>
<trkpt lat="51.8769169" lon="5.8805281"/>
<trkpt lat="51.8766161" lon="5.8793880"/>
<trkpt lat="51.8764241" lon="5.8794931"/>
<trkpt lat="51.8760671" lon="5.8797060"/>
<trkpt lat="51.8754023" lon="5.8800739"/>
<trkpt lat="51.8747188" lon="5.8804464"/>
<trkpt lat="51.8741479" lon="5.8807646"/>
<trkpt lat="51.8737337" lon="5.8810170"/>
<trkpt lat="51.8735524" lon="5.8811274"/>
<trkpt lat="51.8734403" lon="5.8806089"/>
<trkpt lat="51.8731866" lon="5.8795499"/>
<trkpt lat="51.8728966" lon="5.8794834"/>
<trkpt lat="51.8728443" lon="5.8795370"/>
<trkpt lat="51.8726792" lon="5.8796517"/>
<trkpt lat="51.8724489" lon="5.8797707"/>
<trkpt lat="51.8725637" lon="5.8802635"/>
<trkpt lat="51.8726551" lon="5.8806140"/>
<trkpt lat="51.8728830" lon="5.8814857"/>
<trkpt lat="51.8720546" lon="5.8819565"/>
<trkpt lat="51.8719538" lon="5.8820116"/>
<trkpt lat="51.8718964" lon="5.8820446"/>
<trkpt lat="51.8718196" lon="5.8821107"/>
<trkpt lat="51.8717516" lon="5.8821354"/>
<trkpt lat="51.8716877" lon="5.8821928"/>
<trkpt lat="51.8715630" lon="5.8822483"/>
<trkpt lat="51.8715310" lon="5.8822911"/>
<trkpt lat="51.8713676" lon="5.8823966"/>
<trkpt lat="51.8711555" lon="5.8816322"/>
<trkpt lat="51.8709130" lon="5.8813919"/>
<trkpt lat="51.8699042" lon="5.8816593"/>
<trkpt lat="51.8696807" lon="5.8801529"/>
<trkpt lat="51.8693270" lon="5.8804399"/>
<trkpt lat="51.8686814" lon="5.8809032"/>
<trkpt lat="51.8687151" lon="5.8811016"/>
<trkpt lat="51.8680901" lon="5.8816133"/>
<trkpt lat="51.8677744" lon="5.8821389"/>
<trkpt lat="51.8678003" lon="5.8826685"/>
<trkpt lat="51.8677592" lon="5.8827401"/>
<trkpt lat="51.8681315" lon="5.8840865"/>
<trkpt lat="51.8682665" lon="5.8840562"/>
<trkpt lat="51.8683743" lon="5.8840464"/>
<trkpt lat="51.8691812" lon="5.8837893"/>
<trkpt lat="51.8687795" lon="5.8821786"/>
<trkpt lat="51.8699113" lon="5.8818017"/>
<trkpt lat="51.8701862" lon="5.8834528"/>
<trkpt lat="51.8706235" lon="5.8836883"/>
<trkpt lat="51.8711698" lon="5.8840698"/>
<trkpt lat="51.8712656" lon="5.8841835"/>
<trkpt lat="51.8713286" lon="5.8842111"/>
<trkpt lat="51.8714011" lon="5.8843191"/>
<trkpt lat="51.8716958" lon="5.8848359"/>
<trkpt lat="51.8720154" lon="5.8851426"/>
<trkpt lat="51.8725046" lon="5.8849806"/>
<trkpt lat="51.8733007" lon="5.8846755"/>
<trkpt lat="51.8735369" lon="5.8843859"/>
<trkpt lat="51.8735225" lon="5.8843065"/>
<trkpt lat="51.8734578" lon="5.8839269"/>
<trkpt lat="51.8734687" lon="5.8836901"/>
<trkpt lat="51.8755360" lon="5.8825692"/>
<trkpt lat="51.8759019" lon="5.8840092"/>
<trkpt lat="51.8759791" lon="5.8842898"/>
<trkpt lat="51.8760418" lon="5.8843670"/>
<trkpt lat="51.8762812" lon="5.8848305"/>
<trkpt lat="51.8763917" lon="5.8849803"/>
<trkpt lat="51.8768598" lon="5.8866134"/>
<trkpt lat="51.8769360" lon="5.8867009"/>
<trkpt lat="51.8781589" lon="5.8883301"/>
<trkpt lat="51.8792843" lon="5.8876617"/>
<trkpt lat="51.8799181" lon="5.8872602"/>
<trkpt lat="51.8795719" lon="5.8848855"/>
<trkpt lat="51.8808080" lon="5.8843161"/>
<trkpt lat="51.8824709" lon="5.8834983"/>
<trkpt lat="51.8826193" lon="5.8843723"/>
<trkpt lat="51.8827511" lon="5.8842992"/>
<trkpt lat="51.8828285" lon="5.8847018"/>
<trkpt lat="51.8847893" lon="5.8832541"/>
<trkpt lat="51.8845687" lon="5.8821368"/>
<trkpt lat="51.8858002" lon="5.8814033"/>
<trkpt lat="51.8864797" lon="5.8810034"/>
<trkpt lat="51.8870279" lon="5.8806942"/>
<trkpt lat="51.8868318" lon="5.8797970"/>
<trkpt lat="51.8870979" lon="5.8796982"/>
<trkpt lat="51.8869976" lon="5.8793530"/>
<trkpt lat="51.8883455" lon="5.8788026"/>
<trkpt lat="51.8879518" lon="5.8755996"/>
<trkpt lat="51.8891004" lon="5.8753811"/>
<trkpt lat="51.8893778" lon="5.8753491"/>
<trkpt lat="51.8894043" lon="5.8752094"/>
<trkpt lat="51.8895319" lon="5.8751976"/>
<trkpt lat="51.8903913" lon="5.8751347"/>
<trkpt lat="51.8909623" lon="5.8751976"/>
<trkpt lat="51.8909710" lon="5.8748005"/>
<trkpt lat="51.8910018" lon="5.8744978"/>
<trkpt lat="51.8909781" lon="5.8740415"/>
<trkpt lat="51.8910173" lon="5.8736187"/>
<trkpt lat="51.8910808" lon="5.8731246"/>
<trkpt lat="51.8910617" lon="5.8718134"/>
<trkpt lat="51.8923100" lon="5.8719911"/>
<trkpt lat="51.8934695" lon="5.8718633"/>
<trkpt lat="51.8941981" lon="5.8717592"/>
<trkpt lat="51.8944050" lon="5.8717751"/>
<trkpt lat="51.8943646" lon="5.8708815"/>
<trkpt lat="51.8942276" lon="5.8682716"/>
<trkpt lat="51.8938728" lon="5.8675530"/>
<trkpt lat="51.8930021" lon="5.8678573"/>
<trkpt lat="51.8925073" lon="5.8679944"/>
<trkpt lat="51.8924887" lon="5.8676537"/>
<trkpt lat="51.8923216" lon="5.8674971"/>
<trkpt lat="51.8922919" lon="5.8663327"/>
<trkpt lat="51.8926848" lon="5.8658043"/>
<trkpt lat="51.8923999" lon="5.8652069"/>
<trkpt lat="51.8919590" lon="5.8649631"/>
<trkpt lat="51.8908403" lon="5.8654419"/>
<trkpt lat="51.8906407" lon="5.8655228"/>
<trkpt lat="51.8894931" lon="5.8659270"/>
<trkpt lat="51.8894543" lon="5.8659899"/>
<trkpt lat="51.8894377" lon="5.8659899"/>
<trkpt lat="51.8895042" lon="5.8675350"/>
<trkpt lat="51.8893878" lon="5.8676877"/>
<trkpt lat="51.8892935" lon="5.8677326"/>
<trkpt lat="51.8890662" lon="5.8690172"/>
<trkpt lat="51.8889886" lon="5.8693226"/>
<trkpt lat="51.8889442" lon="5.8696281"/>
<trkpt lat="51.8889553" lon="5.8699515"/>
<trkpt lat="51.8889941" lon="5.8702479"/>
<trkpt lat="51.8891106" lon="5.8706432"/>
<trkpt lat="51.8892547" lon="5.8709845"/>
<trkpt lat="51.8893989" lon="5.8715505"/>
<trkpt lat="51.8893323" lon="5.8717481"/>
</trkseg></trk>
<trk><name>Zeegsepad - routeverkorter</name><type>shorteningRoute</type><trkseg>
<trkpt lat="51.8827511" lon="5.8842992"/>
<trkpt lat="51.8821539" lon="5.8812362"/>
<trkpt lat="51.8819549" lon="5.8803841"/>
<trkpt lat="51.8816844" lon="5.8793783"/>
<trkpt lat="51.8815882" lon="5.8792421"/>
<trkpt lat="51.8814363" lon="5.8791492"/>
<trkpt lat="51.8813037" lon="5.8791937"/>
<trkpt lat="51.8808056" lon="5.8793606"/>
<trkpt lat="51.8806851" lon="5.8793837"/>
</trkseg></trk>
<trk><name>Zeegsepad - overstaproute</name><type>connectionRoute</type><trkseg>
<trkpt lat="51.8967525" lon="5.8736922"/>
<trkpt lat="51.8964900" lon="5.8731147"/>
<trkpt lat="51.8963755" lon="5.8729430"/>
<trkpt lat="51.8956014" lon="5.8727801"/>
<trkpt lat="51.8951104" lon="5.8723309"/>
<trkpt lat="51.8948538" lon="5.8721181"/>
<trkpt lat="51.8945374" lon="5.8720609"/>
<trkpt lat="51.8944698" lon="5.8720506"/>
<trkpt lat="51.8944780" lon="5.8717803"/>
<trkpt lat="51.8944050" lon="5.8717751"/>
</trkseg></trk>
<trk><name>Zeegsepad - aanlooproute</name><type>approachRoute</type><trkseg>
<trkpt lat="51.8820970" lon="5.8619753"/>
<trkpt lat="51.8820795" lon="5.8629435"/>
<trkpt lat="51.8819227" lon="5.8629749"/>
<trkpt lat="51.8819409" lon="5.8635364"/>
<trkpt lat="51.8825397" lon="5.8636528"/>
<trkpt lat="51.8826769" lon="5.8638612"/>
<trkpt lat="51.8827492" lon="5.8639950"/>
<trkpt lat="51.8873120" lon="5.8649901"/>
<trkpt lat="51.8887922" lon="5.8654847"/>
<trkpt lat="51.8888920" lon="5.8655131"/>
<trkpt lat="51.8890341" lon="5.8656394"/>
<trkpt lat="51.8891690" lon="5.8657891"/>
<trkpt lat="51.8892630" lon="5.8659211"/>
<trkpt lat="51.8894402" lon="5.8659682"/>
</trkseg></trk>
</gpx>