<?xml version="1.0" encoding="UTF-8"?>
<gpx version="1.1" creator="klompenpaden.nl via Jimbo API" xmlns="http://www.topografix.com/GPX/1/1">
<metadata><name>Zeldertsepad</name><desc>Ontdek het mooie buitengebied van Hoogland (Amersfoort). Wandel door het agrarisch gebied: langs historische boerderijen, door weilanden en langs de Grebbelinie. Geniet van het weidse uitzicht, ervaar de rust en beleef de combinatie van cultuur en natuur. Klompen aan, rugzak op en gaan!</desc><link href="https://www.klompenpaden.nl/klompenpaden/Zeldertsepad/2cdeb58c-be7d-4e15-bde2-b9f5b4f002c2"><text>klompenpaden.nl</text></link></metadata>
<wpt lat="52.19798033714064" lon="5.345213413238525"><name>Start Hoogland</name></wpt>
<trk><name>Zeldertsepad - Geimporteerde shapefile</name><type>mainRoute</type><trkseg>
<trkpt lat="52.1901270" lon="5.3360800"/>
<trkpt lat="52.1899387" lon="5.3363050"/>
<trkpt lat="52.1898006" lon="5.3365095"/>
<trkpt lat="52.1896438" lon="5.3368775"/>
<trkpt lat="52.1893740" lon="5.3375829"/>
<trkpt lat="52.1891280" lon="5.3350389"/>
<trkpt lat="52.1865825" lon="5.3304849"/>
<trkpt lat="52.1864946" lon="5.3305872"/>
<trkpt lat="52.1862999" lon="5.3304444"/>
<trkpt lat="52.1861806" lon="5.3305059"/>
<trkpt lat="52.1861430" lon="5.3306387"/>
<trkpt lat="52.1861431" lon="5.3307818"/>
<trkpt lat="52.1861934" lon="5.3309759"/>
<trkpt lat="52.1861244" lon="5.3312212"/>
<trkpt lat="52.1860366" lon="5.3314358"/>
<trkpt lat="52.1859331" lon="5.3314478"/>
<trkpt lat="52.1858896" lon="5.3313501"/>
<trkpt lat="52.1855613" lon="5.3307372"/>
<trkpt lat="52.1854506" lon="5.3307831"/>
<trkpt lat="52.1837510" lon="5.3333823"/>
<trkpt lat="52.1835612" lon="5.3338264"/>
<trkpt lat="52.1833380" lon="5.3350483"/>
<trkpt lat="52.1832770" lon="5.3357216"/>
<trkpt lat="52.1831360" lon="5.3359013"/>
<trkpt lat="52.1830691" lon="5.3363259"/>
<trkpt lat="52.1833762" lon="5.3365781"/>
<trkpt lat="52.1841055" lon="5.3384878"/>
<trkpt lat="52.1842374" lon="5.3386001"/>
<trkpt lat="52.1857764" lon="5.3395792"/>
<trkpt lat="52.1859272" lon="5.3397732"/>
<trkpt lat="52.1865182" lon="5.3414176"/>
<trkpt lat="52.1865245" lon="5.3415708"/>
<trkpt lat="52.1865563" lon="5.3425108"/>
<trkpt lat="52.1866128" lon="5.3425005"/>
<trkpt lat="52.1869265" lon="5.3418156"/>
<trkpt lat="52.1874536" lon="5.3406094"/>
<trkpt lat="52.1877862" lon="5.3399245"/>
<trkpt lat="52.1879933" lon="5.3396484"/>
<trkpt lat="52.1891481" lon="5.3379714"/>
<trkpt lat="52.1893866" lon="5.3375624"/>
</trkseg></trk>
<trk><name>Zeldertsepad - Geimporteerde shapefile</name><type>mainRoute</type><trkseg>
<trkpt lat="52.1980593" lon="5.3451311"/>
<trkpt lat="52.1978589" lon="5.3434247"/>
<trkpt lat="52.1977593" lon="5.3425932"/>
<trkpt lat="52.1975647" lon="5.3409692"/>
<trkpt lat="52.1973860" lon="5.3394337"/>
<trkpt lat="52.1972643" lon="5.3382348"/>
<trkpt lat="52.1970833" lon="5.3369429"/>
<trkpt lat="52.1968518" lon="5.3353467"/>
<trkpt lat="52.1967653" lon="5.3346694"/>
<trkpt lat="52.1967318" lon="5.3341918"/>
<trkpt lat="52.1966216" lon="5.3338823"/>
<trkpt lat="52.1963140" lon="5.3339613"/>
<trkpt lat="52.1957913" lon="5.3340565"/>
<trkpt lat="52.1952371" lon="5.3345227"/>
<trkpt lat="52.1945661" lon="5.3352469"/>
<trkpt lat="52.1940520" lon="5.3355958"/>
<trkpt lat="52.1931901" lon="5.3357370"/>
<trkpt lat="52.1927026" lon="5.3357908"/>
<trkpt lat="52.1918168" lon="5.3359611"/>
<trkpt lat="52.1909103" lon="5.3361024"/>
<trkpt lat="52.1901368" lon="5.3361193"/>
<trkpt lat="52.1895436" lon="5.3335895"/>
<trkpt lat="52.1891433" lon="5.3318953"/>
<trkpt lat="52.1888358" lon="5.3304679"/>
<trkpt lat="52.1894483" lon="5.3283081"/>
<trkpt lat="52.1898399" lon="5.3267986"/>
<trkpt lat="52.1902956" lon="5.3250336"/>
<trkpt lat="52.1904809" lon="5.3246386"/>
<trkpt lat="52.1906663" lon="5.3244643"/>
<trkpt lat="52.1922640" lon="5.3238584"/>
<trkpt lat="52.1945750" lon="5.3230076"/>
<trkpt lat="52.1955023" lon="5.3226580"/>
<trkpt lat="52.1975065" lon="5.3218889"/>
<trkpt lat="52.1986192" lon="5.3215041"/>
<trkpt lat="52.1999390" lon="5.3213629"/>
<trkpt lat="52.2000764" lon="5.3247878"/>
<trkpt lat="52.2001198" lon="5.3260068"/>
<trkpt lat="52.2002910" lon="5.3259833"/>
<trkpt lat="52.2004207" lon="5.3284910"/>
<trkpt lat="52.2018688" lon="5.3282685"/>
<trkpt lat="52.2020771" lon="5.3311013"/>
<trkpt lat="52.2014494" lon="5.3313924"/>
<trkpt lat="52.2014709" lon="5.3315897"/>
<trkpt lat="52.2021271" lon="5.3312522"/>
<trkpt lat="52.2025408" lon="5.3310659"/>
<trkpt lat="52.2028117" lon="5.3306940"/>
<trkpt lat="52.2030045" lon="5.3310073"/>
<trkpt lat="52.2028477" lon="5.3313674"/>
<trkpt lat="52.2027052" lon="5.3317043"/>
<trkpt lat="52.2026840" lon="5.3320875"/>
<trkpt lat="52.2026841" lon="5.3324358"/>
<trkpt lat="52.2028271" lon="5.3331556"/>
<trkpt lat="52.2036207" lon="5.3369980"/>
<trkpt lat="52.2043070" lon="5.3404110"/>
<trkpt lat="52.2046644" lon="5.3422452"/>
<trkpt lat="52.2045075" lon="5.3423499"/>
<trkpt lat="52.2044860" lon="5.3421874"/>
<trkpt lat="52.2012334" lon="5.3437117"/>
<trkpt lat="52.2010622" lon="5.3437815"/>
<trkpt lat="52.1980450" lon="5.3451776"/>
</trkseg></trk>
<trk><name>Zeldertsepad - alternativeRoute</name><type>alternativeRoute</type><trkseg>
<trkpt lat="52.1966100" lon="5.3338800"/>
<trkpt lat="52.1983600" lon="5.3331600"/>
<trkpt lat="52.2014700" lon="5.3315700"/>
</trkseg></trk>
<trk><name>Zeldertsepad - alternativeRoute</name><type>alternativeRoute</type><trkseg>
<trkpt lat="52.2000600" lon="5.3247500"/>
<trkpt lat="52.2030200" lon="5.3246100"/>
<trkpt lat="52.2030500" lon="5.3263200"/>
<trkpt lat="52.2030500" lon="5.3291600"/>
<trkpt lat="52.2030300" lon="5.3298800"/>
<trkpt lat="52.2028200" lon="5.3307000"/>
</trkseg></trk>
</gpx>