<?xml version="1.0" encoding="UTF-8"?>
<gpx version="1.1" creator="klompenpaden.nl via Jimbo API" xmlns="http://www.topografix.com/GPX/1/1">
<metadata><name>Zoddenpad</name><desc>Ontdek het mooie buitengebied van Tienhoven en Westbroek. Wandelen over laagveen, door bos en boerenland op de grens van polderland en de Utrechtse Heuvelrug. Klompen aan, rugzak op en gaan!</desc><link href="https://www.klompenpaden.nl/klompenpaden/Zoddenpad/39e41109-fee2-40df-91e7-82478719d8ab"><text>klompenpaden.nl</text></link></metadata>
<wpt lat="52.15813776409488" lon="5.092463493347168"><name>Start Tienhoven</name></wpt>
<trk><name>Zoddenpad - Track 2</name><type>mainRoute</type><trkseg>
<trkpt lat="52.1584531" lon="5.0927668"/>
<trkpt lat="52.1581592" lon="5.0932377"/>
<trkpt lat="52.1583097" lon="5.0935189"/>
<trkpt lat="52.1603278" lon="5.0970578"/>
<trkpt lat="52.1604859" lon="5.0970297"/>
<trkpt lat="52.1606866" lon="5.0973996"/>
<trkpt lat="52.1603358" lon="5.0978814"/>
<trkpt lat="52.1618642" lon="5.1005164"/>
<trkpt lat="52.1621391" lon="5.1001125"/>
<trkpt lat="52.1642600" lon="5.1039504"/>
<trkpt lat="52.1644046" lon="5.1037445"/>
<trkpt lat="52.1646463" lon="5.1033950"/>
<trkpt lat="52.1661804" lon="5.1064713"/>
<trkpt lat="52.1665388" lon="5.1071767"/>
<trkpt lat="52.1668310" lon="5.1070473"/>
<trkpt lat="52.1670521" lon="5.1070111"/>
<trkpt lat="52.1679699" lon="5.1059843"/>
<trkpt lat="52.1674961" lon="5.1047227"/>
<trkpt lat="52.1682317" lon="5.1040490"/>
<trkpt lat="52.1684263" lon="5.1039162"/>
<trkpt lat="52.1686351" lon="5.1037215"/>
<trkpt lat="52.1688442" lon="5.1036429"/>
<trkpt lat="52.1686905" lon="5.1030173"/>
<trkpt lat="52.1686818" lon="5.1026885"/>
<trkpt lat="52.1688803" lon="5.1025256"/>
<trkpt lat="52.1688796" lon="5.1022628"/>
<trkpt lat="52.1688850" lon="5.1019192"/>
<trkpt lat="52.1692203" lon="5.1018060"/>
<trkpt lat="52.1696858" lon="5.1016110"/>
<trkpt lat="52.1697950" lon="5.1014633"/>
<trkpt lat="52.1697229" lon="5.1011775"/>
<trkpt lat="52.1696267" lon="5.1007450"/>
<trkpt lat="52.1692564" lon="5.0990534"/>
<trkpt lat="52.1689776" lon="5.0978408"/>
<trkpt lat="52.1687565" lon="5.0968831"/>
<trkpt lat="52.1686216" lon="5.0962188"/>
<trkpt lat="52.1685879" lon="5.0960334"/>
<trkpt lat="52.1681024" lon="5.0939714"/>
<trkpt lat="52.1679342" lon="5.0932531"/>
<trkpt lat="52.1685027" lon="5.0928617"/>
<trkpt lat="52.1688500" lon="5.0926467"/>
<trkpt lat="52.1690667" lon="5.0925292"/>
<trkpt lat="52.1692627" lon="5.0924699"/>
<trkpt lat="52.1696846" lon="5.0923511"/>
<trkpt lat="52.1698985" lon="5.0923062"/>
<trkpt lat="52.1702640" lon="5.0922603"/>
<trkpt lat="52.1704661" lon="5.0922444"/>
<trkpt lat="52.1707128" lon="5.0922428"/>
<trkpt lat="52.1709464" lon="5.0922561"/>
<trkpt lat="52.1711440" lon="5.0923173"/>
<trkpt lat="52.1714683" lon="5.0924167"/>
<trkpt lat="52.1716349" lon="5.0924688"/>
<trkpt lat="52.1717598" lon="5.0924824"/>
<trkpt lat="52.1718994" lon="5.0924573"/>
<trkpt lat="52.1720717" lon="5.0924127"/>
<trkpt lat="52.1721905" lon="5.0923684"/>
<trkpt lat="52.1723529" lon="5.0931167"/>
<trkpt lat="52.1726116" lon="5.0943527"/>
<trkpt lat="52.1726596" lon="5.0945313"/>
<trkpt lat="52.1727371" lon="5.0946226"/>
<trkpt lat="52.1728055" lon="5.0946173"/>
<trkpt lat="52.1730043" lon="5.0944855"/>
<trkpt lat="52.1733604" lon="5.0942366"/>
<trkpt lat="52.1739362" lon="5.0938750"/>
<trkpt lat="52.1742954" lon="5.0937034"/>
<trkpt lat="52.1751180" lon="5.0933596"/>
<trkpt lat="52.1756644" lon="5.0931384"/>
<trkpt lat="52.1760953" lon="5.0955048"/>
<trkpt lat="52.1766136" lon="5.0983541"/>
<trkpt lat="52.1773247" lon="5.1021823"/>
<trkpt lat="52.1775762" lon="5.1035176"/>
<trkpt lat="52.1780088" lon="5.1058095"/>
<trkpt lat="52.1781640" lon="5.1066858"/>
<trkpt lat="52.1784183" lon="5.1080335"/>
<trkpt lat="52.1786698" lon="5.1093889"/>
<trkpt lat="52.1788452" lon="5.1103673"/>
<trkpt lat="52.1790630" lon="5.1115512"/>
<trkpt lat="52.1792750" lon="5.1127243"/>
<trkpt lat="52.1794782" lon="5.1138309"/>
<trkpt lat="52.1796410" lon="5.1147058"/>
<trkpt lat="52.1797543" lon="5.1155778"/>
<trkpt lat="52.1799129" lon="5.1167157"/>
<trkpt lat="52.1800442" lon="5.1175551"/>
<trkpt lat="52.1801443" lon="5.1180682"/>
<trkpt lat="52.1803551" lon="5.1191393"/>
<trkpt lat="52.1805129" lon="5.1199507"/>
<trkpt lat="52.1806371" lon="5.1205906"/>
<trkpt lat="52.1807219" lon="5.1210992"/>
<trkpt lat="52.1807327" lon="5.1212322"/>
<trkpt lat="52.1807387" lon="5.1213699"/>
<trkpt lat="52.1807380" lon="5.1214782"/>
<trkpt lat="52.1807346" lon="5.1216531"/>
<trkpt lat="52.1807172" lon="5.1219828"/>
<trkpt lat="52.1806715" lon="5.1227799"/>
<trkpt lat="52.1806388" lon="5.1234997"/>
<trkpt lat="52.1805924" lon="5.1235804"/>
<trkpt lat="52.1805706" lon="5.1237933"/>
<trkpt lat="52.1804959" lon="5.1254630"/>
<trkpt lat="52.1804059" lon="5.1277701"/>
<trkpt lat="52.1803674" lon="5.1292210"/>
<trkpt lat="52.1802375" lon="5.1323455"/>
<trkpt lat="52.1801098" lon="5.1352089"/>
<trkpt lat="52.1800536" lon="5.1367324"/>
<trkpt lat="52.1799974" lon="5.1382559"/>
<trkpt lat="52.1799378" lon="5.1396005"/>
<trkpt lat="52.1798608" lon="5.1411580"/>
<trkpt lat="52.1793602" lon="5.1405563"/>
<trkpt lat="52.1789100" lon="5.1399592"/>
<trkpt lat="52.1783884" lon="5.1392755"/>
<trkpt lat="52.1776849" lon="5.1383558"/>
<trkpt lat="52.1771186" lon="5.1376192"/>
<trkpt lat="52.1767430" lon="5.1371378"/>
<trkpt lat="52.1766665" lon="5.1369434"/>
<trkpt lat="52.1758841" lon="5.1359069"/>
<trkpt lat="52.1752669" lon="5.1350891"/>
<trkpt lat="52.1747871" lon="5.1344534"/>
<trkpt lat="52.1746096" lon="5.1342184"/>
<trkpt lat="52.1743714" lon="5.1339029"/>
<trkpt lat="52.1739834" lon="5.1333888"/>
<trkpt lat="52.1738289" lon="5.1331804"/>
<trkpt lat="52.1737181" lon="5.1330131"/>
<trkpt lat="52.1736592" lon="5.1328318"/>
<trkpt lat="52.1734278" lon="5.1325204"/>
<trkpt lat="52.1725533" lon="5.1313439"/>
<trkpt lat="52.1718452" lon="5.1303936"/>
<trkpt lat="52.1712176" lon="5.1295542"/>
<trkpt lat="52.1709162" lon="5.1291513"/>
<trkpt lat="52.1703656" lon="5.1283789"/>
<trkpt lat="52.1701159" lon="5.1280159"/>
<trkpt lat="52.1699661" lon="5.1278366"/>
<trkpt lat="52.1698652" lon="5.1278141"/>
<trkpt lat="52.1698118" lon="5.1278918"/>
<trkpt lat="52.1696223" lon="5.1282991"/>
<trkpt lat="52.1695153" lon="5.1283142"/>
<trkpt lat="52.1693277" lon="5.1280598"/>
<trkpt lat="52.1686475" lon="5.1271373"/>
<trkpt lat="52.1681742" lon="5.1264952"/>
<trkpt lat="52.1680816" lon="5.1264350"/>
<trkpt lat="52.1680149" lon="5.1264892"/>
<trkpt lat="52.1679149" lon="5.1267077"/>
<trkpt lat="52.1678420" lon="5.1267939"/>
<trkpt lat="52.1677485" lon="5.1267747"/>
<trkpt lat="52.1675725" lon="5.1265229"/>
<trkpt lat="52.1674063" lon="5.1263020"/>
<trkpt lat="52.1672509" lon="5.1260955"/>
<trkpt lat="52.1671133" lon="5.1259126"/>
<trkpt lat="52.1668852" lon="5.1256095"/>
<trkpt lat="52.1666167" lon="5.1252527"/>
<trkpt lat="52.1663395" lon="5.1248842"/>
<trkpt lat="52.1658214" lon="5.1241983"/>
<trkpt lat="52.1654331" lon="5.1236849"/>
<trkpt lat="52.1651568" lon="5.1233194"/>
<trkpt lat="52.1650080" lon="5.1231226"/>
<trkpt lat="52.1645540" lon="5.1225115"/>
<trkpt lat="52.1643185" lon="5.1221912"/>
<trkpt lat="52.1641354" lon="5.1219423"/>
<trkpt lat="52.1638621" lon="5.1215707"/>
<trkpt lat="52.1635890" lon="5.1211996"/>
<trkpt lat="52.1632996" lon="5.1208092"/>
<trkpt lat="52.1631033" lon="5.1205444"/>
<trkpt lat="52.1628236" lon="5.1201671"/>
<trkpt lat="52.1625101" lon="5.1197443"/>
<trkpt lat="52.1623162" lon="5.1194551"/>
<trkpt lat="52.1622220" lon="5.1195088"/>
<trkpt lat="52.1620473" lon="5.1198144"/>
<trkpt lat="52.1619437" lon="5.1199987"/>
<trkpt lat="52.1618164" lon="5.1202701"/>
<trkpt lat="52.1617218" lon="5.1204688"/>
<trkpt lat="52.1616656" lon="5.1206093"/>
<trkpt lat="52.1616153" lon="5.1207015"/>
<trkpt lat="52.1615649" lon="5.1207598"/>
<trkpt lat="52.1614906" lon="5.1207699"/>
<trkpt lat="52.1614370" lon="5.1207460"/>
<trkpt lat="52.1612133" lon="5.1203849"/>
<trkpt lat="52.1611657" lon="5.1203610"/>
<trkpt lat="52.1611033" lon="5.1203807"/>
<trkpt lat="52.1610560" lon="5.1204630"/>
<trkpt lat="52.1610228" lon="5.1204167"/>
<trkpt lat="52.1609111" lon="5.1202646"/>
<trkpt lat="52.1608083" lon="5.1202619"/>
<trkpt lat="52.1607283" lon="5.1202560"/>
<trkpt lat="52.1606407" lon="5.1202168"/>
<trkpt lat="52.1606101" lon="5.1201401"/>
<trkpt lat="52.1605997" lon="5.1200115"/>
<trkpt lat="52.1605924" lon="5.1198651"/>
<trkpt lat="52.1605586" lon="5.1197780"/>
<trkpt lat="52.1604958" lon="5.1197515"/>
<trkpt lat="52.1603897" lon="5.1197626"/>
<trkpt lat="52.1602953" lon="5.1198510"/>
<trkpt lat="52.1601642" lon="5.1197763"/>
<trkpt lat="52.1601268" lon="5.1196973"/>
<trkpt lat="52.1600953" lon="5.1195402"/>
<trkpt lat="52.1600896" lon="5.1194587"/>
<trkpt lat="52.1600947" lon="5.1192922"/>
<trkpt lat="52.1600809" lon="5.1191770"/>
<trkpt lat="52.1600334" lon="5.1190949"/>
<trkpt lat="52.1599578" lon="5.1190740"/>
<trkpt lat="52.1599016" lon="5.1190902"/>
<trkpt lat="52.1598409" lon="5.1191345"/>
<trkpt lat="52.1597936" lon="5.1191403"/>
<trkpt lat="52.1594360" lon="5.1187746"/>
<trkpt lat="52.1593714" lon="5.1185993"/>
<trkpt lat="52.1593643" lon="5.1185361"/>
<trkpt lat="52.1593295" lon="5.1184363"/>
<trkpt lat="52.1593018" lon="5.1183316"/>
<trkpt lat="52.1592420" lon="5.1182005"/>
<trkpt lat="52.1592203" lon="5.1180039"/>
<trkpt lat="52.1591612" lon="5.1179251"/>
<trkpt lat="52.1590646" lon="5.1178212"/>
<trkpt lat="52.1590042" lon="5.1178033"/>
<trkpt lat="52.1588695" lon="5.1177842"/>
<trkpt lat="52.1588038" lon="5.1178047"/>
<trkpt lat="52.1587482" lon="5.1178189"/>
<trkpt lat="52.1586601" lon="5.1178020"/>
<trkpt lat="52.1586565" lon="5.1177087"/>
<trkpt lat="52.1586534" lon="5.1175803"/>
<trkpt lat="52.1586206" lon="5.1174815"/>
<trkpt lat="52.1585936" lon="5.1174532"/>
<trkpt lat="52.1585330" lon="5.1174057"/>
<trkpt lat="52.1584512" lon="5.1173667"/>
<trkpt lat="52.1583461" lon="5.1174154"/>
<trkpt lat="52.1583041" lon="5.1174508"/>
<trkpt lat="52.1582714" lon="5.1175252"/>
<trkpt lat="52.1581951" lon="5.1174983"/>
<trkpt lat="52.1581154" lon="5.1174851"/>
<trkpt lat="52.1578671" lon="5.1175514"/>
<trkpt lat="52.1577182" lon="5.1175975"/>
<trkpt lat="52.1576723" lon="5.1176349"/>
<trkpt lat="52.1576401" lon="5.1177113"/>
<trkpt lat="52.1564902" lon="5.1161175"/>
<trkpt lat="52.1561992" lon="5.1157249"/>
<trkpt lat="52.1558557" lon="5.1152940"/>
<trkpt lat="52.1557701" lon="5.1152945"/>
<trkpt lat="52.1556750" lon="5.1152874"/>
<trkpt lat="52.1553363" lon="5.1148641"/>
<trkpt lat="52.1559837" lon="5.1130353"/>
<trkpt lat="52.1561300" lon="5.1125318"/>
<trkpt lat="52.1564083" lon="5.1115634"/>
<trkpt lat="52.1565499" lon="5.1110909"/>
<trkpt lat="52.1568286" lon="5.1102617"/>
<trkpt lat="52.1570837" lon="5.1095333"/>
<trkpt lat="52.1573577" lon="5.1087583"/>
<trkpt lat="52.1580402" lon="5.1068968"/>
<trkpt lat="52.1584477" lon="5.1057584"/>
<trkpt lat="52.1588406" lon="5.1047265"/>
<trkpt lat="52.1594963" lon="5.1029775"/>
<trkpt lat="52.1596646" lon="5.1025173"/>
<trkpt lat="52.1596851" lon="5.1023818"/>
<trkpt lat="52.1596759" lon="5.1022465"/>
<trkpt lat="52.1596429" lon="5.1021211"/>
<trkpt lat="52.1595652" lon="5.1019669"/>
<trkpt lat="52.1594280" lon="5.1017793"/>
<trkpt lat="52.1593326" lon="5.1016446"/>
<trkpt lat="52.1591607" lon="5.1018535"/>
<trkpt lat="52.1591072" lon="5.1018683"/>
<trkpt lat="52.1590595" lon="5.1018348"/>
<trkpt lat="52.1582274" lon="5.1006657"/>
<trkpt lat="52.1576636" lon="5.0998766"/>
<trkpt lat="52.1570372" lon="5.0990011"/>
<trkpt lat="52.1562528" lon="5.0978994"/>
<trkpt lat="52.1562526" lon="5.0978510"/>
<trkpt lat="52.1563118" lon="5.0977298"/>
<trkpt lat="52.1563443" lon="5.0976668"/>
<trkpt lat="52.1563472" lon="5.0976040"/>
<trkpt lat="52.1563351" lon="5.0975557"/>
<trkpt lat="52.1561055" lon="5.0972334"/>
<trkpt lat="52.1560609" lon="5.0972240"/>
<trkpt lat="52.1560045" lon="5.0972630"/>
<trkpt lat="52.1559481" lon="5.0973214"/>
<trkpt lat="52.1558858" lon="5.0973508"/>
<trkpt lat="52.1558262" lon="5.0973125"/>
<trkpt lat="52.1548895" lon="5.0959606"/>
<trkpt lat="52.1547910" lon="5.0958066"/>
<trkpt lat="52.1547551" lon="5.0957053"/>
<trkpt lat="52.1547459" lon="5.0955846"/>
<trkpt lat="52.1547456" lon="5.0954782"/>
<trkpt lat="52.1547690" lon="5.0953186"/>
<trkpt lat="52.1548104" lon="5.0952072"/>
<trkpt lat="52.1549601" lon="5.0954237"/>
<trkpt lat="52.1557234" lon="5.0939398"/>
<trkpt lat="52.1562735" lon="5.0928246"/>
<trkpt lat="52.1565497" lon="5.0923772"/>
<trkpt lat="52.1574638" lon="5.0938868"/>
<trkpt lat="52.1580302" lon="5.0931059"/>
<trkpt lat="52.1582162" lon="5.0931434"/>
<trkpt lat="52.1584531" lon="5.0927668"/>
<trkpt lat="52.1583312" lon="5.0925394"/>
</trkseg></trk>
<trk><name>Zoddenpad - extensionRoute</name><type>extensionRoute</type><trkseg>
<trkpt lat="52.1798600" lon="5.1411500"/>
<trkpt lat="52.1797800" lon="5.1429000"/>
<trkpt lat="52.1799300" lon="5.1439800"/>
<trkpt lat="52.1798900" lon="5.1461500"/>
<trkpt lat="52.1799100" lon="5.1463200"/>
<trkpt lat="52.1799700" lon="5.1465900"/>
<trkpt lat="52.1799800" lon="5.1468600"/>
<trkpt lat="52.1799200" lon="5.1481400"/>
<trkpt lat="52.1834800" lon="5.1536000"/>
<trkpt lat="52.1853300" lon="5.1565300"/>
<trkpt lat="52.1861600" lon="5.1578000"/>
<trkpt lat="52.1883100" lon="5.1610000"/>
<trkpt lat="52.1898000" lon="5.1632600"/>
<trkpt lat="52.1895600" lon="5.1635800"/>
<trkpt lat="52.1892900" lon="5.1635800"/>
<trkpt lat="52.1891100" lon="5.1636000"/>
<trkpt lat="52.1889500" lon="5.1637100"/>
<trkpt lat="52.1887400" lon="5.1636200"/>
<trkpt lat="52.1885100" lon="5.1640600"/>
<trkpt lat="52.1883700" lon="5.1639700"/>
<trkpt lat="52.1882000" lon="5.1639000"/>
<trkpt lat="52.1881100" lon="5.1639600"/>
<trkpt lat="52.1878600" lon="5.1644100"/>
<trkpt lat="52.1876900" lon="5.1648200"/>
<trkpt lat="52.1875700" lon="5.1650700"/>
<trkpt lat="52.1874200" lon="5.1652600"/>
<trkpt lat="52.1871100" lon="5.1655000"/>
<trkpt lat="52.1869900" lon="5.1671000"/>
<trkpt lat="52.1870100" lon="5.1675500"/>
<trkpt lat="52.1868400" lon="5.1677000"/>
<trkpt lat="52.1865500" lon="5.1678700"/>
<trkpt lat="52.1858000" lon="5.1679900"/>
<trkpt lat="52.1856000" lon="5.1681000"/>
<trkpt lat="52.1854700" lon="5.1682900"/>
<trkpt lat="52.1854000" lon="5.1684700"/>
<trkpt lat="52.1852900" lon="5.1688900"/>
<trkpt lat="52.1852100" lon="5.1691200"/>
<trkpt lat="52.1851100" lon="5.1693100"/>
<trkpt lat="52.1849800" lon="5.1694500"/>
<trkpt lat="52.1843900" lon="5.1699100"/>
<trkpt lat="52.1841500" lon="5.1682000"/>
<trkpt lat="52.1840800" lon="5.1679100"/>
<trkpt lat="52.1843300" lon="5.1667900"/>
<trkpt lat="52.1844400" lon="5.1663500"/>
<trkpt lat="52.1845700" lon="5.1661400"/>
<trkpt lat="52.1841500" lon="5.1655400"/>
<trkpt lat="52.1840700" lon="5.1652200"/>
<trkpt lat="52.1838600" lon="5.1648900"/>
<trkpt lat="52.1836700" lon="5.1647900"/>
<trkpt lat="52.1835800" lon="5.1646600"/>
<trkpt lat="52.1834500" lon="5.1643600"/>
<trkpt lat="52.1833500" lon="5.1641900"/>
<trkpt lat="52.1831000" lon="5.1639600"/>
<trkpt lat="52.1829300" lon="5.1636900"/>
<trkpt lat="52.1831400" lon="5.1635600"/>
<trkpt lat="52.1833300" lon="5.1634000"/>
<trkpt lat="52.1834700" lon="5.1632000"/>
<trkpt lat="52.1863000" lon="5.1582700"/>
</trkseg></trk>
</gpx>